<?xml version="1.0" encoding="UTF-8" standalone="no" ?>
<gpx xmlns="http://www.topografix.com/GPX/1/1"
		xmlns:gpxx="http://www.garmin.com/xmlschemas/GpxExtensions/v3"
		xmlns:gpxtpx="http://www.garmin.com/xmlschemas/TrackPointExtension/v1"
		xmlns:xsi="http://www.w3.org/2001/XMLSchema-instance"
		xsi:schemaLocation="http://www.topografix.com/GPX/1/1 http://www.topografix.com/GPX/1/1/gpx.xsd http://www.garmin.com/xmlschemas/GpxExtensions/v3 http://www.garmin.com/xmlschemas/GpxExtensionsv3.xsd http://www.garmin.com/xmlschemas/TrackPointExtension/v1 http://www.garmin.com/xmlschemas/TrackPointExtensionv1.xsd"
		creator="Gravelmap.com"
		version="1.1">

	<metadata>
		<name><![CDATA[Gravel Route: Rund um den Dörnberg]]></name>
		<desc><![CDATA[]]></desc>
		<link href="http://www.gravelmap.com/route/146215">
			<text><![CDATA[Gravel Route: Rund um den Dörnberg]]></text>
		</link>
		<time>2025-01-22T02:07:28-05:00</time>
	</metadata>

	<trk>
		<name><![CDATA[Gravel Route: Rund um den Dörnberg]]></name>
		<desc><![CDATA[]]></desc>
		<link href="http://www.gravelmap.com/route/146215">
			<text><![CDATA[Gravel Route: Rund um den Dörnberg]]></text>
		</link>
		<trkseg>
			<trkpt lat="51.32098" lon="9.4379">
				<ele>204.06</ele>
			</trkpt>
			<trkpt lat="51.32119" lon="9.4378">
				<ele>204.06</ele>
			</trkpt>
			<trkpt lat="51.32151" lon="9.4378">
				<ele>204.06</ele>
			</trkpt>
			<trkpt lat="51.32157" lon="9.43621">
				<ele>206.41</ele>
			</trkpt>
			<trkpt lat="51.3216" lon="9.43469">
				<ele>206.41</ele>
			</trkpt>
			<trkpt lat="51.32166" lon="9.43315">
				<ele>206.41</ele>
			</trkpt>
			<trkpt lat="51.322" lon="9.43313">
				<ele>209.17</ele>
			</trkpt>
			<trkpt lat="51.32203" lon="9.43268">
				<ele>209.17</ele>
			</trkpt>
			<trkpt lat="51.32214" lon="9.43241">
				<ele>209.17</ele>
			</trkpt>
			<trkpt lat="51.32213" lon="9.43196">
				<ele>212.56</ele>
			</trkpt>
			<trkpt lat="51.32206" lon="9.43173">
				<ele>212.56</ele>
			</trkpt>
			<trkpt lat="51.32209" lon="9.43157">
				<ele>212.56</ele>
			</trkpt>
			<trkpt lat="51.32207" lon="9.43134">
				<ele>213.45</ele>
			</trkpt>
			<trkpt lat="51.32184" lon="9.4306">
				<ele>213.45</ele>
			</trkpt>
			<trkpt lat="51.32178" lon="9.43028">
				<ele>213.45</ele>
			</trkpt>
			<trkpt lat="51.32175" lon="9.42961">
				<ele>218.43</ele>
			</trkpt>
			<trkpt lat="51.32165" lon="9.42861">
				<ele>218.43</ele>
			</trkpt>
			<trkpt lat="51.3218" lon="9.42866">
				<ele>218.43</ele>
			</trkpt>
			<trkpt lat="51.32279" lon="9.4282">
				<ele>220.7</ele>
			</trkpt>
			<trkpt lat="51.32312" lon="9.42809">
				<ele>220.7</ele>
			</trkpt>
			<trkpt lat="51.32361" lon="9.42799">
				<ele>220.7</ele>
			</trkpt>
			<trkpt lat="51.32383" lon="9.42801">
				<ele>222.25</ele>
			</trkpt>
			<trkpt lat="51.32382" lon="9.42822">
				<ele>222.25</ele>
			</trkpt>
			<trkpt lat="51.3239" lon="9.42833">
				<ele>222.25</ele>
			</trkpt>
			<trkpt lat="51.32402" lon="9.42825">
				<ele>242.86</ele>
			</trkpt>
			<trkpt lat="51.32405" lon="9.42842">
				<ele>242.86</ele>
			</trkpt>
			<trkpt lat="51.32412" lon="9.42857">
				<ele>241.73</ele>
			</trkpt>
			<trkpt lat="51.32419" lon="9.42884">
				<ele>241.73</ele>
			</trkpt>
			<trkpt lat="51.32431" lon="9.42954">
				<ele>241.73</ele>
			</trkpt>
			<trkpt lat="51.32446" lon="9.42982">
				<ele>244.89</ele>
			</trkpt>
			<trkpt lat="51.32462" lon="9.42997">
				<ele>244.89</ele>
			</trkpt>
			<trkpt lat="51.32516" lon="9.43013">
				<ele>244.89</ele>
			</trkpt>
			<trkpt lat="51.32525" lon="9.42889">
				<ele>248.87</ele>
			</trkpt>
			<trkpt lat="51.32543" lon="9.42696">
				<ele>248.87</ele>
			</trkpt>
			<trkpt lat="51.32553" lon="9.42562">
				<ele>248.87</ele>
			</trkpt>
			<trkpt lat="51.32571" lon="9.42487">
				<ele>254.71</ele>
			</trkpt>
			<trkpt lat="51.32575" lon="9.42459">
				<ele>254.71</ele>
			</trkpt>
			<trkpt lat="51.32576" lon="9.42289">
				<ele>254.71</ele>
			</trkpt>
			<trkpt lat="51.32586" lon="9.42182">
				<ele>260.67</ele>
			</trkpt>
			<trkpt lat="51.32598" lon="9.42108">
				<ele>260.67</ele>
			</trkpt>
			<trkpt lat="51.32606" lon="9.42024">
				<ele>260.67</ele>
			</trkpt>
			<trkpt lat="51.32605" lon="9.42003">
				<ele>267.98</ele>
			</trkpt>
			<trkpt lat="51.32632" lon="9.42004">
				<ele>267.98</ele>
			</trkpt>
			<trkpt lat="51.32716" lon="9.41825">
				<ele>267.98</ele>
			</trkpt>
			<trkpt lat="51.32772" lon="9.41726">
				<ele>276.14</ele>
			</trkpt>
			<trkpt lat="51.32794" lon="9.41695">
				<ele>276.14</ele>
			</trkpt>
			<trkpt lat="51.32811" lon="9.41662">
				<ele>276.14</ele>
			</trkpt>
			<trkpt lat="51.32819" lon="9.4162">
				<ele>291.08</ele>
			</trkpt>
			<trkpt lat="51.32852" lon="9.41492">
				<ele>291.08</ele>
			</trkpt>
			<trkpt lat="51.32865" lon="9.41455">
				<ele>291.08</ele>
			</trkpt>
			<trkpt lat="51.32882" lon="9.41439">
				<ele>298.99</ele>
			</trkpt>
			<trkpt lat="51.32913" lon="9.41401">
				<ele>298.99</ele>
			</trkpt>
			<trkpt lat="51.32956" lon="9.41358">
				<ele>288.84</ele>
			</trkpt>
			<trkpt lat="51.32985" lon="9.41384">
				<ele>288.84</ele>
			</trkpt>
			<trkpt lat="51.32984" lon="9.41362">
				<ele>288.84</ele>
			</trkpt>
			<trkpt lat="51.32977" lon="9.41332">
				<ele>287.99</ele>
			</trkpt>
			<trkpt lat="51.32998" lon="9.41261">
				<ele>287.99</ele>
			</trkpt>
			<trkpt lat="51.33028" lon="9.41215">
				<ele>287.99</ele>
			</trkpt>
			<trkpt lat="51.33081" lon="9.41239">
				<ele>290.06</ele>
			</trkpt>
			<trkpt lat="51.33088" lon="9.41212">
				<ele>290.06</ele>
			</trkpt>
			<trkpt lat="51.33097" lon="9.41201">
				<ele>290.06</ele>
			</trkpt>
			<trkpt lat="51.33131" lon="9.41199">
				<ele>298.7</ele>
			</trkpt>
			<trkpt lat="51.33165" lon="9.41175">
				<ele>298.7</ele>
			</trkpt>
			<trkpt lat="51.33209" lon="9.41151">
				<ele>298.7</ele>
			</trkpt>
			<trkpt lat="51.33238" lon="9.4112">
				<ele>305.04</ele>
			</trkpt>
			<trkpt lat="51.33266" lon="9.41077">
				<ele>305.04</ele>
			</trkpt>
			<trkpt lat="51.33298" lon="9.41038">
				<ele>305.04</ele>
			</trkpt>
			<trkpt lat="51.33335" lon="9.40999">
				<ele>321.85</ele>
			</trkpt>
			<trkpt lat="51.33378" lon="9.40995">
				<ele>321.85</ele>
			</trkpt>
			<trkpt lat="51.33495" lon="9.41002">
				<ele>321.85</ele>
			</trkpt>
			<trkpt lat="51.33542" lon="9.40986">
				<ele>329.82</ele>
			</trkpt>
			<trkpt lat="51.33631" lon="9.40944">
				<ele>329.82</ele>
			</trkpt>
			<trkpt lat="51.33665" lon="9.40922">
				<ele>329.82</ele>
			</trkpt>
			<trkpt lat="51.33794" lon="9.40875">
				<ele>325.06</ele>
			</trkpt>
			<trkpt lat="51.33877" lon="9.4082">
				<ele>325.06</ele>
			</trkpt>
			<trkpt lat="51.33886" lon="9.40743">
				<ele>325.06</ele>
			</trkpt>
			<trkpt lat="51.33898" lon="9.40668">
				<ele>332.09</ele>
			</trkpt>
			<trkpt lat="51.33911" lon="9.40626">
				<ele>332.09</ele>
			</trkpt>
			<trkpt lat="51.33937" lon="9.40571">
				<ele>332.54</ele>
			</trkpt>
			<trkpt lat="51.3395" lon="9.405">
				<ele>332.54</ele>
			</trkpt>
			<trkpt lat="51.33968" lon="9.4036">
				<ele>332.54</ele>
			</trkpt>
			<trkpt lat="51.33982" lon="9.40318">
				<ele>333.98</ele>
			</trkpt>
			<trkpt lat="51.33997" lon="9.40293">
				<ele>333.98</ele>
			</trkpt>
			<trkpt lat="51.34015" lon="9.40275">
				<ele>333.98</ele>
			</trkpt>
			<trkpt lat="51.34055" lon="9.40248">
				<ele>341.65</ele>
			</trkpt>
			<trkpt lat="51.34088" lon="9.40218">
				<ele>341.65</ele>
			</trkpt>
			<trkpt lat="51.34128" lon="9.40161">
				<ele>341.65</ele>
			</trkpt>
			<trkpt lat="51.34173" lon="9.40064">
				<ele>345.11</ele>
			</trkpt>
			<trkpt lat="51.34216" lon="9.39957">
				<ele>345.11</ele>
			</trkpt>
			<trkpt lat="51.34233" lon="9.39904">
				<ele>345.11</ele>
			</trkpt>
			<trkpt lat="51.34288" lon="9.39628">
				<ele>346.81</ele>
			</trkpt>
			<trkpt lat="51.34339" lon="9.39322">
				<ele>346.81</ele>
			</trkpt>
			<trkpt lat="51.34344" lon="9.39264">
				<ele>346.81</ele>
			</trkpt>
			<trkpt lat="51.34344" lon="9.39232">
				<ele>345.5</ele>
			</trkpt>
			<trkpt lat="51.34322" lon="9.39106">
				<ele>345.5</ele>
			</trkpt>
			<trkpt lat="51.34317" lon="9.39059">
				<ele>345.5</ele>
			</trkpt>
			<trkpt lat="51.34316" lon="9.39018">
				<ele>349.68</ele>
			</trkpt>
			<trkpt lat="51.34325" lon="9.38815">
				<ele>349.68</ele>
			</trkpt>
			<trkpt lat="51.34333" lon="9.3869">
				<ele>349.68</ele>
			</trkpt>
			<trkpt lat="51.34343" lon="9.38598">
				<ele>358.03</ele>
			</trkpt>
			<trkpt lat="51.34375" lon="9.38423">
				<ele>358.03</ele>
			</trkpt>
			<trkpt lat="51.34392" lon="9.38338">
				<ele>358.03</ele>
			</trkpt>
			<trkpt lat="51.34431" lon="9.38215">
				<ele>367.7</ele>
			</trkpt>
			<trkpt lat="51.34439" lon="9.38195">
				<ele>367.7</ele>
			</trkpt>
			<trkpt lat="51.34454" lon="9.38191">
				<ele>369.83</ele>
			</trkpt>
			<trkpt lat="51.34464" lon="9.38182">
				<ele>369.83</ele>
			</trkpt>
			<trkpt lat="51.34471" lon="9.38162">
				<ele>369.83</ele>
			</trkpt>
			<trkpt lat="51.34475" lon="9.38135">
				<ele>366.79</ele>
			</trkpt>
			<trkpt lat="51.34472" lon="9.38107">
				<ele>366.79</ele>
			</trkpt>
			<trkpt lat="51.34479" lon="9.38036">
				<ele>366.79</ele>
			</trkpt>
			<trkpt lat="51.34484" lon="9.38018">
				<ele>367.25</ele>
			</trkpt>
			<trkpt lat="51.34484" lon="9.38">
				<ele>367.25</ele>
			</trkpt>
			<trkpt lat="51.3449" lon="9.37981">
				<ele>367.25</ele>
			</trkpt>
			<trkpt lat="51.34468" lon="9.37925">
				<ele>370.12</ele>
			</trkpt>
			<trkpt lat="51.34453" lon="9.37892">
				<ele>370.12</ele>
			</trkpt>
			<trkpt lat="51.34449" lon="9.37858">
				<ele>370.12</ele>
			</trkpt>
			<trkpt lat="51.34453" lon="9.37825">
				<ele>369.38</ele>
			</trkpt>
			<trkpt lat="51.34471" lon="9.37792">
				<ele>369.38</ele>
			</trkpt>
			<trkpt lat="51.34488" lon="9.37795">
				<ele>369.38</ele>
			</trkpt>
			<trkpt lat="51.34542" lon="9.37772">
				<ele>373.26</ele>
			</trkpt>
			<trkpt lat="51.34588" lon="9.37767">
				<ele>373.26</ele>
			</trkpt>
			<trkpt lat="51.34624" lon="9.37773">
				<ele>373.26</ele>
			</trkpt>
			<trkpt lat="51.34662" lon="9.37811">
				<ele>381.19</ele>
			</trkpt>
			<trkpt lat="51.34696" lon="9.37826">
				<ele>381.19</ele>
			</trkpt>
			<trkpt lat="51.34848" lon="9.3785">
				<ele>381.19</ele>
			</trkpt>
			<trkpt lat="51.34862" lon="9.37846">
				<ele>383.63</ele>
			</trkpt>
			<trkpt lat="51.34973" lon="9.3773">
				<ele>383.63</ele>
			</trkpt>
			<trkpt lat="51.35021" lon="9.37693">
				<ele>383.63</ele>
			</trkpt>
			<trkpt lat="51.35083" lon="9.37674">
				<ele>383.12</ele>
			</trkpt>
			<trkpt lat="51.351" lon="9.37673">
				<ele>383.12</ele>
			</trkpt>
			<trkpt lat="51.35119" lon="9.37678">
				<ele>379.42</ele>
			</trkpt>
			<trkpt lat="51.35163" lon="9.37714">
				<ele>379.42</ele>
			</trkpt>
			<trkpt lat="51.35198" lon="9.37754">
				<ele>379.42</ele>
			</trkpt>
			<trkpt lat="51.35206" lon="9.37747">
				<ele>374.26</ele>
			</trkpt>
			<trkpt lat="51.35188" lon="9.37721">
				<ele>374.26</ele>
			</trkpt>
			<trkpt lat="51.35163" lon="9.37694">
				<ele>374.26</ele>
			</trkpt>
			<trkpt lat="51.35161" lon="9.37665">
				<ele>370.17</ele>
			</trkpt>
			<trkpt lat="51.35113" lon="9.3748">
				<ele>370.17</ele>
			</trkpt>
			<trkpt lat="51.35037" lon="9.37283">
				<ele>370.17</ele>
			</trkpt>
			<trkpt lat="51.3503" lon="9.37255">
				<ele>364.76</ele>
			</trkpt>
			<trkpt lat="51.35026" lon="9.37211">
				<ele>364.76</ele>
			</trkpt>
			<trkpt lat="51.35015" lon="9.37168">
				<ele>364.76</ele>
			</trkpt>
			<trkpt lat="51.35005" lon="9.37136">
				<ele>340.09</ele>
			</trkpt>
			<trkpt lat="51.35006" lon="9.37119">
				<ele>340.09</ele>
			</trkpt>
			<trkpt lat="51.35" lon="9.37101">
				<ele>340.09</ele>
			</trkpt>
			<trkpt lat="51.34972" lon="9.37037">
				<ele>332.56</ele>
			</trkpt>
			<trkpt lat="51.34934" lon="9.36977">
				<ele>332.56</ele>
			</trkpt>
			<trkpt lat="51.34909" lon="9.36949">
				<ele>332.56</ele>
			</trkpt>
			<trkpt lat="51.34879" lon="9.36894">
				<ele>323.97</ele>
			</trkpt>
			<trkpt lat="51.34889" lon="9.36868">
				<ele>323.97</ele>
			</trkpt>
			<trkpt lat="51.34888" lon="9.36814">
				<ele>323.97</ele>
			</trkpt>
			<trkpt lat="51.34881" lon="9.36796">
				<ele>324.91</ele>
			</trkpt>
			<trkpt lat="51.34906" lon="9.36794">
				<ele>324.91</ele>
			</trkpt>
			<trkpt lat="51.34936" lon="9.36812">
				<ele>319.65</ele>
			</trkpt>
			<trkpt lat="51.35013" lon="9.36812">
				<ele>319.65</ele>
			</trkpt>
			<trkpt lat="51.35038" lon="9.36804">
				<ele>319.65</ele>
			</trkpt>
			<trkpt lat="51.35048" lon="9.36797">
				<ele>312.44</ele>
			</trkpt>
			<trkpt lat="51.35056" lon="9.36784">
				<ele>312.44</ele>
			</trkpt>
			<trkpt lat="51.3506" lon="9.36745">
				<ele>312.44</ele>
			</trkpt>
			<trkpt lat="51.35079" lon="9.36667">
				<ele>311.55</ele>
			</trkpt>
			<trkpt lat="51.3508" lon="9.36597">
				<ele>311.55</ele>
			</trkpt>
			<trkpt lat="51.35092" lon="9.3654">
				<ele>311.55</ele>
			</trkpt>
			<trkpt lat="51.35077" lon="9.36504">
				<ele>306.55</ele>
			</trkpt>
			<trkpt lat="51.35047" lon="9.36395">
				<ele>306.55</ele>
			</trkpt>
			<trkpt lat="51.35037" lon="9.36346">
				<ele>306.55</ele>
			</trkpt>
			<trkpt lat="51.35038" lon="9.36309">
				<ele>308.38</ele>
			</trkpt>
			<trkpt lat="51.35068" lon="9.36268">
				<ele>308.38</ele>
			</trkpt>
			<trkpt lat="51.35096" lon="9.36239">
				<ele>308.38</ele>
			</trkpt>
			<trkpt lat="51.35119" lon="9.36221">
				<ele>317.8</ele>
			</trkpt>
			<trkpt lat="51.35142" lon="9.36195">
				<ele>317.8</ele>
			</trkpt>
			<trkpt lat="51.35174" lon="9.36178">
				<ele>317.8</ele>
			</trkpt>
			<trkpt lat="51.35191" lon="9.36142">
				<ele>328.66</ele>
			</trkpt>
			<trkpt lat="51.35225" lon="9.36087">
				<ele>328.66</ele>
			</trkpt>
			<trkpt lat="51.35235" lon="9.36076">
				<ele>328.66</ele>
			</trkpt>
			<trkpt lat="51.35246" lon="9.36016">
				<ele>348.88</ele>
			</trkpt>
			<trkpt lat="51.35238" lon="9.35979">
				<ele>348.88</ele>
			</trkpt>
			<trkpt lat="51.35236" lon="9.35962">
				<ele>348.88</ele>
			</trkpt>
			<trkpt lat="51.35238" lon="9.35944">
				<ele>369.5</ele>
			</trkpt>
			<trkpt lat="51.35284" lon="9.35671">
				<ele>369.5</ele>
			</trkpt>
			<trkpt lat="51.35294" lon="9.35634">
				<ele>378.63</ele>
			</trkpt>
			<trkpt lat="51.35308" lon="9.3563">
				<ele>378.63</ele>
			</trkpt>
			<trkpt lat="51.35471" lon="9.35615">
				<ele>378.63</ele>
			</trkpt>
			<trkpt lat="51.35496" lon="9.35609">
				<ele>385.94</ele>
			</trkpt>
			<trkpt lat="51.35527" lon="9.35594">
				<ele>385.94</ele>
			</trkpt>
			<trkpt lat="51.35658" lon="9.35505">
				<ele>385.94</ele>
			</trkpt>
			<trkpt lat="51.35708" lon="9.35444">
				<ele>392.51</ele>
			</trkpt>
			<trkpt lat="51.35822" lon="9.35473">
				<ele>392.51</ele>
			</trkpt>
			<trkpt lat="51.35866" lon="9.35481">
				<ele>392.51</ele>
			</trkpt>
			<trkpt lat="51.35902" lon="9.35484">
				<ele>406.45</ele>
			</trkpt>
			<trkpt lat="51.35956" lon="9.35475">
				<ele>406.45</ele>
			</trkpt>
			<trkpt lat="51.35979" lon="9.35463">
				<ele>406.45</ele>
			</trkpt>
			<trkpt lat="51.3607" lon="9.35392">
				<ele>424.97</ele>
			</trkpt>
			<trkpt lat="51.36088" lon="9.35384">
				<ele>424.97</ele>
			</trkpt>
			<trkpt lat="51.36213" lon="9.354">
				<ele>424.97</ele>
			</trkpt>
			<trkpt lat="51.3615" lon="9.3519">
				<ele>423.88</ele>
			</trkpt>
			<trkpt lat="51.36149" lon="9.35162">
				<ele>423.88</ele>
			</trkpt>
			<trkpt lat="51.36133" lon="9.35154">
				<ele>423.88</ele>
			</trkpt>
			<trkpt lat="51.36111" lon="9.35114">
				<ele>434.78</ele>
			</trkpt>
			<trkpt lat="51.36102" lon="9.35108">
				<ele>434.78</ele>
			</trkpt>
			<trkpt lat="51.36079" lon="9.34999">
				<ele>434.78</ele>
			</trkpt>
			<trkpt lat="51.36051" lon="9.34905">
				<ele>437.82</ele>
			</trkpt>
			<trkpt lat="51.36024" lon="9.34869">
				<ele>437.82</ele>
			</trkpt>
			<trkpt lat="51.35997" lon="9.34895">
				<ele>437.82</ele>
			</trkpt>
			<trkpt lat="51.35974" lon="9.34929">
				<ele>426.76</ele>
			</trkpt>
			<trkpt lat="51.35924" lon="9.34927">
				<ele>426.76</ele>
			</trkpt>
			<trkpt lat="51.35894" lon="9.34941">
				<ele>420.53</ele>
			</trkpt>
			<trkpt lat="51.35862" lon="9.34951">
				<ele>420.53</ele>
			</trkpt>
			<trkpt lat="51.35814" lon="9.34945">
				<ele>420.53</ele>
			</trkpt>
			<trkpt lat="51.35764" lon="9.34943">
				<ele>428.41</ele>
			</trkpt>
			<trkpt lat="51.35701" lon="9.34956">
				<ele>428.41</ele>
			</trkpt>
			<trkpt lat="51.35665" lon="9.34844">
				<ele>428.41</ele>
			</trkpt>
			<trkpt lat="51.35643" lon="9.34864">
				<ele>436.93</ele>
			</trkpt>
			<trkpt lat="51.35622" lon="9.34899">
				<ele>436.93</ele>
			</trkpt>
			<trkpt lat="51.35619" lon="9.34884">
				<ele>436.93</ele>
			</trkpt>
			<trkpt lat="51.35622" lon="9.3487">
				<ele>437.39</ele>
			</trkpt>
			<trkpt lat="51.35607" lon="9.34852">
				<ele>437.39</ele>
			</trkpt>
			<trkpt lat="51.35622" lon="9.3487">
				<ele>437.39</ele>
			</trkpt>
			<trkpt lat="51.35619" lon="9.34884">
				<ele>440.86</ele>
			</trkpt>
			<trkpt lat="51.35622" lon="9.34899">
				<ele>440.86</ele>
			</trkpt>
			<trkpt lat="51.35643" lon="9.34864">
				<ele>440.86</ele>
			</trkpt>
			<trkpt lat="51.35665" lon="9.34843">
				<ele>440.53</ele>
			</trkpt>
			<trkpt lat="51.35686" lon="9.34785">
				<ele>440.53</ele>
			</trkpt>
			<trkpt lat="51.35722" lon="9.34768">
				<ele>440.53</ele>
			</trkpt>
			<trkpt lat="51.35762" lon="9.3476">
				<ele>445.25</ele>
			</trkpt>
			<trkpt lat="51.35864" lon="9.34748">
				<ele>445.25</ele>
			</trkpt>
			<trkpt lat="51.3588" lon="9.34753">
				<ele>445.25</ele>
			</trkpt>
			<trkpt lat="51.35941" lon="9.3475">
				<ele>448.45</ele>
			</trkpt>
			<trkpt lat="51.35968" lon="9.34738">
				<ele>448.45</ele>
			</trkpt>
			<trkpt lat="51.35998" lon="9.34707">
				<ele>448.45</ele>
			</trkpt>
			<trkpt lat="51.36071" lon="9.346">
				<ele>449.24</ele>
			</trkpt>
			<trkpt lat="51.36175" lon="9.34479">
				<ele>449.24</ele>
			</trkpt>
			<trkpt lat="51.36246" lon="9.34488">
				<ele>443.2</ele>
			</trkpt>
			<trkpt lat="51.36273" lon="9.34495">
				<ele>443.2</ele>
			</trkpt>
			<trkpt lat="51.36281" lon="9.34503">
				<ele>443.2</ele>
			</trkpt>
			<trkpt lat="51.36292" lon="9.34519">
				<ele>448.25</ele>
			</trkpt>
			<trkpt lat="51.36308" lon="9.34467">
				<ele>448.25</ele>
			</trkpt>
			<trkpt lat="51.36331" lon="9.34402">
				<ele>448.25</ele>
			</trkpt>
			<trkpt lat="51.36343" lon="9.34397">
				<ele>464.46</ele>
			</trkpt>
			<trkpt lat="51.36367" lon="9.3439">
				<ele>464.46</ele>
			</trkpt>
			<trkpt lat="51.36392" lon="9.34373">
				<ele>464.46</ele>
			</trkpt>
			<trkpt lat="51.36396" lon="9.34328">
				<ele>474.18</ele>
			</trkpt>
			<trkpt lat="51.364" lon="9.34298">
				<ele>474.18</ele>
			</trkpt>
			<trkpt lat="51.36406" lon="9.34279">
				<ele>474.18</ele>
			</trkpt>
			<trkpt lat="51.36473" lon="9.34141">
				<ele>478.93</ele>
			</trkpt>
			<trkpt lat="51.36502" lon="9.34095">
				<ele>478.93</ele>
			</trkpt>
			<trkpt lat="51.36535" lon="9.34056">
				<ele>478.93</ele>
			</trkpt>
			<trkpt lat="51.3655" lon="9.34042">
				<ele>489.85</ele>
			</trkpt>
			<trkpt lat="51.36731" lon="9.33945">
				<ele>489.85</ele>
			</trkpt>
			<trkpt lat="51.3674" lon="9.33971">
				<ele>489.85</ele>
			</trkpt>
			<trkpt lat="51.36757" lon="9.3397">
				<ele>496.55</ele>
			</trkpt>
			<trkpt lat="51.36864" lon="9.33904">
				<ele>496.55</ele>
			</trkpt>
			<trkpt lat="51.36877" lon="9.33885">
				<ele>496.55</ele>
			</trkpt>
			<trkpt lat="51.36897" lon="9.33881">
				<ele>506.01</ele>
			</trkpt>
			<trkpt lat="51.36912" lon="9.33913">
				<ele>506.01</ele>
			</trkpt>
			<trkpt lat="51.36924" lon="9.33893">
				<ele>506.01</ele>
			</trkpt>
			<trkpt lat="51.3697" lon="9.33843">
				<ele>510.59</ele>
			</trkpt>
			<trkpt lat="51.3699" lon="9.33807">
				<ele>510.59</ele>
			</trkpt>
			<trkpt lat="51.3702" lon="9.33734">
				<ele>492.51</ele>
			</trkpt>
			<trkpt lat="51.37031" lon="9.33725">
				<ele>492.51</ele>
			</trkpt>
			<trkpt lat="51.37113" lon="9.33591">
				<ele>492.51</ele>
			</trkpt>
			<trkpt lat="51.37122" lon="9.33584">
				<ele>479.52</ele>
			</trkpt>
			<trkpt lat="51.3714" lon="9.33549">
				<ele>479.52</ele>
			</trkpt>
			<trkpt lat="51.37152" lon="9.3354">
				<ele>479.52</ele>
			</trkpt>
			<trkpt lat="51.37299" lon="9.33315">
				<ele>466.69</ele>
			</trkpt>
			<trkpt lat="51.37291" lon="9.33294">
				<ele>466.69</ele>
			</trkpt>
			<trkpt lat="51.37299" lon="9.33281">
				<ele>466.69</ele>
			</trkpt>
			<trkpt lat="51.3728" lon="9.33267">
				<ele>458.4</ele>
			</trkpt>
			<trkpt lat="51.3726" lon="9.33262">
				<ele>458.4</ele>
			</trkpt>
			<trkpt lat="51.37251" lon="9.33254">
				<ele>458.4</ele>
			</trkpt>
			<trkpt lat="51.37234" lon="9.33227">
				<ele>450.15</ele>
			</trkpt>
			<trkpt lat="51.37177" lon="9.33171">
				<ele>450.15</ele>
			</trkpt>
			<trkpt lat="51.37151" lon="9.33119">
				<ele>450.15</ele>
			</trkpt>
			<trkpt lat="51.37111" lon="9.33075">
				<ele>442.3</ele>
			</trkpt>
			<trkpt lat="51.37097" lon="9.33057">
				<ele>442.3</ele>
			</trkpt>
			<trkpt lat="51.37073" lon="9.33063">
				<ele>442.3</ele>
			</trkpt>
			<trkpt lat="51.3706" lon="9.33082">
				<ele>444.12</ele>
			</trkpt>
			<trkpt lat="51.37036" lon="9.33082">
				<ele>444.12</ele>
			</trkpt>
			<trkpt lat="51.37025" lon="9.33067">
				<ele>444.12</ele>
			</trkpt>
			<trkpt lat="51.3703" lon="9.33031">
				<ele>434.46</ele>
			</trkpt>
			<trkpt lat="51.36995" lon="9.3295">
				<ele>434.46</ele>
			</trkpt>
			<trkpt lat="51.36915" lon="9.32937">
				<ele>434.46</ele>
			</trkpt>
			<trkpt lat="51.36913" lon="9.32916">
				<ele>426.56</ele>
			</trkpt>
			<trkpt lat="51.36918" lon="9.32903">
				<ele>426.56</ele>
			</trkpt>
			<trkpt lat="51.3694" lon="9.32888">
				<ele>418.69</ele>
			</trkpt>
			<trkpt lat="51.36949" lon="9.32837">
				<ele>418.69</ele>
			</trkpt>
			<trkpt lat="51.36946" lon="9.32817">
				<ele>418.69</ele>
			</trkpt>
			<trkpt lat="51.36932" lon="9.3279">
				<ele>415</ele>
			</trkpt>
			<trkpt lat="51.36908" lon="9.32772">
				<ele>415</ele>
			</trkpt>
			<trkpt lat="51.36895" lon="9.32748">
				<ele>415</ele>
			</trkpt>
			<trkpt lat="51.36862" lon="9.32717">
				<ele>413.93</ele>
			</trkpt>
			<trkpt lat="51.3685" lon="9.32715">
				<ele>413.93</ele>
			</trkpt>
			<trkpt lat="51.36818" lon="9.32755">
				<ele>413.93</ele>
			</trkpt>
			<trkpt lat="51.36804" lon="9.32789">
				<ele>410.74</ele>
			</trkpt>
			<trkpt lat="51.36789" lon="9.32851">
				<ele>410.74</ele>
			</trkpt>
			<trkpt lat="51.3678" lon="9.32864">
				<ele>410.74</ele>
			</trkpt>
			<trkpt lat="51.36763" lon="9.32858">
				<ele>406.57</ele>
			</trkpt>
			<trkpt lat="51.36743" lon="9.32832">
				<ele>406.57</ele>
			</trkpt>
			<trkpt lat="51.36719" lon="9.32835">
				<ele>406.57</ele>
			</trkpt>
			<trkpt lat="51.36707" lon="9.32828">
				<ele>401.17</ele>
			</trkpt>
			<trkpt lat="51.36697" lon="9.32799">
				<ele>401.17</ele>
			</trkpt>
			<trkpt lat="51.36661" lon="9.32798">
				<ele>401.17</ele>
			</trkpt>
			<trkpt lat="51.36653" lon="9.32792">
				<ele>397.8</ele>
			</trkpt>
			<trkpt lat="51.36632" lon="9.32759">
				<ele>397.8</ele>
			</trkpt>
			<trkpt lat="51.36619" lon="9.32709">
				<ele>397.8</ele>
			</trkpt>
			<trkpt lat="51.36602" lon="9.32672">
				<ele>393.16</ele>
			</trkpt>
			<trkpt lat="51.36589" lon="9.32664">
				<ele>393.16</ele>
			</trkpt>
			<trkpt lat="51.36553" lon="9.32655">
				<ele>389.33</ele>
			</trkpt>
			<trkpt lat="51.36549" lon="9.32633">
				<ele>389.33</ele>
			</trkpt>
			<trkpt lat="51.36572" lon="9.32594">
				<ele>389.33</ele>
			</trkpt>
			<trkpt lat="51.36583" lon="9.32569">
				<ele>380.58</ele>
			</trkpt>
			<trkpt lat="51.36584" lon="9.32534">
				<ele>380.58</ele>
			</trkpt>
			<trkpt lat="51.36577" lon="9.32515">
				<ele>380.58</ele>
			</trkpt>
			<trkpt lat="51.36557" lon="9.32492">
				<ele>378.46</ele>
			</trkpt>
			<trkpt lat="51.36511" lon="9.32464">
				<ele>378.46</ele>
			</trkpt>
			<trkpt lat="51.3648" lon="9.32473">
				<ele>378.46</ele>
			</trkpt>
			<trkpt lat="51.36467" lon="9.325">
				<ele>384.11</ele>
			</trkpt>
			<trkpt lat="51.36452" lon="9.3251">
				<ele>384.11</ele>
			</trkpt>
			<trkpt lat="51.36434" lon="9.3251">
				<ele>384.11</ele>
			</trkpt>
			<trkpt lat="51.36402" lon="9.32579">
				<ele>389.69</ele>
			</trkpt>
			<trkpt lat="51.3639" lon="9.32597">
				<ele>389.69</ele>
			</trkpt>
			<trkpt lat="51.36355" lon="9.32636">
				<ele>389.69</ele>
			</trkpt>
			<trkpt lat="51.36346" lon="9.32671">
				<ele>398.17</ele>
			</trkpt>
			<trkpt lat="51.36335" lon="9.32696">
				<ele>398.17</ele>
			</trkpt>
			<trkpt lat="51.36322" lon="9.32709">
				<ele>398.17</ele>
			</trkpt>
			<trkpt lat="51.36299" lon="9.32717">
				<ele>399.48</ele>
			</trkpt>
			<trkpt lat="51.36289" lon="9.32725">
				<ele>399.48</ele>
			</trkpt>
			<trkpt lat="51.36284" lon="9.32742">
				<ele>399.48</ele>
			</trkpt>
			<trkpt lat="51.36308" lon="9.3282">
				<ele>391.74</ele>
			</trkpt>
			<trkpt lat="51.36311" lon="9.32841">
				<ele>391.74</ele>
			</trkpt>
			<trkpt lat="51.36305" lon="9.32861">
				<ele>391.74</ele>
			</trkpt>
			<trkpt lat="51.36293" lon="9.32876">
				<ele>388.72</ele>
			</trkpt>
			<trkpt lat="51.36258" lon="9.32899">
				<ele>388.72</ele>
			</trkpt>
			<trkpt lat="51.36231" lon="9.32928">
				<ele>400.86</ele>
			</trkpt>
			<trkpt lat="51.36242" lon="9.32982">
				<ele>400.86</ele>
			</trkpt>
			<trkpt lat="51.36243" lon="9.33007">
				<ele>400.86</ele>
			</trkpt>
			<trkpt lat="51.36236" lon="9.33025">
				<ele>404.67</ele>
			</trkpt>
			<trkpt lat="51.36218" lon="9.3304">
				<ele>404.67</ele>
			</trkpt>
			<trkpt lat="51.36209" lon="9.33072">
				<ele>404.67</ele>
			</trkpt>
			<trkpt lat="51.36206" lon="9.33105">
				<ele>404.62</ele>
			</trkpt>
			<trkpt lat="51.36207" lon="9.33133">
				<ele>404.62</ele>
			</trkpt>
			<trkpt lat="51.36213" lon="9.33157">
				<ele>404.62</ele>
			</trkpt>
			<trkpt lat="51.36202" lon="9.33189">
				<ele>400.64</ele>
			</trkpt>
			<trkpt lat="51.3619" lon="9.33195">
				<ele>400.64</ele>
			</trkpt>
			<trkpt lat="51.36161" lon="9.33177">
				<ele>400.64</ele>
			</trkpt>
			<trkpt lat="51.36154" lon="9.33189">
				<ele>396.9</ele>
			</trkpt>
			<trkpt lat="51.36159" lon="9.33203">
				<ele>396.9</ele>
			</trkpt>
			<trkpt lat="51.3616" lon="9.33236">
				<ele>396.9</ele>
			</trkpt>
			<trkpt lat="51.36156" lon="9.3328">
				<ele>402.1</ele>
			</trkpt>
			<trkpt lat="51.36156" lon="9.33316">
				<ele>402.1</ele>
			</trkpt>
			<trkpt lat="51.36161" lon="9.3333">
				<ele>402.1</ele>
			</trkpt>
			<trkpt lat="51.36169" lon="9.3337">
				<ele>405.63</ele>
			</trkpt>
			<trkpt lat="51.36174" lon="9.334">
				<ele>405.63</ele>
			</trkpt>
			<trkpt lat="51.36176" lon="9.33417">
				<ele>405.63</ele>
			</trkpt>
			<trkpt lat="51.36186" lon="9.33443">
				<ele>411.54</ele>
			</trkpt>
			<trkpt lat="51.36195" lon="9.33459">
				<ele>411.54</ele>
			</trkpt>
			<trkpt lat="51.36211" lon="9.33479">
				<ele>411.54</ele>
			</trkpt>
			<trkpt lat="51.36244" lon="9.33563">
				<ele>402.22</ele>
			</trkpt>
			<trkpt lat="51.36262" lon="9.33613">
				<ele>402.22</ele>
			</trkpt>
			<trkpt lat="51.36265" lon="9.33653">
				<ele>407.93</ele>
			</trkpt>
			<trkpt lat="51.36246" lon="9.33611">
				<ele>407.93</ele>
			</trkpt>
			<trkpt lat="51.36233" lon="9.33594">
				<ele>407.93</ele>
			</trkpt>
			<trkpt lat="51.36222" lon="9.33586">
				<ele>401.64</ele>
			</trkpt>
			<trkpt lat="51.36217" lon="9.33622">
				<ele>401.64</ele>
			</trkpt>
			<trkpt lat="51.36175" lon="9.3359">
				<ele>401.64</ele>
			</trkpt>
			<trkpt lat="51.3617" lon="9.33604">
				<ele>407</ele>
			</trkpt>
			<trkpt lat="51.36149" lon="9.33599">
				<ele>407</ele>
			</trkpt>
			<trkpt lat="51.36129" lon="9.33583">
				<ele>407</ele>
			</trkpt>
			<trkpt lat="51.36108" lon="9.33554">
				<ele>409.65</ele>
			</trkpt>
			<trkpt lat="51.36045" lon="9.33489">
				<ele>409.65</ele>
			</trkpt>
			<trkpt lat="51.36002" lon="9.33435">
				<ele>409.65</ele>
			</trkpt>
			<trkpt lat="51.35991" lon="9.3339">
				<ele>404.08</ele>
			</trkpt>
			<trkpt lat="51.35977" lon="9.33323">
				<ele>404.08</ele>
			</trkpt>
			<trkpt lat="51.3596" lon="9.33276">
				<ele>404.08</ele>
			</trkpt>
			<trkpt lat="51.3595" lon="9.33291">
				<ele>387.44</ele>
			</trkpt>
			<trkpt lat="51.35931" lon="9.33297">
				<ele>387.44</ele>
			</trkpt>
			<trkpt lat="51.35899" lon="9.33295">
				<ele>387.44</ele>
			</trkpt>
			<trkpt lat="51.35836" lon="9.333">
				<ele>370.29</ele>
			</trkpt>
			<trkpt lat="51.35834" lon="9.3334">
				<ele>370.29</ele>
			</trkpt>
			<trkpt lat="51.3581" lon="9.33475">
				<ele>370.29</ele>
			</trkpt>
			<trkpt lat="51.35771" lon="9.33627">
				<ele>355.86</ele>
			</trkpt>
			<trkpt lat="51.35759" lon="9.33657">
				<ele>355.86</ele>
			</trkpt>
			<trkpt lat="51.35747" lon="9.33618">
				<ele>355.86</ele>
			</trkpt>
			<trkpt lat="51.35735" lon="9.3353">
				<ele>351.35</ele>
			</trkpt>
			<trkpt lat="51.35727" lon="9.33504">
				<ele>351.35</ele>
			</trkpt>
			<trkpt lat="51.35711" lon="9.33491">
				<ele>364.27</ele>
			</trkpt>
			<trkpt lat="51.35644" lon="9.33458">
				<ele>364.27</ele>
			</trkpt>
			<trkpt lat="51.35639" lon="9.33557">
				<ele>364.27</ele>
			</trkpt>
			<trkpt lat="51.35649" lon="9.33632">
				<ele>381.41</ele>
			</trkpt>
			<trkpt lat="51.35645" lon="9.33657">
				<ele>381.41</ele>
			</trkpt>
			<trkpt lat="51.35636" lon="9.33678">
				<ele>381.41</ele>
			</trkpt>
			<trkpt lat="51.35598" lon="9.33745">
				<ele>386.56</ele>
			</trkpt>
			<trkpt lat="51.35529" lon="9.33747">
				<ele>386.56</ele>
			</trkpt>
			<trkpt lat="51.35474" lon="9.33731">
				<ele>386.56</ele>
			</trkpt>
			<trkpt lat="51.35367" lon="9.33716">
				<ele>399.67</ele>
			</trkpt>
			<trkpt lat="51.35284" lon="9.33694">
				<ele>399.67</ele>
			</trkpt>
			<trkpt lat="51.35238" lon="9.3369">
				<ele>399.67</ele>
			</trkpt>
			<trkpt lat="51.35222" lon="9.33695">
				<ele>414.33</ele>
			</trkpt>
			<trkpt lat="51.35219" lon="9.3372">
				<ele>414.33</ele>
			</trkpt>
			<trkpt lat="51.35216" lon="9.33803">
				<ele>414.33</ele>
			</trkpt>
			<trkpt lat="51.35217" lon="9.33881">
				<ele>427.51</ele>
			</trkpt>
			<trkpt lat="51.35207" lon="9.33944">
				<ele>427.51</ele>
			</trkpt>
			<trkpt lat="51.35201" lon="9.34016">
				<ele>427.51</ele>
			</trkpt>
			<trkpt lat="51.35185" lon="9.34053">
				<ele>436.52</ele>
			</trkpt>
			<trkpt lat="51.35172" lon="9.34072">
				<ele>436.52</ele>
			</trkpt>
			<trkpt lat="51.35167" lon="9.34108">
				<ele>436.52</ele>
			</trkpt>
			<trkpt lat="51.35154" lon="9.34155">
				<ele>441.38</ele>
			</trkpt>
			<trkpt lat="51.35124" lon="9.34304">
				<ele>441.38</ele>
			</trkpt>
			<trkpt lat="51.35107" lon="9.34334">
				<ele>441.38</ele>
			</trkpt>
			<trkpt lat="51.35081" lon="9.34361">
				<ele>450.86</ele>
			</trkpt>
			<trkpt lat="51.35075" lon="9.34378">
				<ele>450.86</ele>
			</trkpt>
			<trkpt lat="51.35087" lon="9.3439">
				<ele>464.52</ele>
			</trkpt>
			<trkpt lat="51.35113" lon="9.3439">
				<ele>464.52</ele>
			</trkpt>
			<trkpt lat="51.35148" lon="9.34367">
				<ele>464.52</ele>
			</trkpt>
			<trkpt lat="51.35163" lon="9.3435">
				<ele>480.26</ele>
			</trkpt>
			<trkpt lat="51.35177" lon="9.34313">
				<ele>480.26</ele>
			</trkpt>
			<trkpt lat="51.35191" lon="9.3426">
				<ele>480.26</ele>
			</trkpt>
			<trkpt lat="51.35204" lon="9.34226">
				<ele>491.84</ele>
			</trkpt>
			<trkpt lat="51.35188" lon="9.34294">
				<ele>491.84</ele>
			</trkpt>
			<trkpt lat="51.35204" lon="9.34227">
				<ele>491.84</ele>
			</trkpt>
			<trkpt lat="51.35191" lon="9.34259">
				<ele>494.09</ele>
			</trkpt>
			<trkpt lat="51.35177" lon="9.34312">
				<ele>494.09</ele>
			</trkpt>
			<trkpt lat="51.35163" lon="9.3435">
				<ele>494.09</ele>
			</trkpt>
			<trkpt lat="51.35148" lon="9.34367">
				<ele>518.16</ele>
			</trkpt>
			<trkpt lat="51.35113" lon="9.3439">
				<ele>518.16</ele>
			</trkpt>
			<trkpt lat="51.35087" lon="9.3439">
				<ele>518.16</ele>
			</trkpt>
			<trkpt lat="51.35077" lon="9.34386">
				<ele>513.88</ele>
			</trkpt>
			<trkpt lat="51.35081" lon="9.34361">
				<ele>513.88</ele>
			</trkpt>
			<trkpt lat="51.35107" lon="9.34334">
				<ele>513.88</ele>
			</trkpt>
			<trkpt lat="51.35124" lon="9.34305">
				<ele>504.47</ele>
			</trkpt>
			<trkpt lat="51.35154" lon="9.34156">
				<ele>504.47</ele>
			</trkpt>
			<trkpt lat="51.35167" lon="9.34108">
				<ele>504.47</ele>
			</trkpt>
			<trkpt lat="51.35172" lon="9.34072">
				<ele>498.57</ele>
			</trkpt>
			<trkpt lat="51.35141" lon="9.34117">
				<ele>498.57</ele>
			</trkpt>
			<trkpt lat="51.3513" lon="9.34144">
				<ele>498.57</ele>
			</trkpt>
			<trkpt lat="51.35118" lon="9.34198">
				<ele>489.05</ele>
			</trkpt>
			<trkpt lat="51.35106" lon="9.34238">
				<ele>489.05</ele>
			</trkpt>
			<trkpt lat="51.35096" lon="9.3426">
				<ele>484.69</ele>
			</trkpt>
			<trkpt lat="51.35085" lon="9.34271">
				<ele>484.69</ele>
			</trkpt>
			<trkpt lat="51.35071" lon="9.34281">
				<ele>484.69</ele>
			</trkpt>
			<trkpt lat="51.34975" lon="9.34306">
				<ele>479.63</ele>
			</trkpt>
			<trkpt lat="51.34929" lon="9.34326">
				<ele>479.63</ele>
			</trkpt>
			<trkpt lat="51.34907" lon="9.34348">
				<ele>479.63</ele>
			</trkpt>
			<trkpt lat="51.34898" lon="9.34374">
				<ele>466.09</ele>
			</trkpt>
			<trkpt lat="51.34897" lon="9.34391">
				<ele>466.09</ele>
			</trkpt>
			<trkpt lat="51.34899" lon="9.34416">
				<ele>466.09</ele>
			</trkpt>
			<trkpt lat="51.34905" lon="9.34433">
				<ele>453.08</ele>
			</trkpt>
			<trkpt lat="51.34962" lon="9.3453">
				<ele>453.08</ele>
			</trkpt>
			<trkpt lat="51.34971" lon="9.34551">
				<ele>453.08</ele>
			</trkpt>
			<trkpt lat="51.3499" lon="9.3462">
				<ele>465.69</ele>
			</trkpt>
			<trkpt lat="51.34993" lon="9.34662">
				<ele>465.69</ele>
			</trkpt>
			<trkpt lat="51.34988" lon="9.34696">
				<ele>465.69</ele>
			</trkpt>
			<trkpt lat="51.34977" lon="9.34738">
				<ele>466.55</ele>
			</trkpt>
			<trkpt lat="51.34975" lon="9.3478">
				<ele>466.55</ele>
			</trkpt>
			<trkpt lat="51.3498" lon="9.34827">
				<ele>466.55</ele>
			</trkpt>
			<trkpt lat="51.34981" lon="9.34893">
				<ele>465.84</ele>
			</trkpt>
			<trkpt lat="51.34985" lon="9.34941">
				<ele>465.84</ele>
			</trkpt>
			<trkpt lat="51.34999" lon="9.35022">
				<ele>465.84</ele>
			</trkpt>
			<trkpt lat="51.35015" lon="9.35086">
				<ele>466.41</ele>
			</trkpt>
			<trkpt lat="51.35069" lon="9.35195">
				<ele>466.41</ele>
			</trkpt>
			<trkpt lat="51.35095" lon="9.35256">
				<ele>462.98</ele>
			</trkpt>
			<trkpt lat="51.35117" lon="9.35293">
				<ele>462.98</ele>
			</trkpt>
			<trkpt lat="51.35161" lon="9.35337">
				<ele>462.98</ele>
			</trkpt>
			<trkpt lat="51.35221" lon="9.35381">
				<ele>462.21</ele>
			</trkpt>
			<trkpt lat="51.35247" lon="9.3539">
				<ele>462.21</ele>
			</trkpt>
			<trkpt lat="51.35296" lon="9.35429">
				<ele>462.21</ele>
			</trkpt>
			<trkpt lat="51.35323" lon="9.35463">
				<ele>461.37</ele>
			</trkpt>
			<trkpt lat="51.35329" lon="9.35479">
				<ele>461.37</ele>
			</trkpt>
			<trkpt lat="51.35313" lon="9.35569">
				<ele>461.37</ele>
			</trkpt>
			<trkpt lat="51.35308" lon="9.35629">
				<ele>448.17</ele>
			</trkpt>
			<trkpt lat="51.35294" lon="9.35634">
				<ele>448.17</ele>
			</trkpt>
			<trkpt lat="51.35274" lon="9.35635">
				<ele>448.17</ele>
			</trkpt>
			<trkpt lat="51.35252" lon="9.35629">
				<ele>430.79</ele>
			</trkpt>
			<trkpt lat="51.35157" lon="9.35567">
				<ele>430.79</ele>
			</trkpt>
			<trkpt lat="51.35139" lon="9.35565">
				<ele>430.79</ele>
			</trkpt>
			<trkpt lat="51.35118" lon="9.35575">
				<ele>425.8</ele>
			</trkpt>
			<trkpt lat="51.35071" lon="9.35637">
				<ele>425.8</ele>
			</trkpt>
			<trkpt lat="51.35047" lon="9.35644">
				<ele>425.8</ele>
			</trkpt>
			<trkpt lat="51.34977" lon="9.35638">
				<ele>418.93</ele>
			</trkpt>
			<trkpt lat="51.34961" lon="9.35644">
				<ele>418.93</ele>
			</trkpt>
			<trkpt lat="51.34906" lon="9.35745">
				<ele>418.93</ele>
			</trkpt>
			<trkpt lat="51.34932" lon="9.35917">
				<ele>408.43</ele>
			</trkpt>
			<trkpt lat="51.34929" lon="9.35932">
				<ele>408.43</ele>
			</trkpt>
			<trkpt lat="51.34807" lon="9.35955">
				<ele>408.43</ele>
			</trkpt>
			<trkpt lat="51.34804" lon="9.35988">
				<ele>397.25</ele>
			</trkpt>
			<trkpt lat="51.3479" lon="9.36054">
				<ele>397.25</ele>
			</trkpt>
			<trkpt lat="51.34796" lon="9.36104">
				<ele>389.48</ele>
			</trkpt>
			<trkpt lat="51.34852" lon="9.36445">
				<ele>389.48</ele>
			</trkpt>
			<trkpt lat="51.34575" lon="9.36494">
				<ele>389.48</ele>
			</trkpt>
			<trkpt lat="51.34522" lon="9.36499">
				<ele>390.19</ele>
			</trkpt>
			<trkpt lat="51.34509" lon="9.36525">
				<ele>390.19</ele>
			</trkpt>
			<trkpt lat="51.34485" lon="9.36785">
				<ele>390.19</ele>
			</trkpt>
			<trkpt lat="51.34416" lon="9.36763">
				<ele>396.25</ele>
			</trkpt>
			<trkpt lat="51.344" lon="9.36753">
				<ele>396.25</ele>
			</trkpt>
			<trkpt lat="51.34405" lon="9.36679">
				<ele>396.25</ele>
			</trkpt>
			<trkpt lat="51.34407" lon="9.36632">
				<ele>407.79</ele>
			</trkpt>
			<trkpt lat="51.34406" lon="9.36599">
				<ele>407.79</ele>
			</trkpt>
			<trkpt lat="51.34394" lon="9.36569">
				<ele>407.79</ele>
			</trkpt>
			<trkpt lat="51.34387" lon="9.36499">
				<ele>410.13</ele>
			</trkpt>
			<trkpt lat="51.3438" lon="9.36542">
				<ele>410.13</ele>
			</trkpt>
			<trkpt lat="51.34269" lon="9.36927">
				<ele>410.13</ele>
			</trkpt>
			<trkpt lat="51.34105" lon="9.36969">
				<ele>404.64</ele>
			</trkpt>
			<trkpt lat="51.34033" lon="9.36976">
				<ele>404.64</ele>
			</trkpt>
			<trkpt lat="51.34032" lon="9.37144">
				<ele>404.64</ele>
			</trkpt>
			<trkpt lat="51.33997" lon="9.37142">
				<ele>394.35</ele>
			</trkpt>
			<trkpt lat="51.33949" lon="9.37132">
				<ele>394.35</ele>
			</trkpt>
			<trkpt lat="51.33864" lon="9.37119">
				<ele>394.35</ele>
			</trkpt>
			<trkpt lat="51.33845" lon="9.3712">
				<ele>391.06</ele>
			</trkpt>
			<trkpt lat="51.33715" lon="9.37189">
				<ele>391.06</ele>
			</trkpt>
			<trkpt lat="51.33658" lon="9.37268">
				<ele>391.06</ele>
			</trkpt>
			<trkpt lat="51.33629" lon="9.37304">
				<ele>381.63</ele>
			</trkpt>
			<trkpt lat="51.33579" lon="9.37326">
				<ele>381.63</ele>
			</trkpt>
			<trkpt lat="51.33518" lon="9.37337">
				<ele>378.54</ele>
			</trkpt>
			<trkpt lat="51.3344" lon="9.37359">
				<ele>378.54</ele>
			</trkpt>
			<trkpt lat="51.33398" lon="9.37376">
				<ele>378.54</ele>
			</trkpt>
			<trkpt lat="51.3337" lon="9.37397">
				<ele>382.51</ele>
			</trkpt>
			<trkpt lat="51.33379" lon="9.37405">
				<ele>382.51</ele>
			</trkpt>
			<trkpt lat="51.33386" lon="9.37422">
				<ele>382.51</ele>
			</trkpt>
			<trkpt lat="51.3339" lon="9.37452">
				<ele>388.92</ele>
			</trkpt>
			<trkpt lat="51.33393" lon="9.37507">
				<ele>388.92</ele>
			</trkpt>
			<trkpt lat="51.33388" lon="9.37558">
				<ele>388.92</ele>
			</trkpt>
			<trkpt lat="51.334" lon="9.37548">
				<ele>396.83</ele>
			</trkpt>
			<trkpt lat="51.33415" lon="9.37549">
				<ele>396.83</ele>
			</trkpt>
			<trkpt lat="51.33434" lon="9.3752">
				<ele>396.83</ele>
			</trkpt>
			<trkpt lat="51.33437" lon="9.37499">
				<ele>400.99</ele>
			</trkpt>
			<trkpt lat="51.33447" lon="9.37491">
				<ele>400.99</ele>
			</trkpt>
			<trkpt lat="51.33454" lon="9.37481">
				<ele>400.99</ele>
			</trkpt>
			<trkpt lat="51.33464" lon="9.37475">
				<ele>403.89</ele>
			</trkpt>
			<trkpt lat="51.33473" lon="9.37457">
				<ele>403.89</ele>
			</trkpt>
			<trkpt lat="51.33485" lon="9.37453">
				<ele>403.89</ele>
			</trkpt>
			<trkpt lat="51.33473" lon="9.37457">
				<ele>409.51</ele>
			</trkpt>
			<trkpt lat="51.33464" lon="9.37475">
				<ele>409.51</ele>
			</trkpt>
			<trkpt lat="51.33454" lon="9.37481">
				<ele>409.51</ele>
			</trkpt>
			<trkpt lat="51.33447" lon="9.37491">
				<ele>415.62</ele>
			</trkpt>
			<trkpt lat="51.33437" lon="9.37499">
				<ele>415.62</ele>
			</trkpt>
			<trkpt lat="51.33434" lon="9.3752">
				<ele>415.62</ele>
			</trkpt>
			<trkpt lat="51.33415" lon="9.37549">
				<ele>424.76</ele>
			</trkpt>
			<trkpt lat="51.334" lon="9.37548">
				<ele>424.76</ele>
			</trkpt>
			<trkpt lat="51.33383" lon="9.37566">
				<ele>429.9</ele>
			</trkpt>
			<trkpt lat="51.33372" lon="9.37595">
				<ele>429.9</ele>
			</trkpt>
			<trkpt lat="51.3337" lon="9.37617">
				<ele>429.9</ele>
			</trkpt>
			<trkpt lat="51.33376" lon="9.37639">
				<ele>435.2</ele>
			</trkpt>
			<trkpt lat="51.33385" lon="9.37645">
				<ele>435.2</ele>
			</trkpt>
			<trkpt lat="51.33438" lon="9.37653">
				<ele>435.2</ele>
			</trkpt>
			<trkpt lat="51.3347" lon="9.37653">
				<ele>442.68</ele>
			</trkpt>
			<trkpt lat="51.33489" lon="9.37665">
				<ele>442.68</ele>
			</trkpt>
			<trkpt lat="51.3351" lon="9.37672">
				<ele>442.68</ele>
			</trkpt>
			<trkpt lat="51.33523" lon="9.37666">
				<ele>444.12</ele>
			</trkpt>
			<trkpt lat="51.33537" lon="9.37664">
				<ele>444.12</ele>
			</trkpt>
			<trkpt lat="51.33546" lon="9.37667">
				<ele>444.12</ele>
			</trkpt>
			<trkpt lat="51.33552" lon="9.37654">
				<ele>441.31</ele>
			</trkpt>
			<trkpt lat="51.3357" lon="9.37623">
				<ele>441.31</ele>
			</trkpt>
			<trkpt lat="51.33552" lon="9.37654">
				<ele>441.31</ele>
			</trkpt>
			<trkpt lat="51.33546" lon="9.37667">
				<ele>451.67</ele>
			</trkpt>
			<trkpt lat="51.33537" lon="9.37664">
				<ele>451.67</ele>
			</trkpt>
			<trkpt lat="51.33523" lon="9.37666">
				<ele>451.67</ele>
			</trkpt>
			<trkpt lat="51.3351" lon="9.37672">
				<ele>455.33</ele>
			</trkpt>
			<trkpt lat="51.33489" lon="9.37665">
				<ele>455.33</ele>
			</trkpt>
			<trkpt lat="51.3347" lon="9.37653">
				<ele>455.33</ele>
			</trkpt>
			<trkpt lat="51.33439" lon="9.37653">
				<ele>454.15</ele>
			</trkpt>
			<trkpt lat="51.33386" lon="9.37645">
				<ele>454.15</ele>
			</trkpt>
			<trkpt lat="51.33376" lon="9.37639">
				<ele>454.15</ele>
			</trkpt>
			<trkpt lat="51.3337" lon="9.37617">
				<ele>452.85</ele>
			</trkpt>
			<trkpt lat="51.33372" lon="9.37595">
				<ele>452.85</ele>
			</trkpt>
			<trkpt lat="51.33383" lon="9.37566">
				<ele>448.43</ele>
			</trkpt>
			<trkpt lat="51.334" lon="9.37548">
				<ele>448.43</ele>
			</trkpt>
			<trkpt lat="51.33415" lon="9.37549">
				<ele>448.43</ele>
			</trkpt>
			<trkpt lat="51.33422" lon="9.37539">
				<ele>445</ele>
			</trkpt>
			<trkpt lat="51.33415" lon="9.37549">
				<ele>445</ele>
			</trkpt>
			<trkpt lat="51.334" lon="9.37548">
				<ele>445</ele>
			</trkpt>
			<trkpt lat="51.33388" lon="9.37559">
				<ele>445.22</ele>
			</trkpt>
			<trkpt lat="51.33393" lon="9.37508">
				<ele>445.22</ele>
			</trkpt>
			<trkpt lat="51.3339" lon="9.37453">
				<ele>445.22</ele>
			</trkpt>
			<trkpt lat="51.33386" lon="9.37422">
				<ele>450.66</ele>
			</trkpt>
			<trkpt lat="51.33379" lon="9.37405">
				<ele>450.66</ele>
			</trkpt>
			<trkpt lat="51.3337" lon="9.37397">
				<ele>450.66</ele>
			</trkpt>
			<trkpt lat="51.3336" lon="9.37403">
				<ele>459.41</ele>
			</trkpt>
			<trkpt lat="51.33343" lon="9.37425">
				<ele>459.41</ele>
			</trkpt>
			<trkpt lat="51.33321" lon="9.37435">
				<ele>459.41</ele>
			</trkpt>
			<trkpt lat="51.333" lon="9.37459">
				<ele>472.3</ele>
			</trkpt>
			<trkpt lat="51.33257" lon="9.37538">
				<ele>472.3</ele>
			</trkpt>
			<trkpt lat="51.33208" lon="9.37623">
				<ele>472.3</ele>
			</trkpt>
			<trkpt lat="51.33195" lon="9.3764">
				<ele>481.1</ele>
			</trkpt>
			<trkpt lat="51.3318" lon="9.37636">
				<ele>481.1</ele>
			</trkpt>
			<trkpt lat="51.33145" lon="9.37645">
				<ele>481.1</ele>
			</trkpt>
			<trkpt lat="51.331" lon="9.37675">
				<ele>474.98</ele>
			</trkpt>
			<trkpt lat="51.33059" lon="9.37683">
				<ele>474.98</ele>
			</trkpt>
			<trkpt lat="51.33039" lon="9.37683">
				<ele>474.98</ele>
			</trkpt>
			<trkpt lat="51.32994" lon="9.37653">
				<ele>469.87</ele>
			</trkpt>
			<trkpt lat="51.32977" lon="9.37655">
				<ele>469.87</ele>
			</trkpt>
			<trkpt lat="51.32944" lon="9.37717">
				<ele>471.2</ele>
			</trkpt>
			<trkpt lat="51.3294" lon="9.3775">
				<ele>471.2</ele>
			</trkpt>
			<trkpt lat="51.32949" lon="9.37805">
				<ele>471.2</ele>
			</trkpt>
			<trkpt lat="51.32951" lon="9.37839">
				<ele>479.06</ele>
			</trkpt>
			<trkpt lat="51.32939" lon="9.37878">
				<ele>479.06</ele>
			</trkpt>
			<trkpt lat="51.32921" lon="9.37917">
				<ele>479.06</ele>
			</trkpt>
			<trkpt lat="51.32916" lon="9.37948">
				<ele>486.14</ele>
			</trkpt>
			<trkpt lat="51.32921" lon="9.37985">
				<ele>486.14</ele>
			</trkpt>
			<trkpt lat="51.32928" lon="9.38002">
				<ele>486.14</ele>
			</trkpt>
			<trkpt lat="51.32943" lon="9.38003">
				<ele>483.92</ele>
			</trkpt>
			<trkpt lat="51.32992" lon="9.37997">
				<ele>483.92</ele>
			</trkpt>
			<trkpt lat="51.33004" lon="9.38002">
				<ele>483.92</ele>
			</trkpt>
			<trkpt lat="51.33015" lon="9.38011">
				<ele>482.38</ele>
			</trkpt>
			<trkpt lat="51.33064" lon="9.38085">
				<ele>482.38</ele>
			</trkpt>
			<trkpt lat="51.33099" lon="9.38151">
				<ele>482.38</ele>
			</trkpt>
			<trkpt lat="51.33107" lon="9.38174">
				<ele>484.44</ele>
			</trkpt>
			<trkpt lat="51.33112" lon="9.38195">
				<ele>484.44</ele>
			</trkpt>
			<trkpt lat="51.3311" lon="9.38236">
				<ele>484.44</ele>
			</trkpt>
			<trkpt lat="51.33159" lon="9.38291">
				<ele>484.69</ele>
			</trkpt>
			<trkpt lat="51.33204" lon="9.38334">
				<ele>484.69</ele>
			</trkpt>
			<trkpt lat="51.3321" lon="9.38436">
				<ele>484.69</ele>
			</trkpt>
			<trkpt lat="51.33259" lon="9.38737">
				<ele>483.84</ele>
			</trkpt>
			<trkpt lat="51.33285" lon="9.3896">
				<ele>483.84</ele>
			</trkpt>
			<trkpt lat="51.333" lon="9.39045">
				<ele>480.9</ele>
			</trkpt>
			<trkpt lat="51.3333" lon="9.39234">
				<ele>480.9</ele>
			</trkpt>
			<trkpt lat="51.33331" lon="9.39282">
				<ele>480.9</ele>
			</trkpt>
			<trkpt lat="51.33326" lon="9.3932">
				<ele>474.09</ele>
			</trkpt>
			<trkpt lat="51.33306" lon="9.39421">
				<ele>474.09</ele>
			</trkpt>
			<trkpt lat="51.33298" lon="9.39437">
				<ele>474.09</ele>
			</trkpt>
			<trkpt lat="51.3328" lon="9.39444">
				<ele>473.12</ele>
			</trkpt>
			<trkpt lat="51.3327" lon="9.39455">
				<ele>473.12</ele>
			</trkpt>
			<trkpt lat="51.33273" lon="9.39511">
				<ele>473.12</ele>
			</trkpt>
			<trkpt lat="51.33269" lon="9.39542">
				<ele>469.82</ele>
			</trkpt>
			<trkpt lat="51.33259" lon="9.39572">
				<ele>469.82</ele>
			</trkpt>
			<trkpt lat="51.33241" lon="9.39609">
				<ele>469.82</ele>
			</trkpt>
			<trkpt lat="51.33233" lon="9.39645">
				<ele>463.2</ele>
			</trkpt>
			<trkpt lat="51.33223" lon="9.39678">
				<ele>463.2</ele>
			</trkpt>
			<trkpt lat="51.33178" lon="9.39765">
				<ele>463.2</ele>
			</trkpt>
			<trkpt lat="51.33161" lon="9.39787">
				<ele>460.6</ele>
			</trkpt>
			<trkpt lat="51.33133" lon="9.39794">
				<ele>460.6</ele>
			</trkpt>
			<trkpt lat="51.33104" lon="9.39788">
				<ele>460.6</ele>
			</trkpt>
			<trkpt lat="51.33066" lon="9.39772">
				<ele>455.64</ele>
			</trkpt>
			<trkpt lat="51.33037" lon="9.39766">
				<ele>455.64</ele>
			</trkpt>
			<trkpt lat="51.32988" lon="9.39745">
				<ele>455.64</ele>
			</trkpt>
			<trkpt lat="51.32949" lon="9.39721">
				<ele>446.81</ele>
			</trkpt>
			<trkpt lat="51.32903" lon="9.39689">
				<ele>446.81</ele>
			</trkpt>
			<trkpt lat="51.32852" lon="9.39639">
				<ele>446.81</ele>
			</trkpt>
			<trkpt lat="51.32822" lon="9.39604">
				<ele>460.53</ele>
			</trkpt>
			<trkpt lat="51.32811" lon="9.39605">
				<ele>460.53</ele>
			</trkpt>
			<trkpt lat="51.32798" lon="9.39618">
				<ele>453.56</ele>
			</trkpt>
			<trkpt lat="51.32736" lon="9.39797">
				<ele>453.56</ele>
			</trkpt>
			<trkpt lat="51.32722" lon="9.39818">
				<ele>453.56</ele>
			</trkpt>
			<trkpt lat="51.3259" lon="9.39947">
				<ele>443.4</ele>
			</trkpt>
			<trkpt lat="51.32573" lon="9.39955">
				<ele>443.4</ele>
			</trkpt>
			<trkpt lat="51.32558" lon="9.39952">
				<ele>443.4</ele>
			</trkpt>
			<trkpt lat="51.3253" lon="9.39938">
				<ele>441.42</ele>
			</trkpt>
			<trkpt lat="51.32505" lon="9.39935">
				<ele>441.42</ele>
			</trkpt>
			<trkpt lat="51.32468" lon="9.39943">
				<ele>441.42</ele>
			</trkpt>
			<trkpt lat="51.32426" lon="9.39957">
				<ele>439.47</ele>
			</trkpt>
			<trkpt lat="51.32408" lon="9.39972">
				<ele>439.47</ele>
			</trkpt>
			<trkpt lat="51.32399" lon="9.40001">
				<ele>439.47</ele>
			</trkpt>
			<trkpt lat="51.32399" lon="9.40078">
				<ele>432.32</ele>
			</trkpt>
			<trkpt lat="51.3241" lon="9.40253">
				<ele>432.32</ele>
			</trkpt>
			<trkpt lat="51.32407" lon="9.40294">
				<ele>432.32</ele>
			</trkpt>
			<trkpt lat="51.32401" lon="9.40312">
				<ele>425.03</ele>
			</trkpt>
			<trkpt lat="51.32392" lon="9.40322">
				<ele>425.03</ele>
			</trkpt>
			<trkpt lat="51.32382" lon="9.40324">
				<ele>425.03</ele>
			</trkpt>
			<trkpt lat="51.32371" lon="9.40314">
				<ele>426.46</ele>
			</trkpt>
			<trkpt lat="51.32329" lon="9.40256">
				<ele>426.46</ele>
			</trkpt>
			<trkpt lat="51.3232" lon="9.40248">
				<ele>426.46</ele>
			</trkpt>
			<trkpt lat="51.32336" lon="9.40299">
				<ele>429.88</ele>
			</trkpt>
			<trkpt lat="51.32382" lon="9.40377">
				<ele>429.88</ele>
			</trkpt>
			<trkpt lat="51.324" lon="9.40427">
				<ele>429.88</ele>
			</trkpt>
			<trkpt lat="51.32423" lon="9.40466">
				<ele>410.02</ele>
			</trkpt>
			<trkpt lat="51.32474" lon="9.40528">
				<ele>410.02</ele>
			</trkpt>
			<trkpt lat="51.3251" lon="9.40578">
				<ele>411.9</ele>
			</trkpt>
			<trkpt lat="51.32538" lon="9.40596">
				<ele>411.9</ele>
			</trkpt>
			<trkpt lat="51.32563" lon="9.40601">
				<ele>411.9</ele>
			</trkpt>
			<trkpt lat="51.32584" lon="9.40593">
				<ele>390.58</ele>
			</trkpt>
			<trkpt lat="51.32605" lon="9.40582">
				<ele>390.58</ele>
			</trkpt>
			<trkpt lat="51.32617" lon="9.40572">
				<ele>390.58</ele>
			</trkpt>
			<trkpt lat="51.32627" lon="9.40556">
				<ele>371.61</ele>
			</trkpt>
			<trkpt lat="51.32633" lon="9.40532">
				<ele>371.61</ele>
			</trkpt>
			<trkpt lat="51.32639" lon="9.40545">
				<ele>371.61</ele>
			</trkpt>
			<trkpt lat="51.32639" lon="9.40565">
				<ele>351.01</ele>
			</trkpt>
			<trkpt lat="51.32616" lon="9.40616">
				<ele>351.01</ele>
			</trkpt>
			<trkpt lat="51.32583" lon="9.40668">
				<ele>351.01</ele>
			</trkpt>
			<trkpt lat="51.32563" lon="9.40684">
				<ele>335.2</ele>
			</trkpt>
			<trkpt lat="51.32538" lon="9.4069">
				<ele>335.2</ele>
			</trkpt>
			<trkpt lat="51.3251" lon="9.40707">
				<ele>335.2</ele>
			</trkpt>
			<trkpt lat="51.32488" lon="9.40731">
				<ele>321.02</ele>
			</trkpt>
			<trkpt lat="51.32482" lon="9.40749">
				<ele>321.02</ele>
			</trkpt>
			<trkpt lat="51.32484" lon="9.40766">
				<ele>321.02</ele>
			</trkpt>
			<trkpt lat="51.32502" lon="9.40811">
				<ele>317.5</ele>
			</trkpt>
			<trkpt lat="51.32512" lon="9.40893">
				<ele>317.5</ele>
			</trkpt>
			<trkpt lat="51.32516" lon="9.40947">
				<ele>317.5</ele>
			</trkpt>
			<trkpt lat="51.32538" lon="9.41007">
				<ele>310.88</ele>
			</trkpt>
			<trkpt lat="51.32543" lon="9.41035">
				<ele>310.88</ele>
			</trkpt>
			<trkpt lat="51.32544" lon="9.41085">
				<ele>310.88</ele>
			</trkpt>
			<trkpt lat="51.32542" lon="9.4111">
				<ele>303.31</ele>
			</trkpt>
			<trkpt lat="51.32546" lon="9.41185">
				<ele>303.31</ele>
			</trkpt>
			<trkpt lat="51.3254" lon="9.41237">
				<ele>282.13</ele>
			</trkpt>
			<trkpt lat="51.32544" lon="9.41303">
				<ele>282.13</ele>
			</trkpt>
			<trkpt lat="51.32552" lon="9.41346">
				<ele>282.13</ele>
			</trkpt>
			<trkpt lat="51.32557" lon="9.41419">
				<ele>270.16</ele>
			</trkpt>
			<trkpt lat="51.32587" lon="9.41464">
				<ele>270.16</ele>
			</trkpt>
			<trkpt lat="51.32604" lon="9.41536">
				<ele>270.16</ele>
			</trkpt>
			<trkpt lat="51.32607" lon="9.41569">
				<ele>265.55</ele>
			</trkpt>
			<trkpt lat="51.32603" lon="9.41663">
				<ele>265.55</ele>
			</trkpt>
			<trkpt lat="51.32596" lon="9.41704">
				<ele>265.55</ele>
			</trkpt>
			<trkpt lat="51.32604" lon="9.41865">
				<ele>258.1</ele>
			</trkpt>
			<trkpt lat="51.32597" lon="9.41907">
				<ele>258.1</ele>
			</trkpt>
			<trkpt lat="51.32606" lon="9.42022">
				<ele>258.1</ele>
			</trkpt>
			<trkpt lat="51.32598" lon="9.42106">
				<ele>252.45</ele>
			</trkpt>
			<trkpt lat="51.32586" lon="9.4218">
				<ele>252.45</ele>
			</trkpt>
			<trkpt lat="51.32576" lon="9.42286">
				<ele>252.45</ele>
			</trkpt>
			<trkpt lat="51.32575" lon="9.42457">
				<ele>246.98</ele>
			</trkpt>
			<trkpt lat="51.32571" lon="9.42486">
				<ele>246.98</ele>
			</trkpt>
			<trkpt lat="51.32553" lon="9.4256">
				<ele>246.98</ele>
			</trkpt>
			<trkpt lat="51.32543" lon="9.42693">
				<ele>242.59</ele>
			</trkpt>
			<trkpt lat="51.32525" lon="9.42886">
				<ele>242.59</ele>
			</trkpt>
			<trkpt lat="51.32517" lon="9.43012">
				<ele>242.59</ele>
			</trkpt>
			<trkpt lat="51.32463" lon="9.42997">
				<ele>242.07</ele>
			</trkpt>
			<trkpt lat="51.32446" lon="9.42982">
				<ele>242.07</ele>
			</trkpt>
			<trkpt lat="51.32431" lon="9.42955">
				<ele>242.07</ele>
			</trkpt>
			<trkpt lat="51.32419" lon="9.42885">
				<ele>242.39</ele>
			</trkpt>
			<trkpt lat="51.32412" lon="9.42857">
				<ele>242.39</ele>
			</trkpt>
			<trkpt lat="51.32405" lon="9.42842">
				<ele>222.17</ele>
			</trkpt>
			<trkpt lat="51.32397" lon="9.42806">
				<ele>222.17</ele>
			</trkpt>
			<trkpt lat="51.32361" lon="9.42799">
				<ele>222.17</ele>
			</trkpt>
			<trkpt lat="51.32312" lon="9.42809">
				<ele>221.18</ele>
			</trkpt>
			<trkpt lat="51.3228" lon="9.4282">
				<ele>221.18</ele>
			</trkpt>
			<trkpt lat="51.32181" lon="9.42866">
				<ele>221.18</ele>
			</trkpt>
			<trkpt lat="51.32165" lon="9.4286">
				<ele>218.33</ele>
			</trkpt>
			<trkpt lat="51.32175" lon="9.42959">
				<ele>218.33</ele>
			</trkpt>
			<trkpt lat="51.32178" lon="9.43027">
				<ele>218.33</ele>
			</trkpt>
			<trkpt lat="51.32184" lon="9.43059">
				<ele>213.55</ele>
			</trkpt>
			<trkpt lat="51.32207" lon="9.43133">
				<ele>213.55</ele>
			</trkpt>
			<trkpt lat="51.32209" lon="9.43157">
				<ele>213.55</ele>
			</trkpt>
			<trkpt lat="51.32206" lon="9.43173">
				<ele>212.24</ele>
			</trkpt>
			<trkpt lat="51.32213" lon="9.43196">
				<ele>212.24</ele>
			</trkpt>
			<trkpt lat="51.32214" lon="9.43241">
				<ele>212.24</ele>
			</trkpt>
			<trkpt lat="51.32203" lon="9.43268">
				<ele>209.33</ele>
			</trkpt>
			<trkpt lat="51.322" lon="9.43313">
				<ele>209.33</ele>
			</trkpt>
			<trkpt lat="51.32166" lon="9.43313">
				<ele>209.33</ele>
			</trkpt>
			<trkpt lat="51.3216" lon="9.43466">
				<ele>206.2</ele>
			</trkpt>
			<trkpt lat="51.32157" lon="9.43618">
				<ele>206.2</ele>
			</trkpt>
			<trkpt lat="51.32151" lon="9.43778">
				<ele>206.2</ele>
			</trkpt>
			<trkpt lat="51.32119" lon="9.4378">
				<ele>205.01</ele>
			</trkpt>
			<trkpt lat="51.32098" lon="9.4379">
				<ele>205.01</ele>
			</trkpt>
		</trkseg>
	</trk>
</gpx>