<?xml version="1.0" encoding="UTF-8"?>
<gpx creator="StravaGPX" xmlns:xsi="http://www.w3.org/2001/XMLSchema-instance" xsi:schemaLocation="http://www.topografix.com/GPX/1/1 http://www.topografix.com/GPX/1/1/gpx.xsd" version="1.1" xmlns="http://www.topografix.com/GPX/1/1">
 <metadata>
  <name>amsterdam</name>
  <author>
   <name>Martijn Haring</name>
   <link href="https://www.strava.com/athletes/27503866"/>
  </author>
  <copyright author="OpenStreetMap contributors">
   <year>2020</year>
   <license>https://www.openstreetmap.org/copyright</license>
  </copyright>
  <link href="https://www.strava.com/routes/2812688001137766772"/>
 </metadata>
 <trk>
  <name>amsterdam</name>
  <link href="https://www.strava.com/routes/2812688001137766772"/>
  <type>Fietsrit</type>
  <trkseg>
   <trkpt lat="52.361110000000004" lon="4.930820000000001">
    <ele>2.71</ele>
   </trkpt>
   <trkpt lat="52.361110000000004" lon="4.930230000000001">
    <ele>2.86</ele>
   </trkpt>
   <trkpt lat="52.36108" lon="4.930020000000001">
    <ele>5.3</ele>
   </trkpt>
   <trkpt lat="52.3610800128384" lon="4.9312533332462305">
    <ele>5.3</ele>
   </trkpt>
   <trkpt lat="52.3610800128384" lon="4.932486666492819">
    <ele>2.8100000000000005</ele>
   </trkpt>
   <trkpt lat="52.36108" lon="4.93372">
    <ele>2.7700000000000005</ele>
   </trkpt>
   <trkpt lat="52.36112000000001" lon="4.934410000000001">
    <ele>2.74</ele>
   </trkpt>
   <trkpt lat="52.361110000000004" lon="4.935230000000001">
    <ele>2.89</ele>
   </trkpt>
   <trkpt lat="52.36112000000001" lon="4.93623">
    <ele>2.8000000000000003</ele>
   </trkpt>
   <trkpt lat="52.36129000732936" lon="4.937549994737479">
    <ele>2.6100000000000003</ele>
   </trkpt>
   <trkpt lat="52.36146" lon="4.9388700000000005">
    <ele>2.66</ele>
   </trkpt>
   <trkpt lat="52.3614" lon="4.9389">
    <ele>2.6</ele>
   </trkpt>
   <trkpt lat="52.36151" lon="4.93979">
    <ele>2.37</ele>
   </trkpt>
   <trkpt lat="52.361630000000005" lon="4.940600000000001">
    <ele>2.56</ele>
   </trkpt>
   <trkpt lat="52.36166000000001" lon="4.94073">
    <ele>2.56</ele>
   </trkpt>
   <trkpt lat="52.3618" lon="4.94146">
    <ele>2.3000000000000003</ele>
   </trkpt>
   <trkpt lat="52.36196751994198" lon="4.942714985742449">
    <ele>2.33</ele>
   </trkpt>
   <trkpt lat="52.36213502659083" lon="4.943969981000837">
    <ele>2.4000000000000004</ele>
   </trkpt>
   <trkpt lat="52.362302519946354" lon="4.945224985774538">
    <ele>2.39</ele>
   </trkpt>
   <trkpt lat="52.36247" lon="4.94648">
    <ele>2.06</ele>
   </trkpt>
   <trkpt lat="52.36252" lon="4.94669">
    <ele>2.1</ele>
   </trkpt>
   <trkpt lat="52.36260000000001" lon="4.9468700000000005">
    <ele>2.24</ele>
   </trkpt>
   <trkpt lat="52.362700000000004" lon="4.94699">
    <ele>2.5100000000000002</ele>
   </trkpt>
   <trkpt lat="52.36278" lon="4.947050000000001">
    <ele>2.7900000000000005</ele>
   </trkpt>
   <trkpt lat="52.36332000030074" lon="4.947259997477933">
    <ele>2.6400000000000006</ele>
   </trkpt>
   <trkpt lat="52.36386" lon="4.94747">
    <ele>2.16</ele>
   </trkpt>
   <trkpt lat="52.36429000030162" lon="4.9477399973683704">
    <ele>1.31</ele>
   </trkpt>
   <trkpt lat="52.364720000000005" lon="4.94801">
    <ele>1.05</ele>
   </trkpt>
   <trkpt lat="52.365" lon="4.94845">
    <ele>2.36</ele>
   </trkpt>
   <trkpt lat="52.365100000000005" lon="4.94871">
    <ele>2.4400000000000004</ele>
   </trkpt>
   <trkpt lat="52.36515000000001" lon="4.94876">
    <ele>2.6</ele>
   </trkpt>
   <trkpt lat="52.365260000000006" lon="4.94869">
    <ele>3.21</ele>
   </trkpt>
   <trkpt lat="52.365320000000004" lon="4.949940000000001">
    <ele>3.3100000000000005</ele>
   </trkpt>
   <trkpt lat="52.36535000000001" lon="4.95021">
    <ele>3.62</ele>
   </trkpt>
   <trkpt lat="52.36538" lon="4.951510000000001">
    <ele>4.9</ele>
   </trkpt>
   <trkpt lat="52.36548836491092" lon="4.952733318349448">
    <ele>5.72</ele>
   </trkpt>
   <trkpt lat="52.365596717191494" lon="4.95395664269986">
    <ele>7.37</ele>
   </trkpt>
   <trkpt lat="52.36570505684169" lon="4.9551799730505905">
    <ele>8.72</ele>
   </trkpt>
   <trkpt lat="52.36581338386136" lon="4.956403309400991">
    <ele>10.860000000000001</ele>
   </trkpt>
   <trkpt lat="52.36592169825039" lon="4.957626651750416">
    <ele>11.49</ele>
   </trkpt>
   <trkpt lat="52.36603" lon="4.95885">
    <ele>11.28</ele>
   </trkpt>
   <trkpt lat="52.366150000000005" lon="4.95957">
    <ele>9.780000000000001</ele>
   </trkpt>
   <trkpt lat="52.366260000000004" lon="4.9600100000000005">
    <ele>9.780000000000001</ele>
   </trkpt>
   <trkpt lat="52.36645000000001" lon="4.96053">
    <ele>8.6</ele>
   </trkpt>
   <trkpt lat="52.36657" lon="4.96079">
    <ele>8.350000000000001</ele>
   </trkpt>
   <trkpt lat="52.366730000000004" lon="4.96109">
    <ele>8.13</ele>
   </trkpt>
   <trkpt lat="52.36683000000001" lon="4.96124">
    <ele>8.13</ele>
   </trkpt>
   <trkpt lat="52.36706" lon="4.961530000000001">
    <ele>7.670000000000001</ele>
   </trkpt>
   <trkpt lat="52.36732000000001" lon="4.961810000000001">
    <ele>7.130000000000001</ele>
   </trkpt>
   <trkpt lat="52.36746" lon="4.961930000000001">
    <ele>7.130000000000001</ele>
   </trkpt>
   <trkpt lat="52.36777000000001" lon="4.96213">
    <ele>6.390000000000001</ele>
   </trkpt>
   <trkpt lat="52.36806000000001" lon="4.96225">
    <ele>5.37</ele>
   </trkpt>
   <trkpt lat="52.36842000000001" lon="4.962330000000001">
    <ele>5.37</ele>
   </trkpt>
   <trkpt lat="52.369260000001745" lon="4.9623499996196765">
    <ele>3.71</ele>
   </trkpt>
   <trkpt lat="52.3701" lon="4.962370000000001">
    <ele>2.7900000000000005</ele>
   </trkpt>
   <trkpt lat="52.370180000000005" lon="4.96241">
    <ele>2.5700000000000003</ele>
   </trkpt>
   <trkpt lat="52.370939999973785" lon="4.962434999568894">
    <ele>2.18</ele>
   </trkpt>
   <trkpt lat="52.371700000000004" lon="4.96246">
    <ele>2.23</ele>
   </trkpt>
   <trkpt lat="52.371660000000006" lon="4.96265">
    <ele>2.25</ele>
   </trkpt>
   <trkpt lat="52.372110000000006" lon="4.96265">
    <ele>2.2900000000000005</ele>
   </trkpt>
   <trkpt lat="52.3728200000607" lon="4.962679999037719">
    <ele>1.59</ele>
   </trkpt>
   <trkpt lat="52.373530000113774" lon="4.962709999039944">
    <ele>1.8800000000000001</ele>
   </trkpt>
   <trkpt lat="52.37424000000001" lon="4.96274">
    <ele>1.36</ele>
   </trkpt>
   <trkpt lat="52.37467" lon="4.962840000000001">
    <ele>1.35</ele>
   </trkpt>
   <trkpt lat="52.37539" lon="4.963240000000001">
    <ele>2.1</ele>
   </trkpt>
   <trkpt lat="52.37574000000001" lon="4.963520000000001">
    <ele>2.66</ele>
   </trkpt>
   <trkpt lat="52.376400000000004" lon="4.964250000000001">
    <ele>4.890000000000001</ele>
   </trkpt>
   <trkpt lat="52.37696667169629" lon="4.965019980274282">
    <ele>7.1000000000000005</ele>
   </trkpt>
   <trkpt lat="52.377533338389284" lon="4.965789980309695">
    <ele>9.75</ele>
   </trkpt>
   <trkpt lat="52.3781" lon="4.96656">
    <ele>11.11</ele>
   </trkpt>
   <trkpt lat="52.37872" lon="4.96734">
    <ele>11.0</ele>
   </trkpt>
   <trkpt lat="52.379155001555546" lon="4.967924994387072">
    <ele>9.71</ele>
   </trkpt>
   <trkpt lat="52.37959000000001" lon="4.96851">
    <ele>8.520000000000001</ele>
   </trkpt>
   <trkpt lat="52.38029" lon="4.9694">
    <ele>5.81</ele>
   </trkpt>
   <trkpt lat="52.380680000000005" lon="4.969740000000001">
    <ele>5.0200000000000005</ele>
   </trkpt>
   <trkpt lat="52.381130000000006" lon="4.9701">
    <ele>3.19</ele>
   </trkpt>
   <trkpt lat="52.38147000000001" lon="4.97032">
    <ele>2.45</ele>
   </trkpt>
   <trkpt lat="52.381840000000004" lon="4.97051">
    <ele>1.85</ele>
   </trkpt>
   <trkpt lat="52.382360000000006" lon="4.9707300000000005">
    <ele>1.52</ele>
   </trkpt>
   <trkpt lat="52.38250000000001" lon="4.970960000000001">
    <ele>1.42</ele>
   </trkpt>
   <trkpt lat="52.382540000000006" lon="4.97112">
    <ele>1.42</ele>
   </trkpt>
   <trkpt lat="52.382540000000006" lon="4.97126">
    <ele>0.9500000000000001</ele>
   </trkpt>
   <trkpt lat="52.38262" lon="4.971290000000001">
    <ele>0.9500000000000001</ele>
   </trkpt>
   <trkpt lat="52.3828" lon="4.97154">
    <ele>0.13</ele>
   </trkpt>
   <trkpt lat="52.38288000000001" lon="4.9718800000000005">
    <ele>-0.09000000000000001</ele>
   </trkpt>
   <trkpt lat="52.3830650034472" lon="4.972784996166571">
    <ele>-0.5</ele>
   </trkpt>
   <trkpt lat="52.383250000000004" lon="4.97369">
    <ele>-0.54</ele>
   </trkpt>
   <trkpt lat="52.38331" lon="4.97435">
    <ele>-0.58</ele>
   </trkpt>
   <trkpt lat="52.3834650023994" lon="4.9751099971473">
    <ele>-0.9700000000000001</ele>
   </trkpt>
   <trkpt lat="52.38362000000001" lon="4.9758700000000005">
    <ele>-0.55</ele>
   </trkpt>
   <trkpt lat="52.38389" lon="4.9759">
    <ele>-1.4900000000000002</ele>
   </trkpt>
   <trkpt lat="52.384170000000005" lon="4.97588">
    <ele>-1.84</ele>
   </trkpt>
   <trkpt lat="52.38468" lon="4.975650000000001">
    <ele>-2.25</ele>
   </trkpt>
   <trkpt lat="52.38521000000001" lon="4.97545">
    <ele>-2.3000000000000003</ele>
   </trkpt>
   <trkpt lat="52.385310000000004" lon="4.975440000000001">
    <ele>-2.3000000000000003</ele>
   </trkpt>
   <trkpt lat="52.385540000000006" lon="4.97536">
    <ele>-2.4400000000000004</ele>
   </trkpt>
   <trkpt lat="52.38627" lon="4.9754000000000005">
    <ele>-2.5700000000000003</ele>
   </trkpt>
   <trkpt lat="52.38647" lon="4.975350000000001">
    <ele>-2.48</ele>
   </trkpt>
   <trkpt lat="52.38656" lon="4.975300000000001">
    <ele>-2.48</ele>
   </trkpt>
   <trkpt lat="52.386860000000006" lon="4.97487">
    <ele>-2.56</ele>
   </trkpt>
   <trkpt lat="52.38707" lon="4.97463">
    <ele>-2.5100000000000002</ele>
   </trkpt>
   <trkpt lat="52.387240000000006" lon="4.974480000000001">
    <ele>-2.5100000000000002</ele>
   </trkpt>
   <trkpt lat="52.38749000000001" lon="4.9743">
    <ele>-2.31</ele>
   </trkpt>
   <trkpt lat="52.38788" lon="4.97409">
    <ele>-1.07</ele>
   </trkpt>
   <trkpt lat="52.387910000000005" lon="4.974030000000001">
    <ele>-1.07</ele>
   </trkpt>
   <trkpt lat="52.387890000000006" lon="4.97381">
    <ele>-0.38</ele>
   </trkpt>
   <trkpt lat="52.38801" lon="4.9737100000000005">
    <ele>-0.32</ele>
   </trkpt>
   <trkpt lat="52.388290000000005" lon="4.97349">
    <ele>-0.21</ele>
   </trkpt>
   <trkpt lat="52.388540000000006" lon="4.97327">
    <ele>-0.75</ele>
   </trkpt>
   <trkpt lat="52.3888" lon="4.97297">
    <ele>-1.07</ele>
   </trkpt>
   <trkpt lat="52.388960000000004" lon="4.97283">
    <ele>-1.07</ele>
   </trkpt>
   <trkpt lat="52.38977143742305" lon="4.972238636665179">
    <ele>-1.29</ele>
   </trkpt>
   <trkpt lat="52.39058287189517" lon="4.971647251587611">
    <ele>-1.08</ele>
   </trkpt>
   <trkpt lat="52.391394303416156" lon="4.971055844765939">
    <ele>-0.99</ele>
   </trkpt>
   <trkpt lat="52.39220573198581" lon="4.970464416198804">
    <ele>-0.84</ele>
   </trkpt>
   <trkpt lat="52.39301715760394" lon="4.969872965884851">
    <ele>-1.07</ele>
   </trkpt>
   <trkpt lat="52.393828580270345" lon="4.969281493822719">
    <ele>-1.1</ele>
   </trkpt>
   <trkpt lat="52.39464" lon="4.9686900000000005">
    <ele>-1.09</ele>
   </trkpt>
   <trkpt lat="52.39524333515029" lon="4.968230012553588">
    <ele>-0.5</ele>
   </trkpt>
   <trkpt lat="52.395846668515226" lon="4.9677700125297">
    <ele>-0.88</ele>
   </trkpt>
   <trkpt lat="52.39645" lon="4.96731">
    <ele>-1.01</ele>
   </trkpt>
   <trkpt lat="52.3967" lon="4.96713">
    <ele>-0.75</ele>
   </trkpt>
   <trkpt lat="52.39730500156349" lon="4.966540007996362">
    <ele>-1.84</ele>
   </trkpt>
   <trkpt lat="52.39791" lon="4.96595">
    <ele>-1.8300000000000003</ele>
   </trkpt>
   <trkpt lat="52.3982850008332" lon="4.965535003408795">
    <ele>-1.62</ele>
   </trkpt>
   <trkpt lat="52.39866000000001" lon="4.965120000000001">
    <ele>-1.67</ele>
   </trkpt>
   <trkpt lat="52.39903000103201" lon="4.9646600036839565">
    <ele>-1.93</ele>
   </trkpt>
   <trkpt lat="52.39940000000001" lon="4.964200000000001">
    <ele>-1.79</ele>
   </trkpt>
   <trkpt lat="52.400040000000004" lon="4.9633400000000005">
    <ele>-1.76</ele>
   </trkpt>
   <trkpt lat="52.40063000352669" lon="4.962425012243214">
    <ele>-1.75</ele>
   </trkpt>
   <trkpt lat="52.40122" lon="4.9615100000000005">
    <ele>-1.62</ele>
   </trkpt>
   <trkpt lat="52.40159000213064" lon="4.960815005653587">
    <ele>-1.75</ele>
   </trkpt>
   <trkpt lat="52.40196" lon="4.960120000000001">
    <ele>-1.67</ele>
   </trkpt>
   <trkpt lat="52.40232" lon="4.95939">
    <ele>-0.88</ele>
   </trkpt>
   <trkpt lat="52.402390000000004" lon="4.9593300000000005">
    <ele>-0.8</ele>
   </trkpt>
   <trkpt lat="52.402460000000005" lon="4.959350000000001">
    <ele>-0.71</ele>
   </trkpt>
   <trkpt lat="52.402660000000004" lon="4.95953">
    <ele>-0.5</ele>
   </trkpt>
   <trkpt lat="52.402820000000006" lon="4.95964">
    <ele>-0.25</ele>
   </trkpt>
   <trkpt lat="52.402910000000006" lon="4.959770000000001">
    <ele>-0.9600000000000001</ele>
   </trkpt>
   <trkpt lat="52.40323000000001" lon="4.9601500000000005">
    <ele>-1.5700000000000003</ele>
   </trkpt>
   <trkpt lat="52.403690000000005" lon="4.960540000000001">
    <ele>-1.24</ele>
   </trkpt>
   <trkpt lat="52.40391" lon="4.96084">
    <ele>-1.06</ele>
   </trkpt>
   <trkpt lat="52.40441666905228" lon="4.96136998784265">
    <ele>-1.1300000000000001</ele>
   </trkpt>
   <trkpt lat="52.404923335734736" lon="4.961899987858975">
    <ele>-1.3200000000000003</ele>
   </trkpt>
   <trkpt lat="52.40543" lon="4.96243">
    <ele>-1.2100000000000002</ele>
   </trkpt>
   <trkpt lat="52.40599000161727" lon="4.963044992216922">
    <ele>-1.24</ele>
   </trkpt>
   <trkpt lat="52.40655" lon="4.963660000000001">
    <ele>-0.88</ele>
   </trkpt>
   <trkpt lat="52.40684" lon="4.9639500000000005">
    <ele>-1.42</ele>
   </trkpt>
   <trkpt lat="52.407160000000005" lon="4.96434">
    <ele>-0.9700000000000001</ele>
   </trkpt>
   <trkpt lat="52.40776" lon="4.964810000000001">
    <ele>-0.77</ele>
   </trkpt>
   <trkpt lat="52.408030000000004" lon="4.96495">
    <ele>-0.76</ele>
   </trkpt>
   <trkpt lat="52.408170000000005" lon="4.965000000000001">
    <ele>-1.6600000000000001</ele>
   </trkpt>
   <trkpt lat="52.40829" lon="4.96501">
    <ele>-1.6600000000000001</ele>
   </trkpt>
   <trkpt lat="52.40910000005469" lon="4.9649650008237955">
    <ele>-2.32</ele>
   </trkpt>
   <trkpt lat="52.40991" lon="4.96492">
    <ele>-1.17</ele>
   </trkpt>
   <trkpt lat="52.40997" lon="4.96431">
    <ele>-1.16</ele>
   </trkpt>
   <trkpt lat="52.409975008325866" lon="4.962905000417422">
    <ele>-0.92</ele>
   </trkpt>
   <trkpt lat="52.409980000000004" lon="4.9615">
    <ele>-0.88</ele>
   </trkpt>
   <trkpt lat="52.40991" lon="4.961480000000001">
    <ele>-0.88</ele>
   </trkpt>
   <trkpt lat="52.409440000000004" lon="4.96152">
    <ele>-1.24</ele>
   </trkpt>
   <trkpt lat="52.40939" lon="4.9615100000000005">
    <ele>-1.1</ele>
   </trkpt>
   <trkpt lat="52.40932" lon="4.961460000000001">
    <ele>-1.1</ele>
   </trkpt>
   <trkpt lat="52.40928" lon="4.96138">
    <ele>-1.1</ele>
   </trkpt>
   <trkpt lat="52.40926" lon="4.96129">
    <ele>-1.07</ele>
   </trkpt>
   <trkpt lat="52.40927000000001" lon="4.96117">
    <ele>-1.09</ele>
   </trkpt>
   <trkpt lat="52.40945000000001" lon="4.960380000000001">
    <ele>-1.28</ele>
   </trkpt>
   <trkpt lat="52.40959" lon="4.959910000000001">
    <ele>-1.41</ele>
   </trkpt>
   <trkpt lat="52.40990500526545" lon="4.958790008090427">
    <ele>-1.58</ele>
   </trkpt>
   <trkpt lat="52.41022" lon="4.95767">
    <ele>-1.6</ele>
   </trkpt>
   <trkpt lat="52.410360000000004" lon="4.957070000000001">
    <ele>-1.52</ele>
   </trkpt>
   <trkpt lat="52.410540000000005" lon="4.95624">
    <ele>-1.58</ele>
   </trkpt>
   <trkpt lat="52.410720000000005" lon="4.95568">
    <ele>-1.53</ele>
   </trkpt>
   <trkpt lat="52.4109550042699" lon="4.954670005523265">
    <ele>-1.61</ele>
   </trkpt>
   <trkpt lat="52.411190000000005" lon="4.95366">
    <ele>-1.78</ele>
   </trkpt>
   <trkpt lat="52.41133000000001" lon="4.95314">
    <ele>-1.7000000000000002</ele>
   </trkpt>
   <trkpt lat="52.411440000000006" lon="4.95267">
    <ele>-1.6900000000000002</ele>
   </trkpt>
   <trkpt lat="52.41143" lon="4.95251">
    <ele>-1.7000000000000002</ele>
   </trkpt>
   <trkpt lat="52.411370000000005" lon="4.95244">
    <ele>-1.75</ele>
   </trkpt>
   <trkpt lat="52.4112" lon="4.952310000000001">
    <ele>-1.68</ele>
   </trkpt>
   <trkpt lat="52.41113000000001" lon="4.95218">
    <ele>-1.67</ele>
   </trkpt>
   <trkpt lat="52.41113000000001" lon="4.95206">
    <ele>-1.67</ele>
   </trkpt>
   <trkpt lat="52.411480000000005" lon="4.950740000000001">
    <ele>-1.68</ele>
   </trkpt>
   <trkpt lat="52.411680000000004" lon="4.949940000000001">
    <ele>-1.67</ele>
   </trkpt>
   <trkpt lat="52.41196000436962" lon="4.948920006544304">
    <ele>-1.6</ele>
   </trkpt>
   <trkpt lat="52.412240000000004" lon="4.947900000000001">
    <ele>-1.9200000000000002</ele>
   </trkpt>
   <trkpt lat="52.41235" lon="4.947380000000001">
    <ele>-1.75</ele>
   </trkpt>
   <trkpt lat="52.41246" lon="4.946980000000001">
    <ele>-1.28</ele>
   </trkpt>
   <trkpt lat="52.412800000000004" lon="4.94712">
    <ele>-1.58</ele>
   </trkpt>
   <trkpt lat="52.413270000000004" lon="4.94737">
    <ele>-1.5</ele>
   </trkpt>
   <trkpt lat="52.414080000000006" lon="4.94775">
    <ele>-1.5</ele>
   </trkpt>
   <trkpt lat="52.41469333413513" lon="4.948069991066676">
    <ele>-1.4500000000000002</ele>
   </trkpt>
   <trkpt lat="52.415306667406426" lon="4.948389991034158">
    <ele>-1.34</ele>
   </trkpt>
   <trkpt lat="52.41592000000001" lon="4.94871">
    <ele>-1.2300000000000002</ele>
   </trkpt>
   <trkpt lat="52.416712501876376" lon="4.949092479389412">
    <ele>-1.33</ele>
   </trkpt>
   <trkpt lat="52.41750500251861" lon="4.949474972526714">
    <ele>-1.41</ele>
   </trkpt>
   <trkpt lat="52.418297501926645" lon="4.949857479412771">
    <ele>-1.33</ele>
   </trkpt>
   <trkpt lat="52.419090000000004" lon="4.95024">
    <ele>-1.41</ele>
   </trkpt>
   <trkpt lat="52.41935" lon="4.9504">
    <ele>-1.26</ele>
   </trkpt>
   <trkpt lat="52.4197950002307" lon="4.950604997955661">
    <ele>-1.16</ele>
   </trkpt>
   <trkpt lat="52.42024000000001" lon="4.950810000000001">
    <ele>-0.9700000000000001</ele>
   </trkpt>
   <trkpt lat="52.420370000000005" lon="4.9509300000000005">
    <ele>-0.9700000000000001</ele>
   </trkpt>
   <trkpt lat="52.42047" lon="4.951110000000001">
    <ele>-0.9600000000000001</ele>
   </trkpt>
   <trkpt lat="52.420570000000005" lon="4.951370000000001">
    <ele>-0.8500000000000001</ele>
   </trkpt>
   <trkpt lat="52.42069000000001" lon="4.9515">
    <ele>-0.8500000000000001</ele>
   </trkpt>
   <trkpt lat="52.420750000000005" lon="4.95188">
    <ele>-1.9000000000000001</ele>
   </trkpt>
   <trkpt lat="52.42082500262274" lon="4.952669998555354">
    <ele>-2.7</ele>
   </trkpt>
   <trkpt lat="52.4209" lon="4.953460000000001">
    <ele>-1.76</ele>
   </trkpt>
   <trkpt lat="52.42094" lon="4.95368">
    <ele>-1.1500000000000001</ele>
   </trkpt>
   <trkpt lat="52.420970000000004" lon="4.953740000000001">
    <ele>-1.1500000000000001</ele>
   </trkpt>
   <trkpt lat="52.421040000000005" lon="4.953810000000001">
    <ele>-0.88</ele>
   </trkpt>
   <trkpt lat="52.42127000000001" lon="4.953830000000001">
    <ele>-0.36000000000000004</ele>
   </trkpt>
   <trkpt lat="52.421380000000006" lon="4.9538">
    <ele>-0.36000000000000004</ele>
   </trkpt>
   <trkpt lat="52.421720004630416" lon="4.954844992016798">
    <ele>-3.36</ele>
   </trkpt>
   <trkpt lat="52.42206" lon="4.95589">
    <ele>-4.2700000000000005</ele>
   </trkpt>
   <trkpt lat="52.42212000000001" lon="4.956200000000001">
    <ele>-4.21</ele>
   </trkpt>
   <trkpt lat="52.42218008942359" lon="4.957588312545729">
    <ele>-4.36</ele>
   </trkpt>
   <trkpt lat="52.422240162588636" lon="4.958976628875301">
    <ele>-4.21</ele>
   </trkpt>
   <trkpt lat="52.42230021949509" lon="4.96036494898771">
    <ele>-4.47</ele>
   </trkpt>
   <trkpt lat="52.42236026014284" lon="4.961753272881951">
    <ele>-4.45</ele>
   </trkpt>
   <trkpt lat="52.422420284531846" lon="4.9631416005570195">
    <ele>-4.62</ele>
   </trkpt>
   <trkpt lat="52.42248029266199" lon="4.964529932011908">
    <ele>-4.2700000000000005</ele>
   </trkpt>
   <trkpt lat="52.4225402845332" lon="4.9659182672456135">
    <ele>-4.13</ele>
   </trkpt>
   <trkpt lat="52.422600260145416" lon="4.967306606257128">
    <ele>-4.0600000000000005</ele>
   </trkpt>
   <trkpt lat="52.422660219498546" lon="4.968694949045447">
    <ele>-4.0</ele>
   </trkpt>
   <trkpt lat="52.42272016259251" lon="4.970083295609565">
    <ele>-3.96</ele>
   </trkpt>
   <trkpt lat="52.422780089427235" lon="4.971471645948477">
    <ele>-3.87</ele>
   </trkpt>
   <trkpt lat="52.42284" lon="4.972860000000001">
    <ele>-3.8000000000000003</ele>
   </trkpt>
   <trkpt lat="52.42287" lon="4.973120000000001">
    <ele>-3.67</ele>
   </trkpt>
   <trkpt lat="52.422920000000005" lon="4.9733600000000004">
    <ele>-3.6500000000000004</ele>
   </trkpt>
   <trkpt lat="52.423010000000005" lon="4.9736400000000005">
    <ele>-3.67</ele>
   </trkpt>
   <trkpt lat="52.423516338170366" lon="4.974820421619466">
    <ele>-3.7900000000000005</ele>
   </trkpt>
   <trkpt lat="52.42402266458674" lon="4.976000870353625">
    <ele>-3.86</ele>
   </trkpt>
   <trkpt lat="52.42452897924866" lon="4.9771813462029675">
    <ele>-3.98</ele>
   </trkpt>
   <trkpt lat="52.42503528215566" lon="4.978361849167983">
    <ele>-4.090000000000001</ele>
   </trkpt>
   <trkpt lat="52.425541573307235" lon="4.9795423792491595">
    <ele>-4.17</ele>
   </trkpt>
   <trkpt lat="52.426047852702894" lon="4.9807229364469885">
    <ele>-4.13</ele>
   </trkpt>
   <trkpt lat="52.42655412034216" lon="4.981903520761955">
    <ele>-4.28</ele>
   </trkpt>
   <trkpt lat="52.42706037622456" lon="4.983084132194551">
    <ele>-4.3</ele>
   </trkpt>
   <trkpt lat="52.42756662034961" lon="4.9842647707452645">
    <ele>-4.28</ele>
   </trkpt>
   <trkpt lat="52.42807285271679" lon="4.985445436414585">
    <ele>-4.28</ele>
   </trkpt>
   <trkpt lat="52.42857907332562" lon="4.986626129203">
    <ele>-4.260000000000001</ele>
   </trkpt>
   <trkpt lat="52.42908528217568" lon="4.987806849111">
    <ele>-4.49</ele>
   </trkpt>
   <trkpt lat="52.42959147926641" lon="4.988987596139071">
    <ele>-4.51</ele>
   </trkpt>
   <trkpt lat="52.43009766459737" lon="4.990168370287705">
    <ele>-4.72</ele>
   </trkpt>
   <trkpt lat="52.43060383816804" lon="4.991349171557388">
    <ele>-4.85</ele>
   </trkpt>
   <trkpt lat="52.431110000000004" lon="4.99253">
    <ele>-4.47</ele>
   </trkpt>
   <trkpt lat="52.431140000000006" lon="4.992710000000001">
    <ele>-4.17</ele>
   </trkpt>
   <trkpt lat="52.43117" lon="4.99328">
    <ele>-3.0100000000000002</ele>
   </trkpt>
   <trkpt lat="52.431160000000006" lon="4.9934">
    <ele>-2.9899999999999998</ele>
   </trkpt>
   <trkpt lat="52.43122" lon="4.993580000000001">
    <ele>-3.02</ele>
   </trkpt>
   <trkpt lat="52.431450000000005" lon="4.99413">
    <ele>-3.5</ele>
   </trkpt>
   <trkpt lat="52.431540000000005" lon="4.99425">
    <ele>-3.5</ele>
   </trkpt>
   <trkpt lat="52.43186000000001" lon="4.99458">
    <ele>-3.47</ele>
   </trkpt>
   <trkpt lat="52.432030000000005" lon="4.994870000000001">
    <ele>-3.0300000000000002</ele>
   </trkpt>
   <trkpt lat="52.432570000000005" lon="4.996040000000001">
    <ele>-0.58</ele>
   </trkpt>
   <trkpt lat="52.431810002601374" lon="4.996820013413909">
    <ele>-1.85</ele>
   </trkpt>
   <trkpt lat="52.431050000000006" lon="4.9976">
    <ele>0.0</ele>
   </trkpt>
   <trkpt lat="52.43085000000001" lon="4.99783">
    <ele>-0.2</ele>
   </trkpt>
   <trkpt lat="52.43059" lon="4.998060000000001">
    <ele>-0.5</ele>
   </trkpt>
   <trkpt lat="52.430820000000004" lon="4.9984">
    <ele>-0.8</ele>
   </trkpt>
   <trkpt lat="52.43110000000001" lon="4.9987">
    <ele>-0.89</ele>
   </trkpt>
   <trkpt lat="52.431470000000004" lon="4.998900000000001">
    <ele>0.19</ele>
   </trkpt>
   <trkpt lat="52.431760000000004" lon="4.99903">
    <ele>0.08</ele>
   </trkpt>
   <trkpt lat="52.431960000000004" lon="4.999090000000001">
    <ele>-0.15000000000000002</ele>
   </trkpt>
   <trkpt lat="52.431940000000004" lon="4.999490000000001">
    <ele>-0.67</ele>
   </trkpt>
   <trkpt lat="52.43195000000001" lon="4.999720000000001">
    <ele>-0.67</ele>
   </trkpt>
   <trkpt lat="52.432080000000006" lon="5.00046">
    <ele>-0.58</ele>
   </trkpt>
   <trkpt lat="52.43201500514293" lon="5.0015650017403335">
    <ele>-0.8500000000000001</ele>
   </trkpt>
   <trkpt lat="52.43195000000001" lon="5.00267">
    <ele>-0.79</ele>
   </trkpt>
   <trkpt lat="52.43188000000001" lon="5.00309">
    <ele>-0.67</ele>
   </trkpt>
   <trkpt lat="52.431850000000004" lon="5.00382">
    <ele>-0.67</ele>
   </trkpt>
   <trkpt lat="52.43178" lon="5.004560000000001">
    <ele>-0.84</ele>
   </trkpt>
   <trkpt lat="52.4318" lon="5.00515">
    <ele>-0.71</ele>
   </trkpt>
   <trkpt lat="52.432040002064824" lon="5.005849996183265">
    <ele>-0.79</ele>
   </trkpt>
   <trkpt lat="52.432280000000006" lon="5.006550000000001">
    <ele>-0.8500000000000001</ele>
   </trkpt>
   <trkpt lat="52.432230000000004" lon="5.0066500000000005">
    <ele>-0.8500000000000001</ele>
   </trkpt>
   <trkpt lat="52.4325766757787" lon="5.007686650500242">
    <ele>-1.33</ele>
   </trkpt>
   <trkpt lat="52.43292334249307" lon="5.0087233173093075">
    <ele>-1.42</ele>
   </trkpt>
   <trkpt lat="52.43327000000001" lon="5.00976">
    <ele>-1.5</ele>
   </trkpt>
   <trkpt lat="52.43339" lon="5.00989">
    <ele>-1.7300000000000002</ele>
   </trkpt>
   <trkpt lat="52.43363" lon="5.01065">
    <ele>-1.6</ele>
   </trkpt>
   <trkpt lat="52.43363" lon="5.0108500000000005">
    <ele>-1.61</ele>
   </trkpt>
   <trkpt lat="52.43398000928083" lon="5.011899983267341">
    <ele>-1.67</ele>
   </trkpt>
   <trkpt lat="52.43433000926279" lon="5.0129499832129385">
    <ele>-1.67</ele>
   </trkpt>
   <trkpt lat="52.43468000000001" lon="5.014">
    <ele>-1.61</ele>
   </trkpt>
   <trkpt lat="52.43479000000001" lon="5.014880000000001">
    <ele>-1.54</ele>
   </trkpt>
   <trkpt lat="52.43475" lon="5.015650000000001">
    <ele>-1.24</ele>
   </trkpt>
   <trkpt lat="52.43457" lon="5.01585">
    <ele>-0.81</ele>
   </trkpt>
   <trkpt lat="52.43455" lon="5.01595">
    <ele>-0.88</ele>
   </trkpt>
   <trkpt lat="52.43464" lon="5.016190000000001">
    <ele>-0.84</ele>
   </trkpt>
   <trkpt lat="52.434650000000005" lon="5.0163">
    <ele>-0.81</ele>
   </trkpt>
   <trkpt lat="52.43473" lon="5.016330000000001">
    <ele>-0.81</ele>
   </trkpt>
   <trkpt lat="52.43454606845908" lon="5.017673050462024">
    <ele>-1.07</ele>
   </trkpt>
   <trkpt lat="52.43436212170439" lon="5.019016089712525">
    <ele>-1.5</ele>
   </trkpt>
   <trkpt lat="52.43417815973615" lon="5.0203591177507425">
    <ele>-0.16</ele>
   </trkpt>
   <trkpt lat="52.43399418255462" lon="5.021702134575919">
    <ele>-1.5</ele>
   </trkpt>
   <trkpt lat="52.43381019015999" lon="5.023045140187293">
    <ele>-1.41</ele>
   </trkpt>
   <trkpt lat="52.433626182552516" lon="5.024388134584108">
    <ele>-1.0</ele>
   </trkpt>
   <trkpt lat="52.43344215973239" lon="5.025731117765606">
    <ele>-0.79</ele>
   </trkpt>
   <trkpt lat="52.43325812169987" lon="5.027074089731024">
    <ele>-0.79</ele>
   </trkpt>
   <trkpt lat="52.433074068455184" lon="5.0284170504796055">
    <ele>-0.67</ele>
   </trkpt>
   <trkpt lat="52.43289000000001" lon="5.0297600000000005">
    <ele>-0.42</ele>
   </trkpt>
   <trkpt lat="52.43269000713641" lon="5.03106000583972">
    <ele>0.02</ele>
   </trkpt>
   <trkpt lat="52.43249" lon="5.032360000000001">
    <ele>0.6600000000000001</ele>
   </trkpt>
   <trkpt lat="52.432410000000004" lon="5.03305">
    <ele>0.22</ele>
   </trkpt>
   <trkpt lat="52.43249" lon="5.033410000000001">
    <ele>0.02</ele>
   </trkpt>
   <trkpt lat="52.43269" lon="5.0335600000000005">
    <ele>-0.27</ele>
   </trkpt>
   <trkpt lat="52.43298500185847" lon="5.034219995630093">
    <ele>-0.42</ele>
   </trkpt>
   <trkpt lat="52.43328" lon="5.03488">
    <ele>-0.58</ele>
   </trkpt>
   <trkpt lat="52.4337" lon="5.035950000000001">
    <ele>-0.71</ele>
   </trkpt>
   <trkpt lat="52.43414335747028" lon="5.037019946169103">
    <ele>-0.84</ele>
   </trkpt>
   <trkpt lat="52.434586705284744" lon="5.038089913866481">
    <ele>-0.88</ele>
   </trkpt>
   <trkpt lat="52.435030043443014" lon="5.039159903092442">
    <ele>-0.92</ele>
   </trkpt>
   <trkpt lat="52.43547337194473" lon="5.040229913847296">
    <ele>-0.79</ele>
   </trkpt>
   <trkpt lat="52.43591669078958" lon="5.04129994613135">
    <ele>-0.88</ele>
   </trkpt>
   <trkpt lat="52.43636000000001" lon="5.04237">
    <ele>-0.84</ele>
   </trkpt>
   <trkpt lat="52.436670002551104" lon="5.043154994356947">
    <ele>-0.92</ele>
   </trkpt>
   <trkpt lat="52.436980000000005" lon="5.04394">
    <ele>-0.88</ele>
   </trkpt>
   <trkpt lat="52.437400000000004" lon="5.04495">
    <ele>-0.93</ele>
   </trkpt>
   <trkpt lat="52.43759000000001" lon="5.045260000000001">
    <ele>-0.88</ele>
   </trkpt>
   <trkpt lat="52.437760000000004" lon="5.045470000000001">
    <ele>-0.88</ele>
   </trkpt>
   <trkpt lat="52.437960000000004" lon="5.04567">
    <ele>-0.99</ele>
   </trkpt>
   <trkpt lat="52.438300000000005" lon="5.04593">
    <ele>-0.99</ele>
   </trkpt>
   <trkpt lat="52.43858" lon="5.04612">
    <ele>-0.92</ele>
   </trkpt>
   <trkpt lat="52.43894" lon="5.046340000000001">
    <ele>-0.89</ele>
   </trkpt>
   <trkpt lat="52.43916" lon="5.04645">
    <ele>-0.89</ele>
   </trkpt>
   <trkpt lat="52.43932" lon="5.0465800000000005">
    <ele>-0.75</ele>
   </trkpt>
   <trkpt lat="52.43948" lon="5.04675">
    <ele>-0.71</ele>
   </trkpt>
   <trkpt lat="52.43981" lon="5.04722">
    <ele>-0.38</ele>
   </trkpt>
   <trkpt lat="52.44012000000001" lon="5.047610000000001">
    <ele>0.93</ele>
   </trkpt>
   <trkpt lat="52.440200000000004" lon="5.0477300000000005">
    <ele>1.27</ele>
   </trkpt>
   <trkpt lat="52.440250000000006" lon="5.0478700000000005">
    <ele>1.27</ele>
   </trkpt>
   <trkpt lat="52.4399" lon="5.048220000000001">
    <ele>2.0300000000000002</ele>
   </trkpt>
   <trkpt lat="52.43968" lon="5.04849">
    <ele>3.0900000000000003</ele>
   </trkpt>
   <trkpt lat="52.43967000000001" lon="5.0486">
    <ele>3.33</ele>
   </trkpt>
   <trkpt lat="52.4395" lon="5.04882">
    <ele>3.35</ele>
   </trkpt>
   <trkpt lat="52.43927000000001" lon="5.04933">
    <ele>3.5500000000000003</ele>
   </trkpt>
   <trkpt lat="52.439080000000004" lon="5.04994">
    <ele>3.5900000000000003</ele>
   </trkpt>
   <trkpt lat="52.438950002844955" lon="5.0507600023599775">
    <ele>3.4400000000000004</ele>
   </trkpt>
   <trkpt lat="52.43882000000001" lon="5.05158">
    <ele>3.43</ele>
   </trkpt>
   <trkpt lat="52.43869" lon="5.05267">
    <ele>3.5500000000000003</ele>
   </trkpt>
   <trkpt lat="52.43867" lon="5.0536200000000004">
    <ele>3.62</ele>
   </trkpt>
   <trkpt lat="52.43864000000001" lon="5.053920000000001">
    <ele>3.62</ele>
   </trkpt>
   <trkpt lat="52.43845000301152" lon="5.054755003287414">
    <ele>3.6300000000000003</ele>
   </trkpt>
   <trkpt lat="52.43826000000001" lon="5.0555900000000005">
    <ele>3.7900000000000005</ele>
   </trkpt>
   <trkpt lat="52.43798" lon="5.056970000000001">
    <ele>3.85</ele>
   </trkpt>
   <trkpt lat="52.437900000000006" lon="5.05747">
    <ele>3.8400000000000003</ele>
   </trkpt>
   <trkpt lat="52.437795002572734" lon="5.058255002064615">
    <ele>3.89</ele>
   </trkpt>
   <trkpt lat="52.43769" lon="5.05904">
    <ele>3.91</ele>
   </trkpt>
   <trkpt lat="52.43752500482991" lon="5.0601150043086776">
    <ele>3.91</ele>
   </trkpt>
   <trkpt lat="52.437360000000005" lon="5.061190000000001">
    <ele>4.050000000000001</ele>
   </trkpt>
   <trkpt lat="52.437290000000004" lon="5.06196">
    <ele>3.93</ele>
   </trkpt>
   <trkpt lat="52.43725000229909" lon="5.06270000086059">
    <ele>3.920000000000001</ele>
   </trkpt>
   <trkpt lat="52.43721000000001" lon="5.063440000000001">
    <ele>3.6500000000000004</ele>
   </trkpt>
   <trkpt lat="52.437180000000005" lon="5.064030000000001">
    <ele>3.5300000000000002</ele>
   </trkpt>
   <trkpt lat="52.43717" lon="5.064760000000001">
    <ele>3.23</ele>
   </trkpt>
   <trkpt lat="52.43730667470327" lon="5.065736660546919">
    <ele>3.0700000000000003</ele>
   </trkpt>
   <trkpt lat="52.437443341361394" lon="5.066713327152316">
    <ele>3.12</ele>
   </trkpt>
   <trkpt lat="52.437580000000004" lon="5.067690000000001">
    <ele>3.2800000000000002</ele>
   </trkpt>
   <trkpt lat="52.43768000285275" lon="5.068509998279883">
    <ele>3.2800000000000002</ele>
   </trkpt>
   <trkpt lat="52.437780000000004" lon="5.069330000000001">
    <ele>3.4000000000000004</ele>
   </trkpt>
   <trkpt lat="52.437960000000004" lon="5.07059">
    <ele>4.140000000000001</ele>
   </trkpt>
   <trkpt lat="52.43795000000001" lon="5.07068">
    <ele>4.140000000000001</ele>
   </trkpt>
   <trkpt lat="52.43789" lon="5.070790000000001">
    <ele>4.15</ele>
   </trkpt>
   <trkpt lat="52.437430000000006" lon="5.0709800000000005">
    <ele>3.89</ele>
   </trkpt>
   <trkpt lat="52.43737" lon="5.07103">
    <ele>3.89</ele>
   </trkpt>
   <trkpt lat="52.437250000000006" lon="5.0712">
    <ele>3.75</ele>
   </trkpt>
   <trkpt lat="52.43701" lon="5.072010000000001">
    <ele>3.8000000000000003</ele>
   </trkpt>
   <trkpt lat="52.43686" lon="5.07291">
    <ele>3.6600000000000006</ele>
   </trkpt>
   <trkpt lat="52.43686" lon="5.07331">
    <ele>3.6600000000000006</ele>
   </trkpt>
   <trkpt lat="52.436890000000005" lon="5.07366">
    <ele>3.4600000000000004</ele>
   </trkpt>
   <trkpt lat="52.43703000000001" lon="5.07472">
    <ele>3.62</ele>
   </trkpt>
   <trkpt lat="52.43706" lon="5.07526">
    <ele>3.6500000000000004</ele>
   </trkpt>
   <trkpt lat="52.43703000000001" lon="5.07585">
    <ele>3.49</ele>
   </trkpt>
   <trkpt lat="52.436960000000006" lon="5.0761400000000005">
    <ele>3.4000000000000004</ele>
   </trkpt>
   <trkpt lat="52.436640000000004" lon="5.07704">
    <ele>3.43</ele>
   </trkpt>
   <trkpt lat="52.436580000000006" lon="5.077000000000001">
    <ele>3.54</ele>
   </trkpt>
   <trkpt lat="52.436530000000005" lon="5.07713">
    <ele>3.4800000000000004</ele>
   </trkpt>
   <trkpt lat="52.43629000000001" lon="5.07704">
    <ele>3.0900000000000003</ele>
   </trkpt>
   <trkpt lat="52.436080000000004" lon="5.07704">
    <ele>2.93</ele>
   </trkpt>
   <trkpt lat="52.435700000000004" lon="5.0770100000000005">
    <ele>2.0</ele>
   </trkpt>
   <trkpt lat="52.43554" lon="5.076960000000001">
    <ele>0.77</ele>
   </trkpt>
   <trkpt lat="52.435100000000006" lon="5.07669">
    <ele>-0.23</ele>
   </trkpt>
   <trkpt lat="52.43464" lon="5.07634">
    <ele>-0.46</ele>
   </trkpt>
   <trkpt lat="52.43430000000001" lon="5.07605">
    <ele>-0.44</ele>
   </trkpt>
   <trkpt lat="52.43401000000001" lon="5.0758600000000005">
    <ele>-0.46</ele>
   </trkpt>
   <trkpt lat="52.433370000000004" lon="5.07552">
    <ele>-0.27</ele>
   </trkpt>
   <trkpt lat="52.43325" lon="5.07547">
    <ele>-0.27</ele>
   </trkpt>
   <trkpt lat="52.432590000000005" lon="5.0753">
    <ele>-0.23</ele>
   </trkpt>
   <trkpt lat="52.43236" lon="5.0751800000000005">
    <ele>-0.21</ele>
   </trkpt>
   <trkpt lat="52.432190000000006" lon="5.075010000000001">
    <ele>-0.1</ele>
   </trkpt>
   <trkpt lat="52.43191" lon="5.074560000000001">
    <ele>-0.08</ele>
   </trkpt>
   <trkpt lat="52.43162" lon="5.0741700000000005">
    <ele>-0.27</ele>
   </trkpt>
   <trkpt lat="52.43157000000001" lon="5.07408">
    <ele>-0.29</ele>
   </trkpt>
   <trkpt lat="52.43151" lon="5.073930000000001">
    <ele>-0.23</ele>
   </trkpt>
   <trkpt lat="52.43135" lon="5.07331">
    <ele>-0.01</ele>
   </trkpt>
   <trkpt lat="52.43128" lon="5.073180000000001">
    <ele>-0.01</ele>
   </trkpt>
   <trkpt lat="52.430755001441035" lon="5.072609993287271">
    <ele>0.02</ele>
   </trkpt>
   <trkpt lat="52.43023" lon="5.07204">
    <ele>0.04</ele>
   </trkpt>
   <trkpt lat="52.43001" lon="5.071770000000001">
    <ele>0.1</ele>
   </trkpt>
   <trkpt lat="52.429550000000006" lon="5.071370000000001">
    <ele>0.30000000000000004</ele>
   </trkpt>
   <trkpt lat="52.428920000000005" lon="5.07092">
    <ele>0.52</ele>
   </trkpt>
   <trkpt lat="52.428830000000005" lon="5.07089">
    <ele>0.58</ele>
   </trkpt>
   <trkpt lat="52.42866000000001" lon="5.07087">
    <ele>0.7000000000000001</ele>
   </trkpt>
   <trkpt lat="52.42850000000001" lon="5.07092">
    <ele>0.71</ele>
   </trkpt>
   <trkpt lat="52.42833" lon="5.071090000000001">
    <ele>0.6900000000000001</ele>
   </trkpt>
   <trkpt lat="52.42819" lon="5.07143">
    <ele>0.65</ele>
   </trkpt>
   <trkpt lat="52.42803000000001" lon="5.07199">
    <ele>0.67</ele>
   </trkpt>
   <trkpt lat="52.4275" lon="5.07307">
    <ele>0.52</ele>
   </trkpt>
   <trkpt lat="52.42734" lon="5.07333">
    <ele>0.62</ele>
   </trkpt>
   <trkpt lat="52.427260000000004" lon="5.07338">
    <ele>0.62</ele>
   </trkpt>
   <trkpt lat="52.42716000000001" lon="5.073390000000001">
    <ele>0.54</ele>
   </trkpt>
   <trkpt lat="52.42703" lon="5.0733500000000005">
    <ele>0.54</ele>
   </trkpt>
   <trkpt lat="52.426680000000005" lon="5.07319">
    <ele>0.54</ele>
   </trkpt>
   <trkpt lat="52.425990000000006" lon="5.07272">
    <ele>0.6000000000000001</ele>
   </trkpt>
   <trkpt lat="52.42569" lon="5.0726">
    <ele>0.56</ele>
   </trkpt>
   <trkpt lat="52.425110000000004" lon="5.07244">
    <ele>0.4900000000000001</ele>
   </trkpt>
   <trkpt lat="52.424910000000004" lon="5.07242">
    <ele>0.48000000000000004</ele>
   </trkpt>
   <trkpt lat="52.42436000000001" lon="5.0726">
    <ele>0.51</ele>
   </trkpt>
   <trkpt lat="52.42374" lon="5.07275">
    <ele>0.6100000000000001</ele>
   </trkpt>
   <trkpt lat="52.4234" lon="5.07286">
    <ele>0.55</ele>
   </trkpt>
   <trkpt lat="52.42286000000001" lon="5.07277">
    <ele>0.59</ele>
   </trkpt>
   <trkpt lat="52.422700000000006" lon="5.072760000000001">
    <ele>0.59</ele>
   </trkpt>
   <trkpt lat="52.422140000000006" lon="5.07296">
    <ele>0.63</ele>
   </trkpt>
   <trkpt lat="52.42156500005952" lon="5.073005000582886">
    <ele>0.35000000000000003</ele>
   </trkpt>
   <trkpt lat="52.42099" lon="5.07305">
    <ele>-0.16</ele>
   </trkpt>
   <trkpt lat="52.420910000000006" lon="5.07301">
    <ele>-0.2</ele>
   </trkpt>
   <trkpt lat="52.42062000000001" lon="5.0724800000000005">
    <ele>-0.88</ele>
   </trkpt>
   <trkpt lat="52.42047" lon="5.072310000000001">
    <ele>-0.92</ele>
   </trkpt>
   <trkpt lat="52.42002500169696" lon="5.071674993585863">
    <ele>-0.84</ele>
   </trkpt>
   <trkpt lat="52.41958" lon="5.07104">
    <ele>-0.67</ele>
   </trkpt>
   <trkpt lat="52.418980000000005" lon="5.07031">
    <ele>0.08</ele>
   </trkpt>
   <trkpt lat="52.418730000000004" lon="5.06984">
    <ele>-0.58</ele>
   </trkpt>
   <trkpt lat="52.41828500203048" lon="5.069134992780796">
    <ele>-0.44</ele>
   </trkpt>
   <trkpt lat="52.417840000000005" lon="5.06843">
    <ele>-0.46</ele>
   </trkpt>
   <trkpt lat="52.41754" lon="5.06808">
    <ele>-0.42</ele>
   </trkpt>
   <trkpt lat="52.41733000000001" lon="5.06794">
    <ele>-0.42</ele>
   </trkpt>
   <trkpt lat="52.417170000000006" lon="5.067880000000001">
    <ele>-0.29</ele>
   </trkpt>
   <trkpt lat="52.41691" lon="5.06787">
    <ele>0.13</ele>
   </trkpt>
   <trkpt lat="52.41635" lon="5.067900000000001">
    <ele>0.34</ele>
   </trkpt>
   <trkpt lat="52.41590000000001" lon="5.068090000000001">
    <ele>0.59</ele>
   </trkpt>
   <trkpt lat="52.415510000000005" lon="5.068110000000001">
    <ele>0.62</ele>
   </trkpt>
   <trkpt lat="52.41526" lon="5.06803">
    <ele>0.39</ele>
   </trkpt>
   <trkpt lat="52.415130000000005" lon="5.06794">
    <ele>0.41000000000000003</ele>
   </trkpt>
   <trkpt lat="52.41483" lon="5.06766">
    <ele>0.54</ele>
   </trkpt>
   <trkpt lat="52.41436" lon="5.06742">
    <ele>0.29</ele>
   </trkpt>
   <trkpt lat="52.414060000000006" lon="5.06733">
    <ele>0.46</ele>
   </trkpt>
   <trkpt lat="52.413830000000004" lon="5.067290000000001">
    <ele>0.52</ele>
   </trkpt>
   <trkpt lat="52.41371" lon="5.06721">
    <ele>0.51</ele>
   </trkpt>
   <trkpt lat="52.413650000000004" lon="5.06712">
    <ele>0.51</ele>
   </trkpt>
   <trkpt lat="52.41364" lon="5.067010000000001">
    <ele>0.5</ele>
   </trkpt>
   <trkpt lat="52.41367" lon="5.06676">
    <ele>0.5</ele>
   </trkpt>
   <trkpt lat="52.41389" lon="5.06554">
    <ele>0.35000000000000003</ele>
   </trkpt>
   <trkpt lat="52.414080000000006" lon="5.0647400000000005">
    <ele>0.58</ele>
   </trkpt>
   <trkpt lat="52.41429" lon="5.06353">
    <ele>0.21</ele>
   </trkpt>
   <trkpt lat="52.41440000000001" lon="5.06268">
    <ele>0.37000000000000005</ele>
   </trkpt>
   <trkpt lat="52.41452" lon="5.061400000000001">
    <ele>0.76</ele>
   </trkpt>
   <trkpt lat="52.414690005375206" lon="5.060270004427389">
    <ele>0.89</ele>
   </trkpt>
   <trkpt lat="52.414860000000004" lon="5.05914">
    <ele>0.89</ele>
   </trkpt>
   <trkpt lat="52.414970000000004" lon="5.05811">
    <ele>0.7000000000000001</ele>
   </trkpt>
   <trkpt lat="52.415000000000006" lon="5.05764">
    <ele>0.7000000000000001</ele>
   </trkpt>
   <trkpt lat="52.41496000000001" lon="5.05707">
    <ele>0.79</ele>
   </trkpt>
   <trkpt lat="52.41489000000001" lon="5.0565500000000005">
    <ele>0.71</ele>
   </trkpt>
   <trkpt lat="52.41467" lon="5.05576">
    <ele>0.7400000000000001</ele>
   </trkpt>
   <trkpt lat="52.414300000000004" lon="5.0546500000000005">
    <ele>1.01</ele>
   </trkpt>
   <trkpt lat="52.414010002675006" lon="5.053844994544492">
    <ele>0.62</ele>
   </trkpt>
   <trkpt lat="52.413720000000005" lon="5.05304">
    <ele>0.6000000000000001</ele>
   </trkpt>
   <trkpt lat="52.41339000000001" lon="5.0522">
    <ele>0.79</ele>
   </trkpt>
   <trkpt lat="52.41311" lon="5.05154">
    <ele>0.81</ele>
   </trkpt>
   <trkpt lat="52.41282" lon="5.05107">
    <ele>0.78</ele>
   </trkpt>
   <trkpt lat="52.41254000000001" lon="5.0507800000000005">
    <ele>0.7200000000000001</ele>
   </trkpt>
   <trkpt lat="52.41177500569526" lon="5.050109965149611">
    <ele>0.88</ele>
   </trkpt>
   <trkpt lat="52.411010007603224" lon="5.04943995354221">
    <ele>0.92</ele>
   </trkpt>
   <trkpt lat="52.41024500572414" lon="5.048769965176462">
    <ele>0.8700000000000001</ele>
   </trkpt>
   <trkpt lat="52.40948" lon="5.048100000000001">
    <ele>0.81</ele>
   </trkpt>
   <trkpt lat="52.40896000000001" lon="5.04767">
    <ele>0.7300000000000001</ele>
   </trkpt>
   <trkpt lat="52.4083366686738" lon="5.04717998613693">
    <ele>0.84</ele>
   </trkpt>
   <trkpt lat="52.407713335321944" lon="5.046689986122615">
    <ele>0.59</ele>
   </trkpt>
   <trkpt lat="52.407090000000004" lon="5.046200000000001">
    <ele>0.65</ele>
   </trkpt>
   <trkpt lat="52.40693" lon="5.04596">
    <ele>0.65</ele>
   </trkpt>
   <trkpt lat="52.4066700046429" lon="5.044909993779938">
    <ele>0.54</ele>
   </trkpt>
   <trkpt lat="52.40641" lon="5.0438600000000005">
    <ele>0.41000000000000003</ele>
   </trkpt>
   <trkpt lat="52.406220000000005" lon="5.04277">
    <ele>0.7000000000000001</ele>
   </trkpt>
   <trkpt lat="52.40616000000001" lon="5.04251">
    <ele>0.7400000000000001</ele>
   </trkpt>
   <trkpt lat="52.405855001389874" lon="5.041939996095251">
    <ele>0.56</ele>
   </trkpt>
   <trkpt lat="52.405550000000005" lon="5.041370000000001">
    <ele>0.76</ele>
   </trkpt>
   <trkpt lat="52.405460000000005" lon="5.041110000000001">
    <ele>0.8200000000000001</ele>
   </trkpt>
   <trkpt lat="52.405390000000004" lon="5.040760000000001">
    <ele>0.92</ele>
   </trkpt>
   <trkpt lat="52.405310002874366" lon="5.0399349985373485">
    <ele>0.93</ele>
   </trkpt>
   <trkpt lat="52.40523" lon="5.03911">
    <ele>0.7400000000000001</ele>
   </trkpt>
   <trkpt lat="52.40516" lon="5.03864">
    <ele>0.6900000000000001</ele>
   </trkpt>
   <trkpt lat="52.405060000000006" lon="5.03826">
    <ele>0.79</ele>
   </trkpt>
   <trkpt lat="52.40484000000001" lon="5.03781">
    <ele>0.8300000000000001</ele>
   </trkpt>
   <trkpt lat="52.404280002239034" lon="5.037089990927786">
    <ele>0.59</ele>
   </trkpt>
   <trkpt lat="52.40372000000001" lon="5.036370000000001">
    <ele>0.6100000000000001</ele>
   </trkpt>
   <trkpt lat="52.403620000000004" lon="5.03622">
    <ele>0.6100000000000001</ele>
   </trkpt>
   <trkpt lat="52.40346" lon="5.035920000000001">
    <ele>0.7300000000000001</ele>
   </trkpt>
   <trkpt lat="52.403240000000004" lon="5.0354600000000005">
    <ele>0.6900000000000001</ele>
   </trkpt>
   <trkpt lat="52.403150000000004" lon="5.035200000000001">
    <ele>0.7200000000000001</ele>
   </trkpt>
   <trkpt lat="52.402770000000004" lon="5.0339">
    <ele>0.9700000000000001</ele>
   </trkpt>
   <trkpt lat="52.40269000000001" lon="5.03375">
    <ele>0.9600000000000001</ele>
   </trkpt>
   <trkpt lat="52.402590000000004" lon="5.03362">
    <ele>0.9</ele>
   </trkpt>
   <trkpt lat="52.40209500109935" lon="5.03311499435826">
    <ele>0.99</ele>
   </trkpt>
   <trkpt lat="52.4016" lon="5.03261">
    <ele>0.7000000000000001</ele>
   </trkpt>
   <trkpt lat="52.40149" lon="5.03244">
    <ele>0.7000000000000001</ele>
   </trkpt>
   <trkpt lat="52.4014" lon="5.03223">
    <ele>0.7000000000000001</ele>
   </trkpt>
   <trkpt lat="52.401230000000005" lon="5.03164">
    <ele>0.8200000000000001</ele>
   </trkpt>
   <trkpt lat="52.40111" lon="5.03138">
    <ele>0.8200000000000001</ele>
   </trkpt>
   <trkpt lat="52.40097" lon="5.0312">
    <ele>0.79</ele>
   </trkpt>
   <trkpt lat="52.400310000000005" lon="5.0306500000000005">
    <ele>0.56</ele>
   </trkpt>
   <trkpt lat="52.39965000187073" lon="5.029974989850978">
    <ele>0.77</ele>
   </trkpt>
   <trkpt lat="52.398990000000005" lon="5.0293">
    <ele>0.99</ele>
   </trkpt>
   <trkpt lat="52.398790000000005" lon="5.02916">
    <ele>1.09</ele>
   </trkpt>
   <trkpt lat="52.398280000359954" lon="5.028879996779886">
    <ele>1.05</ele>
   </trkpt>
   <trkpt lat="52.39777" lon="5.028600000000001">
    <ele>1.1400000000000001</ele>
   </trkpt>
   <trkpt lat="52.397540000000006" lon="5.028490000000001">
    <ele>1.1400000000000001</ele>
   </trkpt>
   <trkpt lat="52.39704500021724" lon="5.028309998010182">
    <ele>0.93</ele>
   </trkpt>
   <trkpt lat="52.396550000000005" lon="5.02813">
    <ele>0.9800000000000002</ele>
   </trkpt>
   <trkpt lat="52.396350000000005" lon="5.028110000000001">
    <ele>0.9400000000000001</ele>
   </trkpt>
   <trkpt lat="52.39607" lon="5.02813">
    <ele>0.8200000000000001</ele>
   </trkpt>
   <trkpt lat="52.39589" lon="5.02812">
    <ele>0.81</ele>
   </trkpt>
   <trkpt lat="52.39573000000001" lon="5.028020000000001">
    <ele>0.88</ele>
   </trkpt>
   <trkpt lat="52.39535000000001" lon="5.027640000000001">
    <ele>1.06</ele>
   </trkpt>
   <trkpt lat="52.39517000000001" lon="5.02754">
    <ele>1.12</ele>
   </trkpt>
   <trkpt lat="52.394655000064624" lon="5.027374998058437">
    <ele>1.0</ele>
   </trkpt>
   <trkpt lat="52.39414000000001" lon="5.02721">
    <ele>1.02</ele>
   </trkpt>
   <trkpt lat="52.393750000000004" lon="5.02716">
    <ele>1.12</ele>
   </trkpt>
   <trkpt lat="52.39358000000001" lon="5.027100000000001">
    <ele>1.1500000000000001</ele>
   </trkpt>
   <trkpt lat="52.39331000000001" lon="5.02691">
    <ele>1.04</ele>
   </trkpt>
   <trkpt lat="52.39316" lon="5.026770000000001">
    <ele>1.04</ele>
   </trkpt>
   <trkpt lat="52.392860000000006" lon="5.02644">
    <ele>1.2000000000000002</ele>
   </trkpt>
   <trkpt lat="52.39273000000001" lon="5.026350000000001">
    <ele>1.2000000000000002</ele>
   </trkpt>
   <trkpt lat="52.39199000000001" lon="5.0261000000000005">
    <ele>1.29</ele>
   </trkpt>
   <trkpt lat="52.39144" lon="5.02599">
    <ele>1.2300000000000002</ele>
   </trkpt>
   <trkpt lat="52.39132000000001" lon="5.025930000000001">
    <ele>1.11</ele>
   </trkpt>
   <trkpt lat="52.39079" lon="5.02561">
    <ele>1.18</ele>
   </trkpt>
   <trkpt lat="52.390060000000005" lon="5.025370000000001">
    <ele>1.12</ele>
   </trkpt>
   <trkpt lat="52.389540000000004" lon="5.0250900000000005">
    <ele>1.1400000000000001</ele>
   </trkpt>
   <trkpt lat="52.389120000000005" lon="5.02501">
    <ele>1.3</ele>
   </trkpt>
   <trkpt lat="52.38881000000001" lon="5.024920000000001">
    <ele>1.33</ele>
   </trkpt>
   <trkpt lat="52.388470000000005" lon="5.024920000000001">
    <ele>0.7400000000000001</ele>
   </trkpt>
   <trkpt lat="52.388360000000006" lon="5.024900000000001">
    <ele>0.7400000000000001</ele>
   </trkpt>
   <trkpt lat="52.388290000000005" lon="5.024850000000001">
    <ele>0.7400000000000001</ele>
   </trkpt>
   <trkpt lat="52.388200000000005" lon="5.02475">
    <ele>0.8</ele>
   </trkpt>
   <trkpt lat="52.3881" lon="5.02456">
    <ele>0.8200000000000001</ele>
   </trkpt>
   <trkpt lat="52.388110000000005" lon="5.024570000000001">
    <ele>0.8200000000000001</ele>
   </trkpt>
   <trkpt lat="52.387800000000006" lon="5.02341">
    <ele>0.9600000000000001</ele>
   </trkpt>
   <trkpt lat="52.38778000000001" lon="5.02282">
    <ele>1.06</ele>
   </trkpt>
   <trkpt lat="52.38767000000001" lon="5.02214">
    <ele>1.11</ele>
   </trkpt>
   <trkpt lat="52.387530000000005" lon="5.02153">
    <ele>1.04</ele>
   </trkpt>
   <trkpt lat="52.387220000000006" lon="5.02033">
    <ele>1.26</ele>
   </trkpt>
   <trkpt lat="52.38699500195145" lon="5.019644996422585">
    <ele>1.09</ele>
   </trkpt>
   <trkpt lat="52.386770000000006" lon="5.018960000000001">
    <ele>1.08</ele>
   </trkpt>
   <trkpt lat="52.386700000000005" lon="5.018820000000001">
    <ele>1.25</ele>
   </trkpt>
   <trkpt lat="52.38656" lon="5.01867">
    <ele>1.28</ele>
   </trkpt>
   <trkpt lat="52.38587500066611" lon="5.018294994221112">
    <ele>1.2300000000000002</ele>
   </trkpt>
   <trkpt lat="52.38519" lon="5.01792">
    <ele>1.28</ele>
   </trkpt>
   <trkpt lat="52.385000000000005" lon="5.0177700000000005">
    <ele>1.28</ele>
   </trkpt>
   <trkpt lat="52.384800000000006" lon="5.017530000000001">
    <ele>1.27</ele>
   </trkpt>
   <trkpt lat="52.38463" lon="5.017270000000001">
    <ele>1.27</ele>
   </trkpt>
   <trkpt lat="52.38448" lon="5.016870000000001">
    <ele>1.3200000000000003</ele>
   </trkpt>
   <trkpt lat="52.384440000000005" lon="5.0166900000000005">
    <ele>1.3200000000000003</ele>
   </trkpt>
   <trkpt lat="52.384420000000006" lon="5.01647">
    <ele>1.3200000000000003</ele>
   </trkpt>
   <trkpt lat="52.384420000000006" lon="5.016240000000001">
    <ele>1.27</ele>
   </trkpt>
   <trkpt lat="52.38445" lon="5.016">
    <ele>1.27</ele>
   </trkpt>
   <trkpt lat="52.38461000206732" lon="5.015310002248098">
    <ele>1.2100000000000002</ele>
   </trkpt>
   <trkpt lat="52.38477" lon="5.014620000000001">
    <ele>0.9700000000000001</ele>
   </trkpt>
   <trkpt lat="52.384820000000005" lon="5.014290000000001">
    <ele>1.07</ele>
   </trkpt>
   <trkpt lat="52.384840000000004" lon="5.01412">
    <ele>1.05</ele>
   </trkpt>
   <trkpt lat="52.38483" lon="5.01393">
    <ele>0.9700000000000001</ele>
   </trkpt>
   <trkpt lat="52.38479" lon="5.01374">
    <ele>0.9400000000000001</ele>
   </trkpt>
   <trkpt lat="52.38439" lon="5.0127500000000005">
    <ele>1.17</ele>
   </trkpt>
   <trkpt lat="52.38425" lon="5.01236">
    <ele>1.24</ele>
   </trkpt>
   <trkpt lat="52.38385001266281" lon="5.011133310999826">
    <ele>0.89</ele>
   </trkpt>
   <trkpt lat="52.38345001262806" lon="5.00990664422705">
    <ele>0.9100000000000001</ele>
   </trkpt>
   <trkpt lat="52.383050000000004" lon="5.00868">
    <ele>0.9100000000000001</ele>
   </trkpt>
   <trkpt lat="52.38273500593527" lon="5.007499991807447">
    <ele>0.78</ele>
   </trkpt>
   <trkpt lat="52.38242" lon="5.0063200000000005">
    <ele>0.8700000000000001</ele>
   </trkpt>
   <trkpt lat="52.382170003383806" lon="5.005434995269182">
    <ele>1.02</ele>
   </trkpt>
   <trkpt lat="52.38192" lon="5.00455">
    <ele>1.03</ele>
   </trkpt>
   <trkpt lat="52.381625003954476" lon="5.003574993299073">
    <ele>1.02</ele>
   </trkpt>
   <trkpt lat="52.381330000000005" lon="5.0026">
    <ele>1.52</ele>
   </trkpt>
   <trkpt lat="52.38132" lon="5.00244">
    <ele>1.5</ele>
   </trkpt>
   <trkpt lat="52.38132" lon="5.0024500000000005">
    <ele>1.5</ele>
   </trkpt>
   <trkpt lat="52.38139" lon="5.0023">
    <ele>1.01</ele>
   </trkpt>
   <trkpt lat="52.381530000000005" lon="5.002260000000001">
    <ele>-0.8700000000000001</ele>
   </trkpt>
   <trkpt lat="52.381730000000005" lon="5.0023">
    <ele>-1.0</ele>
   </trkpt>
   <trkpt lat="52.382130000000004" lon="5.00206">
    <ele>-1.07</ele>
   </trkpt>
   <trkpt lat="52.38228" lon="5.00203">
    <ele>-1.12</ele>
   </trkpt>
   <trkpt lat="52.382720000000006" lon="5.00201">
    <ele>-1.4800000000000002</ele>
   </trkpt>
   <trkpt lat="52.383010000000006" lon="5.00194">
    <ele>-1.8300000000000003</ele>
   </trkpt>
   <trkpt lat="52.38344000000001" lon="5.001930000000001">
    <ele>-2.0700000000000003</ele>
   </trkpt>
   <trkpt lat="52.3836" lon="5.001950000000001">
    <ele>-2.0700000000000003</ele>
   </trkpt>
   <trkpt lat="52.384040000000006" lon="5.0020500000000006">
    <ele>-2.1100000000000003</ele>
   </trkpt>
   <trkpt lat="52.38416" lon="5.0021">
    <ele>-2.2</ele>
   </trkpt>
   <trkpt lat="52.38434" lon="5.002280000000001">
    <ele>-2.2</ele>
   </trkpt>
   <trkpt lat="52.384460000000004" lon="5.00236">
    <ele>-2.22</ele>
   </trkpt>
   <trkpt lat="52.38458000000001" lon="5.0023800000000005">
    <ele>-2.22</ele>
   </trkpt>
   <trkpt lat="52.38481" lon="5.002400000000001">
    <ele>-2.4000000000000004</ele>
   </trkpt>
   <trkpt lat="52.38492" lon="5.00244">
    <ele>-2.4000000000000004</ele>
   </trkpt>
   <trkpt lat="52.385200000000005" lon="5.0025900000000005">
    <ele>-2.48</ele>
   </trkpt>
   <trkpt lat="52.385510000000004" lon="5.002700000000001">
    <ele>-2.5</ele>
   </trkpt>
   <trkpt lat="52.38566" lon="5.00272">
    <ele>-2.5</ele>
   </trkpt>
   <trkpt lat="52.38613" lon="5.00269">
    <ele>-1.8900000000000001</ele>
   </trkpt>
   <trkpt lat="52.38685" lon="5.00257">
    <ele>-1.01</ele>
   </trkpt>
   <trkpt lat="52.38731000000001" lon="5.00271">
    <ele>-1.1400000000000001</ele>
   </trkpt>
   <trkpt lat="52.38747000000001" lon="5.00274">
    <ele>-1.24</ele>
   </trkpt>
   <trkpt lat="52.38763" lon="5.002770000000001">
    <ele>-1.51</ele>
   </trkpt>
   <trkpt lat="52.38777" lon="5.002750000000001">
    <ele>-1.51</ele>
   </trkpt>
   <trkpt lat="52.387930000000004" lon="5.00271">
    <ele>-1.67</ele>
   </trkpt>
   <trkpt lat="52.388070000000006" lon="5.00264">
    <ele>-1.78</ele>
   </trkpt>
   <trkpt lat="52.388470000000005" lon="5.00239">
    <ele>-1.68</ele>
   </trkpt>
   <trkpt lat="52.38862" lon="5.002350000000001">
    <ele>-1.4000000000000001</ele>
   </trkpt>
   <trkpt lat="52.38890000000001" lon="5.00234">
    <ele>-1.31</ele>
   </trkpt>
   <trkpt lat="52.38906000000001" lon="5.0023100000000005">
    <ele>-1.28</ele>
   </trkpt>
   <trkpt lat="52.38935000000001" lon="5.00218">
    <ele>-1.61</ele>
   </trkpt>
   <trkpt lat="52.389860000000006" lon="5.0019100000000005">
    <ele>-2.25</ele>
   </trkpt>
   <trkpt lat="52.390530000000005" lon="5.00147">
    <ele>-2.5500000000000003</ele>
   </trkpt>
   <trkpt lat="52.390840000000004" lon="5.00131">
    <ele>-2.34</ele>
   </trkpt>
   <trkpt lat="52.39124" lon="5.00105">
    <ele>-2.0700000000000003</ele>
   </trkpt>
   <trkpt lat="52.39134000000001" lon="5.000970000000001">
    <ele>-2.0700000000000003</ele>
   </trkpt>
   <trkpt lat="52.391420000000004" lon="5.000870000000001">
    <ele>-2.08</ele>
   </trkpt>
   <trkpt lat="52.39184402495729" lon="4.999654046713369">
    <ele>-2.08</ele>
   </trkpt>
   <trkpt lat="52.39226803743877" lon="4.998438070063317">
    <ele>-2.08</ele>
   </trkpt>
   <trkpt lat="52.39269203744396" lon="4.99722207004973">
    <ele>0.44</ele>
   </trkpt>
   <trkpt lat="52.39311602497248" lon="4.996006046672486">
    <ele>0.44</ele>
   </trkpt>
   <trkpt lat="52.39354" lon="4.99479">
    <ele>0.44</ele>
   </trkpt>
   <trkpt lat="52.392977514618046" lon="4.995865041118347">
    <ele>0.44</ele>
   </trkpt>
   <trkpt lat="52.39241501948482" lon="4.996940054834671">
    <ele>-0.8300000000000001</ele>
   </trkpt>
   <trkpt lat="52.39185251460076" lon="4.998015041149754">
    <ele>-0.8300000000000001</ele>
   </trkpt>
   <trkpt lat="52.391290000000005" lon="4.999090000000001">
    <ele>-0.8300000000000001</ele>
   </trkpt>
   <trkpt lat="52.39117" lon="4.99786">
    <ele>-1.33</ele>
   </trkpt>
   <trkpt lat="52.391090000000005" lon="4.9977100000000005">
    <ele>-1.35</ele>
   </trkpt>
   <trkpt lat="52.391020000000005" lon="4.997380000000001">
    <ele>-1.43</ele>
   </trkpt>
   <trkpt lat="52.391000000000005" lon="4.99683">
    <ele>-1.43</ele>
   </trkpt>
   <trkpt lat="52.39088" lon="4.996320000000001">
    <ele>-1.18</ele>
   </trkpt>
   <trkpt lat="52.39078000000001" lon="4.996040000000001">
    <ele>0.34</ele>
   </trkpt>
   <trkpt lat="52.3907" lon="4.99565">
    <ele>-0.04</ele>
   </trkpt>
   <trkpt lat="52.390730000000005" lon="4.9954">
    <ele>-0.15000000000000002</ele>
   </trkpt>
   <trkpt lat="52.39063" lon="4.995220000000001">
    <ele>-0.16</ele>
   </trkpt>
   <trkpt lat="52.39061" lon="4.99514">
    <ele>-0.16</ele>
   </trkpt>
   <trkpt lat="52.39041668107061" lon="4.993833321868227">
    <ele>-0.42</ele>
   </trkpt>
   <trkpt lat="52.390223347734455" lon="4.992526655182757">
    <ele>-0.68</ele>
   </trkpt>
   <trkpt lat="52.39003" lon="4.99122">
    <ele>-0.44</ele>
   </trkpt>
   <trkpt lat="52.38984000000001" lon="4.990500000000001">
    <ele>-0.42</ele>
   </trkpt>
   <trkpt lat="52.38974" lon="4.98991">
    <ele>-0.34</ele>
   </trkpt>
   <trkpt lat="52.389570000000006" lon="4.9894300000000005">
    <ele>-0.4</ele>
   </trkpt>
   <trkpt lat="52.38924" lon="4.98871">
    <ele>-0.4</ele>
   </trkpt>
   <trkpt lat="52.388845005176734" lon="4.987604990182511">
    <ele>-0.1</ele>
   </trkpt>
   <trkpt lat="52.388450000000006" lon="4.9865">
    <ele>-0.31</ele>
   </trkpt>
   <trkpt lat="52.38801000524635" lon="4.985384988888973">
    <ele>-0.22</ele>
   </trkpt>
   <trkpt lat="52.387570000000004" lon="4.98427">
    <ele>-0.46</ele>
   </trkpt>
   <trkpt lat="52.387350000000005" lon="4.9838000000000005">
    <ele>-0.4</ele>
   </trkpt>
   <trkpt lat="52.387220000000006" lon="4.9836100000000005">
    <ele>-0.4</ele>
   </trkpt>
   <trkpt lat="52.3864" lon="4.98324">
    <ele>-0.46</ele>
   </trkpt>
   <trkpt lat="52.386100000000006" lon="4.98303">
    <ele>-0.42</ele>
   </trkpt>
   <trkpt lat="52.38559000000001" lon="4.98237">
    <ele>-0.42</ele>
   </trkpt>
   <trkpt lat="52.385290000000005" lon="4.9819">
    <ele>-0.44</ele>
   </trkpt>
   <trkpt lat="52.38499000283126" lon="4.9810699941514756">
    <ele>-0.38</ele>
   </trkpt>
   <trkpt lat="52.384690000000006" lon="4.98024">
    <ele>-0.27</ele>
   </trkpt>
   <trkpt lat="52.38443" lon="4.97942">
    <ele>-0.46</ele>
   </trkpt>
   <trkpt lat="52.38425" lon="4.97871">
    <ele>-0.46</ele>
   </trkpt>
   <trkpt lat="52.38398500570473" lon="4.977544992912041">
    <ele>-0.4</ele>
   </trkpt>
   <trkpt lat="52.383720000000004" lon="4.976380000000001">
    <ele>-0.5</ele>
   </trkpt>
   <trkpt lat="52.383660000000006" lon="4.97604">
    <ele>-0.4900000000000001</ele>
   </trkpt>
   <trkpt lat="52.38348500302998" lon="4.975194996734467">
    <ele>-0.9700000000000001</ele>
   </trkpt>
   <trkpt lat="52.38331" lon="4.97435">
    <ele>-0.58</ele>
   </trkpt>
   <trkpt lat="52.383250000000004" lon="4.97369">
    <ele>-0.54</ele>
   </trkpt>
   <trkpt lat="52.38299000000001" lon="4.972440000000001">
    <ele>-0.42</ele>
   </trkpt>
   <trkpt lat="52.3828" lon="4.97154">
    <ele>0.28</ele>
   </trkpt>
   <trkpt lat="52.382690000000004" lon="4.971380000000001">
    <ele>0.56</ele>
   </trkpt>
   <trkpt lat="52.382720000000006" lon="4.97116">
    <ele>0.8200000000000001</ele>
   </trkpt>
   <trkpt lat="52.382690000000004" lon="4.9709">
    <ele>1.08</ele>
   </trkpt>
   <trkpt lat="52.38277000000001" lon="4.97071">
    <ele>1.29</ele>
   </trkpt>
   <trkpt lat="52.38277000000001" lon="4.970400000000001">
    <ele>1.61</ele>
   </trkpt>
   <trkpt lat="52.382670000000005" lon="4.970370000000001">
    <ele>1.61</ele>
   </trkpt>
   <trkpt lat="52.38257" lon="4.970260000000001">
    <ele>1.7400000000000002</ele>
   </trkpt>
   <trkpt lat="52.38251" lon="4.97024">
    <ele>1.7400000000000002</ele>
   </trkpt>
   <trkpt lat="52.382400000000004" lon="4.970280000000001">
    <ele>1.68</ele>
   </trkpt>
   <trkpt lat="52.3823" lon="4.970210000000001">
    <ele>1.67</ele>
   </trkpt>
   <trkpt lat="52.381820000000005" lon="4.97018">
    <ele>1.3900000000000001</ele>
   </trkpt>
   <trkpt lat="52.381550000000004" lon="4.970140000000001">
    <ele>1.4700000000000002</ele>
   </trkpt>
   <trkpt lat="52.38116" lon="4.969950000000001">
    <ele>2.08</ele>
   </trkpt>
   <trkpt lat="52.38098" lon="4.969790000000001">
    <ele>2.37</ele>
   </trkpt>
   <trkpt lat="52.3806" lon="4.9695100000000005">
    <ele>3.3000000000000003</ele>
   </trkpt>
   <trkpt lat="52.38031" lon="4.96921">
    <ele>4.44</ele>
   </trkpt>
   <trkpt lat="52.380050000000004" lon="4.9689000000000005">
    <ele>4.44</ele>
   </trkpt>
   <trkpt lat="52.379420014714306" lon="4.96806494044033">
    <ele>7.73</ele>
   </trkpt>
   <trkpt lat="52.37879002354427" lon="4.9672299047082">
    <ele>10.110000000000001</ele>
   </trkpt>
   <trkpt lat="52.37816002649015" lon="4.966394892802609">
    <ele>11.44</ele>
   </trkpt>
   <trkpt lat="52.377530023552296" lon="4.965559904722559">
    <ele>10.990000000000002</ele>
   </trkpt>
   <trkpt lat="52.376900014730964" lon="4.96472494046705">
    <ele>9.41</ele>
   </trkpt>
   <trkpt lat="52.376270000000005" lon="4.96389">
    <ele>6.1000000000000005</ele>
   </trkpt>
   <trkpt lat="52.375870000000006" lon="4.96344">
    <ele>5.08</ele>
   </trkpt>
   <trkpt lat="52.37534" lon="4.963010000000001">
    <ele>2.97</ele>
   </trkpt>
   <trkpt lat="52.374680000000005" lon="4.96253">
    <ele>1.97</ele>
   </trkpt>
   <trkpt lat="52.37427" lon="4.962330000000001">
    <ele>1.7300000000000002</ele>
   </trkpt>
   <trkpt lat="52.373940000000005" lon="4.962230000000001">
    <ele>2.1</ele>
   </trkpt>
   <trkpt lat="52.373580000000004" lon="4.962210000000001">
    <ele>2.16</ele>
   </trkpt>
   <trkpt lat="52.37357" lon="4.96236">
    <ele>2.18</ele>
   </trkpt>
   <trkpt lat="52.37280333333033" lon="4.962336665856383">
    <ele>2.02</ele>
   </trkpt>
   <trkpt lat="52.37203666665606" lon="4.962313332522834">
    <ele>2.4600000000000004</ele>
   </trkpt>
   <trkpt lat="52.37127" lon="4.96229">
    <ele>2.4899999999999998</ele>
   </trkpt>
   <trkpt lat="52.370760000000004" lon="4.962300000000001">
    <ele>2.18</ele>
   </trkpt>
   <trkpt lat="52.37044" lon="4.962280000000001">
    <ele>2.14</ele>
   </trkpt>
   <trkpt lat="52.37044" lon="4.96215">
    <ele>2.24</ele>
   </trkpt>
   <trkpt lat="52.370020000000004" lon="4.962280000000001">
    <ele>2.3800000000000003</ele>
   </trkpt>
   <trkpt lat="52.36920999997599" lon="4.962259999632624">
    <ele>3.6400000000000006</ele>
   </trkpt>
   <trkpt lat="52.3684" lon="4.96224">
    <ele>4.44</ele>
   </trkpt>
   <trkpt lat="52.36802" lon="4.962160000000001">
    <ele>4.880000000000001</ele>
   </trkpt>
   <trkpt lat="52.3678" lon="4.96206">
    <ele>5.48</ele>
   </trkpt>
   <trkpt lat="52.36746" lon="4.9618400000000005">
    <ele>5.840000000000001</ele>
   </trkpt>
   <trkpt lat="52.36733" lon="4.96173">
    <ele>6.08</ele>
   </trkpt>
   <trkpt lat="52.366960000000006" lon="4.96133">
    <ele>6.640000000000001</ele>
   </trkpt>
   <trkpt lat="52.36668" lon="4.96089">
    <ele>7.34</ele>
   </trkpt>
   <trkpt lat="52.36638000000001" lon="4.960190000000001">
    <ele>8.23</ele>
   </trkpt>
   <trkpt lat="52.366220000000006" lon="4.959650000000001">
    <ele>8.59</ele>
   </trkpt>
   <trkpt lat="52.36616000000001" lon="4.9594000000000005">
    <ele>9.430000000000001</ele>
   </trkpt>
   <trkpt lat="52.366110000000006" lon="4.959090000000001">
    <ele>9.430000000000001</ele>
   </trkpt>
   <trkpt lat="52.36598003422672" lon="4.957665983224048">
    <ele>11.250000000000002</ele>
   </trkpt>
   <trkpt lat="52.365850051339194" lon="4.956241974827176">
    <ele>11.520000000000001</ele>
   </trkpt>
   <trkpt lat="52.365720051337576" lon="4.954817974810395">
    <ele>9.21</ele>
   </trkpt>
   <trkpt lat="52.36559003422206" lon="4.953393983174721">
    <ele>7.680000000000001</ele>
   </trkpt>
   <trkpt lat="52.365460000000006" lon="4.95197">
    <ele>6.3500000000000005</ele>
   </trkpt>
   <trkpt lat="52.3654" lon="4.950780000000001">
    <ele>4.930000000000001</ele>
   </trkpt>
   <trkpt lat="52.3654" lon="4.94998">
    <ele>4.0</ele>
   </trkpt>
   <trkpt lat="52.365500000000004" lon="4.9488">
    <ele>3.6100000000000003</ele>
   </trkpt>
   <trkpt lat="52.36547" lon="4.9485600000000005">
    <ele>3.6500000000000004</ele>
   </trkpt>
   <trkpt lat="52.365320000000004" lon="4.948130000000001">
    <ele>3.86</ele>
   </trkpt>
   <trkpt lat="52.36504000000001" lon="4.94775">
    <ele>3.87</ele>
   </trkpt>
   <trkpt lat="52.36486000000001" lon="4.947590000000001">
    <ele>3.99</ele>
   </trkpt>
   <trkpt lat="52.364850000000004" lon="4.94765">
    <ele>4.0</ele>
   </trkpt>
   <trkpt lat="52.364670000000004" lon="4.947520000000001">
    <ele>3.85</ele>
   </trkpt>
   <trkpt lat="52.36441000000001" lon="4.9474">
    <ele>3.5300000000000002</ele>
   </trkpt>
   <trkpt lat="52.36365000041619" lon="4.947119995214957">
    <ele>3.0</ele>
   </trkpt>
   <trkpt lat="52.36289000000001" lon="4.946840000000001">
    <ele>2.9800000000000004</ele>
   </trkpt>
   <trkpt lat="52.362820000000006" lon="4.94678">
    <ele>2.9800000000000004</ele>
   </trkpt>
   <trkpt lat="52.362730000000006" lon="4.9466600000000005">
    <ele>3.06</ele>
   </trkpt>
   <trkpt lat="52.36265" lon="4.946490000000001">
    <ele>2.8100000000000005</ele>
   </trkpt>
   <trkpt lat="52.36262000000001" lon="4.946370000000001">
    <ele>2.8100000000000005</ele>
   </trkpt>
   <trkpt lat="52.362446027136585" lon="4.9451019799983715">
    <ele>2.4600000000000004</ele>
   </trkpt>
   <trkpt lat="52.36227204070273" lon="4.943833969982758">
    <ele>2.58</ele>
   </trkpt>
   <trkpt lat="52.36209804069865" lon="4.942565969953799">
    <ele>2.3800000000000003</ele>
   </trkpt>
   <trkpt lat="52.36192402712452" lon="4.941297979912131">
    <ele>2.34</ele>
   </trkpt>
   <trkpt lat="52.36175000000001" lon="4.94003">
    <ele>2.71</ele>
   </trkpt>
   <trkpt lat="52.3618" lon="4.94001">
    <ele>2.69</ele>
   </trkpt>
   <trkpt lat="52.361790000000006" lon="4.93987">
    <ele>2.83</ele>
   </trkpt>
   <trkpt lat="52.36173" lon="4.939900000000001">
    <ele>2.83</ele>
   </trkpt>
   <trkpt lat="52.361670000000004" lon="4.939500000000001">
    <ele>2.41</ele>
   </trkpt>
   <trkpt lat="52.36175000000001" lon="4.93949">
    <ele>2.6</ele>
   </trkpt>
   <trkpt lat="52.36173" lon="4.939380000000001">
    <ele>2.84</ele>
   </trkpt>
   <trkpt lat="52.36166000000001" lon="4.9394100000000005">
    <ele>2.84</ele>
   </trkpt>
   <trkpt lat="52.36147000701766" lon="4.938119994419293">
    <ele>2.97</ele>
   </trkpt>
   <trkpt lat="52.36128000000001" lon="4.9368300000000005">
    <ele>3.0</ele>
   </trkpt>
   <trkpt lat="52.36121000000001" lon="4.936120000000001">
    <ele>3.0100000000000002</ele>
   </trkpt>
   <trkpt lat="52.3612200032332" lon="4.935245000005606">
    <ele>3.06</ele>
   </trkpt>
   <trkpt lat="52.361230000000006" lon="4.93437">
    <ele>3.0700000000000003</ele>
   </trkpt>
   <trkpt lat="52.36128000000001" lon="4.9339">
    <ele>3.1100000000000003</ele>
   </trkpt>
   <trkpt lat="52.36130000000001" lon="4.93276">
    <ele>3.25</ele>
   </trkpt>
   <trkpt lat="52.361380000000004" lon="4.93275">
    <ele>2.95</ele>
   </trkpt>
   <trkpt lat="52.36137" lon="4.93261">
    <ele>3.2800000000000002</ele>
   </trkpt>
   <trkpt lat="52.361290000000004" lon="4.932670000000001">
    <ele>3.17</ele>
   </trkpt>
   <trkpt lat="52.36128000000001" lon="4.93254">
    <ele>3.17</ele>
   </trkpt>
   <trkpt lat="52.361250000000005" lon="4.9324900000000005">
    <ele>2.8800000000000003</ele>
   </trkpt>
   <trkpt lat="52.361200000000004" lon="4.93247">
    <ele>2.8800000000000003</ele>
   </trkpt>
   <trkpt lat="52.361200000000004" lon="4.932300000000001">
    <ele>4.5600000000000005</ele>
   </trkpt>
   <trkpt lat="52.36117" lon="4.93212">
    <ele>2.8000000000000003</ele>
   </trkpt>
   <trkpt lat="52.36118000263348" lon="4.931330000200907">
    <ele>2.9000000000000004</ele>
   </trkpt>
   <trkpt lat="52.36119000000001" lon="4.930540000000001">
    <ele>2.9899999999999998</ele>
   </trkpt>
   <trkpt lat="52.361160000000005" lon="4.930510000000001">
    <ele>2.9899999999999998</ele>
   </trkpt>
   <trkpt lat="52.361160000000005" lon="4.9303300000000005">
    <ele>2.8800000000000003</ele>
   </trkpt>
   <trkpt lat="52.361110000000004" lon="4.93001">
    <ele>2.91</ele>
   </trkpt>
   <trkpt lat="52.36092500243601" lon="4.929249996811787">
    <ele>2.84</ele>
   </trkpt>
   <trkpt lat="52.36074000000001" lon="4.92849">
    <ele>2.9000000000000004</ele>
   </trkpt>
   <trkpt lat="52.36083000000001" lon="4.9284300000000005">
    <ele>2.9000000000000004</ele>
   </trkpt>
   <trkpt lat="52.36059334088513" lon="4.927483323143994">
    <ele>2.47</ele>
   </trkpt>
   <trkpt lat="52.360356674206294" lon="4.926536656428735">
    <ele>2.6100000000000003</ele>
   </trkpt>
   <trkpt lat="52.36012" lon="4.925590000000001">
    <ele>3.2600000000000002</ele>
   </trkpt>
   <trkpt lat="52.360150000000004" lon="4.9255700000000004">
    <ele>3.2600000000000002</ele>
   </trkpt>
   <trkpt lat="52.360150000000004" lon="4.92543">
    <ele>3.5700000000000003</ele>
   </trkpt>
   <trkpt lat="52.360170000000004" lon="4.925350000000001">
    <ele>3.5700000000000003</ele>
   </trkpt>
   <trkpt lat="52.360220000000005" lon="4.92527">
    <ele>3.5700000000000003</ele>
   </trkpt>
   <trkpt lat="52.36048" lon="4.9251000000000005">
    <ele>3.6300000000000003</ele>
   </trkpt>
   <trkpt lat="52.36095500047486" lon="4.924755003728689">
    <ele>3.5300000000000002</ele>
   </trkpt>
   <trkpt lat="52.361430000000006" lon="4.924410000000001">
    <ele>3.62</ele>
   </trkpt>
   <trkpt lat="52.36198500030274" lon="4.924105003880482">
    <ele>3.8100000000000005</ele>
   </trkpt>
   <trkpt lat="52.36254" lon="4.923800000000001">
    <ele>3.71</ele>
   </trkpt>
   <trkpt lat="52.36272" lon="4.923730000000001">
    <ele>3.71</ele>
   </trkpt>
  </trkseg>
 </trk>
</gpx>
