<?xml version="1.0" encoding="UTF-8" standalone="no" ?>
<gpx xmlns="http://www.topografix.com/GPX/1/1"
		xmlns:gpxx="http://www.garmin.com/xmlschemas/GpxExtensions/v3"
		xmlns:gpxtpx="http://www.garmin.com/xmlschemas/TrackPointExtension/v1"
		xmlns:xsi="http://www.w3.org/2001/XMLSchema-instance"
		xsi:schemaLocation="http://www.topografix.com/GPX/1/1 http://www.topografix.com/GPX/1/1/gpx.xsd http://www.garmin.com/xmlschemas/GpxExtensions/v3 http://www.garmin.com/xmlschemas/GpxExtensionsv3.xsd http://www.garmin.com/xmlschemas/TrackPointExtension/v1 http://www.garmin.com/xmlschemas/TrackPointExtensionv1.xsd"
		creator="Gravelmap.com"
		version="1.1">

	<metadata>
		<name><![CDATA[Gravel Route: Beerninkstraat to Hortensiastraat]]></name>
		<desc><![CDATA[]]></desc>
		<link href="http://www.gravelmap.com/route/141018">
			<text><![CDATA[Gravel Route: Beerninkstraat to Hortensiastraat]]></text>
		</link>
		<time>2024-01-06T00:12:19-05:00</time>
	</metadata>

	<trk>
		<name><![CDATA[Gravel Route: Beerninkstraat to Hortensiastraat]]></name>
		<desc><![CDATA[]]></desc>
		<link href="http://www.gravelmap.com/route/141018">
			<text><![CDATA[Gravel Route: Beerninkstraat to Hortensiastraat]]></text>
		</link>
		<trkseg>
			<trkpt lat="52.50373" lon="6.10814">
				<ele>4.39</ele>
			</trkpt>
			<trkpt lat="52.50373" lon="6.10816">
				<ele>3.8</ele>
			</trkpt>
			<trkpt lat="52.50246" lon="6.11118">
				<ele>3.84</ele>
			</trkpt>
			<trkpt lat="52.49952" lon="6.10801">
				<ele>1.22</ele>
			</trkpt>
			<trkpt lat="52.4962" lon="6.10866">
				<ele>4.23</ele>
			</trkpt>
			<trkpt lat="52.48887" lon="6.11607">
				<ele>4.57</ele>
			</trkpt>
			<trkpt lat="52.48292" lon="6.11699">
				<ele>4.01</ele>
			</trkpt>
			<trkpt lat="52.46977" lon="6.13306">
				<ele>3.25</ele>
			</trkpt>
			<trkpt lat="52.45329" lon="6.13059">
				<ele>3.9</ele>
			</trkpt>
			<trkpt lat="52.43319" lon="6.14296">
				<ele>3.96</ele>
			</trkpt>
			<trkpt lat="52.42135" lon="6.14667">
				<ele>2.88</ele>
			</trkpt>
			<trkpt lat="52.41672" lon="6.14308">
				<ele>3</ele>
			</trkpt>
			<trkpt lat="52.40276" lon="6.14006">
				<ele>3.64</ele>
			</trkpt>
			<trkpt lat="52.39413" lon="6.13357">
				<ele>6.64</ele>
			</trkpt>
			<trkpt lat="52.39218" lon="6.13616">
				<ele>1</ele>
			</trkpt>
			<trkpt lat="52.38493" lon="6.13567">
				<ele>0.68</ele>
			</trkpt>
			<trkpt lat="52.37849" lon="6.13109">
				<ele>0.89</ele>
			</trkpt>
			<trkpt lat="52.37035" lon="6.11595">
				<ele>1.71</ele>
			</trkpt>
			<trkpt lat="52.35344" lon="6.10745">
				<ele>0</ele>
			</trkpt>
			<trkpt lat="52.33752" lon="6.11295">
				<ele>1.21</ele>
			</trkpt>
			<trkpt lat="52.33086" lon="6.12629">
				<ele>0</ele>
			</trkpt>
			<trkpt lat="52.3262" lon="6.12994">
				<ele>0.5</ele>
			</trkpt>
			<trkpt lat="52.32499" lon="6.1433">
				<ele>0.75</ele>
			</trkpt>
			<trkpt lat="52.31504" lon="6.14686">
				<ele>1.37</ele>
			</trkpt>
			<trkpt lat="52.29196" lon="6.14832">
				<ele>0</ele>
			</trkpt>
			<trkpt lat="52.28335" lon="6.14377">
				<ele>0.55</ele>
			</trkpt>
			<trkpt lat="52.28335" lon="6.14377">
				<ele>2.24</ele>
			</trkpt>
			<trkpt lat="52.28268" lon="6.1421">
				<ele>1</ele>
			</trkpt>
			<trkpt lat="52.28148" lon="6.14013">
				<ele>1.96</ele>
			</trkpt>
			<trkpt lat="52.28095" lon="6.13904">
				<ele>1</ele>
			</trkpt>
			<trkpt lat="52.28072" lon="6.13848">
				<ele>1.05</ele>
			</trkpt>
			<trkpt lat="52.28064" lon="6.1381">
				<ele>1.7</ele>
			</trkpt>
			<trkpt lat="52.28047" lon="6.13653">
				<ele>2</ele>
			</trkpt>
			<trkpt lat="52.28" lon="6.13494">
				<ele>1.17</ele>
			</trkpt>
			<trkpt lat="52.28003" lon="6.13493">
				<ele>2.39</ele>
			</trkpt>
			<trkpt lat="52.28003" lon="6.13493">
				<ele>1.87</ele>
			</trkpt>
			<trkpt lat="52.2807" lon="6.13474">
				<ele>2.51</ele>
			</trkpt>
			<trkpt lat="52.28121" lon="6.13487">
				<ele>2.29</ele>
			</trkpt>
			<trkpt lat="52.2817" lon="6.13513">
				<ele>2.65</ele>
			</trkpt>
			<trkpt lat="52.28251" lon="6.13583">
				<ele>0.19</ele>
			</trkpt>
			<trkpt lat="52.28314" lon="6.13626">
				<ele>3.96</ele>
			</trkpt>
			<trkpt lat="52.28421" lon="6.13663">
				<ele>3</ele>
			</trkpt>
			<trkpt lat="52.28509" lon="6.1365">
				<ele>1.39</ele>
			</trkpt>
			<trkpt lat="52.28509" lon="6.1365">
				<ele>2</ele>
			</trkpt>
			<trkpt lat="52.28518" lon="6.13652">
				<ele>3.31</ele>
			</trkpt>
			<trkpt lat="52.2853" lon="6.13643">
				<ele>5</ele>
			</trkpt>
			<trkpt lat="52.28536" lon="6.13592">
				<ele>6.99</ele>
			</trkpt>
			<trkpt lat="52.28551" lon="6.13539">
				<ele>3.04</ele>
			</trkpt>
			<trkpt lat="52.28572" lon="6.13432">
				<ele>3</ele>
			</trkpt>
			<trkpt lat="52.28571" lon="6.13405">
				<ele>4</ele>
			</trkpt>
			<trkpt lat="52.28556" lon="6.13341">
				<ele>3</ele>
			</trkpt>
			<trkpt lat="52.28598" lon="6.13278">
				<ele>2.05</ele>
			</trkpt>
			<trkpt lat="52.28598" lon="6.13278">
				<ele>1</ele>
			</trkpt>
			<trkpt lat="52.286" lon="6.13274">
				<ele>2.53</ele>
			</trkpt>
			<trkpt lat="52.28617" lon="6.1328">
				<ele>3.01</ele>
			</trkpt>
			<trkpt lat="52.28642" lon="6.13307">
				<ele>4.43</ele>
			</trkpt>
			<trkpt lat="52.28651" lon="6.13325">
				<ele>3.31</ele>
			</trkpt>
			<trkpt lat="52.28658" lon="6.1335">
				<ele>2.61</ele>
			</trkpt>
			<trkpt lat="52.28675" lon="6.13385">
				<ele>3.11</ele>
			</trkpt>
			<trkpt lat="52.287" lon="6.13419">
				<ele>5.51</ele>
			</trkpt>
			<trkpt lat="52.28733" lon="6.13472">
				<ele>5.88</ele>
			</trkpt>
			<trkpt lat="52.2875" lon="6.13483">
				<ele>2.87</ele>
			</trkpt>
			<trkpt lat="52.28779" lon="6.13482">
				<ele>0.98</ele>
			</trkpt>
			<trkpt lat="52.28779" lon="6.13499">
				<ele>3.46</ele>
			</trkpt>
			<trkpt lat="52.28779" lon="6.13499">
				<ele>4</ele>
			</trkpt>
			<trkpt lat="52.28779" lon="6.13543">
				<ele>4.52</ele>
			</trkpt>
			<trkpt lat="52.28779" lon="6.13543">
				<ele>5.82</ele>
			</trkpt>
			<trkpt lat="52.28819" lon="6.13514">
				<ele>4.88</ele>
			</trkpt>
			<trkpt lat="52.28855" lon="6.13481">
				<ele>3.94</ele>
			</trkpt>
			<trkpt lat="52.28881" lon="6.13469">
				<ele>2.55</ele>
			</trkpt>
			<trkpt lat="52.28894" lon="6.13468">
				<ele>4</ele>
			</trkpt>
			<trkpt lat="52.29111" lon="6.13555">
				<ele>3.83</ele>
			</trkpt>
			<trkpt lat="52.29123" lon="6.13565">
				<ele>3</ele>
			</trkpt>
			<trkpt lat="52.29133" lon="6.13583">
				<ele>7.6</ele>
			</trkpt>
			<trkpt lat="52.29131" lon="6.13586">
				<ele>4.52</ele>
			</trkpt>
			<trkpt lat="52.29131" lon="6.13586">
				<ele>9.73</ele>
			</trkpt>
			<trkpt lat="52.29133" lon="6.13583">
				<ele>8.85</ele>
			</trkpt>
			<trkpt lat="52.2914" lon="6.13586">
				<ele>8.26</ele>
			</trkpt>
			<trkpt lat="52.2915" lon="6.13584">
				<ele>6.07</ele>
			</trkpt>
			<trkpt lat="52.29275" lon="6.13518">
				<ele>10.99</ele>
			</trkpt>
			<trkpt lat="52.29301" lon="6.13511">
				<ele>12.99</ele>
			</trkpt>
			<trkpt lat="52.29343" lon="6.13485">
				<ele>15.03</ele>
			</trkpt>
			<trkpt lat="52.29444" lon="6.13435">
				<ele>14.79</ele>
			</trkpt>
			<trkpt lat="52.29452" lon="6.13441">
				<ele>6.11</ele>
			</trkpt>
			<trkpt lat="52.2946" lon="6.1346">
				<ele>7.15</ele>
			</trkpt>
			<trkpt lat="52.29462" lon="6.13492">
				<ele>12.62</ele>
			</trkpt>
			<trkpt lat="52.29458" lon="6.13517">
				<ele>4.38</ele>
			</trkpt>
			<trkpt lat="52.29458" lon="6.13525">
				<ele>8.14</ele>
			</trkpt>
			<trkpt lat="52.29462" lon="6.1353">
				<ele>10.77</ele>
			</trkpt>
			<trkpt lat="52.29475" lon="6.13528">
				<ele>7.82</ele>
			</trkpt>
			<trkpt lat="52.29475" lon="6.13528">
				<ele>5</ele>
			</trkpt>
			<trkpt lat="52.29477" lon="6.13379">
				<ele>5.57</ele>
			</trkpt>
			<trkpt lat="52.29477" lon="6.13379">
				<ele>7.12</ele>
			</trkpt>
			<trkpt lat="52.29451" lon="6.13324">
				<ele>7.64</ele>
			</trkpt>
			<trkpt lat="52.29329" lon="6.13237">
				<ele>12.35</ele>
			</trkpt>
			<trkpt lat="52.29272" lon="6.13153">
				<ele>11.62</ele>
			</trkpt>
			<trkpt lat="52.30011" lon="6.12313">
				<ele>13.99</ele>
			</trkpt>
			<trkpt lat="52.30414" lon="6.12299">
				<ele>14.79</ele>
			</trkpt>
			<trkpt lat="52.30758" lon="6.12071">
				<ele>6.97</ele>
			</trkpt>
			<trkpt lat="52.3103" lon="6.12121">
				<ele>5.14</ele>
			</trkpt>
			<trkpt lat="52.31027" lon="6.1256">
				<ele>7.34</ele>
			</trkpt>
			<trkpt lat="52.31045" lon="6.12603">
				<ele>12.37</ele>
			</trkpt>
			<trkpt lat="52.31045" lon="6.12603">
				<ele>6.9</ele>
			</trkpt>
			<trkpt lat="52.31105" lon="6.12535">
				<ele>7.83</ele>
			</trkpt>
			<trkpt lat="52.32001" lon="6.12041">
				<ele>5.78</ele>
			</trkpt>
			<trkpt lat="52.32001" lon="6.12041">
				<ele>4</ele>
			</trkpt>
			<trkpt lat="52.32504" lon="6.12358">
				<ele>7.03</ele>
			</trkpt>
			<trkpt lat="52.32521" lon="6.12336">
				<ele>6.76</ele>
			</trkpt>
			<trkpt lat="52.32545" lon="6.12228">
				<ele>9.25</ele>
			</trkpt>
			<trkpt lat="52.32569" lon="6.12199">
				<ele>4.51</ele>
			</trkpt>
			<trkpt lat="52.32636" lon="6.12174">
				<ele>3.01</ele>
			</trkpt>
			<trkpt lat="52.32813" lon="6.12182">
				<ele>7.72</ele>
			</trkpt>
			<trkpt lat="52.33052" lon="6.12064">
				<ele>5.75</ele>
			</trkpt>
			<trkpt lat="52.33145" lon="6.12074">
				<ele>5</ele>
			</trkpt>
			<trkpt lat="52.33216" lon="6.12101">
				<ele>9.02</ele>
			</trkpt>
			<trkpt lat="52.33283" lon="6.12147">
				<ele>10.53</ele>
			</trkpt>
			<trkpt lat="52.3329" lon="6.12177">
				<ele>6.54</ele>
			</trkpt>
			<trkpt lat="52.3329" lon="6.12177">
				<ele>4.78</ele>
			</trkpt>
			<trkpt lat="52.33327" lon="6.12136">
				<ele>3</ele>
			</trkpt>
			<trkpt lat="52.33452" lon="6.11853">
				<ele>3.82</ele>
			</trkpt>
			<trkpt lat="52.33472" lon="6.11834">
				<ele>2.62</ele>
			</trkpt>
			<trkpt lat="52.3349" lon="6.1183">
				<ele>4.52</ele>
			</trkpt>
			<trkpt lat="52.33525" lon="6.11845">
				<ele>2</ele>
			</trkpt>
			<trkpt lat="52.33533" lon="6.11868">
				<ele>2.9</ele>
			</trkpt>
			<trkpt lat="52.33821" lon="6.12215">
				<ele>1.1</ele>
			</trkpt>
			<trkpt lat="52.33832" lon="6.12248">
				<ele>2.38</ele>
			</trkpt>
			<trkpt lat="52.33832" lon="6.12248">
				<ele>1.04</ele>
			</trkpt>
			<trkpt lat="52.33862" lon="6.12787">
				<ele>0.82</ele>
			</trkpt>
			<trkpt lat="52.33863" lon="6.12939">
				<ele>2</ele>
			</trkpt>
			<trkpt lat="52.33843" lon="6.13416">
				<ele>1.42</ele>
			</trkpt>
			<trkpt lat="52.33851" lon="6.13581">
				<ele>1.71</ele>
			</trkpt>
			<trkpt lat="52.33856" lon="6.13579">
				<ele>0.17</ele>
			</trkpt>
			<trkpt lat="52.33856" lon="6.13579">
				<ele>0.18</ele>
			</trkpt>
			<trkpt lat="52.34087" lon="6.13368">
				<ele>0.36</ele>
			</trkpt>
			<trkpt lat="52.34109" lon="6.13362">
				<ele>1.56</ele>
			</trkpt>
			<trkpt lat="52.34132" lon="6.13392">
				<ele>2.23</ele>
			</trkpt>
			<trkpt lat="52.34259" lon="6.13671">
				<ele>2.56</ele>
			</trkpt>
			<trkpt lat="52.34383" lon="6.13751">
				<ele>1.82</ele>
			</trkpt>
			<trkpt lat="52.3442" lon="6.13811">
				<ele>2.85</ele>
			</trkpt>
			<trkpt lat="52.34472" lon="6.13776">
				<ele>2.71</ele>
			</trkpt>
			<trkpt lat="52.34953" lon="6.13765">
				<ele>2</ele>
			</trkpt>
			<trkpt lat="52.34962" lon="6.13759">
				<ele>2.07</ele>
			</trkpt>
			<trkpt lat="52.34964" lon="6.13717">
				<ele>2.32</ele>
			</trkpt>
			<trkpt lat="52.34981" lon="6.13707">
				<ele>5.47</ele>
			</trkpt>
			<trkpt lat="52.35189" lon="6.13712">
				<ele>3.43</ele>
			</trkpt>
			<trkpt lat="52.35287" lon="6.13775">
				<ele>2.41</ele>
			</trkpt>
			<trkpt lat="52.35283" lon="6.13787">
				<ele>2</ele>
			</trkpt>
			<trkpt lat="52.35283" lon="6.13787">
				<ele>0.5</ele>
			</trkpt>
			<trkpt lat="52.35274" lon="6.13814">
				<ele>0.45</ele>
			</trkpt>
			<trkpt lat="52.35933" lon="6.1429">
				<ele>2</ele>
			</trkpt>
			<trkpt lat="52.36338" lon="6.14378">
				<ele>1.48</ele>
			</trkpt>
			<trkpt lat="52.36656" lon="6.14539">
				<ele>1.63</ele>
			</trkpt>
			<trkpt lat="52.37183" lon="6.14872">
				<ele>1</ele>
			</trkpt>
			<trkpt lat="52.37435" lon="6.14979">
				<ele>1.83</ele>
			</trkpt>
			<trkpt lat="52.37668" lon="6.15144">
				<ele>0.3</ele>
			</trkpt>
			<trkpt lat="52.37703" lon="6.15098">
				<ele>0.93</ele>
			</trkpt>
			<trkpt lat="52.37817" lon="6.15196">
				<ele>2</ele>
			</trkpt>
			<trkpt lat="52.38201" lon="6.15285">
				<ele>2.59</ele>
			</trkpt>
			<trkpt lat="52.382" lon="6.15353">
				<ele>2</ele>
			</trkpt>
			<trkpt lat="52.382" lon="6.15353">
				<ele>1.93</ele>
			</trkpt>
			<trkpt lat="52.39637" lon="6.15944">
				<ele>2</ele>
			</trkpt>
			<trkpt lat="52.39856" lon="6.15957">
				<ele>0</ele>
			</trkpt>
			<trkpt lat="52.40152" lon="6.15853">
				<ele>1</ele>
			</trkpt>
			<trkpt lat="52.40192" lon="6.16301">
				<ele>0</ele>
			</trkpt>
			<trkpt lat="52.4029" lon="6.16517">
				<ele>1.03</ele>
			</trkpt>
			<trkpt lat="52.40521" lon="6.16435">
				<ele>1.82</ele>
			</trkpt>
			<trkpt lat="52.40788" lon="6.1684">
				<ele>0</ele>
			</trkpt>
			<trkpt lat="52.40794" lon="6.17089">
				<ele>0.03</ele>
			</trkpt>
			<trkpt lat="52.4074" lon="6.17301">
				<ele>1.79</ele>
			</trkpt>
			<trkpt lat="52.40749" lon="6.17764">
				<ele>2.57</ele>
			</trkpt>
			<trkpt lat="52.40593" lon="6.18436">
				<ele>0.27</ele>
			</trkpt>
			<trkpt lat="52.41036" lon="6.18819">
				<ele>0.52</ele>
			</trkpt>
			<trkpt lat="52.41924" lon="6.1924">
				<ele>0</ele>
			</trkpt>
			<trkpt lat="52.42095" lon="6.19169">
				<ele>-1.71</ele>
			</trkpt>
			<trkpt lat="52.42417" lon="6.19312">
				<ele>0.74</ele>
			</trkpt>
			<trkpt lat="52.42875" lon="6.19346">
				<ele>0</ele>
			</trkpt>
			<trkpt lat="52.43098" lon="6.19247">
				<ele>2</ele>
			</trkpt>
			<trkpt lat="52.43414" lon="6.19433">
				<ele>1.04</ele>
			</trkpt>
			<trkpt lat="52.43603" lon="6.19351">
				<ele>2.14</ele>
			</trkpt>
			<trkpt lat="52.43629" lon="6.1943">
				<ele>2.63</ele>
			</trkpt>
			<trkpt lat="52.43586" lon="6.19479">
				<ele>3</ele>
			</trkpt>
			<trkpt lat="52.43586" lon="6.19479">
				<ele>1.5</ele>
			</trkpt>
			<trkpt lat="52.43689" lon="6.19214">
				<ele>0.28</ele>
			</trkpt>
			<trkpt lat="52.43874" lon="6.19208">
				<ele>0</ele>
			</trkpt>
			<trkpt lat="52.4429" lon="6.18784">
				<ele>0</ele>
			</trkpt>
			<trkpt lat="52.4487" lon="6.18645">
				<ele>-0.93</ele>
			</trkpt>
			<trkpt lat="52.45029" lon="6.18827">
				<ele>-0.02</ele>
			</trkpt>
			<trkpt lat="52.4554" lon="6.17934">
				<ele>0.62</ele>
			</trkpt>
			<trkpt lat="52.45813" lon="6.17677">
				<ele>1.84</ele>
			</trkpt>
			<trkpt lat="52.45939" lon="6.17128">
				<ele>1.53</ele>
			</trkpt>
			<trkpt lat="52.46373" lon="6.17268">
				<ele>1.95</ele>
			</trkpt>
			<trkpt lat="52.46881" lon="6.16936">
				<ele>1.27</ele>
			</trkpt>
			<trkpt lat="52.46943" lon="6.1673">
				<ele>1.94</ele>
			</trkpt>
			<trkpt lat="52.48003" lon="6.15449">
				<ele>2.44</ele>
			</trkpt>
			<trkpt lat="52.48405" lon="6.15204">
				<ele>1.97</ele>
			</trkpt>
			<trkpt lat="52.48817" lon="6.14635">
				<ele>3.21</ele>
			</trkpt>
			<trkpt lat="52.49494" lon="6.12936">
				<ele>1.93</ele>
			</trkpt>
			<trkpt lat="52.50161" lon="6.12591">
				<ele>2.68</ele>
			</trkpt>
			<trkpt lat="52.504" lon="6.12287">
				<ele>2.64</ele>
			</trkpt>
			<trkpt lat="52.50439" lon="6.11946">
				<ele>4.08</ele>
			</trkpt>
			<trkpt lat="52.5037" lon="6.11925">
				<ele>4.72</ele>
			</trkpt>
			<trkpt lat="52.50309" lon="6.11486">
				<ele>3.18</ele>
			</trkpt>
			<trkpt lat="52.5039" lon="6.11271">
				<ele>4.01</ele>
			</trkpt>
			<trkpt lat="52.50295" lon="6.11158">
				<ele>4.35</ele>
			</trkpt>
		</trkseg>
	</trk>
</gpx>