<?xml version="1.0" encoding="UTF-8"?>
<gpx version="1.1" creator="https://www.hammerhead.io" xmlns:xsi="http://www.w3.org/2001/XMLSchema-instance" xmlns="http://www.topografix.com/GPX/1/1" xsi:schemaLocation="http://www.topografix.com/GPX/1/1 http://www.topografix.com/GPX/1/1/gpx.xsd"><metadata><name>60 met daan</name><time>0001-01-01T00:00:00Z</time></metadata><trk><name>60 met daan</name><trkseg><trkpt lat="53.21399" lon="6.5636"></trkpt><trkpt lat="53.2136" lon="6.56377"></trkpt><trkpt lat="53.21347" lon="6.56384"></trkpt><trkpt lat="53.21342" lon="6.56395"></trkpt><trkpt lat="53.21357" lon="6.56563"></trkpt><trkpt lat="53.21365" lon="6.56656"></trkpt><trkpt lat="53.21368" lon="6.56686"></trkpt><trkpt lat="53.21371" lon="6.56725"></trkpt><trkpt lat="53.21373" lon="6.56746"></trkpt><trkpt lat="53.21375" lon="6.56756"></trkpt><trkpt lat="53.21387" lon="6.56811"></trkpt><trkpt lat="53.21395" lon="6.56859"></trkpt><trkpt lat="53.21405" lon="6.56909"></trkpt><trkpt lat="53.2141" lon="6.56932"></trkpt><trkpt lat="53.21421" lon="6.56983"></trkpt><trkpt lat="53.21437" lon="6.57059"></trkpt><trkpt lat="53.21441" lon="6.57072"></trkpt><trkpt lat="53.2145" lon="6.57103"></trkpt><trkpt lat="53.21491" lon="6.57212"></trkpt><trkpt lat="53.21498" lon="6.57232"></trkpt><trkpt lat="53.21451" lon="6.57286"></trkpt><trkpt lat="53.21434" lon="6.57305"></trkpt><trkpt lat="53.21406" lon="6.57335"></trkpt><trkpt lat="53.21396" lon="6.57346"></trkpt><trkpt lat="53.21389" lon="6.57354"></trkpt><trkpt lat="53.21382" lon="6.57362"></trkpt><trkpt lat="53.21373" lon="6.57373"></trkpt><trkpt lat="53.21368" lon="6.57379"></trkpt><trkpt lat="53.21363" lon="6.57384"></trkpt><trkpt lat="53.21358" lon="6.57391"></trkpt><trkpt lat="53.21352" lon="6.57395"></trkpt><trkpt lat="53.21346" lon="6.57401"></trkpt><trkpt lat="53.21342" lon="6.57404"></trkpt><trkpt lat="53.21338" lon="6.57407"></trkpt><trkpt lat="53.21323" lon="6.57418"></trkpt><trkpt lat="53.21294" lon="6.57444"></trkpt><trkpt lat="53.21289" lon="6.57447"></trkpt><trkpt lat="53.2128" lon="6.57457"></trkpt><trkpt lat="53.21234" lon="6.57492"></trkpt><trkpt lat="53.2122" lon="6.57501"></trkpt><trkpt lat="53.21173" lon="6.57538"></trkpt><trkpt lat="53.21163" lon="6.57545"></trkpt><trkpt lat="53.21151" lon="6.57552"></trkpt><trkpt lat="53.21115" lon="6.57579"></trkpt><trkpt lat="53.21075" lon="6.57609"></trkpt><trkpt lat="53.21038" lon="6.57631"></trkpt><trkpt lat="53.20978" lon="6.57667"></trkpt><trkpt lat="53.2095" lon="6.57679"></trkpt><trkpt lat="53.20934" lon="6.57686"></trkpt><trkpt lat="53.20913" lon="6.57692"></trkpt><trkpt lat="53.20895" lon="6.57732"></trkpt><trkpt lat="53.20892" lon="6.57738"></trkpt><trkpt lat="53.20796" lon="6.57941"></trkpt><trkpt lat="53.20782" lon="6.57972"></trkpt><trkpt lat="53.20747" lon="6.58051"></trkpt><trkpt lat="53.20732" lon="6.58082"></trkpt><trkpt lat="53.20672" lon="6.58207"></trkpt><trkpt lat="53.20668" lon="6.58215"></trkpt><trkpt lat="53.20598" lon="6.58369"></trkpt><trkpt lat="53.20592" lon="6.5838"></trkpt><trkpt lat="53.20583" lon="6.58397"></trkpt><trkpt lat="53.20562" lon="6.58441"></trkpt><trkpt lat="53.20556" lon="6.5845"></trkpt><trkpt lat="53.20505" lon="6.58554"></trkpt><trkpt lat="53.20491" lon="6.58583"></trkpt><trkpt lat="53.20487" lon="6.58588"></trkpt><trkpt lat="53.20484" lon="6.5859"></trkpt><trkpt lat="53.20482" lon="6.58589"></trkpt><trkpt lat="53.20465" lon="6.58573"></trkpt><trkpt lat="53.20452" lon="6.58559"></trkpt><trkpt lat="53.20449" lon="6.58558"></trkpt><trkpt lat="53.20442" lon="6.58558"></trkpt><trkpt lat="53.20436" lon="6.5856"></trkpt><trkpt lat="53.20428" lon="6.58568"></trkpt><trkpt lat="53.20419" lon="6.58582"></trkpt><trkpt lat="53.20399" lon="6.5861"></trkpt><trkpt lat="53.20362" lon="6.58663"></trkpt><trkpt lat="53.20359" lon="6.58664"></trkpt><trkpt lat="53.20356" lon="6.58665"></trkpt><trkpt lat="53.2035" lon="6.58662"></trkpt><trkpt lat="53.20343" lon="6.58653"></trkpt><trkpt lat="53.20327" lon="6.58683"></trkpt><trkpt lat="53.20304" lon="6.58731"></trkpt><trkpt lat="53.20281" lon="6.58781"></trkpt><trkpt lat="53.20253" lon="6.58838"></trkpt><trkpt lat="53.20233" lon="6.58879"></trkpt><trkpt lat="53.20221" lon="6.589"></trkpt><trkpt lat="53.20213" lon="6.58916"></trkpt><trkpt lat="53.20199" lon="6.58936"></trkpt><trkpt lat="53.20186" lon="6.58954"></trkpt><trkpt lat="53.20167" lon="6.58977"></trkpt><trkpt lat="53.20146" lon="6.58998"></trkpt><trkpt lat="53.20124" lon="6.59016"></trkpt><trkpt lat="53.20099" lon="6.59036"></trkpt><trkpt lat="53.20065" lon="6.59062"></trkpt><trkpt lat="53.2006" lon="6.59066"></trkpt><trkpt lat="53.20057" lon="6.59064"></trkpt><trkpt lat="53.20053" lon="6.59066"></trkpt><trkpt lat="53.20049" lon="6.59072"></trkpt><trkpt lat="53.20045" lon="6.5908"></trkpt><trkpt lat="53.20043" lon="6.59095"></trkpt><trkpt lat="53.20042" lon="6.59101"></trkpt><trkpt lat="53.20037" lon="6.59109"></trkpt><trkpt lat="53.20032" lon="6.59112"></trkpt><trkpt lat="53.20018" lon="6.59112"></trkpt><trkpt lat="53.2" lon="6.59125"></trkpt><trkpt lat="53.19964" lon="6.59153"></trkpt><trkpt lat="53.19956" lon="6.59168"></trkpt><trkpt lat="53.19921" lon="6.59194"></trkpt><trkpt lat="53.19879" lon="6.59227"></trkpt><trkpt lat="53.19767" lon="6.59314"></trkpt><trkpt lat="53.19756" lon="6.59321"></trkpt><trkpt lat="53.19745" lon="6.59328"></trkpt><trkpt lat="53.19683" lon="6.59359"></trkpt><trkpt lat="53.19597" lon="6.59402"></trkpt><trkpt lat="53.19483" lon="6.5946"></trkpt><trkpt lat="53.19446" lon="6.59479"></trkpt><trkpt lat="53.19291" lon="6.59557"></trkpt><trkpt lat="53.19226" lon="6.59591"></trkpt><trkpt lat="53.1922" lon="6.59592"></trkpt><trkpt lat="53.19215" lon="6.59589"></trkpt><trkpt lat="53.19211" lon="6.59581"></trkpt><trkpt lat="53.19199" lon="6.59557"></trkpt><trkpt lat="53.19184" lon="6.595"></trkpt><trkpt lat="53.19183" lon="6.59495"></trkpt><trkpt lat="53.1918" lon="6.59489"></trkpt><trkpt lat="53.19176" lon="6.59485"></trkpt><trkpt lat="53.1917" lon="6.59483"></trkpt><trkpt lat="53.19167" lon="6.59483"></trkpt><trkpt lat="53.19164" lon="6.59484"></trkpt><trkpt lat="53.1916" lon="6.59487"></trkpt><trkpt lat="53.19081" lon="6.59536"></trkpt><trkpt lat="53.1903" lon="6.5957"></trkpt><trkpt lat="53.19018" lon="6.59578"></trkpt><trkpt lat="53.19016" lon="6.59579"></trkpt><trkpt lat="53.19014" lon="6.59579"></trkpt><trkpt lat="53.19012" lon="6.5958"></trkpt><trkpt lat="53.19007" lon="6.59583"></trkpt><trkpt lat="53.19003" lon="6.59587"></trkpt><trkpt lat="53.18998" lon="6.59595"></trkpt><trkpt lat="53.18976" lon="6.59612"></trkpt><trkpt lat="53.18942" lon="6.59646"></trkpt><trkpt lat="53.18925" lon="6.59669"></trkpt><trkpt lat="53.18895" lon="6.59722"></trkpt><trkpt lat="53.18888" lon="6.59732"></trkpt><trkpt lat="53.18874" lon="6.59741"></trkpt><trkpt lat="53.18816" lon="6.59781"></trkpt><trkpt lat="53.18777" lon="6.59813"></trkpt><trkpt lat="53.18771" lon="6.59818"></trkpt><trkpt lat="53.18738" lon="6.59843"></trkpt><trkpt lat="53.18713" lon="6.59869"></trkpt><trkpt lat="53.18689" lon="6.59892"></trkpt><trkpt lat="53.18583" lon="6.59999"></trkpt><trkpt lat="53.18552" lon="6.60045"></trkpt><trkpt lat="53.18541" lon="6.6006"></trkpt><trkpt lat="53.18528" lon="6.60072"></trkpt><trkpt lat="53.18481" lon="6.60119"></trkpt><trkpt lat="53.18467" lon="6.60132"></trkpt><trkpt lat="53.1843" lon="6.60154"></trkpt><trkpt lat="53.18308" lon="6.60222"></trkpt><trkpt lat="53.18297" lon="6.60228"></trkpt><trkpt lat="53.18239" lon="6.6026"></trkpt><trkpt lat="53.18191" lon="6.60287"></trkpt><trkpt lat="53.18159" lon="6.60305"></trkpt><trkpt lat="53.18041" lon="6.60372"></trkpt><trkpt lat="53.18002" lon="6.60395"></trkpt><trkpt lat="53.17984" lon="6.60406"></trkpt><trkpt lat="53.17978" lon="6.60409"></trkpt><trkpt lat="53.17962" lon="6.60419"></trkpt><trkpt lat="53.17891" lon="6.6046"></trkpt><trkpt lat="53.17855" lon="6.6048"></trkpt><trkpt lat="53.17833" lon="6.60492"></trkpt><trkpt lat="53.1782" lon="6.60499"></trkpt><trkpt lat="53.17761" lon="6.60531"></trkpt><trkpt lat="53.17725" lon="6.60558"></trkpt><trkpt lat="53.17716" lon="6.60566"></trkpt><trkpt lat="53.17686" lon="6.60598"></trkpt><trkpt lat="53.1767" lon="6.60618"></trkpt><trkpt lat="53.17669" lon="6.60625"></trkpt><trkpt lat="53.17668" lon="6.60637"></trkpt><trkpt lat="53.17633" lon="6.6068"></trkpt><trkpt lat="53.17601" lon="6.60714"></trkpt><trkpt lat="53.17545" lon="6.60773"></trkpt><trkpt lat="53.17538" lon="6.60782"></trkpt><trkpt lat="53.17537" lon="6.6078"></trkpt><trkpt lat="53.17535" lon="6.60776"></trkpt><trkpt lat="53.17532" lon="6.60774"></trkpt><trkpt lat="53.17529" lon="6.60773"></trkpt><trkpt lat="53.17525" lon="6.60773"></trkpt><trkpt lat="53.17524" lon="6.60774"></trkpt><trkpt lat="53.17522" lon="6.60776"></trkpt><trkpt lat="53.1752" lon="6.6078"></trkpt><trkpt lat="53.17518" lon="6.60785"></trkpt><trkpt lat="53.17517" lon="6.6079"></trkpt><trkpt lat="53.17517" lon="6.60796"></trkpt><trkpt lat="53.17519" lon="6.60801"></trkpt><trkpt lat="53.17511" lon="6.60809"></trkpt><trkpt lat="53.17498" lon="6.60823"></trkpt><trkpt lat="53.17491" lon="6.60831"></trkpt><trkpt lat="53.17482" lon="6.60837"></trkpt><trkpt lat="53.17471" lon="6.60843"></trkpt><trkpt lat="53.17412" lon="6.60874"></trkpt><trkpt lat="53.17397" lon="6.60882"></trkpt><trkpt lat="53.17384" lon="6.60893"></trkpt><trkpt lat="53.17373" lon="6.60905"></trkpt><trkpt lat="53.17354" lon="6.60926"></trkpt><trkpt lat="53.17351" lon="6.60939"></trkpt><trkpt lat="53.17346" lon="6.60953"></trkpt><trkpt lat="53.17341" lon="6.60964"></trkpt><trkpt lat="53.17338" lon="6.6097"></trkpt><trkpt lat="53.17331" lon="6.60983"></trkpt><trkpt lat="53.17324" lon="6.60994"></trkpt><trkpt lat="53.17314" lon="6.61005"></trkpt><trkpt lat="53.17301" lon="6.61019"></trkpt><trkpt lat="53.17295" lon="6.61026"></trkpt><trkpt lat="53.17294" lon="6.61027"></trkpt><trkpt lat="53.17289" lon="6.61031"></trkpt><trkpt lat="53.173" lon="6.61116"></trkpt><trkpt lat="53.17306" lon="6.61172"></trkpt><trkpt lat="53.17311" lon="6.61215"></trkpt><trkpt lat="53.17317" lon="6.61269"></trkpt><trkpt lat="53.17323" lon="6.61306"></trkpt><trkpt lat="53.1733" lon="6.61339"></trkpt><trkpt lat="53.17352" lon="6.61455"></trkpt><trkpt lat="53.17357" lon="6.61485"></trkpt><trkpt lat="53.1736" lon="6.61514"></trkpt><trkpt lat="53.17362" lon="6.61538"></trkpt><trkpt lat="53.17361" lon="6.6155"></trkpt><trkpt lat="53.17358" lon="6.61566"></trkpt><trkpt lat="53.17355" lon="6.61576"></trkpt><trkpt lat="53.17351" lon="6.61592"></trkpt><trkpt lat="53.17339" lon="6.61617"></trkpt><trkpt lat="53.17323" lon="6.6164"></trkpt><trkpt lat="53.17305" lon="6.61661"></trkpt><trkpt lat="53.17249" lon="6.61723"></trkpt><trkpt lat="53.17246" lon="6.61725"></trkpt><trkpt lat="53.17237" lon="6.61734"></trkpt><trkpt lat="53.17227" lon="6.61747"></trkpt><trkpt lat="53.17216" lon="6.61756"></trkpt><trkpt lat="53.17192" lon="6.61785"></trkpt><trkpt lat="53.17166" lon="6.61814"></trkpt><trkpt lat="53.17084" lon="6.61912"></trkpt><trkpt lat="53.1706" lon="6.61941"></trkpt><trkpt lat="53.17001" lon="6.6201"></trkpt><trkpt lat="53.16971" lon="6.62045"></trkpt><trkpt lat="53.16919" lon="6.62104"></trkpt><trkpt lat="53.16912" lon="6.62112"></trkpt><trkpt lat="53.16899" lon="6.62125"></trkpt><trkpt lat="53.16887" lon="6.62134"></trkpt><trkpt lat="53.16875" lon="6.62142"></trkpt><trkpt lat="53.16866" lon="6.62147"></trkpt><trkpt lat="53.16824" lon="6.62173"></trkpt><trkpt lat="53.16768" lon="6.62218"></trkpt><trkpt lat="53.16745" lon="6.6224"></trkpt><trkpt lat="53.16732" lon="6.62253"></trkpt><trkpt lat="53.16701" lon="6.62283"></trkpt><trkpt lat="53.16687" lon="6.62298"></trkpt><trkpt lat="53.16683" lon="6.62302"></trkpt><trkpt lat="53.16639" lon="6.6233"></trkpt><trkpt lat="53.16634" lon="6.62333"></trkpt><trkpt lat="53.16622" lon="6.62342"></trkpt><trkpt lat="53.16616" lon="6.62346"></trkpt><trkpt lat="53.16582" lon="6.62369"></trkpt><trkpt lat="53.16581" lon="6.62375"></trkpt><trkpt lat="53.16512" lon="6.62423"></trkpt><trkpt lat="53.165" lon="6.62433"></trkpt><trkpt lat="53.16487" lon="6.6244"></trkpt><trkpt lat="53.16487" lon="6.62457"></trkpt><trkpt lat="53.16487" lon="6.62463"></trkpt><trkpt lat="53.16487" lon="6.62474"></trkpt><trkpt lat="53.16488" lon="6.62485"></trkpt><trkpt lat="53.16487" lon="6.62493"></trkpt><trkpt lat="53.16487" lon="6.62499"></trkpt><trkpt lat="53.16484" lon="6.6251"></trkpt><trkpt lat="53.16476" lon="6.62531"></trkpt><trkpt lat="53.16468" lon="6.62556"></trkpt><trkpt lat="53.16466" lon="6.62565"></trkpt><trkpt lat="53.16433" lon="6.62701"></trkpt><trkpt lat="53.16428" lon="6.62703"></trkpt><trkpt lat="53.16426" lon="6.62705"></trkpt><trkpt lat="53.16423" lon="6.62712"></trkpt><trkpt lat="53.16421" lon="6.6272"></trkpt><trkpt lat="53.1642" lon="6.62725"></trkpt><trkpt lat="53.16419" lon="6.62733"></trkpt><trkpt lat="53.16419" lon="6.62745"></trkpt><trkpt lat="53.16403" lon="6.62839"></trkpt><trkpt lat="53.16391" lon="6.62926"></trkpt><trkpt lat="53.16377" lon="6.63022"></trkpt><trkpt lat="53.1637" lon="6.63074"></trkpt><trkpt lat="53.16368" lon="6.63092"></trkpt><trkpt lat="53.16363" lon="6.63146"></trkpt><trkpt lat="53.16357" lon="6.6318"></trkpt><trkpt lat="53.1635" lon="6.63213"></trkpt><trkpt lat="53.16328" lon="6.63285"></trkpt><trkpt lat="53.16309" lon="6.63364"></trkpt><trkpt lat="53.16298" lon="6.63423"></trkpt><trkpt lat="53.16244" lon="6.63598"></trkpt><trkpt lat="53.16238" lon="6.63617"></trkpt><trkpt lat="53.16232" lon="6.63636"></trkpt><trkpt lat="53.16214" lon="6.63665"></trkpt><trkpt lat="53.16192" lon="6.63684"></trkpt><trkpt lat="53.16161" lon="6.637"></trkpt><trkpt lat="53.16153" lon="6.63704"></trkpt><trkpt lat="53.16144" lon="6.63709"></trkpt><trkpt lat="53.16127" lon="6.63719"></trkpt><trkpt lat="53.16105" lon="6.63737"></trkpt><trkpt lat="53.1608" lon="6.63762"></trkpt><trkpt lat="53.16045" lon="6.63798"></trkpt><trkpt lat="53.16037" lon="6.63815"></trkpt><trkpt lat="53.16018" lon="6.63835"></trkpt><trkpt lat="53.15984" lon="6.63862"></trkpt><trkpt lat="53.15959" lon="6.63887"></trkpt><trkpt lat="53.15931" lon="6.63917"></trkpt><trkpt lat="53.15901" lon="6.63951"></trkpt><trkpt lat="53.15845" lon="6.64018"></trkpt><trkpt lat="53.15834" lon="6.64033"></trkpt><trkpt lat="53.15817" lon="6.64054"></trkpt><trkpt lat="53.15778" lon="6.64108"></trkpt><trkpt lat="53.15765" lon="6.64126"></trkpt><trkpt lat="53.15747" lon="6.6414"></trkpt><trkpt lat="53.15722" lon="6.64157"></trkpt><trkpt lat="53.15704" lon="6.64163"></trkpt><trkpt lat="53.15681" lon="6.64169"></trkpt><trkpt lat="53.1563" lon="6.64176"></trkpt><trkpt lat="53.15621" lon="6.64181"></trkpt><trkpt lat="53.15615" lon="6.64183"></trkpt><trkpt lat="53.15512" lon="6.64243"></trkpt><trkpt lat="53.15477" lon="6.64263"></trkpt><trkpt lat="53.15456" lon="6.64285"></trkpt><trkpt lat="53.1543" lon="6.64311"></trkpt><trkpt lat="53.15421" lon="6.64312"></trkpt><trkpt lat="53.15357" lon="6.64367"></trkpt><trkpt lat="53.15249" lon="6.64457"></trkpt><trkpt lat="53.15179" lon="6.64517"></trkpt><trkpt lat="53.15134" lon="6.64561"></trkpt><trkpt lat="53.151" lon="6.64593"></trkpt><trkpt lat="53.15031" lon="6.64646"></trkpt><trkpt lat="53.1501" lon="6.64663"></trkpt><trkpt lat="53.14984" lon="6.64683"></trkpt><trkpt lat="53.14961" lon="6.64701"></trkpt><trkpt lat="53.14933" lon="6.6472"></trkpt><trkpt lat="53.14777" lon="6.64768"></trkpt><trkpt lat="53.14676" lon="6.64794"></trkpt><trkpt lat="53.1464" lon="6.6481"></trkpt><trkpt lat="53.14567" lon="6.64852"></trkpt><trkpt lat="53.14541" lon="6.64861"></trkpt><trkpt lat="53.14524" lon="6.64869"></trkpt><trkpt lat="53.14499" lon="6.64881"></trkpt><trkpt lat="53.14477" lon="6.64899"></trkpt><trkpt lat="53.14469" lon="6.64911"></trkpt><trkpt lat="53.14423" lon="6.64967"></trkpt><trkpt lat="53.14391" lon="6.64988"></trkpt><trkpt lat="53.14382" lon="6.64994"></trkpt><trkpt lat="53.14368" lon="6.64997"></trkpt><trkpt lat="53.14329" lon="6.65022"></trkpt><trkpt lat="53.14318" lon="6.65036"></trkpt><trkpt lat="53.14311" lon="6.65039"></trkpt><trkpt lat="53.14277" lon="6.65055"></trkpt><trkpt lat="53.14212" lon="6.65084"></trkpt><trkpt lat="53.14199" lon="6.6509"></trkpt><trkpt lat="53.14154" lon="6.65114"></trkpt><trkpt lat="53.14032" lon="6.65184"></trkpt><trkpt lat="53.13795" lon="6.6532"></trkpt><trkpt lat="53.13791" lon="6.65323"></trkpt><trkpt lat="53.13613" lon="6.65425"></trkpt><trkpt lat="53.13607" lon="6.65431"></trkpt><trkpt lat="53.13518" lon="6.65524"></trkpt><trkpt lat="53.1334" lon="6.65711"></trkpt><trkpt lat="53.13327" lon="6.65732"></trkpt><trkpt lat="53.13317" lon="6.65747"></trkpt><trkpt lat="53.13251" lon="6.65846"></trkpt><trkpt lat="53.13233" lon="6.65851"></trkpt><trkpt lat="53.13202" lon="6.65892"></trkpt><trkpt lat="53.13157" lon="6.6592"></trkpt><trkpt lat="53.13153" lon="6.6592"></trkpt><trkpt lat="53.13144" lon="6.65923"></trkpt><trkpt lat="53.13138" lon="6.65924"></trkpt><trkpt lat="53.1309" lon="6.65948"></trkpt><trkpt lat="53.13057" lon="6.65966"></trkpt><trkpt lat="53.1302" lon="6.65976"></trkpt><trkpt lat="53.12856" lon="6.66045"></trkpt><trkpt lat="53.12613" lon="6.66155"></trkpt><trkpt lat="53.12597" lon="6.66169"></trkpt><trkpt lat="53.12584" lon="6.662"></trkpt><trkpt lat="53.12583" lon="6.66205"></trkpt><trkpt lat="53.1258" lon="6.66219"></trkpt><trkpt lat="53.12565" lon="6.66258"></trkpt><trkpt lat="53.12545" lon="6.66321"></trkpt><trkpt lat="53.12507" lon="6.66419"></trkpt><trkpt lat="53.12494" lon="6.66464"></trkpt><trkpt lat="53.12477" lon="6.66523"></trkpt><trkpt lat="53.12457" lon="6.66565"></trkpt><trkpt lat="53.12443" lon="6.66588"></trkpt><trkpt lat="53.12429" lon="6.66613"></trkpt><trkpt lat="53.12412" lon="6.66634"></trkpt><trkpt lat="53.12358" lon="6.66692"></trkpt><trkpt lat="53.12344" lon="6.66707"></trkpt><trkpt lat="53.12334" lon="6.66718"></trkpt><trkpt lat="53.12323" lon="6.66728"></trkpt><trkpt lat="53.12301" lon="6.66745"></trkpt><trkpt lat="53.1228" lon="6.66762"></trkpt><trkpt lat="53.12258" lon="6.66778"></trkpt><trkpt lat="53.12188" lon="6.66838"></trkpt><trkpt lat="53.12177" lon="6.66855"></trkpt><trkpt lat="53.12161" lon="6.66854"></trkpt><trkpt lat="53.12152" lon="6.66852"></trkpt><trkpt lat="53.12144" lon="6.66848"></trkpt><trkpt lat="53.12127" lon="6.66838"></trkpt><trkpt lat="53.12117" lon="6.66837"></trkpt><trkpt lat="53.12107" lon="6.66837"></trkpt><trkpt lat="53.12082" lon="6.66845"></trkpt><trkpt lat="53.12046" lon="6.66859"></trkpt><trkpt lat="53.12018" lon="6.6689"></trkpt><trkpt lat="53.12004" lon="6.66904"></trkpt><trkpt lat="53.11974" lon="6.66923"></trkpt><trkpt lat="53.11917" lon="6.66957"></trkpt><trkpt lat="53.11909" lon="6.66962"></trkpt><trkpt lat="53.119" lon="6.66972"></trkpt><trkpt lat="53.11887" lon="6.66992"></trkpt><trkpt lat="53.11865" lon="6.6704"></trkpt><trkpt lat="53.11851" lon="6.67071"></trkpt><trkpt lat="53.1185" lon="6.67072"></trkpt><trkpt lat="53.11824" lon="6.67126"></trkpt><trkpt lat="53.11742" lon="6.67287"></trkpt><trkpt lat="53.11728" lon="6.67313"></trkpt><trkpt lat="53.11715" lon="6.67334"></trkpt><trkpt lat="53.1169" lon="6.67366"></trkpt><trkpt lat="53.11677" lon="6.67378"></trkpt><trkpt lat="53.11647" lon="6.67406"></trkpt><trkpt lat="53.11602" lon="6.67442"></trkpt><trkpt lat="53.11576" lon="6.67466"></trkpt><trkpt lat="53.11554" lon="6.67488"></trkpt><trkpt lat="53.11553" lon="6.67489"></trkpt><trkpt lat="53.11531" lon="6.67509"></trkpt><trkpt lat="53.11505" lon="6.67535"></trkpt><trkpt lat="53.11475" lon="6.67566"></trkpt><trkpt lat="53.11446" lon="6.67592"></trkpt><trkpt lat="53.11436" lon="6.676"></trkpt><trkpt lat="53.11425" lon="6.67606"></trkpt><trkpt lat="53.11416" lon="6.6761"></trkpt><trkpt lat="53.11407" lon="6.67611"></trkpt><trkpt lat="53.11395" lon="6.67612"></trkpt><trkpt lat="53.11375" lon="6.67608"></trkpt><trkpt lat="53.1137" lon="6.67606"></trkpt><trkpt lat="53.11359" lon="6.67601"></trkpt><trkpt lat="53.11345" lon="6.67595"></trkpt><trkpt lat="53.11332" lon="6.67589"></trkpt><trkpt lat="53.11324" lon="6.67585"></trkpt><trkpt lat="53.11295" lon="6.67562"></trkpt><trkpt lat="53.11287" lon="6.67555"></trkpt><trkpt lat="53.11282" lon="6.67552"></trkpt><trkpt lat="53.11274" lon="6.67548"></trkpt><trkpt lat="53.11247" lon="6.67533"></trkpt><trkpt lat="53.11239" lon="6.67525"></trkpt><trkpt lat="53.11235" lon="6.67511"></trkpt><trkpt lat="53.1123" lon="6.67497"></trkpt><trkpt lat="53.11222" lon="6.67459"></trkpt><trkpt lat="53.11217" lon="6.67409"></trkpt><trkpt lat="53.11174" lon="6.67189"></trkpt><trkpt lat="53.11168" lon="6.67158"></trkpt><trkpt lat="53.1116" lon="6.67125"></trkpt><trkpt lat="53.11134" lon="6.67046"></trkpt><trkpt lat="53.11131" lon="6.67037"></trkpt><trkpt lat="53.11072" lon="6.66853"></trkpt><trkpt lat="53.11063" lon="6.66825"></trkpt><trkpt lat="53.11027" lon="6.6671"></trkpt><trkpt lat="53.11016" lon="6.66678"></trkpt><trkpt lat="53.11007" lon="6.6666"></trkpt><trkpt lat="53.10984" lon="6.66616"></trkpt><trkpt lat="53.10966" lon="6.66584"></trkpt><trkpt lat="53.10933" lon="6.66527"></trkpt><trkpt lat="53.10886" lon="6.66443"></trkpt><trkpt lat="53.1084" lon="6.66368"></trkpt><trkpt lat="53.10801" lon="6.66305"></trkpt><trkpt lat="53.10793" lon="6.66283"></trkpt><trkpt lat="53.10788" lon="6.66254"></trkpt><trkpt lat="53.10716" lon="6.65827"></trkpt><trkpt lat="53.10651" lon="6.65579"></trkpt><trkpt lat="53.10648" lon="6.65571"></trkpt><trkpt lat="53.10636" lon="6.65576"></trkpt><trkpt lat="53.10369" lon="6.65655"></trkpt><trkpt lat="53.10147" lon="6.65719"></trkpt><trkpt lat="53.1013" lon="6.65726"></trkpt><trkpt lat="53.10078" lon="6.65759"></trkpt><trkpt lat="53.10072" lon="6.65763"></trkpt><trkpt lat="53.10067" lon="6.65763"></trkpt><trkpt lat="53.10064" lon="6.65758"></trkpt><trkpt lat="53.10061" lon="6.65755"></trkpt><trkpt lat="53.10006" lon="6.65581"></trkpt><trkpt lat="53.10001" lon="6.65567"></trkpt><trkpt lat="53.09996" lon="6.65562"></trkpt><trkpt lat="53.09987" lon="6.65561"></trkpt><trkpt lat="53.09937" lon="6.65555"></trkpt><trkpt lat="53.09937" lon="6.65555"></trkpt><trkpt lat="53.09909" lon="6.6554"></trkpt><trkpt lat="53.09883" lon="6.65522"></trkpt><trkpt lat="53.09855" lon="6.65508"></trkpt><trkpt lat="53.09828" lon="6.65492"></trkpt><trkpt lat="53.09806" lon="6.65478"></trkpt><trkpt lat="53.098" lon="6.65468"></trkpt><trkpt lat="53.09793" lon="6.65478"></trkpt><trkpt lat="53.09745" lon="6.65532"></trkpt><trkpt lat="53.09721" lon="6.65559"></trkpt><trkpt lat="53.09639" lon="6.65656"></trkpt><trkpt lat="53.09614" lon="6.65685"></trkpt><trkpt lat="53.09591" lon="6.65712"></trkpt><trkpt lat="53.09463" lon="6.65861"></trkpt><trkpt lat="53.09399" lon="6.65935"></trkpt><trkpt lat="53.09336" lon="6.6601"></trkpt><trkpt lat="53.09249" lon="6.66111"></trkpt><trkpt lat="53.09125" lon="6.66256"></trkpt><trkpt lat="53.09077" lon="6.66315"></trkpt><trkpt lat="53.09069" lon="6.66323"></trkpt><trkpt lat="53.0903" lon="6.6637"></trkpt><trkpt lat="53.08995" lon="6.6641"></trkpt><trkpt lat="53.08918" lon="6.66501"></trkpt><trkpt lat="53.0891" lon="6.66511"></trkpt><trkpt lat="53.08903" lon="6.66517"></trkpt><trkpt lat="53.08905" lon="6.6653"></trkpt><trkpt lat="53.08903" lon="6.66538"></trkpt><trkpt lat="53.08906" lon="6.66548"></trkpt><trkpt lat="53.08899" lon="6.66555"></trkpt><trkpt lat="53.08891" lon="6.66562"></trkpt><trkpt lat="53.08889" lon="6.6656"></trkpt><trkpt lat="53.08886" lon="6.6656"></trkpt><trkpt lat="53.08883" lon="6.66563"></trkpt><trkpt lat="53.08881" lon="6.66564"></trkpt><trkpt lat="53.08877" lon="6.66567"></trkpt><trkpt lat="53.08866" lon="6.66578"></trkpt><trkpt lat="53.08839" lon="6.66605"></trkpt><trkpt lat="53.08827" lon="6.66612"></trkpt><trkpt lat="53.08816" lon="6.66625"></trkpt><trkpt lat="53.0881" lon="6.66638"></trkpt><trkpt lat="53.08757" lon="6.66702"></trkpt><trkpt lat="53.08722" lon="6.6674"></trkpt><trkpt lat="53.08714" lon="6.66742"></trkpt><trkpt lat="53.08627" lon="6.66844"></trkpt><trkpt lat="53.08582" lon="6.66898"></trkpt><trkpt lat="53.08444" lon="6.67059"></trkpt><trkpt lat="53.08437" lon="6.67065"></trkpt><trkpt lat="53.08431" lon="6.67066"></trkpt><trkpt lat="53.08397" lon="6.67044"></trkpt><trkpt lat="53.08386" lon="6.67038"></trkpt><trkpt lat="53.08376" lon="6.67035"></trkpt><trkpt lat="53.08356" lon="6.67036"></trkpt><trkpt lat="53.08332" lon="6.67041"></trkpt><trkpt lat="53.08304" lon="6.67042"></trkpt><trkpt lat="53.08175" lon="6.67053"></trkpt><trkpt lat="53.08154" lon="6.67054"></trkpt><trkpt lat="53.08092" lon="6.67058"></trkpt><trkpt lat="53.08074" lon="6.67062"></trkpt><trkpt lat="53.08054" lon="6.67069"></trkpt><trkpt lat="53.0804" lon="6.67074"></trkpt><trkpt lat="53.08032" lon="6.67079"></trkpt><trkpt lat="53.08025" lon="6.67084"></trkpt><trkpt lat="53.08023" lon="6.67081"></trkpt><trkpt lat="53.08017" lon="6.67073"></trkpt><trkpt lat="53.08" lon="6.67052"></trkpt><trkpt lat="53.07978" lon="6.67039"></trkpt><trkpt lat="53.07971" lon="6.67037"></trkpt><trkpt lat="53.07962" lon="6.67038"></trkpt><trkpt lat="53.0795" lon="6.67042"></trkpt><trkpt lat="53.07941" lon="6.67043"></trkpt><trkpt lat="53.07936" lon="6.67041"></trkpt><trkpt lat="53.07924" lon="6.67027"></trkpt><trkpt lat="53.07888" lon="6.67011"></trkpt><trkpt lat="53.0785" lon="6.66996"></trkpt><trkpt lat="53.07783" lon="6.66971"></trkpt><trkpt lat="53.07773" lon="6.66975"></trkpt><trkpt lat="53.07763" lon="6.66978"></trkpt><trkpt lat="53.07754" lon="6.66976"></trkpt><trkpt lat="53.07743" lon="6.66972"></trkpt><trkpt lat="53.07729" lon="6.66963"></trkpt><trkpt lat="53.07696" lon="6.66957"></trkpt><trkpt lat="53.07682" lon="6.66954"></trkpt><trkpt lat="53.07661" lon="6.66944"></trkpt><trkpt lat="53.07622" lon="6.66936"></trkpt><trkpt lat="53.07608" lon="6.66933"></trkpt><trkpt lat="53.07542" lon="6.66916"></trkpt><trkpt lat="53.07536" lon="6.66905"></trkpt><trkpt lat="53.0752" lon="6.66901"></trkpt><trkpt lat="53.07418" lon="6.66871"></trkpt><trkpt lat="53.0724" lon="6.66821"></trkpt><trkpt lat="53.07225" lon="6.66816"></trkpt><trkpt lat="53.07208" lon="6.66817"></trkpt><trkpt lat="53.07197" lon="6.6682"></trkpt><trkpt lat="53.07186" lon="6.66825"></trkpt><trkpt lat="53.07175" lon="6.66834"></trkpt><trkpt lat="53.07146" lon="6.66855"></trkpt><trkpt lat="53.07132" lon="6.66859"></trkpt><trkpt lat="53.07079" lon="6.66861"></trkpt><trkpt lat="53.07061" lon="6.66864"></trkpt><trkpt lat="53.07039" lon="6.66871"></trkpt><trkpt lat="53.06973" lon="6.66911"></trkpt><trkpt lat="53.06911" lon="6.66947"></trkpt><trkpt lat="53.06839" lon="6.6699"></trkpt><trkpt lat="53.06828" lon="6.66998"></trkpt><trkpt lat="53.06809" lon="6.67012"></trkpt><trkpt lat="53.06797" lon="6.67022"></trkpt><trkpt lat="53.06778" lon="6.67042"></trkpt><trkpt lat="53.06756" lon="6.67078"></trkpt><trkpt lat="53.06751" lon="6.67087"></trkpt><trkpt lat="53.06747" lon="6.67095"></trkpt><trkpt lat="53.06737" lon="6.67093"></trkpt><trkpt lat="53.06677" lon="6.6713"></trkpt><trkpt lat="53.06654" lon="6.67142"></trkpt><trkpt lat="53.06628" lon="6.67153"></trkpt><trkpt lat="53.06578" lon="6.67171"></trkpt><trkpt lat="53.06521" lon="6.67191"></trkpt><trkpt lat="53.0649" lon="6.67202"></trkpt><trkpt lat="53.06376" lon="6.67206"></trkpt><trkpt lat="53.06303" lon="6.67241"></trkpt><trkpt lat="53.06282" lon="6.67238"></trkpt><trkpt lat="53.06275" lon="6.6724"></trkpt><trkpt lat="53.0625" lon="6.67208"></trkpt><trkpt lat="53.06202" lon="6.67135"></trkpt><trkpt lat="53.06172" lon="6.67105"></trkpt><trkpt lat="53.06163" lon="6.67097"></trkpt><trkpt lat="53.05963" lon="6.66926"></trkpt><trkpt lat="53.05945" lon="6.66911"></trkpt><trkpt lat="53.05831" lon="6.66815"></trkpt><trkpt lat="53.05697" lon="6.66698"></trkpt><trkpt lat="53.05672" lon="6.66673"></trkpt><trkpt lat="53.05571" lon="6.66553"></trkpt><trkpt lat="53.05254" lon="6.66167"></trkpt><trkpt lat="53.0525" lon="6.66163"></trkpt><trkpt lat="53.05247" lon="6.6616"></trkpt><trkpt lat="53.05235" lon="6.66151"></trkpt><trkpt lat="53.05222" lon="6.66144"></trkpt><trkpt lat="53.05142" lon="6.66114"></trkpt><trkpt lat="53.05067" lon="6.66085"></trkpt><trkpt lat="53.05058" lon="6.66083"></trkpt><trkpt lat="53.0505" lon="6.66084"></trkpt><trkpt lat="53.05043" lon="6.66086"></trkpt><trkpt lat="53.05037" lon="6.6609"></trkpt><trkpt lat="53.05032" lon="6.66095"></trkpt><trkpt lat="53.05028" lon="6.66101"></trkpt><trkpt lat="53.04992" lon="6.66155"></trkpt><trkpt lat="53.04985" lon="6.66164"></trkpt><trkpt lat="53.04979" lon="6.6617"></trkpt><trkpt lat="53.04971" lon="6.66176"></trkpt><trkpt lat="53.04964" lon="6.66181"></trkpt><trkpt lat="53.04956" lon="6.66187"></trkpt><trkpt lat="53.04942" lon="6.66193"></trkpt><trkpt lat="53.04929" lon="6.66194"></trkpt><trkpt lat="53.04801" lon="6.66172"></trkpt><trkpt lat="53.04676" lon="6.66151"></trkpt><trkpt lat="53.04555" lon="6.66129"></trkpt><trkpt lat="53.04544" lon="6.66125"></trkpt><trkpt lat="53.04531" lon="6.66117"></trkpt><trkpt lat="53.04523" lon="6.66111"></trkpt><trkpt lat="53.04514" lon="6.66102"></trkpt><trkpt lat="53.04502" lon="6.66088"></trkpt><trkpt lat="53.04483" lon="6.66066"></trkpt><trkpt lat="53.04474" lon="6.66057"></trkpt><trkpt lat="53.04464" lon="6.66049"></trkpt><trkpt lat="53.04446" lon="6.66039"></trkpt><trkpt lat="53.04366" lon="6.65998"></trkpt><trkpt lat="53.04342" lon="6.65987"></trkpt><trkpt lat="53.04331" lon="6.65982"></trkpt><trkpt lat="53.04318" lon="6.65979"></trkpt><trkpt lat="53.04312" lon="6.65978"></trkpt><trkpt lat="53.04304" lon="6.65979"></trkpt><trkpt lat="53.04296" lon="6.65979"></trkpt><trkpt lat="53.04288" lon="6.65981"></trkpt><trkpt lat="53.04237" lon="6.66002"></trkpt><trkpt lat="53.04222" lon="6.66007"></trkpt><trkpt lat="53.04182" lon="6.66023"></trkpt><trkpt lat="53.04142" lon="6.66041"></trkpt><trkpt lat="53.04128" lon="6.66049"></trkpt><trkpt lat="53.0405" lon="6.66103"></trkpt><trkpt lat="53.03972" lon="6.66157"></trkpt><trkpt lat="53.03938" lon="6.66181"></trkpt><trkpt lat="53.0389" lon="6.66215"></trkpt><trkpt lat="53.03877" lon="6.66217"></trkpt><trkpt lat="53.0387" lon="6.66226"></trkpt><trkpt lat="53.03852" lon="6.66246"></trkpt><trkpt lat="53.03811" lon="6.66287"></trkpt><trkpt lat="53.03796" lon="6.66302"></trkpt><trkpt lat="53.03778" lon="6.6632"></trkpt><trkpt lat="53.03731" lon="6.66361"></trkpt><trkpt lat="53.03659" lon="6.66417"></trkpt><trkpt lat="53.03654" lon="6.66399"></trkpt><trkpt lat="53.03647" lon="6.66374"></trkpt><trkpt lat="53.03639" lon="6.66352"></trkpt><trkpt lat="53.0363" lon="6.66333"></trkpt><trkpt lat="53.03621" lon="6.66315"></trkpt><trkpt lat="53.03607" lon="6.66293"></trkpt><trkpt lat="53.03593" lon="6.66274"></trkpt><trkpt lat="53.03574" lon="6.66247"></trkpt><trkpt lat="53.03554" lon="6.6622"></trkpt><trkpt lat="53.03545" lon="6.66209"></trkpt><trkpt lat="53.03534" lon="6.66198"></trkpt><trkpt lat="53.03521" lon="6.66189"></trkpt><trkpt lat="53.03511" lon="6.66182"></trkpt><trkpt lat="53.03506" lon="6.6618"></trkpt><trkpt lat="53.03492" lon="6.66176"></trkpt><trkpt lat="53.03441" lon="6.66174"></trkpt><trkpt lat="53.03413" lon="6.66171"></trkpt><trkpt lat="53.03371" lon="6.66164"></trkpt><trkpt lat="53.03328" lon="6.66157"></trkpt><trkpt lat="53.03279" lon="6.66164"></trkpt><trkpt lat="53.03242" lon="6.66169"></trkpt><trkpt lat="53.03214" lon="6.66168"></trkpt><trkpt lat="53.03203" lon="6.66166"></trkpt><trkpt lat="53.03194" lon="6.66163"></trkpt><trkpt lat="53.0318" lon="6.66155"></trkpt><trkpt lat="53.03168" lon="6.66147"></trkpt><trkpt lat="53.0313" lon="6.66113"></trkpt><trkpt lat="53.03125" lon="6.66126"></trkpt><trkpt lat="53.03117" lon="6.66133"></trkpt><trkpt lat="53.03076" lon="6.66144"></trkpt><trkpt lat="53.02881" lon="6.66202"></trkpt><trkpt lat="53.0287" lon="6.66206"></trkpt><trkpt lat="53.02858" lon="6.66211"></trkpt><trkpt lat="53.02846" lon="6.66219"></trkpt><trkpt lat="53.02834" lon="6.66228"></trkpt><trkpt lat="53.02826" lon="6.66235"></trkpt><trkpt lat="53.02818" lon="6.66243"></trkpt><trkpt lat="53.02802" lon="6.66261"></trkpt><trkpt lat="53.02788" lon="6.66279"></trkpt><trkpt lat="53.02773" lon="6.663"></trkpt><trkpt lat="53.02747" lon="6.66341"></trkpt><trkpt lat="53.02738" lon="6.66359"></trkpt><trkpt lat="53.02728" lon="6.66385"></trkpt><trkpt lat="53.02719" lon="6.66411"></trkpt><trkpt lat="53.0271" lon="6.66447"></trkpt><trkpt lat="53.02701" lon="6.66487"></trkpt><trkpt lat="53.02697" lon="6.66511"></trkpt><trkpt lat="53.02694" lon="6.66536"></trkpt><trkpt lat="53.02691" lon="6.66577"></trkpt><trkpt lat="53.02686" lon="6.66667"></trkpt><trkpt lat="53.02681" lon="6.66766"></trkpt><trkpt lat="53.02678" lon="6.66789"></trkpt><trkpt lat="53.02676" lon="6.66806"></trkpt><trkpt lat="53.02672" lon="6.66819"></trkpt><trkpt lat="53.02668" lon="6.66831"></trkpt><trkpt lat="53.02662" lon="6.66846"></trkpt><trkpt lat="53.02567" lon="6.67025"></trkpt><trkpt lat="53.0256" lon="6.67041"></trkpt><trkpt lat="53.02553" lon="6.67058"></trkpt><trkpt lat="53.02548" lon="6.67081"></trkpt><trkpt lat="53.02546" lon="6.67094"></trkpt><trkpt lat="53.02536" lon="6.67217"></trkpt><trkpt lat="53.0253" lon="6.6724"></trkpt><trkpt lat="53.02525" lon="6.6726"></trkpt><trkpt lat="53.02514" lon="6.67281"></trkpt><trkpt lat="53.02502" lon="6.67297"></trkpt><trkpt lat="53.02452" lon="6.67352"></trkpt><trkpt lat="53.02439" lon="6.67365"></trkpt><trkpt lat="53.02428" lon="6.67375"></trkpt><trkpt lat="53.02417" lon="6.67382"></trkpt><trkpt lat="53.02407" lon="6.67387"></trkpt><trkpt lat="53.02387" lon="6.67391"></trkpt><trkpt lat="53.02344" lon="6.6739"></trkpt><trkpt lat="53.0227" lon="6.67389"></trkpt><trkpt lat="53.02162" lon="6.67385"></trkpt><trkpt lat="53.01905" lon="6.67376"></trkpt><trkpt lat="53.01874" lon="6.67383"></trkpt><trkpt lat="53.0185" lon="6.67391"></trkpt><trkpt lat="53.01796" lon="6.67413"></trkpt><trkpt lat="53.01649" lon="6.67473"></trkpt><trkpt lat="53.01601" lon="6.67492"></trkpt><trkpt lat="53.0135" lon="6.67594"></trkpt><trkpt lat="53.01159" lon="6.67671"></trkpt><trkpt lat="53.01105" lon="6.67693"></trkpt><trkpt lat="53.0109" lon="6.67696"></trkpt><trkpt lat="53.01081" lon="6.67697"></trkpt><trkpt lat="53.01037" lon="6.677"></trkpt><trkpt lat="53.01012" lon="6.677"></trkpt><trkpt lat="53.00991" lon="6.67701"></trkpt><trkpt lat="53.0098" lon="6.67701"></trkpt><trkpt lat="53.00974" lon="6.67702"></trkpt><trkpt lat="53.00968" lon="6.67704"></trkpt><trkpt lat="53.00954" lon="6.67711"></trkpt><trkpt lat="53.00945" lon="6.67718"></trkpt><trkpt lat="53.00937" lon="6.67727"></trkpt><trkpt lat="53.0093" lon="6.67736"></trkpt><trkpt lat="53.00924" lon="6.67744"></trkpt><trkpt lat="53.00918" lon="6.67756"></trkpt><trkpt lat="53.00913" lon="6.67767"></trkpt><trkpt lat="53.00908" lon="6.67785"></trkpt><trkpt lat="53.009" lon="6.67815"></trkpt><trkpt lat="53.00886" lon="6.67861"></trkpt><trkpt lat="53.00868" lon="6.6789"></trkpt><trkpt lat="53.00853" lon="6.6791"></trkpt><trkpt lat="53.00844" lon="6.67919"></trkpt><trkpt lat="53.00838" lon="6.67923"></trkpt><trkpt lat="53.0083" lon="6.6793"></trkpt><trkpt lat="53.00802" lon="6.67944"></trkpt><trkpt lat="53.00757" lon="6.67955"></trkpt><trkpt lat="53.00651" lon="6.67977"></trkpt><trkpt lat="53.00506" lon="6.68028"></trkpt><trkpt lat="53.00484" lon="6.68035"></trkpt><trkpt lat="53.00481" lon="6.68037"></trkpt><trkpt lat="53.00434" lon="6.68055"></trkpt><trkpt lat="53.00377" lon="6.68082"></trkpt><trkpt lat="53.00345" lon="6.681"></trkpt><trkpt lat="53.00314" lon="6.68121"></trkpt><trkpt lat="53.00307" lon="6.68127"></trkpt><trkpt lat="53.00292" lon="6.68141"></trkpt><trkpt lat="53.00287" lon="6.68148"></trkpt><trkpt lat="53.00241" lon="6.68235"></trkpt><trkpt lat="53.00233" lon="6.68255"></trkpt><trkpt lat="53.00228" lon="6.68275"></trkpt><trkpt lat="53.00216" lon="6.68341"></trkpt><trkpt lat="53.00209" lon="6.68366"></trkpt><trkpt lat="53.00162" lon="6.68515"></trkpt><trkpt lat="53.00142" lon="6.68581"></trkpt><trkpt lat="53.00132" lon="6.68602"></trkpt><trkpt lat="53.0012" lon="6.68618"></trkpt><trkpt lat="53.00111" lon="6.68623"></trkpt><trkpt lat="53.00101" lon="6.68627"></trkpt><trkpt lat="53.00082" lon="6.68631"></trkpt><trkpt lat="53.00062" lon="6.68633"></trkpt><trkpt lat="53.00047" lon="6.68636"></trkpt><trkpt lat="53.00037" lon="6.68634"></trkpt><trkpt lat="53.00027" lon="6.6863"></trkpt><trkpt lat="52.99995" lon="6.68611"></trkpt><trkpt lat="52.99951" lon="6.68584"></trkpt><trkpt lat="52.99935" lon="6.68575"></trkpt><trkpt lat="52.99906" lon="6.68564"></trkpt><trkpt lat="52.9989" lon="6.68426"></trkpt><trkpt lat="52.99886" lon="6.68397"></trkpt><trkpt lat="52.99883" lon="6.68337"></trkpt><trkpt lat="52.99876" lon="6.68205"></trkpt><trkpt lat="52.99863" lon="6.67994"></trkpt><trkpt lat="52.99864" lon="6.6798"></trkpt><trkpt lat="52.99852" lon="6.6798"></trkpt><trkpt lat="52.99777" lon="6.68007"></trkpt><trkpt lat="52.99699" lon="6.68037"></trkpt><trkpt lat="52.99686" lon="6.68043"></trkpt><trkpt lat="52.99677" lon="6.68044"></trkpt><trkpt lat="52.99673" lon="6.68039"></trkpt><trkpt lat="52.99654" lon="6.67974"></trkpt><trkpt lat="52.99607" lon="6.67813"></trkpt><trkpt lat="52.99539" lon="6.67588"></trkpt><trkpt lat="52.99502" lon="6.67469"></trkpt><trkpt lat="52.99501" lon="6.67439"></trkpt><trkpt lat="52.99446" lon="6.67243"></trkpt><trkpt lat="52.99427" lon="6.67181"></trkpt><trkpt lat="52.99418" lon="6.67143"></trkpt><trkpt lat="52.99416" lon="6.67129"></trkpt><trkpt lat="52.99415" lon="6.67114"></trkpt><trkpt lat="52.99417" lon="6.67103"></trkpt><trkpt lat="52.99425" lon="6.67098"></trkpt><trkpt lat="52.99443" lon="6.67092"></trkpt><trkpt lat="52.9945" lon="6.67089"></trkpt><trkpt lat="52.99456" lon="6.67084"></trkpt><trkpt lat="52.99461" lon="6.67077"></trkpt><trkpt lat="52.99464" lon="6.67068"></trkpt><trkpt lat="52.99466" lon="6.67057"></trkpt><trkpt lat="52.99466" lon="6.6705"></trkpt><trkpt lat="52.99466" lon="6.67046"></trkpt><trkpt lat="52.99465" lon="6.67042"></trkpt><trkpt lat="52.99457" lon="6.67023"></trkpt><trkpt lat="52.99452" lon="6.6701"></trkpt><trkpt lat="52.99452" lon="6.67003"></trkpt><trkpt lat="52.99458" lon="6.66979"></trkpt><trkpt lat="52.99458" lon="6.66971"></trkpt><trkpt lat="52.9943" lon="6.66808"></trkpt><trkpt lat="52.99401" lon="6.66642"></trkpt><trkpt lat="52.99396" lon="6.66617"></trkpt><trkpt lat="52.9938" lon="6.66529"></trkpt><trkpt lat="52.99359" lon="6.66417"></trkpt><trkpt lat="52.99339" lon="6.66306"></trkpt><trkpt lat="52.9932" lon="6.66193"></trkpt><trkpt lat="52.99316" lon="6.66188"></trkpt><trkpt lat="52.99314" lon="6.66182"></trkpt><trkpt lat="52.99302" lon="6.6597"></trkpt><trkpt lat="52.993" lon="6.65941"></trkpt><trkpt lat="52.99297" lon="6.65917"></trkpt><trkpt lat="52.99289" lon="6.65881"></trkpt><trkpt lat="52.99272" lon="6.65821"></trkpt><trkpt lat="52.99256" lon="6.65765"></trkpt><trkpt lat="52.99247" lon="6.65733"></trkpt><trkpt lat="52.99199" lon="6.6554"></trkpt><trkpt lat="52.99164" lon="6.65401"></trkpt><trkpt lat="52.9916" lon="6.65385"></trkpt><trkpt lat="52.99154" lon="6.65368"></trkpt><trkpt lat="52.99146" lon="6.65352"></trkpt><trkpt lat="52.99138" lon="6.65342"></trkpt><trkpt lat="52.99125" lon="6.65331"></trkpt><trkpt lat="52.99094" lon="6.65311"></trkpt><trkpt lat="52.9907" lon="6.65296"></trkpt><trkpt lat="52.99067" lon="6.65294"></trkpt><trkpt lat="52.99061" lon="6.65288"></trkpt><trkpt lat="52.99057" lon="6.65282"></trkpt><trkpt lat="52.99054" lon="6.65275"></trkpt><trkpt lat="52.99051" lon="6.65264"></trkpt><trkpt lat="52.99049" lon="6.65234"></trkpt><trkpt lat="52.99051" lon="6.65206"></trkpt><trkpt lat="52.99042" lon="6.65196"></trkpt><trkpt lat="52.99041" lon="6.6516"></trkpt><trkpt lat="52.99045" lon="6.64943"></trkpt><trkpt lat="52.99047" lon="6.6493"></trkpt><trkpt lat="52.99049" lon="6.64915"></trkpt><trkpt lat="52.99052" lon="6.64895"></trkpt><trkpt lat="52.99054" lon="6.64855"></trkpt><trkpt lat="52.99062" lon="6.64817"></trkpt><trkpt lat="52.99059" lon="6.64601"></trkpt><trkpt lat="52.99056" lon="6.64576"></trkpt><trkpt lat="52.99061" lon="6.64315"></trkpt><trkpt lat="52.99062" lon="6.6429"></trkpt><trkpt lat="52.99063" lon="6.64238"></trkpt><trkpt lat="52.99063" lon="6.64209"></trkpt><trkpt lat="52.99064" lon="6.64177"></trkpt><trkpt lat="52.99068" lon="6.64044"></trkpt><trkpt lat="52.99091" lon="6.64025"></trkpt><trkpt lat="52.99115" lon="6.64007"></trkpt><trkpt lat="52.99162" lon="6.63971"></trkpt><trkpt lat="52.99167" lon="6.6397"></trkpt><trkpt lat="52.99171" lon="6.63971"></trkpt><trkpt lat="52.99174" lon="6.6397"></trkpt><trkpt lat="52.99177" lon="6.63968"></trkpt><trkpt lat="52.99184" lon="6.63956"></trkpt><trkpt lat="52.992" lon="6.63921"></trkpt><trkpt lat="52.99254" lon="6.63794"></trkpt><trkpt lat="52.99256" lon="6.63775"></trkpt><trkpt lat="52.9927" lon="6.63744"></trkpt><trkpt lat="52.99282" lon="6.63734"></trkpt><trkpt lat="52.9934" lon="6.63619"></trkpt><trkpt lat="52.99393" lon="6.63507"></trkpt><trkpt lat="52.99405" lon="6.63462"></trkpt><trkpt lat="52.99401" lon="6.63439"></trkpt><trkpt lat="52.99403" lon="6.6343"></trkpt><trkpt lat="52.99411" lon="6.63403"></trkpt><trkpt lat="52.9942" lon="6.63382"></trkpt><trkpt lat="52.99446" lon="6.63365"></trkpt><trkpt lat="52.99496" lon="6.63332"></trkpt><trkpt lat="52.99508" lon="6.63316"></trkpt><trkpt lat="52.99527" lon="6.63275"></trkpt><trkpt lat="52.9954" lon="6.63252"></trkpt><trkpt lat="52.99552" lon="6.63234"></trkpt><trkpt lat="52.99578" lon="6.63195"></trkpt><trkpt lat="52.99594" lon="6.63159"></trkpt><trkpt lat="52.99598" lon="6.63146"></trkpt><trkpt lat="52.996" lon="6.63135"></trkpt><trkpt lat="52.9961" lon="6.63104"></trkpt><trkpt lat="52.99619" lon="6.63082"></trkpt><trkpt lat="52.99628" lon="6.63062"></trkpt><trkpt lat="52.99634" lon="6.63053"></trkpt><trkpt lat="52.99644" lon="6.63041"></trkpt><trkpt lat="52.99658" lon="6.63034"></trkpt><trkpt lat="52.99689" lon="6.63029"></trkpt><trkpt lat="52.99723" lon="6.63024"></trkpt><trkpt lat="52.99741" lon="6.63014"></trkpt><trkpt lat="52.99756" lon="6.63001"></trkpt><trkpt lat="52.9978" lon="6.6297"></trkpt><trkpt lat="52.99934" lon="6.62741"></trkpt><trkpt lat="52.99952" lon="6.62715"></trkpt><trkpt lat="52.99968" lon="6.62697"></trkpt><trkpt lat="52.99986" lon="6.6268"></trkpt><trkpt lat="53.00004" lon="6.62665"></trkpt><trkpt lat="53.00015" lon="6.62653"></trkpt><trkpt lat="53.00025" lon="6.62642"></trkpt><trkpt lat="53.00045" lon="6.62612"></trkpt><trkpt lat="53.00085" lon="6.62542"></trkpt><trkpt lat="53.00107" lon="6.62513"></trkpt><trkpt lat="53.00191" lon="6.62415"></trkpt><trkpt lat="53.00232" lon="6.62362"></trkpt><trkpt lat="53.00272" lon="6.62315"></trkpt><trkpt lat="53.00283" lon="6.62304"></trkpt><trkpt lat="53.00319" lon="6.62279"></trkpt><trkpt lat="53.004" lon="6.62226"></trkpt><trkpt lat="53.0045" lon="6.62194"></trkpt><trkpt lat="53.00477" lon="6.62176"></trkpt><trkpt lat="53.0049" lon="6.62167"></trkpt><trkpt lat="53.00499" lon="6.6216"></trkpt><trkpt lat="53.00508" lon="6.6215"></trkpt><trkpt lat="53.00519" lon="6.62138"></trkpt><trkpt lat="53.00541" lon="6.62109"></trkpt><trkpt lat="53.00561" lon="6.62079"></trkpt><trkpt lat="53.00602" lon="6.6202"></trkpt><trkpt lat="53.00719" lon="6.61854"></trkpt><trkpt lat="53.00749" lon="6.61809"></trkpt><trkpt lat="53.00768" lon="6.61782"></trkpt><trkpt lat="53.00775" lon="6.61773"></trkpt><trkpt lat="53.00805" lon="6.6173"></trkpt><trkpt lat="53.0082" lon="6.61708"></trkpt><trkpt lat="53.00834" lon="6.61689"></trkpt><trkpt lat="53.00841" lon="6.61682"></trkpt><trkpt lat="53.00843" lon="6.61679"></trkpt><trkpt lat="53.00856" lon="6.61667"></trkpt><trkpt lat="53.00887" lon="6.61637"></trkpt><trkpt lat="53.00903" lon="6.6162"></trkpt><trkpt lat="53.00974" lon="6.61541"></trkpt><trkpt lat="53.01019" lon="6.61489"></trkpt><trkpt lat="53.01038" lon="6.61468"></trkpt><trkpt lat="53.01056" lon="6.61444"></trkpt><trkpt lat="53.01082" lon="6.61411"></trkpt><trkpt lat="53.01088" lon="6.61404"></trkpt><trkpt lat="53.01094" lon="6.61397"></trkpt><trkpt lat="53.01101" lon="6.61393"></trkpt><trkpt lat="53.01108" lon="6.61389"></trkpt><trkpt lat="53.01115" lon="6.61386"></trkpt><trkpt lat="53.01127" lon="6.61382"></trkpt><trkpt lat="53.01154" lon="6.61375"></trkpt><trkpt lat="53.01184" lon="6.61369"></trkpt><trkpt lat="53.01183" lon="6.61358"></trkpt><trkpt lat="53.01178" lon="6.61335"></trkpt><trkpt lat="53.01174" lon="6.61319"></trkpt><trkpt lat="53.01178" lon="6.61335"></trkpt><trkpt lat="53.01183" lon="6.61358"></trkpt><trkpt lat="53.01184" lon="6.61369"></trkpt><trkpt lat="53.01197" lon="6.61365"></trkpt><trkpt lat="53.0121" lon="6.61361"></trkpt><trkpt lat="53.01223" lon="6.61349"></trkpt><trkpt lat="53.01231" lon="6.61339"></trkpt><trkpt lat="53.0124" lon="6.61325"></trkpt><trkpt lat="53.01248" lon="6.6131"></trkpt><trkpt lat="53.0126" lon="6.61283"></trkpt><trkpt lat="53.01283" lon="6.61225"></trkpt><trkpt lat="53.01297" lon="6.6119"></trkpt><trkpt lat="53.01313" lon="6.61134"></trkpt><trkpt lat="53.01321" lon="6.61103"></trkpt><trkpt lat="53.01321" lon="6.61095"></trkpt><trkpt lat="53.01322" lon="6.61088"></trkpt><trkpt lat="53.01323" lon="6.61079"></trkpt><trkpt lat="53.01321" lon="6.61066"></trkpt><trkpt lat="53.01316" lon="6.61039"></trkpt><trkpt lat="53.01313" lon="6.61017"></trkpt><trkpt lat="53.01312" lon="6.61008"></trkpt><trkpt lat="53.01311" lon="6.60997"></trkpt><trkpt lat="53.01311" lon="6.6099"></trkpt><trkpt lat="53.01311" lon="6.60981"></trkpt><trkpt lat="53.01313" lon="6.60965"></trkpt><trkpt lat="53.01317" lon="6.60933"></trkpt><trkpt lat="53.01319" lon="6.60918"></trkpt><trkpt lat="53.01321" lon="6.60908"></trkpt><trkpt lat="53.01332" lon="6.60905"></trkpt><trkpt lat="53.01339" lon="6.609"></trkpt><trkpt lat="53.0141" lon="6.60854"></trkpt><trkpt lat="53.01443" lon="6.60833"></trkpt><trkpt lat="53.0145" lon="6.6083"></trkpt><trkpt lat="53.01457" lon="6.60827"></trkpt><trkpt lat="53.01463" lon="6.60825"></trkpt><trkpt lat="53.01482" lon="6.60825"></trkpt><trkpt lat="53.01512" lon="6.60823"></trkpt><trkpt lat="53.01517" lon="6.60823"></trkpt><trkpt lat="53.0153" lon="6.6082"></trkpt><trkpt lat="53.01555" lon="6.60811"></trkpt><trkpt lat="53.01609" lon="6.6079"></trkpt><trkpt lat="53.01616" lon="6.60786"></trkpt><trkpt lat="53.01625" lon="6.60779"></trkpt><trkpt lat="53.01634" lon="6.60771"></trkpt><trkpt lat="53.0173" lon="6.60654"></trkpt><trkpt lat="53.01737" lon="6.60646"></trkpt><trkpt lat="53.01748" lon="6.60633"></trkpt><trkpt lat="53.01756" lon="6.60625"></trkpt><trkpt lat="53.01787" lon="6.60593"></trkpt><trkpt lat="53.01792" lon="6.60587"></trkpt><trkpt lat="53.01794" lon="6.60577"></trkpt><trkpt lat="53.01796" lon="6.60569"></trkpt><trkpt lat="53.018" lon="6.60548"></trkpt><trkpt lat="53.01802" lon="6.60538"></trkpt><trkpt lat="53.01804" lon="6.60531"></trkpt><trkpt lat="53.01809" lon="6.60522"></trkpt><trkpt lat="53.01833" lon="6.60493"></trkpt><trkpt lat="53.01848" lon="6.60478"></trkpt><trkpt lat="53.01867" lon="6.6046"></trkpt><trkpt lat="53.01879" lon="6.60451"></trkpt><trkpt lat="53.01905" lon="6.60435"></trkpt><trkpt lat="53.01951" lon="6.60417"></trkpt><trkpt lat="53.01968" lon="6.60412"></trkpt><trkpt lat="53.01982" lon="6.60409"></trkpt><trkpt lat="53.01992" lon="6.60409"></trkpt><trkpt lat="53.02001" lon="6.60412"></trkpt><trkpt lat="53.02017" lon="6.60424"></trkpt><trkpt lat="53.02025" lon="6.60434"></trkpt><trkpt lat="53.02048" lon="6.60468"></trkpt><trkpt lat="53.02055" lon="6.60478"></trkpt><trkpt lat="53.02063" lon="6.60487"></trkpt><trkpt lat="53.02104" lon="6.60522"></trkpt><trkpt lat="53.02204" lon="6.60599"></trkpt><trkpt lat="53.02216" lon="6.60607"></trkpt><trkpt lat="53.02226" lon="6.60612"></trkpt><trkpt lat="53.02235" lon="6.60613"></trkpt><trkpt lat="53.02243" lon="6.60614"></trkpt><trkpt lat="53.02251" lon="6.60614"></trkpt><trkpt lat="53.02261" lon="6.60611"></trkpt><trkpt lat="53.02271" lon="6.60607"></trkpt><trkpt lat="53.02297" lon="6.60594"></trkpt><trkpt lat="53.02305" lon="6.6059"></trkpt><trkpt lat="53.02328" lon="6.60578"></trkpt><trkpt lat="53.0234" lon="6.60571"></trkpt><trkpt lat="53.02353" lon="6.60563"></trkpt><trkpt lat="53.02364" lon="6.60554"></trkpt><trkpt lat="53.02412" lon="6.60515"></trkpt><trkpt lat="53.02425" lon="6.60505"></trkpt><trkpt lat="53.02438" lon="6.60498"></trkpt><trkpt lat="53.02449" lon="6.60493"></trkpt><trkpt lat="53.02459" lon="6.6049"></trkpt><trkpt lat="53.02473" lon="6.60489"></trkpt><trkpt lat="53.02494" lon="6.60489"></trkpt><trkpt lat="53.02522" lon="6.6049"></trkpt><trkpt lat="53.02535" lon="6.60488"></trkpt><trkpt lat="53.0278" lon="6.60439"></trkpt><trkpt lat="53.02802" lon="6.60443"></trkpt><trkpt lat="53.02821" lon="6.60452"></trkpt><trkpt lat="53.02827" lon="6.60455"></trkpt><trkpt lat="53.02857" lon="6.60469"></trkpt><trkpt lat="53.02871" lon="6.60471"></trkpt><trkpt lat="53.0288" lon="6.60468"></trkpt><trkpt lat="53.02887" lon="6.60465"></trkpt><trkpt lat="53.02899" lon="6.60454"></trkpt><trkpt lat="53.02911" lon="6.60436"></trkpt><trkpt lat="53.0303" lon="6.60218"></trkpt><trkpt lat="53.03038" lon="6.60204"></trkpt><trkpt lat="53.03049" lon="6.60209"></trkpt><trkpt lat="53.03107" lon="6.60243"></trkpt><trkpt lat="53.03188" lon="6.60293"></trkpt><trkpt lat="53.03292" lon="6.60362"></trkpt><trkpt lat="53.03346" lon="6.60401"></trkpt><trkpt lat="53.03438" lon="6.60468"></trkpt><trkpt lat="53.03534" lon="6.60541"></trkpt><trkpt lat="53.03643" lon="6.60623"></trkpt><trkpt lat="53.03682" lon="6.60653"></trkpt><trkpt lat="53.03716" lon="6.60675"></trkpt><trkpt lat="53.03719" lon="6.60665"></trkpt><trkpt lat="53.0373" lon="6.60612"></trkpt><trkpt lat="53.03731" lon="6.60605"></trkpt><trkpt lat="53.03737" lon="6.60577"></trkpt><trkpt lat="53.03746" lon="6.60548"></trkpt><trkpt lat="53.03755" lon="6.60525"></trkpt><trkpt lat="53.0377" lon="6.60503"></trkpt><trkpt lat="53.03821" lon="6.60429"></trkpt><trkpt lat="53.0386" lon="6.60368"></trkpt><trkpt lat="53.04169" lon="6.59882"></trkpt><trkpt lat="53.04269" lon="6.59728"></trkpt><trkpt lat="53.04307" lon="6.59669"></trkpt><trkpt lat="53.0459" lon="6.59306"></trkpt><trkpt lat="53.0462" lon="6.59276"></trkpt><trkpt lat="53.04652" lon="6.59251"></trkpt><trkpt lat="53.04705" lon="6.59222"></trkpt><trkpt lat="53.04688" lon="6.59036"></trkpt><trkpt lat="53.04682" lon="6.5897"></trkpt><trkpt lat="53.04674" lon="6.58892"></trkpt><trkpt lat="53.04692" lon="6.58889"></trkpt><trkpt lat="53.04706" lon="6.5889"></trkpt><trkpt lat="53.04721" lon="6.58897"></trkpt><trkpt lat="53.04732" lon="6.58906"></trkpt><trkpt lat="53.04846" lon="6.59055"></trkpt><trkpt lat="53.04865" lon="6.59077"></trkpt><trkpt lat="53.04883" lon="6.59092"></trkpt><trkpt lat="53.04895" lon="6.59099"></trkpt><trkpt lat="53.04907" lon="6.59104"></trkpt><trkpt lat="53.04923" lon="6.59107"></trkpt><trkpt lat="53.04942" lon="6.59108"></trkpt><trkpt lat="53.05291" lon="6.58994"></trkpt><trkpt lat="53.05333" lon="6.58974"></trkpt><trkpt lat="53.05558" lon="6.58847"></trkpt><trkpt lat="53.05778" lon="6.58723"></trkpt><trkpt lat="53.05913" lon="6.58647"></trkpt><trkpt lat="53.05924" lon="6.58641"></trkpt><trkpt lat="53.05966" lon="6.58618"></trkpt><trkpt lat="53.06087" lon="6.58552"></trkpt><trkpt lat="53.06262" lon="6.58453"></trkpt><trkpt lat="53.06284" lon="6.58437"></trkpt><trkpt lat="53.0633" lon="6.58395"></trkpt><trkpt lat="53.06373" lon="6.58353"></trkpt><trkpt lat="53.06567" lon="6.58162"></trkpt><trkpt lat="53.06583" lon="6.58148"></trkpt><trkpt lat="53.06605" lon="6.58134"></trkpt><trkpt lat="53.06618" lon="6.58125"></trkpt><trkpt lat="53.0663" lon="6.58121"></trkpt><trkpt lat="53.06661" lon="6.5811"></trkpt><trkpt lat="53.06717" lon="6.58095"></trkpt><trkpt lat="53.06732" lon="6.58085"></trkpt><trkpt lat="53.06745" lon="6.58125"></trkpt><trkpt lat="53.06761" lon="6.58116"></trkpt><trkpt lat="53.06768" lon="6.58111"></trkpt><trkpt lat="53.06775" lon="6.58103"></trkpt><trkpt lat="53.06788" lon="6.58081"></trkpt><trkpt lat="53.06796" lon="6.58075"></trkpt><trkpt lat="53.06805" lon="6.58071"></trkpt><trkpt lat="53.06831" lon="6.58064"></trkpt><trkpt lat="53.06887" lon="6.5805"></trkpt><trkpt lat="53.06936" lon="6.58037"></trkpt><trkpt lat="53.06958" lon="6.58031"></trkpt><trkpt lat="53.06964" lon="6.5803"></trkpt><trkpt lat="53.06982" lon="6.58025"></trkpt><trkpt lat="53.07142" lon="6.57981"></trkpt><trkpt lat="53.07152" lon="6.57981"></trkpt><trkpt lat="53.07157" lon="6.57982"></trkpt><trkpt lat="53.07161" lon="6.57985"></trkpt><trkpt lat="53.07172" lon="6.5797"></trkpt><trkpt lat="53.07209" lon="6.5794"></trkpt><trkpt lat="53.07261" lon="6.57895"></trkpt><trkpt lat="53.07307" lon="6.57854"></trkpt><trkpt lat="53.07318" lon="6.57852"></trkpt><trkpt lat="53.07338" lon="6.57854"></trkpt><trkpt lat="53.07349" lon="6.57857"></trkpt><trkpt lat="53.07357" lon="6.57855"></trkpt><trkpt lat="53.07363" lon="6.5785"></trkpt><trkpt lat="53.07368" lon="6.57848"></trkpt><trkpt lat="53.07376" lon="6.57846"></trkpt><trkpt lat="53.07389" lon="6.57843"></trkpt><trkpt lat="53.07394" lon="6.57844"></trkpt><trkpt lat="53.07477" lon="6.5787"></trkpt><trkpt lat="53.07504" lon="6.57878"></trkpt><trkpt lat="53.07516" lon="6.57882"></trkpt><trkpt lat="53.07536" lon="6.57888"></trkpt><trkpt lat="53.07542" lon="6.57892"></trkpt><trkpt lat="53.07561" lon="6.57899"></trkpt><trkpt lat="53.07566" lon="6.57901"></trkpt><trkpt lat="53.07614" lon="6.57916"></trkpt><trkpt lat="53.07662" lon="6.57931"></trkpt><trkpt lat="53.07679" lon="6.57936"></trkpt><trkpt lat="53.07689" lon="6.57934"></trkpt><trkpt lat="53.07738" lon="6.57948"></trkpt><trkpt lat="53.07754" lon="6.57954"></trkpt><trkpt lat="53.07777" lon="6.57961"></trkpt><trkpt lat="53.07782" lon="6.57967"></trkpt><trkpt lat="53.07788" lon="6.57969"></trkpt><trkpt lat="53.078" lon="6.57972"></trkpt><trkpt lat="53.07839" lon="6.57984"></trkpt><trkpt lat="53.07842" lon="6.57984"></trkpt><trkpt lat="53.07846" lon="6.57985"></trkpt><trkpt lat="53.07864" lon="6.57985"></trkpt><trkpt lat="53.07892" lon="6.57994"></trkpt><trkpt lat="53.07906" lon="6.58"></trkpt><trkpt lat="53.07932" lon="6.58011"></trkpt><trkpt lat="53.07966" lon="6.5803"></trkpt><trkpt lat="53.07975" lon="6.58035"></trkpt><trkpt lat="53.08032" lon="6.5807"></trkpt><trkpt lat="53.08058" lon="6.58086"></trkpt><trkpt lat="53.08065" lon="6.58098"></trkpt><trkpt lat="53.0807" lon="6.58112"></trkpt><trkpt lat="53.08078" lon="6.58117"></trkpt><trkpt lat="53.08084" lon="6.58122"></trkpt><trkpt lat="53.08087" lon="6.58121"></trkpt><trkpt lat="53.08097" lon="6.58113"></trkpt><trkpt lat="53.08102" lon="6.58113"></trkpt><trkpt lat="53.08142" lon="6.5814"></trkpt><trkpt lat="53.08155" lon="6.58149"></trkpt><trkpt lat="53.08223" lon="6.58206"></trkpt><trkpt lat="53.08304" lon="6.58275"></trkpt><trkpt lat="53.08401" lon="6.58358"></trkpt><trkpt lat="53.08503" lon="6.58445"></trkpt><trkpt lat="53.08623" lon="6.58546"></trkpt><trkpt lat="53.08914" lon="6.58797"></trkpt><trkpt lat="53.08944" lon="6.58825"></trkpt><trkpt lat="53.08973" lon="6.58855"></trkpt><trkpt lat="53.09283" lon="6.59204"></trkpt><trkpt lat="53.09389" lon="6.59325"></trkpt><trkpt lat="53.09454" lon="6.59398"></trkpt><trkpt lat="53.09628" lon="6.59594"></trkpt><trkpt lat="53.09638" lon="6.59614"></trkpt><trkpt lat="53.09647" lon="6.59626"></trkpt><trkpt lat="53.09665" lon="6.59648"></trkpt><trkpt lat="53.0969" lon="6.59673"></trkpt><trkpt lat="53.0971" lon="6.59687"></trkpt><trkpt lat="53.09941" lon="6.59948"></trkpt><trkpt lat="53.10193" lon="6.60234"></trkpt><trkpt lat="53.10284" lon="6.60329"></trkpt><trkpt lat="53.10325" lon="6.60369"></trkpt><trkpt lat="53.10401" lon="6.60425"></trkpt><trkpt lat="53.10464" lon="6.60453"></trkpt><trkpt lat="53.10489" lon="6.60461"></trkpt><trkpt lat="53.10537" lon="6.60469"></trkpt><trkpt lat="53.1067" lon="6.60465"></trkpt><trkpt lat="53.10743" lon="6.6046"></trkpt><trkpt lat="53.10867" lon="6.60452"></trkpt><trkpt lat="53.11049" lon="6.6044"></trkpt><trkpt lat="53.1116" lon="6.60432"></trkpt><trkpt lat="53.11383" lon="6.60418"></trkpt><trkpt lat="53.11453" lon="6.60414"></trkpt><trkpt lat="53.11494" lon="6.60411"></trkpt><trkpt lat="53.11512" lon="6.60412"></trkpt><trkpt lat="53.11558" lon="6.60409"></trkpt><trkpt lat="53.11604" lon="6.60406"></trkpt><trkpt lat="53.11636" lon="6.60405"></trkpt><trkpt lat="53.11652" lon="6.60404"></trkpt><trkpt lat="53.11678" lon="6.60406"></trkpt><trkpt lat="53.11702" lon="6.60405"></trkpt><trkpt lat="53.11758" lon="6.60406"></trkpt><trkpt lat="53.11813" lon="6.60391"></trkpt><trkpt lat="53.12085" lon="6.60372"></trkpt><trkpt lat="53.12188" lon="6.60367"></trkpt><trkpt lat="53.1223" lon="6.60363"></trkpt><trkpt lat="53.12252" lon="6.60365"></trkpt><trkpt lat="53.12261" lon="6.60364"></trkpt><trkpt lat="53.1227" lon="6.60359"></trkpt><trkpt lat="53.12283" lon="6.60345"></trkpt><trkpt lat="53.12292" lon="6.60343"></trkpt><trkpt lat="53.12306" lon="6.60345"></trkpt><trkpt lat="53.12326" lon="6.60349"></trkpt><trkpt lat="53.12333" lon="6.60352"></trkpt><trkpt lat="53.12337" lon="6.60334"></trkpt><trkpt lat="53.12339" lon="6.60328"></trkpt><trkpt lat="53.12343" lon="6.60319"></trkpt><trkpt lat="53.12346" lon="6.60314"></trkpt><trkpt lat="53.12347" lon="6.60311"></trkpt><trkpt lat="53.12351" lon="6.60308"></trkpt><trkpt lat="53.12357" lon="6.60302"></trkpt><trkpt lat="53.1235" lon="6.60264"></trkpt><trkpt lat="53.12344" lon="6.6024"></trkpt><trkpt lat="53.12339" lon="6.60209"></trkpt><trkpt lat="53.12337" lon="6.60196"></trkpt><trkpt lat="53.12338" lon="6.60171"></trkpt><trkpt lat="53.12339" lon="6.60149"></trkpt><trkpt lat="53.12343" lon="6.60113"></trkpt><trkpt lat="53.12346" lon="6.6008"></trkpt><trkpt lat="53.12351" lon="6.60031"></trkpt><trkpt lat="53.12358" lon="6.59967"></trkpt><trkpt lat="53.12361" lon="6.5994"></trkpt><trkpt lat="53.12366" lon="6.59914"></trkpt><trkpt lat="53.12371" lon="6.59888"></trkpt><trkpt lat="53.12377" lon="6.59864"></trkpt><trkpt lat="53.12391" lon="6.59818"></trkpt><trkpt lat="53.12401" lon="6.59789"></trkpt><trkpt lat="53.12411" lon="6.59762"></trkpt><trkpt lat="53.12416" lon="6.59748"></trkpt><trkpt lat="53.1242" lon="6.59743"></trkpt><trkpt lat="53.12423" lon="6.59739"></trkpt><trkpt lat="53.12432" lon="6.59724"></trkpt><trkpt lat="53.12437" lon="6.59715"></trkpt><trkpt lat="53.12438" lon="6.59708"></trkpt><trkpt lat="53.1244" lon="6.59698"></trkpt><trkpt lat="53.12447" lon="6.59683"></trkpt><trkpt lat="53.12472" lon="6.59642"></trkpt><trkpt lat="53.12504" lon="6.596"></trkpt><trkpt lat="53.12556" lon="6.59544"></trkpt><trkpt lat="53.12614" lon="6.59481"></trkpt><trkpt lat="53.12652" lon="6.5944"></trkpt><trkpt lat="53.12832" lon="6.59246"></trkpt><trkpt lat="53.12837" lon="6.5924"></trkpt><trkpt lat="53.12979" lon="6.59087"></trkpt><trkpt lat="53.13" lon="6.59064"></trkpt><trkpt lat="53.13003" lon="6.59061"></trkpt><trkpt lat="53.13079" lon="6.58979"></trkpt><trkpt lat="53.13185" lon="6.58864"></trkpt><trkpt lat="53.13195" lon="6.58853"></trkpt><trkpt lat="53.13232" lon="6.58813"></trkpt><trkpt lat="53.13254" lon="6.58789"></trkpt><trkpt lat="53.13267" lon="6.58772"></trkpt><trkpt lat="53.13281" lon="6.58752"></trkpt><trkpt lat="53.13298" lon="6.58723"></trkpt><trkpt lat="53.13316" lon="6.58681"></trkpt><trkpt lat="53.13338" lon="6.5861"></trkpt><trkpt lat="53.13351" lon="6.58563"></trkpt><trkpt lat="53.13362" lon="6.58515"></trkpt><trkpt lat="53.13385" lon="6.58417"></trkpt><trkpt lat="53.13432" lon="6.58222"></trkpt><trkpt lat="53.13453" lon="6.58141"></trkpt><trkpt lat="53.13472" lon="6.58085"></trkpt><trkpt lat="53.13487" lon="6.58048"></trkpt><trkpt lat="53.13493" lon="6.58034"></trkpt><trkpt lat="53.13522" lon="6.57975"></trkpt><trkpt lat="53.13546" lon="6.57937"></trkpt><trkpt lat="53.13565" lon="6.57908"></trkpt><trkpt lat="53.13585" lon="6.57882"></trkpt><trkpt lat="53.13617" lon="6.57837"></trkpt><trkpt lat="53.13626" lon="6.57823"></trkpt><trkpt lat="53.13667" lon="6.57767"></trkpt><trkpt lat="53.13709" lon="6.57707"></trkpt><trkpt lat="53.13779" lon="6.5761"></trkpt><trkpt lat="53.13832" lon="6.5754"></trkpt><trkpt lat="53.13844" lon="6.57524"></trkpt><trkpt lat="53.13873" lon="6.57488"></trkpt><trkpt lat="53.13884" lon="6.57474"></trkpt><trkpt lat="53.13912" lon="6.57439"></trkpt><trkpt lat="53.13959" lon="6.57382"></trkpt><trkpt lat="53.13982" lon="6.57353"></trkpt><trkpt lat="53.1403" lon="6.57294"></trkpt><trkpt lat="53.14077" lon="6.57235"></trkpt><trkpt lat="53.14088" lon="6.5722"></trkpt><trkpt lat="53.1411" lon="6.57191"></trkpt><trkpt lat="53.14119" lon="6.57179"></trkpt><trkpt lat="53.14168" lon="6.5711"></trkpt><trkpt lat="53.14178" lon="6.57096"></trkpt><trkpt lat="53.14195" lon="6.57074"></trkpt><trkpt lat="53.14237" lon="6.57015"></trkpt><trkpt lat="53.14261" lon="6.56985"></trkpt><trkpt lat="53.14296" lon="6.56946"></trkpt><trkpt lat="53.14373" lon="6.56884"></trkpt><trkpt lat="53.14441" lon="6.56832"></trkpt><trkpt lat="53.14452" lon="6.56824"></trkpt><trkpt lat="53.14599" lon="6.56712"></trkpt><trkpt lat="53.14624" lon="6.56696"></trkpt><trkpt lat="53.1463" lon="6.56701"></trkpt><trkpt lat="53.14637" lon="6.56702"></trkpt><trkpt lat="53.14643" lon="6.567"></trkpt><trkpt lat="53.14649" lon="6.56693"></trkpt><trkpt lat="53.14653" lon="6.56684"></trkpt><trkpt lat="53.14666" lon="6.56685"></trkpt><trkpt lat="53.14679" lon="6.56688"></trkpt><trkpt lat="53.14727" lon="6.56705"></trkpt><trkpt lat="53.14783" lon="6.56726"></trkpt><trkpt lat="53.14812" lon="6.56736"></trkpt><trkpt lat="53.14817" lon="6.56738"></trkpt><trkpt lat="53.14828" lon="6.56741"></trkpt><trkpt lat="53.14833" lon="6.56746"></trkpt><trkpt lat="53.14857" lon="6.56752"></trkpt><trkpt lat="53.14863" lon="6.56751"></trkpt><trkpt lat="53.14871" lon="6.56754"></trkpt><trkpt lat="53.14888" lon="6.56756"></trkpt><trkpt lat="53.14915" lon="6.56759"></trkpt><trkpt lat="53.1502" lon="6.56758"></trkpt><trkpt lat="53.15102" lon="6.56754"></trkpt><trkpt lat="53.15117" lon="6.56752"></trkpt><trkpt lat="53.15133" lon="6.56749"></trkpt><trkpt lat="53.15148" lon="6.56742"></trkpt><trkpt lat="53.15163" lon="6.56733"></trkpt><trkpt lat="53.15173" lon="6.56723"></trkpt><trkpt lat="53.15182" lon="6.56713"></trkpt><trkpt lat="53.15188" lon="6.56706"></trkpt><trkpt lat="53.15228" lon="6.56655"></trkpt><trkpt lat="53.15266" lon="6.56607"></trkpt><trkpt lat="53.15299" lon="6.56565"></trkpt><trkpt lat="53.15307" lon="6.56559"></trkpt><trkpt lat="53.15314" lon="6.56552"></trkpt><trkpt lat="53.15327" lon="6.5654"></trkpt><trkpt lat="53.15337" lon="6.56532"></trkpt><trkpt lat="53.15347" lon="6.56526"></trkpt><trkpt lat="53.15362" lon="6.56519"></trkpt><trkpt lat="53.15377" lon="6.56513"></trkpt><trkpt lat="53.15409" lon="6.565"></trkpt><trkpt lat="53.15417" lon="6.56497"></trkpt><trkpt lat="53.15439" lon="6.5649"></trkpt><trkpt lat="53.15491" lon="6.56469"></trkpt><trkpt lat="53.15503" lon="6.56465"></trkpt><trkpt lat="53.15619" lon="6.56422"></trkpt><trkpt lat="53.15627" lon="6.56422"></trkpt><trkpt lat="53.15646" lon="6.56417"></trkpt><trkpt lat="53.15667" lon="6.56409"></trkpt><trkpt lat="53.15677" lon="6.56403"></trkpt><trkpt lat="53.15685" lon="6.564"></trkpt><trkpt lat="53.15696" lon="6.56398"></trkpt><trkpt lat="53.15709" lon="6.56397"></trkpt><trkpt lat="53.15722" lon="6.56399"></trkpt><trkpt lat="53.15737" lon="6.56406"></trkpt><trkpt lat="53.15755" lon="6.56418"></trkpt><trkpt lat="53.15762" lon="6.56421"></trkpt><trkpt lat="53.15767" lon="6.56421"></trkpt><trkpt lat="53.15772" lon="6.56415"></trkpt><trkpt lat="53.15777" lon="6.56406"></trkpt><trkpt lat="53.15782" lon="6.56397"></trkpt><trkpt lat="53.15779" lon="6.56383"></trkpt><trkpt lat="53.1578" lon="6.56375"></trkpt><trkpt lat="53.15781" lon="6.56371"></trkpt><trkpt lat="53.15785" lon="6.56364"></trkpt><trkpt lat="53.15798" lon="6.56358"></trkpt><trkpt lat="53.15811" lon="6.56353"></trkpt><trkpt lat="53.15825" lon="6.56348"></trkpt><trkpt lat="53.15837" lon="6.56342"></trkpt><trkpt lat="53.15858" lon="6.56326"></trkpt><trkpt lat="53.15873" lon="6.56311"></trkpt><trkpt lat="53.15897" lon="6.5628"></trkpt><trkpt lat="53.15913" lon="6.56254"></trkpt><trkpt lat="53.15907" lon="6.56247"></trkpt><trkpt lat="53.15903" lon="6.56236"></trkpt><trkpt lat="53.15879" lon="6.5628"></trkpt><trkpt lat="53.15873" lon="6.56287"></trkpt><trkpt lat="53.15865" lon="6.56297"></trkpt><trkpt lat="53.15862" lon="6.56299"></trkpt><trkpt lat="53.1585" lon="6.5631"></trkpt><trkpt lat="53.15834" lon="6.56321"></trkpt><trkpt lat="53.1581" lon="6.56331"></trkpt><trkpt lat="53.15769" lon="6.56348"></trkpt><trkpt lat="53.15771" lon="6.56352"></trkpt><trkpt lat="53.15774" lon="6.56358"></trkpt><trkpt lat="53.15778" lon="6.56366"></trkpt><trkpt lat="53.15781" lon="6.56371"></trkpt><trkpt lat="53.1578" lon="6.56375"></trkpt><trkpt lat="53.15779" lon="6.56383"></trkpt><trkpt lat="53.15782" lon="6.56397"></trkpt><trkpt lat="53.158" lon="6.56446"></trkpt><trkpt lat="53.1581" lon="6.56465"></trkpt><trkpt lat="53.15815" lon="6.56472"></trkpt><trkpt lat="53.15826" lon="6.56479"></trkpt><trkpt lat="53.15829" lon="6.56484"></trkpt><trkpt lat="53.15834" lon="6.56503"></trkpt><trkpt lat="53.15838" lon="6.56513"></trkpt><trkpt lat="53.15848" lon="6.56532"></trkpt><trkpt lat="53.1585" lon="6.56537"></trkpt><trkpt lat="53.15851" lon="6.56547"></trkpt><trkpt lat="53.15855" lon="6.56561"></trkpt><trkpt lat="53.15859" lon="6.56577"></trkpt><trkpt lat="53.15862" lon="6.56607"></trkpt><trkpt lat="53.15867" lon="6.56628"></trkpt><trkpt lat="53.15882" lon="6.56673"></trkpt><trkpt lat="53.15951" lon="6.5687"></trkpt><trkpt lat="53.15959" lon="6.56894"></trkpt><trkpt lat="53.16" lon="6.57015"></trkpt><trkpt lat="53.16023" lon="6.57084"></trkpt><trkpt lat="53.16033" lon="6.57114"></trkpt><trkpt lat="53.16039" lon="6.57128"></trkpt><trkpt lat="53.16055" lon="6.57177"></trkpt><trkpt lat="53.1607" lon="6.57223"></trkpt><trkpt lat="53.16078" lon="6.5725"></trkpt><trkpt lat="53.16085" lon="6.57271"></trkpt><trkpt lat="53.16088" lon="6.57283"></trkpt><trkpt lat="53.16108" lon="6.57343"></trkpt><trkpt lat="53.16127" lon="6.57398"></trkpt><trkpt lat="53.16131" lon="6.5741"></trkpt><trkpt lat="53.16134" lon="6.5742"></trkpt><trkpt lat="53.16156" lon="6.57485"></trkpt><trkpt lat="53.1616" lon="6.57496"></trkpt><trkpt lat="53.16176" lon="6.57549"></trkpt><trkpt lat="53.16183" lon="6.57568"></trkpt><trkpt lat="53.16218" lon="6.57664"></trkpt><trkpt lat="53.16222" lon="6.57673"></trkpt><trkpt lat="53.16227" lon="6.57686"></trkpt><trkpt lat="53.16231" lon="6.57696"></trkpt><trkpt lat="53.16239" lon="6.57721"></trkpt><trkpt lat="53.16256" lon="6.57776"></trkpt><trkpt lat="53.16272" lon="6.57823"></trkpt><trkpt lat="53.16279" lon="6.57841"></trkpt><trkpt lat="53.16284" lon="6.57855"></trkpt><trkpt lat="53.16301" lon="6.57902"></trkpt><trkpt lat="53.16304" lon="6.57914"></trkpt><trkpt lat="53.16305" lon="6.57917"></trkpt><trkpt lat="53.16307" lon="6.57928"></trkpt><trkpt lat="53.16341" lon="6.58031"></trkpt><trkpt lat="53.16345" lon="6.58047"></trkpt><trkpt lat="53.16377" lon="6.58147"></trkpt><trkpt lat="53.16389" lon="6.58206"></trkpt><trkpt lat="53.16393" lon="6.58224"></trkpt><trkpt lat="53.16402" lon="6.58248"></trkpt><trkpt lat="53.16404" lon="6.58272"></trkpt><trkpt lat="53.16422" lon="6.58363"></trkpt><trkpt lat="53.16433" lon="6.58421"></trkpt><trkpt lat="53.16439" lon="6.58444"></trkpt><trkpt lat="53.16449" lon="6.58466"></trkpt><trkpt lat="53.16508" lon="6.58595"></trkpt><trkpt lat="53.16572" lon="6.5873"></trkpt><trkpt lat="53.1658" lon="6.58745"></trkpt><trkpt lat="53.16589" lon="6.58757"></trkpt><trkpt lat="53.16603" lon="6.58776"></trkpt><trkpt lat="53.16615" lon="6.58787"></trkpt><trkpt lat="53.16628" lon="6.58793"></trkpt><trkpt lat="53.16677" lon="6.58808"></trkpt><trkpt lat="53.16701" lon="6.58822"></trkpt><trkpt lat="53.16726" lon="6.58846"></trkpt><trkpt lat="53.16741" lon="6.58868"></trkpt><trkpt lat="53.16751" lon="6.58885"></trkpt><trkpt lat="53.16762" lon="6.58906"></trkpt><trkpt lat="53.16764" lon="6.58917"></trkpt><trkpt lat="53.16768" lon="6.58914"></trkpt><trkpt lat="53.16794" lon="6.58902"></trkpt><trkpt lat="53.16824" lon="6.58892"></trkpt><trkpt lat="53.16852" lon="6.58883"></trkpt><trkpt lat="53.1689" lon="6.58873"></trkpt><trkpt lat="53.16904" lon="6.58871"></trkpt><trkpt lat="53.16947" lon="6.58864"></trkpt><trkpt lat="53.1699" lon="6.58858"></trkpt><trkpt lat="53.17007" lon="6.58855"></trkpt><trkpt lat="53.17017" lon="6.58853"></trkpt><trkpt lat="53.17028" lon="6.5885"></trkpt><trkpt lat="53.17044" lon="6.58845"></trkpt><trkpt lat="53.17056" lon="6.58842"></trkpt><trkpt lat="53.17067" lon="6.58836"></trkpt><trkpt lat="53.17083" lon="6.58829"></trkpt><trkpt lat="53.1711" lon="6.58813"></trkpt><trkpt lat="53.17133" lon="6.58799"></trkpt><trkpt lat="53.17139" lon="6.58796"></trkpt><trkpt lat="53.17142" lon="6.58792"></trkpt><trkpt lat="53.17145" lon="6.58788"></trkpt><trkpt lat="53.17148" lon="6.58781"></trkpt><trkpt lat="53.1716" lon="6.58747"></trkpt><trkpt lat="53.17167" lon="6.58732"></trkpt><trkpt lat="53.17173" lon="6.5872"></trkpt><trkpt lat="53.17185" lon="6.58698"></trkpt><trkpt lat="53.17211" lon="6.58668"></trkpt><trkpt lat="53.1722" lon="6.58652"></trkpt><trkpt lat="53.17227" lon="6.58632"></trkpt><trkpt lat="53.17228" lon="6.58596"></trkpt><trkpt lat="53.17219" lon="6.58519"></trkpt><trkpt lat="53.17218" lon="6.58465"></trkpt><trkpt lat="53.17226" lon="6.58419"></trkpt><trkpt lat="53.17233" lon="6.58392"></trkpt><trkpt lat="53.17239" lon="6.58379"></trkpt><trkpt lat="53.17266" lon="6.58344"></trkpt><trkpt lat="53.17283" lon="6.58319"></trkpt><trkpt lat="53.17298" lon="6.58285"></trkpt><trkpt lat="53.173" lon="6.58258"></trkpt><trkpt lat="53.17302" lon="6.58151"></trkpt><trkpt lat="53.17304" lon="6.58133"></trkpt><trkpt lat="53.17311" lon="6.58113"></trkpt><trkpt lat="53.17321" lon="6.58098"></trkpt><trkpt lat="53.17328" lon="6.58089"></trkpt><trkpt lat="53.17335" lon="6.58082"></trkpt><trkpt lat="53.17345" lon="6.5808"></trkpt><trkpt lat="53.1736" lon="6.58079"></trkpt><trkpt lat="53.17374" lon="6.58082"></trkpt><trkpt lat="53.17431" lon="6.58114"></trkpt><trkpt lat="53.17436" lon="6.58116"></trkpt><trkpt lat="53.17459" lon="6.58117"></trkpt><trkpt lat="53.17482" lon="6.58112"></trkpt><trkpt lat="53.17516" lon="6.58095"></trkpt><trkpt lat="53.17524" lon="6.58086"></trkpt><trkpt lat="53.17529" lon="6.58073"></trkpt><trkpt lat="53.17537" lon="6.58042"></trkpt><trkpt lat="53.17537" lon="6.58024"></trkpt><trkpt lat="53.17535" lon="6.58009"></trkpt><trkpt lat="53.17513" lon="6.57906"></trkpt><trkpt lat="53.17514" lon="6.57875"></trkpt><trkpt lat="53.17525" lon="6.57851"></trkpt><trkpt lat="53.17534" lon="6.57843"></trkpt><trkpt lat="53.17546" lon="6.57837"></trkpt><trkpt lat="53.17561" lon="6.57838"></trkpt><trkpt lat="53.17572" lon="6.57843"></trkpt><trkpt lat="53.1759" lon="6.57856"></trkpt><trkpt lat="53.17599" lon="6.57861"></trkpt><trkpt lat="53.17608" lon="6.57864"></trkpt><trkpt lat="53.1762" lon="6.57865"></trkpt><trkpt lat="53.17624" lon="6.57865"></trkpt><trkpt lat="53.17633" lon="6.57865"></trkpt><trkpt lat="53.17648" lon="6.57865"></trkpt><trkpt lat="53.17655" lon="6.57865"></trkpt><trkpt lat="53.1766" lon="6.57864"></trkpt><trkpt lat="53.17666" lon="6.57862"></trkpt><trkpt lat="53.17673" lon="6.5786"></trkpt><trkpt lat="53.17683" lon="6.57852"></trkpt><trkpt lat="53.17688" lon="6.57848"></trkpt><trkpt lat="53.17693" lon="6.57842"></trkpt><trkpt lat="53.177" lon="6.57832"></trkpt><trkpt lat="53.17705" lon="6.57823"></trkpt><trkpt lat="53.1771" lon="6.5781"></trkpt><trkpt lat="53.17714" lon="6.57794"></trkpt><trkpt lat="53.17715" lon="6.57783"></trkpt><trkpt lat="53.17716" lon="6.57771"></trkpt><trkpt lat="53.17716" lon="6.57756"></trkpt><trkpt lat="53.17715" lon="6.57744"></trkpt><trkpt lat="53.17712" lon="6.57724"></trkpt><trkpt lat="53.17711" lon="6.57717"></trkpt><trkpt lat="53.1771" lon="6.57714"></trkpt><trkpt lat="53.17709" lon="6.57709"></trkpt><trkpt lat="53.17709" lon="6.57701"></trkpt><trkpt lat="53.17709" lon="6.57696"></trkpt><trkpt lat="53.17711" lon="6.57691"></trkpt><trkpt lat="53.17716" lon="6.5768"></trkpt><trkpt lat="53.1772" lon="6.57674"></trkpt><trkpt lat="53.17723" lon="6.57668"></trkpt><trkpt lat="53.17728" lon="6.57662"></trkpt><trkpt lat="53.17732" lon="6.57659"></trkpt><trkpt lat="53.17738" lon="6.57655"></trkpt><trkpt lat="53.17743" lon="6.57653"></trkpt><trkpt lat="53.17748" lon="6.57652"></trkpt><trkpt lat="53.17754" lon="6.57651"></trkpt><trkpt lat="53.17758" lon="6.57651"></trkpt><trkpt lat="53.1776" lon="6.57652"></trkpt><trkpt lat="53.17766" lon="6.57654"></trkpt><trkpt lat="53.17777" lon="6.57661"></trkpt><trkpt lat="53.17794" lon="6.57672"></trkpt><trkpt lat="53.17803" lon="6.57675"></trkpt><trkpt lat="53.17814" lon="6.57675"></trkpt><trkpt lat="53.17821" lon="6.57672"></trkpt><trkpt lat="53.17834" lon="6.57666"></trkpt><trkpt lat="53.17852" lon="6.57655"></trkpt><trkpt lat="53.1787" lon="6.57634"></trkpt><trkpt lat="53.17876" lon="6.57625"></trkpt><trkpt lat="53.17879" lon="6.57613"></trkpt><trkpt lat="53.17885" lon="6.57585"></trkpt><trkpt lat="53.17889" lon="6.57573"></trkpt><trkpt lat="53.17893" lon="6.57563"></trkpt><trkpt lat="53.17899" lon="6.57554"></trkpt><trkpt lat="53.17907" lon="6.57547"></trkpt><trkpt lat="53.17918" lon="6.57543"></trkpt><trkpt lat="53.17924" lon="6.57544"></trkpt><trkpt lat="53.17935" lon="6.57548"></trkpt><trkpt lat="53.17955" lon="6.5756"></trkpt><trkpt lat="53.17992" lon="6.57591"></trkpt><trkpt lat="53.18007" lon="6.57598"></trkpt><trkpt lat="53.18072" lon="6.57608"></trkpt><trkpt lat="53.18136" lon="6.57633"></trkpt><trkpt lat="53.18147" lon="6.57632"></trkpt><trkpt lat="53.18181" lon="6.57589"></trkpt><trkpt lat="53.18247" lon="6.57487"></trkpt><trkpt lat="53.18268" lon="6.57447"></trkpt><trkpt lat="53.18272" lon="6.57426"></trkpt><trkpt lat="53.18253" lon="6.57375"></trkpt><trkpt lat="53.18237" lon="6.57337"></trkpt><trkpt lat="53.18228" lon="6.57305"></trkpt><trkpt lat="53.18223" lon="6.57247"></trkpt><trkpt lat="53.18222" lon="6.57209"></trkpt><trkpt lat="53.18222" lon="6.57171"></trkpt><trkpt lat="53.18231" lon="6.5713"></trkpt><trkpt lat="53.18245" lon="6.57098"></trkpt><trkpt lat="53.1828" lon="6.57053"></trkpt><trkpt lat="53.183" lon="6.57004"></trkpt><trkpt lat="53.1832" lon="6.56955"></trkpt><trkpt lat="53.18349" lon="6.56865"></trkpt><trkpt lat="53.18368" lon="6.56804"></trkpt><trkpt lat="53.18403" lon="6.56729"></trkpt><trkpt lat="53.1841" lon="6.56717"></trkpt><trkpt lat="53.18451" lon="6.56662"></trkpt><trkpt lat="53.18505" lon="6.56598"></trkpt><trkpt lat="53.18521" lon="6.56586"></trkpt><trkpt lat="53.18536" lon="6.5658"></trkpt><trkpt lat="53.18547" lon="6.56581"></trkpt><trkpt lat="53.18601" lon="6.56599"></trkpt><trkpt lat="53.18626" lon="6.56602"></trkpt><trkpt lat="53.18635" lon="6.56601"></trkpt><trkpt lat="53.18647" lon="6.56597"></trkpt><trkpt lat="53.18657" lon="6.56594"></trkpt><trkpt lat="53.1866" lon="6.56592"></trkpt><trkpt lat="53.18665" lon="6.56588"></trkpt><trkpt lat="53.18676" lon="6.5658"></trkpt><trkpt lat="53.18687" lon="6.56568"></trkpt><trkpt lat="53.18698" lon="6.56554"></trkpt><trkpt lat="53.18715" lon="6.56528"></trkpt><trkpt lat="53.18725" lon="6.56511"></trkpt><trkpt lat="53.18752" lon="6.56473"></trkpt><trkpt lat="53.18761" lon="6.56466"></trkpt><trkpt lat="53.18774" lon="6.5646"></trkpt><trkpt lat="53.18782" lon="6.56457"></trkpt><trkpt lat="53.1879" lon="6.56458"></trkpt><trkpt lat="53.18797" lon="6.5646"></trkpt><trkpt lat="53.18803" lon="6.56462"></trkpt><trkpt lat="53.18835" lon="6.56479"></trkpt><trkpt lat="53.18851" lon="6.56486"></trkpt><trkpt lat="53.18876" lon="6.56489"></trkpt><trkpt lat="53.18898" lon="6.56486"></trkpt><trkpt lat="53.18922" lon="6.5648"></trkpt><trkpt lat="53.18937" lon="6.56472"></trkpt><trkpt lat="53.18943" lon="6.5647"></trkpt><trkpt lat="53.18967" lon="6.56457"></trkpt><trkpt lat="53.18985" lon="6.56446"></trkpt><trkpt lat="53.19052" lon="6.56401"></trkpt><trkpt lat="53.19097" lon="6.56371"></trkpt><trkpt lat="53.19138" lon="6.56345"></trkpt><trkpt lat="53.19169" lon="6.56324"></trkpt><trkpt lat="53.1923" lon="6.56283"></trkpt><trkpt lat="53.19258" lon="6.56264"></trkpt><trkpt lat="53.19262" lon="6.56262"></trkpt><trkpt lat="53.19266" lon="6.56259"></trkpt><trkpt lat="53.1927" lon="6.56257"></trkpt><trkpt lat="53.19276" lon="6.56253"></trkpt><trkpt lat="53.19279" lon="6.56251"></trkpt><trkpt lat="53.19282" lon="6.5625"></trkpt><trkpt lat="53.19285" lon="6.56249"></trkpt><trkpt lat="53.19308" lon="6.56236"></trkpt><trkpt lat="53.19333" lon="6.56225"></trkpt><trkpt lat="53.19363" lon="6.56212"></trkpt><trkpt lat="53.1943" lon="6.56189"></trkpt><trkpt lat="53.19441" lon="6.56184"></trkpt><trkpt lat="53.1945" lon="6.56179"></trkpt><trkpt lat="53.19454" lon="6.56183"></trkpt><trkpt lat="53.19458" lon="6.56184"></trkpt><trkpt lat="53.19465" lon="6.56183"></trkpt><trkpt lat="53.19498" lon="6.56178"></trkpt><trkpt lat="53.1954" lon="6.56174"></trkpt><trkpt lat="53.19563" lon="6.56173"></trkpt><trkpt lat="53.19597" lon="6.56172"></trkpt><trkpt lat="53.1963" lon="6.56175"></trkpt><trkpt lat="53.19678" lon="6.56182"></trkpt><trkpt lat="53.19725" lon="6.56192"></trkpt><trkpt lat="53.19731" lon="6.56192"></trkpt><trkpt lat="53.19735" lon="6.5619"></trkpt><trkpt lat="53.19738" lon="6.56189"></trkpt><trkpt lat="53.19746" lon="6.56192"></trkpt><trkpt lat="53.19748" lon="6.56176"></trkpt><trkpt lat="53.19754" lon="6.56153"></trkpt><trkpt lat="53.19763" lon="6.56121"></trkpt><trkpt lat="53.19779" lon="6.56064"></trkpt><trkpt lat="53.19789" lon="6.56025"></trkpt><trkpt lat="53.19793" lon="6.56013"></trkpt><trkpt lat="53.19796" lon="6.56002"></trkpt><trkpt lat="53.19817" lon="6.55923"></trkpt><trkpt lat="53.19821" lon="6.5591"></trkpt><trkpt lat="53.19826" lon="6.55897"></trkpt><trkpt lat="53.19836" lon="6.55859"></trkpt><trkpt lat="53.19837" lon="6.55856"></trkpt><trkpt lat="53.19839" lon="6.5585"></trkpt><trkpt lat="53.19841" lon="6.55841"></trkpt><trkpt lat="53.19853" lon="6.55849"></trkpt><trkpt lat="53.19941" lon="6.5591"></trkpt><trkpt lat="53.19955" lon="6.55921"></trkpt><trkpt lat="53.19977" lon="6.55937"></trkpt><trkpt lat="53.20005" lon="6.55956"></trkpt><trkpt lat="53.20037" lon="6.55972"></trkpt><trkpt lat="53.20059" lon="6.5598"></trkpt><trkpt lat="53.20084" lon="6.55985"></trkpt><trkpt lat="53.20109" lon="6.55987"></trkpt><trkpt lat="53.20128" lon="6.55987"></trkpt><trkpt lat="53.20133" lon="6.55987"></trkpt><trkpt lat="53.20158" lon="6.55985"></trkpt><trkpt lat="53.20175" lon="6.55983"></trkpt><trkpt lat="53.20193" lon="6.55981"></trkpt><trkpt lat="53.20209" lon="6.55978"></trkpt><trkpt lat="53.20234" lon="6.55965"></trkpt><trkpt lat="53.20247" lon="6.55956"></trkpt><trkpt lat="53.20276" lon="6.5593"></trkpt><trkpt lat="53.2029" lon="6.55919"></trkpt><trkpt lat="53.20337" lon="6.55892"></trkpt><trkpt lat="53.20351" lon="6.55882"></trkpt><trkpt lat="53.2038" lon="6.55865"></trkpt><trkpt lat="53.204" lon="6.55855"></trkpt><trkpt lat="53.2042" lon="6.55851"></trkpt><trkpt lat="53.20422" lon="6.5585"></trkpt><trkpt lat="53.20442" lon="6.55848"></trkpt><trkpt lat="53.20493" lon="6.55844"></trkpt><trkpt lat="53.20589" lon="6.55837"></trkpt><trkpt lat="53.20596" lon="6.55837"></trkpt><trkpt lat="53.20654" lon="6.55835"></trkpt><trkpt lat="53.2067" lon="6.5583"></trkpt><trkpt lat="53.20726" lon="6.55815"></trkpt><trkpt lat="53.20779" lon="6.55797"></trkpt><trkpt lat="53.2081" lon="6.55784"></trkpt><trkpt lat="53.20847" lon="6.55768"></trkpt><trkpt lat="53.20875" lon="6.55753"></trkpt><trkpt lat="53.209" lon="6.55737"></trkpt><trkpt lat="53.20961" lon="6.55697"></trkpt><trkpt lat="53.2098" lon="6.5569"></trkpt><trkpt lat="53.20994" lon="6.55685"></trkpt><trkpt lat="53.21001" lon="6.55683"></trkpt><trkpt lat="53.21006" lon="6.55682"></trkpt><trkpt lat="53.21012" lon="6.5568"></trkpt><trkpt lat="53.2103" lon="6.55674"></trkpt><trkpt lat="53.21041" lon="6.55671"></trkpt><trkpt lat="53.21061" lon="6.55664"></trkpt><trkpt lat="53.2108" lon="6.55657"></trkpt><trkpt lat="53.21099" lon="6.55648"></trkpt><trkpt lat="53.21105" lon="6.55645"></trkpt><trkpt lat="53.21119" lon="6.55637"></trkpt><trkpt lat="53.21135" lon="6.55627"></trkpt><trkpt lat="53.21196" lon="6.55576"></trkpt><trkpt lat="53.21197" lon="6.55575"></trkpt><trkpt lat="53.21203" lon="6.55571"></trkpt><trkpt lat="53.21206" lon="6.5557"></trkpt><trkpt lat="53.21207" lon="6.55569"></trkpt><trkpt lat="53.2121" lon="6.55568"></trkpt><trkpt lat="53.21212" lon="6.55568"></trkpt><trkpt lat="53.21213" lon="6.55568"></trkpt><trkpt lat="53.21217" lon="6.55567"></trkpt><trkpt lat="53.21219" lon="6.55567"></trkpt><trkpt lat="53.21225" lon="6.55568"></trkpt><trkpt lat="53.21271" lon="6.55575"></trkpt><trkpt lat="53.21275" lon="6.55576"></trkpt><trkpt lat="53.21281" lon="6.55576"></trkpt><trkpt lat="53.21286" lon="6.55578"></trkpt><trkpt lat="53.21291" lon="6.55581"></trkpt><trkpt lat="53.21299" lon="6.55584"></trkpt><trkpt lat="53.21324" lon="6.55589"></trkpt><trkpt lat="53.21324" lon="6.55574"></trkpt><trkpt lat="53.21324" lon="6.55562"></trkpt><trkpt lat="53.21318" lon="6.55561"></trkpt><trkpt lat="53.21294" lon="6.55556"></trkpt></trkseg></trk></gpx>