<?xml version="1.0" encoding="UTF-8"?>
<gpx version="1.1" creator="https://www.hammerhead.io" xmlns:xsi="http://www.w3.org/2001/XMLSchema-instance" xmlns="http://www.topografix.com/GPX/1/1" xsi:schemaLocation="http://www.topografix.com/GPX/1/1 http://www.topografix.com/GPX/1/1/gpx.xsd"><metadata><name>Heidevelden bij Epe vanuit Dellenweg</name><time>0001-01-01T00:00:00Z</time></metadata><trk><name>Heidevelden bij Epe vanuit Dellenweg</name><trkseg><trkpt lat="52.38524" lon="5.96879"></trkpt><trkpt lat="52.38518" lon="5.96878"></trkpt><trkpt lat="52.38742" lon="5.96686"></trkpt><trkpt lat="52.38848" lon="5.9659"></trkpt><trkpt lat="52.39039" lon="5.96425"></trkpt><trkpt lat="52.39259" lon="5.96253"></trkpt><trkpt lat="52.39324" lon="5.962"></trkpt><trkpt lat="52.39416" lon="5.96125"></trkpt><trkpt lat="52.39454" lon="5.96104"></trkpt><trkpt lat="52.39459" lon="5.96102"></trkpt><trkpt lat="52.39487" lon="5.9609"></trkpt><trkpt lat="52.39506" lon="5.96078"></trkpt><trkpt lat="52.39514" lon="5.9607"></trkpt><trkpt lat="52.39524" lon="5.96055"></trkpt><trkpt lat="52.3962" lon="5.95875"></trkpt><trkpt lat="52.39641" lon="5.95816"></trkpt><trkpt lat="52.3965" lon="5.95796"></trkpt><trkpt lat="52.39648" lon="5.95792"></trkpt><trkpt lat="52.39611" lon="5.95722"></trkpt><trkpt lat="52.39584" lon="5.95675"></trkpt><trkpt lat="52.39522" lon="5.95567"></trkpt><trkpt lat="52.39458" lon="5.9546"></trkpt><trkpt lat="52.39386" lon="5.95337"></trkpt><trkpt lat="52.39381" lon="5.95325"></trkpt><trkpt lat="52.39381" lon="5.95325"></trkpt><trkpt lat="52.39376" lon="5.95311"></trkpt><trkpt lat="52.39372" lon="5.95285"></trkpt><trkpt lat="52.39364" lon="5.95202"></trkpt><trkpt lat="52.39352" lon="5.95069"></trkpt><trkpt lat="52.39349" lon="5.95045"></trkpt><trkpt lat="52.39344" lon="5.95016"></trkpt><trkpt lat="52.39339" lon="5.94994"></trkpt><trkpt lat="52.39339" lon="5.94994"></trkpt><trkpt lat="52.39331" lon="5.94974"></trkpt><trkpt lat="52.39323" lon="5.94955"></trkpt><trkpt lat="52.39309" lon="5.9492"></trkpt><trkpt lat="52.39302" lon="5.94902"></trkpt><trkpt lat="52.3926" lon="5.94772"></trkpt><trkpt lat="52.39225" lon="5.94665"></trkpt><trkpt lat="52.39136" lon="5.94402"></trkpt><trkpt lat="52.39094" lon="5.94269"></trkpt><trkpt lat="52.39023" lon="5.94054"></trkpt><trkpt lat="52.39008" lon="5.94067"></trkpt><trkpt lat="52.38993" lon="5.94028"></trkpt><trkpt lat="52.3898" lon="5.93991"></trkpt><trkpt lat="52.38937" lon="5.93862"></trkpt><trkpt lat="52.38897" lon="5.93742"></trkpt><trkpt lat="52.3888" lon="5.93691"></trkpt><trkpt lat="52.38863" lon="5.9364"></trkpt><trkpt lat="52.38823" lon="5.93519"></trkpt><trkpt lat="52.38783" lon="5.93398"></trkpt><trkpt lat="52.38761" lon="5.93331"></trkpt><trkpt lat="52.38745" lon="5.9328"></trkpt><trkpt lat="52.38728" lon="5.93232"></trkpt><trkpt lat="52.387" lon="5.93148"></trkpt><trkpt lat="52.38671" lon="5.93059"></trkpt><trkpt lat="52.38659" lon="5.93024"></trkpt><trkpt lat="52.38648" lon="5.9299"></trkpt><trkpt lat="52.38627" lon="5.92928"></trkpt><trkpt lat="52.38606" lon="5.92859"></trkpt><trkpt lat="52.38582" lon="5.92787"></trkpt><trkpt lat="52.38525" lon="5.92616"></trkpt><trkpt lat="52.38469" lon="5.92445"></trkpt><trkpt lat="52.38444" lon="5.9237"></trkpt><trkpt lat="52.38417" lon="5.92288"></trkpt><trkpt lat="52.38366" lon="5.92133"></trkpt><trkpt lat="52.3836" lon="5.9211"></trkpt><trkpt lat="52.38354" lon="5.92088"></trkpt><trkpt lat="52.38348" lon="5.92071"></trkpt><trkpt lat="52.3834" lon="5.92048"></trkpt><trkpt lat="52.38333" lon="5.92025"></trkpt><trkpt lat="52.38331" lon="5.92014"></trkpt><trkpt lat="52.38331" lon="5.91994"></trkpt><trkpt lat="52.3833" lon="5.91986"></trkpt><trkpt lat="52.38328" lon="5.91978"></trkpt><trkpt lat="52.38309" lon="5.91924"></trkpt><trkpt lat="52.38308" lon="5.9192"></trkpt><trkpt lat="52.38306" lon="5.91914"></trkpt><trkpt lat="52.38301" lon="5.91902"></trkpt><trkpt lat="52.38292" lon="5.91878"></trkpt><trkpt lat="52.38274" lon="5.91823"></trkpt><trkpt lat="52.38256" lon="5.91768"></trkpt><trkpt lat="52.3824" lon="5.9172"></trkpt><trkpt lat="52.38229" lon="5.91687"></trkpt><trkpt lat="52.38219" lon="5.91654"></trkpt><trkpt lat="52.3821" lon="5.91628"></trkpt><trkpt lat="52.38204" lon="5.91609"></trkpt><trkpt lat="52.38199" lon="5.9159"></trkpt><trkpt lat="52.38178" lon="5.91527"></trkpt><trkpt lat="52.38174" lon="5.91518"></trkpt><trkpt lat="52.38164" lon="5.91494"></trkpt><trkpt lat="52.3816" lon="5.91483"></trkpt><trkpt lat="52.38156" lon="5.91471"></trkpt><trkpt lat="52.38152" lon="5.91451"></trkpt><trkpt lat="52.38149" lon="5.91442"></trkpt><trkpt lat="52.38147" lon="5.91434"></trkpt><trkpt lat="52.38135" lon="5.91402"></trkpt><trkpt lat="52.38135" lon="5.91402"></trkpt><trkpt lat="52.38133" lon="5.91394"></trkpt><trkpt lat="52.38129" lon="5.91388"></trkpt><trkpt lat="52.38126" lon="5.91384"></trkpt><trkpt lat="52.38122" lon="5.9138"></trkpt><trkpt lat="52.3812" lon="5.91376"></trkpt><trkpt lat="52.38117" lon="5.91372"></trkpt><trkpt lat="52.38112" lon="5.91357"></trkpt><trkpt lat="52.38109" lon="5.91352"></trkpt><trkpt lat="52.38105" lon="5.91339"></trkpt><trkpt lat="52.38103" lon="5.91332"></trkpt><trkpt lat="52.38102" lon="5.91324"></trkpt><trkpt lat="52.381" lon="5.91319"></trkpt><trkpt lat="52.38098" lon="5.91316"></trkpt><trkpt lat="52.38095" lon="5.91314"></trkpt><trkpt lat="52.38093" lon="5.91312"></trkpt><trkpt lat="52.3809" lon="5.91308"></trkpt><trkpt lat="52.38077" lon="5.91295"></trkpt><trkpt lat="52.38061" lon="5.91276"></trkpt><trkpt lat="52.37997" lon="5.91198"></trkpt><trkpt lat="52.37921" lon="5.91103"></trkpt><trkpt lat="52.37851" lon="5.91017"></trkpt><trkpt lat="52.37763" lon="5.90908"></trkpt><trkpt lat="52.37721" lon="5.90856"></trkpt><trkpt lat="52.37714" lon="5.90847"></trkpt><trkpt lat="52.37704" lon="5.90835"></trkpt><trkpt lat="52.37703" lon="5.90834"></trkpt><trkpt lat="52.37696" lon="5.90825"></trkpt><trkpt lat="52.37601" lon="5.90709"></trkpt><trkpt lat="52.37567" lon="5.90666"></trkpt><trkpt lat="52.37503" lon="5.90587"></trkpt><trkpt lat="52.37462" lon="5.90536"></trkpt><trkpt lat="52.37412" lon="5.90474"></trkpt><trkpt lat="52.3738" lon="5.90435"></trkpt><trkpt lat="52.37337" lon="5.90381"></trkpt><trkpt lat="52.37235" lon="5.90256"></trkpt><trkpt lat="52.37173" lon="5.90179"></trkpt><trkpt lat="52.3711" lon="5.90103"></trkpt><trkpt lat="52.3707" lon="5.90054"></trkpt><trkpt lat="52.37064" lon="5.90046"></trkpt><trkpt lat="52.37043" lon="5.90019"></trkpt><trkpt lat="52.36939" lon="5.89892"></trkpt><trkpt lat="52.36923" lon="5.89872"></trkpt><trkpt lat="52.36917" lon="5.89864"></trkpt><trkpt lat="52.36909" lon="5.89854"></trkpt><trkpt lat="52.36904" lon="5.89849"></trkpt><trkpt lat="52.36898" lon="5.89844"></trkpt><trkpt lat="52.36894" lon="5.8984"></trkpt><trkpt lat="52.36889" lon="5.89836"></trkpt><trkpt lat="52.36867" lon="5.89818"></trkpt><trkpt lat="52.36839" lon="5.89797"></trkpt><trkpt lat="52.36767" lon="5.89747"></trkpt><trkpt lat="52.36707" lon="5.89704"></trkpt><trkpt lat="52.36675" lon="5.89682"></trkpt><trkpt lat="52.3665" lon="5.89664"></trkpt><trkpt lat="52.36573" lon="5.8961"></trkpt><trkpt lat="52.36496" lon="5.89555"></trkpt><trkpt lat="52.36459" lon="5.89529"></trkpt><trkpt lat="52.36444" lon="5.89519"></trkpt><trkpt lat="52.36394" lon="5.89483"></trkpt><trkpt lat="52.36352" lon="5.89453"></trkpt><trkpt lat="52.36303" lon="5.89418"></trkpt><trkpt lat="52.36224" lon="5.89362"></trkpt><trkpt lat="52.36219" lon="5.89358"></trkpt><trkpt lat="52.36175" lon="5.89327"></trkpt><trkpt lat="52.36133" lon="5.89298"></trkpt><trkpt lat="52.36095" lon="5.89271"></trkpt><trkpt lat="52.36066" lon="5.8925"></trkpt><trkpt lat="52.36061" lon="5.89247"></trkpt><trkpt lat="52.36016" lon="5.89216"></trkpt><trkpt lat="52.3593" lon="5.89156"></trkpt><trkpt lat="52.35885" lon="5.89124"></trkpt><trkpt lat="52.35847" lon="5.89099"></trkpt><trkpt lat="52.35845" lon="5.89097"></trkpt><trkpt lat="52.35844" lon="5.89097"></trkpt><trkpt lat="52.35843" lon="5.89096"></trkpt><trkpt lat="52.35843" lon="5.89093"></trkpt><trkpt lat="52.35842" lon="5.89089"></trkpt><trkpt lat="52.35842" lon="5.8908"></trkpt><trkpt lat="52.3584" lon="5.89071"></trkpt><trkpt lat="52.35839" lon="5.8906"></trkpt><trkpt lat="52.35837" lon="5.89051"></trkpt><trkpt lat="52.35832" lon="5.8903"></trkpt><trkpt lat="52.35827" lon="5.89004"></trkpt><trkpt lat="52.35825" lon="5.88991"></trkpt><trkpt lat="52.35823" lon="5.88979"></trkpt><trkpt lat="52.3582" lon="5.8895"></trkpt><trkpt lat="52.35815" lon="5.88886"></trkpt><trkpt lat="52.35813" lon="5.88858"></trkpt><trkpt lat="52.35812" lon="5.88831"></trkpt><trkpt lat="52.35811" lon="5.88825"></trkpt><trkpt lat="52.35808" lon="5.88795"></trkpt><trkpt lat="52.35803" lon="5.8874"></trkpt><trkpt lat="52.35796" lon="5.88655"></trkpt><trkpt lat="52.35792" lon="5.88595"></trkpt><trkpt lat="52.3578" lon="5.88449"></trkpt><trkpt lat="52.35778" lon="5.88427"></trkpt><trkpt lat="52.35768" lon="5.88304"></trkpt><trkpt lat="52.35758" lon="5.88176"></trkpt><trkpt lat="52.35757" lon="5.88158"></trkpt><trkpt lat="52.35749" lon="5.88059"></trkpt><trkpt lat="52.35745" lon="5.88011"></trkpt><trkpt lat="52.35741" lon="5.87964"></trkpt><trkpt lat="52.35734" lon="5.87867"></trkpt><trkpt lat="52.35727" lon="5.8779"></trkpt><trkpt lat="52.35722" lon="5.87721"></trkpt><trkpt lat="52.3572" lon="5.87702"></trkpt><trkpt lat="52.3572" lon="5.87699"></trkpt><trkpt lat="52.3572" lon="5.87695"></trkpt><trkpt lat="52.35718" lon="5.87674"></trkpt><trkpt lat="52.35717" lon="5.87653"></trkpt><trkpt lat="52.35715" lon="5.87608"></trkpt><trkpt lat="52.35714" lon="5.87593"></trkpt><trkpt lat="52.35714" lon="5.87578"></trkpt><trkpt lat="52.35714" lon="5.87552"></trkpt><trkpt lat="52.35714" lon="5.87543"></trkpt><trkpt lat="52.35714" lon="5.87532"></trkpt><trkpt lat="52.35714" lon="5.87523"></trkpt><trkpt lat="52.35713" lon="5.87513"></trkpt><trkpt lat="52.35711" lon="5.875"></trkpt><trkpt lat="52.35711" lon="5.87494"></trkpt><trkpt lat="52.3571" lon="5.87488"></trkpt><trkpt lat="52.35708" lon="5.87488"></trkpt><trkpt lat="52.35705" lon="5.87488"></trkpt><trkpt lat="52.35702" lon="5.87488"></trkpt><trkpt lat="52.35701" lon="5.87488"></trkpt><trkpt lat="52.35699" lon="5.87488"></trkpt><trkpt lat="52.35697" lon="5.87488"></trkpt><trkpt lat="52.35693" lon="5.87484"></trkpt><trkpt lat="52.35691" lon="5.87481"></trkpt><trkpt lat="52.35679" lon="5.87468"></trkpt><trkpt lat="52.35663" lon="5.87445"></trkpt><trkpt lat="52.3564" lon="5.87417"></trkpt><trkpt lat="52.35626" lon="5.874"></trkpt><trkpt lat="52.35609" lon="5.87378"></trkpt><trkpt lat="52.35592" lon="5.87354"></trkpt><trkpt lat="52.35583" lon="5.87341"></trkpt><trkpt lat="52.35579" lon="5.87332"></trkpt><trkpt lat="52.35577" lon="5.87329"></trkpt><trkpt lat="52.35575" lon="5.87327"></trkpt><trkpt lat="52.35574" lon="5.87325"></trkpt><trkpt lat="52.35572" lon="5.87324"></trkpt><trkpt lat="52.35569" lon="5.87323"></trkpt><trkpt lat="52.35567" lon="5.87323"></trkpt><trkpt lat="52.35565" lon="5.87323"></trkpt><trkpt lat="52.35565" lon="5.87323"></trkpt><trkpt lat="52.35541" lon="5.87334"></trkpt><trkpt lat="52.35524" lon="5.8734"></trkpt><trkpt lat="52.35511" lon="5.87345"></trkpt><trkpt lat="52.35497" lon="5.87351"></trkpt><trkpt lat="52.35372" lon="5.87404"></trkpt><trkpt lat="52.35344" lon="5.87415"></trkpt><trkpt lat="52.35301" lon="5.87434"></trkpt><trkpt lat="52.35227" lon="5.87465"></trkpt><trkpt lat="52.35147" lon="5.87499"></trkpt><trkpt lat="52.35038" lon="5.87546"></trkpt><trkpt lat="52.34933" lon="5.87591"></trkpt><trkpt lat="52.34888" lon="5.87609"></trkpt><trkpt lat="52.34875" lon="5.87613"></trkpt><trkpt lat="52.34847" lon="5.87626"></trkpt><trkpt lat="52.34765" lon="5.87662"></trkpt><trkpt lat="52.34733" lon="5.87676"></trkpt><trkpt lat="52.34705" lon="5.87643"></trkpt><trkpt lat="52.34691" lon="5.87611"></trkpt><trkpt lat="52.34688" lon="5.87584"></trkpt><trkpt lat="52.34685" lon="5.87524"></trkpt><trkpt lat="52.34684" lon="5.87473"></trkpt><trkpt lat="52.34679" lon="5.87403"></trkpt><trkpt lat="52.34677" lon="5.87354"></trkpt><trkpt lat="52.34678" lon="5.87337"></trkpt><trkpt lat="52.34668" lon="5.87276"></trkpt><trkpt lat="52.34662" lon="5.87266"></trkpt><trkpt lat="52.34654" lon="5.87257"></trkpt><trkpt lat="52.34641" lon="5.87254"></trkpt><trkpt lat="52.34597" lon="5.87244"></trkpt><trkpt lat="52.34559" lon="5.87232"></trkpt><trkpt lat="52.34554" lon="5.8723"></trkpt><trkpt lat="52.3455" lon="5.87226"></trkpt><trkpt lat="52.34548" lon="5.87221"></trkpt><trkpt lat="52.34537" lon="5.87193"></trkpt><trkpt lat="52.34525" lon="5.87179"></trkpt><trkpt lat="52.34512" lon="5.87174"></trkpt><trkpt lat="52.34509" lon="5.87172"></trkpt><trkpt lat="52.34506" lon="5.87164"></trkpt><trkpt lat="52.34505" lon="5.87158"></trkpt><trkpt lat="52.34505" lon="5.87155"></trkpt><trkpt lat="52.34499" lon="5.87118"></trkpt><trkpt lat="52.34485" lon="5.87028"></trkpt><trkpt lat="52.34477" lon="5.86985"></trkpt><trkpt lat="52.34467" lon="5.86945"></trkpt><trkpt lat="52.34459" lon="5.869"></trkpt><trkpt lat="52.34452" lon="5.86872"></trkpt><trkpt lat="52.3438" lon="5.86597"></trkpt><trkpt lat="52.34341" lon="5.86451"></trkpt><trkpt lat="52.34286" lon="5.86242"></trkpt><trkpt lat="52.34279" lon="5.86214"></trkpt><trkpt lat="52.34234" lon="5.86043"></trkpt><trkpt lat="52.34234" lon="5.86029"></trkpt><trkpt lat="52.34228" lon="5.85904"></trkpt><trkpt lat="52.34227" lon="5.85893"></trkpt><trkpt lat="52.34224" lon="5.85883"></trkpt><trkpt lat="52.34215" lon="5.85847"></trkpt><trkpt lat="52.34172" lon="5.85693"></trkpt><trkpt lat="52.34127" lon="5.85535"></trkpt><trkpt lat="52.34094" lon="5.85418"></trkpt><trkpt lat="52.3405" lon="5.8526"></trkpt><trkpt lat="52.34045" lon="5.85248"></trkpt><trkpt lat="52.34035" lon="5.85232"></trkpt><trkpt lat="52.3403" lon="5.85212"></trkpt><trkpt lat="52.34016" lon="5.85154"></trkpt><trkpt lat="52.34002" lon="5.85097"></trkpt><trkpt lat="52.33984" lon="5.85025"></trkpt><trkpt lat="52.33978" lon="5.85005"></trkpt><trkpt lat="52.33969" lon="5.84972"></trkpt><trkpt lat="52.33939" lon="5.84883"></trkpt><trkpt lat="52.33893" lon="5.84749"></trkpt><trkpt lat="52.33848" lon="5.84618"></trkpt><trkpt lat="52.33801" lon="5.8448"></trkpt><trkpt lat="52.33769" lon="5.84386"></trkpt><trkpt lat="52.33738" lon="5.84295"></trkpt><trkpt lat="52.33707" lon="5.84203"></trkpt><trkpt lat="52.33659" lon="5.84062"></trkpt><trkpt lat="52.33614" lon="5.8393"></trkpt><trkpt lat="52.33607" lon="5.8391"></trkpt><trkpt lat="52.33583" lon="5.8384"></trkpt><trkpt lat="52.33578" lon="5.83837"></trkpt><trkpt lat="52.33574" lon="5.83828"></trkpt><trkpt lat="52.3356" lon="5.83789"></trkpt><trkpt lat="52.33538" lon="5.83724"></trkpt><trkpt lat="52.33527" lon="5.83691"></trkpt><trkpt lat="52.33515" lon="5.8366"></trkpt><trkpt lat="52.33502" lon="5.83628"></trkpt><trkpt lat="52.33484" lon="5.83592"></trkpt><trkpt lat="52.33451" lon="5.83526"></trkpt><trkpt lat="52.33419" lon="5.83461"></trkpt><trkpt lat="52.33387" lon="5.83397"></trkpt><trkpt lat="52.33361" lon="5.83344"></trkpt><trkpt lat="52.33345" lon="5.83313"></trkpt><trkpt lat="52.33316" lon="5.83253"></trkpt><trkpt lat="52.33309" lon="5.83236"></trkpt><trkpt lat="52.33301" lon="5.83217"></trkpt><trkpt lat="52.33291" lon="5.83194"></trkpt><trkpt lat="52.33276" lon="5.83167"></trkpt><trkpt lat="52.33271" lon="5.83158"></trkpt><trkpt lat="52.33259" lon="5.8314"></trkpt><trkpt lat="52.33249" lon="5.83129"></trkpt><trkpt lat="52.33244" lon="5.83124"></trkpt><trkpt lat="52.33236" lon="5.83137"></trkpt><trkpt lat="52.33193" lon="5.83196"></trkpt><trkpt lat="52.33188" lon="5.83202"></trkpt><trkpt lat="52.33181" lon="5.83207"></trkpt><trkpt lat="52.33175" lon="5.83211"></trkpt><trkpt lat="52.33167" lon="5.83214"></trkpt><trkpt lat="52.33153" lon="5.83221"></trkpt><trkpt lat="52.33149" lon="5.83224"></trkpt><trkpt lat="52.33144" lon="5.83227"></trkpt><trkpt lat="52.33142" lon="5.83229"></trkpt><trkpt lat="52.33137" lon="5.83237"></trkpt><trkpt lat="52.33133" lon="5.83246"></trkpt><trkpt lat="52.33128" lon="5.83264"></trkpt><trkpt lat="52.33124" lon="5.83295"></trkpt><trkpt lat="52.33116" lon="5.83373"></trkpt><trkpt lat="52.33108" lon="5.83417"></trkpt><trkpt lat="52.33101" lon="5.83456"></trkpt><trkpt lat="52.33078" lon="5.83576"></trkpt><trkpt lat="52.3307" lon="5.8361"></trkpt><trkpt lat="52.33067" lon="5.83628"></trkpt><trkpt lat="52.33047" lon="5.83738"></trkpt><trkpt lat="52.33039" lon="5.83778"></trkpt><trkpt lat="52.33033" lon="5.838"></trkpt><trkpt lat="52.33028" lon="5.83816"></trkpt><trkpt lat="52.33019" lon="5.83839"></trkpt><trkpt lat="52.33014" lon="5.83851"></trkpt><trkpt lat="52.3299" lon="5.83899"></trkpt><trkpt lat="52.32966" lon="5.83946"></trkpt><trkpt lat="52.3295" lon="5.83977"></trkpt><trkpt lat="52.32911" lon="5.84053"></trkpt><trkpt lat="52.32883" lon="5.84107"></trkpt><trkpt lat="52.32857" lon="5.84163"></trkpt><trkpt lat="52.32853" lon="5.84159"></trkpt><trkpt lat="52.32851" lon="5.84158"></trkpt><trkpt lat="52.32849" lon="5.84158"></trkpt><trkpt lat="52.32848" lon="5.84159"></trkpt><trkpt lat="52.32847" lon="5.84161"></trkpt><trkpt lat="52.32844" lon="5.84166"></trkpt><trkpt lat="52.3284" lon="5.84174"></trkpt><trkpt lat="52.32838" lon="5.84179"></trkpt><trkpt lat="52.32834" lon="5.8419"></trkpt><trkpt lat="52.32833" lon="5.84195"></trkpt><trkpt lat="52.3283" lon="5.84201"></trkpt><trkpt lat="52.32825" lon="5.8421"></trkpt><trkpt lat="52.32821" lon="5.84217"></trkpt><trkpt lat="52.32825" lon="5.8421"></trkpt><trkpt lat="52.3283" lon="5.84201"></trkpt><trkpt lat="52.32833" lon="5.84195"></trkpt><trkpt lat="52.32834" lon="5.8419"></trkpt><trkpt lat="52.32838" lon="5.84179"></trkpt><trkpt lat="52.3284" lon="5.84174"></trkpt><trkpt lat="52.32844" lon="5.84166"></trkpt><trkpt lat="52.32847" lon="5.84161"></trkpt><trkpt lat="52.32848" lon="5.84159"></trkpt><trkpt lat="52.32849" lon="5.84158"></trkpt><trkpt lat="52.32851" lon="5.84158"></trkpt><trkpt lat="52.32853" lon="5.84159"></trkpt><trkpt lat="52.32857" lon="5.84163"></trkpt><trkpt lat="52.32851" lon="5.84176"></trkpt><trkpt lat="52.32847" lon="5.84186"></trkpt><trkpt lat="52.32819" lon="5.84248"></trkpt><trkpt lat="52.32804" lon="5.84281"></trkpt><trkpt lat="52.3279" lon="5.8431"></trkpt><trkpt lat="52.3278" lon="5.84331"></trkpt><trkpt lat="52.3277" lon="5.8435"></trkpt><trkpt lat="52.32755" lon="5.84374"></trkpt><trkpt lat="52.32749" lon="5.84384"></trkpt><trkpt lat="52.32733" lon="5.84407"></trkpt><trkpt lat="52.32724" lon="5.84421"></trkpt><trkpt lat="52.32709" lon="5.84441"></trkpt><trkpt lat="52.3269" lon="5.84466"></trkpt><trkpt lat="52.32654" lon="5.84511"></trkpt><trkpt lat="52.32646" lon="5.84521"></trkpt><trkpt lat="52.32637" lon="5.84535"></trkpt><trkpt lat="52.32629" lon="5.84549"></trkpt><trkpt lat="52.32609" lon="5.84585"></trkpt><trkpt lat="52.32584" lon="5.84629"></trkpt><trkpt lat="52.32572" lon="5.84649"></trkpt><trkpt lat="52.32552" lon="5.84681"></trkpt><trkpt lat="52.32511" lon="5.84749"></trkpt><trkpt lat="52.32487" lon="5.84791"></trkpt><trkpt lat="52.32472" lon="5.84819"></trkpt><trkpt lat="52.32461" lon="5.84843"></trkpt><trkpt lat="52.3244" lon="5.84885"></trkpt><trkpt lat="52.32417" lon="5.84929"></trkpt><trkpt lat="52.32411" lon="5.84941"></trkpt><trkpt lat="52.3239" lon="5.84977"></trkpt><trkpt lat="52.32372" lon="5.85006"></trkpt><trkpt lat="52.32354" lon="5.85037"></trkpt><trkpt lat="52.32338" lon="5.85062"></trkpt><trkpt lat="52.32328" lon="5.85079"></trkpt><trkpt lat="52.32318" lon="5.85096"></trkpt><trkpt lat="52.32307" lon="5.85113"></trkpt><trkpt lat="52.323" lon="5.85126"></trkpt><trkpt lat="52.32289" lon="5.85153"></trkpt><trkpt lat="52.3227" lon="5.85197"></trkpt><trkpt lat="52.32264" lon="5.85211"></trkpt><trkpt lat="52.32257" lon="5.85225"></trkpt><trkpt lat="52.32249" lon="5.85239"></trkpt><trkpt lat="52.32243" lon="5.85247"></trkpt><trkpt lat="52.32239" lon="5.85253"></trkpt><trkpt lat="52.32236" lon="5.85257"></trkpt><trkpt lat="52.32226" lon="5.8527"></trkpt><trkpt lat="52.32215" lon="5.85287"></trkpt><trkpt lat="52.32206" lon="5.85302"></trkpt><trkpt lat="52.32202" lon="5.85309"></trkpt><trkpt lat="52.32198" lon="5.85317"></trkpt><trkpt lat="52.32193" lon="5.85331"></trkpt><trkpt lat="52.32187" lon="5.85349"></trkpt><trkpt lat="52.32183" lon="5.85369"></trkpt><trkpt lat="52.32179" lon="5.85389"></trkpt><trkpt lat="52.32171" lon="5.85425"></trkpt><trkpt lat="52.3215" lon="5.85521"></trkpt><trkpt lat="52.32149" lon="5.8553"></trkpt><trkpt lat="52.32148" lon="5.85544"></trkpt><trkpt lat="52.32148" lon="5.85558"></trkpt><trkpt lat="52.32148" lon="5.85571"></trkpt><trkpt lat="52.32149" lon="5.8559"></trkpt><trkpt lat="52.32152" lon="5.85654"></trkpt><trkpt lat="52.32153" lon="5.85678"></trkpt><trkpt lat="52.32155" lon="5.85727"></trkpt><trkpt lat="52.32158" lon="5.8581"></trkpt><trkpt lat="52.32158" lon="5.8582"></trkpt><trkpt lat="52.32157" lon="5.85829"></trkpt><trkpt lat="52.32156" lon="5.85842"></trkpt><trkpt lat="52.32154" lon="5.85853"></trkpt><trkpt lat="52.32151" lon="5.85861"></trkpt><trkpt lat="52.32148" lon="5.85868"></trkpt><trkpt lat="52.32145" lon="5.85874"></trkpt><trkpt lat="52.3214" lon="5.85881"></trkpt><trkpt lat="52.32128" lon="5.85898"></trkpt><trkpt lat="52.3212" lon="5.8591"></trkpt><trkpt lat="52.32116" lon="5.85916"></trkpt><trkpt lat="52.32109" lon="5.85928"></trkpt><trkpt lat="52.32104" lon="5.85939"></trkpt><trkpt lat="52.32097" lon="5.85959"></trkpt><trkpt lat="52.32088" lon="5.85991"></trkpt><trkpt lat="52.32077" lon="5.85987"></trkpt><trkpt lat="52.32072" lon="5.86008"></trkpt><trkpt lat="52.3205" lon="5.86071"></trkpt><trkpt lat="52.32031" lon="5.86129"></trkpt><trkpt lat="52.32022" lon="5.86157"></trkpt><trkpt lat="52.32011" lon="5.86184"></trkpt><trkpt lat="52.32007" lon="5.86196"></trkpt><trkpt lat="52.32004" lon="5.86209"></trkpt><trkpt lat="52.31998" lon="5.86225"></trkpt><trkpt lat="52.31993" lon="5.86236"></trkpt><trkpt lat="52.31989" lon="5.86246"></trkpt><trkpt lat="52.31982" lon="5.86263"></trkpt><trkpt lat="52.31976" lon="5.8628"></trkpt><trkpt lat="52.31971" lon="5.86291"></trkpt><trkpt lat="52.31967" lon="5.86306"></trkpt><trkpt lat="52.31964" lon="5.8632"></trkpt><trkpt lat="52.31962" lon="5.86327"></trkpt><trkpt lat="52.3196" lon="5.86333"></trkpt><trkpt lat="52.3195" lon="5.86361"></trkpt><trkpt lat="52.3194" lon="5.86391"></trkpt><trkpt lat="52.31925" lon="5.86432"></trkpt><trkpt lat="52.31916" lon="5.86459"></trkpt><trkpt lat="52.31911" lon="5.8647"></trkpt><trkpt lat="52.31911" lon="5.86474"></trkpt><trkpt lat="52.31912" lon="5.86478"></trkpt><trkpt lat="52.31916" lon="5.86482"></trkpt><trkpt lat="52.31927" lon="5.86495"></trkpt><trkpt lat="52.31928" lon="5.86497"></trkpt><trkpt lat="52.31928" lon="5.865"></trkpt><trkpt lat="52.31927" lon="5.86504"></trkpt><trkpt lat="52.31922" lon="5.86516"></trkpt><trkpt lat="52.3191" lon="5.86542"></trkpt><trkpt lat="52.31905" lon="5.86551"></trkpt><trkpt lat="52.31899" lon="5.86561"></trkpt><trkpt lat="52.31894" lon="5.8657"></trkpt><trkpt lat="52.3189" lon="5.86579"></trkpt><trkpt lat="52.31888" lon="5.86585"></trkpt><trkpt lat="52.31823" lon="5.86759"></trkpt><trkpt lat="52.31811" lon="5.86795"></trkpt><trkpt lat="52.31808" lon="5.86801"></trkpt><trkpt lat="52.31799" lon="5.86819"></trkpt><trkpt lat="52.31792" lon="5.86833"></trkpt><trkpt lat="52.31787" lon="5.86845"></trkpt><trkpt lat="52.3178" lon="5.86867"></trkpt><trkpt lat="52.31776" lon="5.86888"></trkpt><trkpt lat="52.31776" lon="5.86894"></trkpt><trkpt lat="52.31776" lon="5.86902"></trkpt><trkpt lat="52.31776" lon="5.86907"></trkpt><trkpt lat="52.31778" lon="5.86919"></trkpt><trkpt lat="52.31781" lon="5.86936"></trkpt><trkpt lat="52.31788" lon="5.8697"></trkpt><trkpt lat="52.31789" lon="5.86976"></trkpt><trkpt lat="52.3179" lon="5.86994"></trkpt><trkpt lat="52.31791" lon="5.8701"></trkpt><trkpt lat="52.31795" lon="5.8704"></trkpt><trkpt lat="52.31795" lon="5.87053"></trkpt><trkpt lat="52.31795" lon="5.87064"></trkpt><trkpt lat="52.31796" lon="5.87068"></trkpt><trkpt lat="52.31796" lon="5.87073"></trkpt><trkpt lat="52.31798" lon="5.87083"></trkpt><trkpt lat="52.31828" lon="5.87208"></trkpt><trkpt lat="52.3183" lon="5.87213"></trkpt><trkpt lat="52.31833" lon="5.87221"></trkpt><trkpt lat="52.31837" lon="5.87228"></trkpt><trkpt lat="52.31839" lon="5.87231"></trkpt><trkpt lat="52.3184" lon="5.87235"></trkpt><trkpt lat="52.31844" lon="5.87257"></trkpt><trkpt lat="52.31844" lon="5.87263"></trkpt><trkpt lat="52.31844" lon="5.87274"></trkpt><trkpt lat="52.3184" lon="5.87303"></trkpt><trkpt lat="52.3184" lon="5.87314"></trkpt><trkpt lat="52.3184" lon="5.87327"></trkpt><trkpt lat="52.31839" lon="5.8735"></trkpt><trkpt lat="52.31836" lon="5.87391"></trkpt><trkpt lat="52.31835" lon="5.87398"></trkpt><trkpt lat="52.31834" lon="5.87407"></trkpt><trkpt lat="52.31832" lon="5.87413"></trkpt><trkpt lat="52.31826" lon="5.87432"></trkpt><trkpt lat="52.31819" lon="5.87454"></trkpt><trkpt lat="52.31818" lon="5.87458"></trkpt><trkpt lat="52.31806" lon="5.87473"></trkpt><trkpt lat="52.31795" lon="5.87492"></trkpt><trkpt lat="52.31788" lon="5.87507"></trkpt><trkpt lat="52.31783" lon="5.87517"></trkpt><trkpt lat="52.31762" lon="5.87579"></trkpt><trkpt lat="52.31748" lon="5.87621"></trkpt><trkpt lat="52.31741" lon="5.87645"></trkpt><trkpt lat="52.31738" lon="5.87655"></trkpt><trkpt lat="52.31733" lon="5.87665"></trkpt><trkpt lat="52.31729" lon="5.87679"></trkpt><trkpt lat="52.31726" lon="5.8769"></trkpt><trkpt lat="52.31725" lon="5.87703"></trkpt><trkpt lat="52.31724" lon="5.87726"></trkpt><trkpt lat="52.31723" lon="5.87757"></trkpt><trkpt lat="52.31723" lon="5.87768"></trkpt><trkpt lat="52.31724" lon="5.87781"></trkpt><trkpt lat="52.31726" lon="5.87793"></trkpt><trkpt lat="52.3173" lon="5.87815"></trkpt><trkpt lat="52.31731" lon="5.87825"></trkpt><trkpt lat="52.31731" lon="5.87832"></trkpt><trkpt lat="52.31731" lon="5.8784"></trkpt><trkpt lat="52.31731" lon="5.87844"></trkpt><trkpt lat="52.31739" lon="5.87915"></trkpt><trkpt lat="52.31744" lon="5.87965"></trkpt><trkpt lat="52.31745" lon="5.87978"></trkpt><trkpt lat="52.31747" lon="5.88008"></trkpt><trkpt lat="52.31746" lon="5.88017"></trkpt><trkpt lat="52.31745" lon="5.8804"></trkpt><trkpt lat="52.31743" lon="5.88053"></trkpt><trkpt lat="52.31734" lon="5.88105"></trkpt><trkpt lat="52.31732" lon="5.8812"></trkpt><trkpt lat="52.31729" lon="5.8815"></trkpt><trkpt lat="52.31728" lon="5.88167"></trkpt><trkpt lat="52.31728" lon="5.88181"></trkpt><trkpt lat="52.31727" lon="5.88201"></trkpt><trkpt lat="52.31727" lon="5.88227"></trkpt><trkpt lat="52.31727" lon="5.88259"></trkpt><trkpt lat="52.31728" lon="5.88279"></trkpt><trkpt lat="52.31729" lon="5.88285"></trkpt><trkpt lat="52.31728" lon="5.88294"></trkpt><trkpt lat="52.31728" lon="5.88299"></trkpt><trkpt lat="52.3172" lon="5.88332"></trkpt><trkpt lat="52.31718" lon="5.88349"></trkpt><trkpt lat="52.31714" lon="5.88372"></trkpt><trkpt lat="52.31712" lon="5.88387"></trkpt><trkpt lat="52.31709" lon="5.88401"></trkpt><trkpt lat="52.31709" lon="5.88406"></trkpt><trkpt lat="52.31708" lon="5.88418"></trkpt><trkpt lat="52.3171" lon="5.88453"></trkpt><trkpt lat="52.3171" lon="5.88478"></trkpt><trkpt lat="52.31709" lon="5.885"></trkpt><trkpt lat="52.31708" lon="5.88517"></trkpt><trkpt lat="52.31704" lon="5.88542"></trkpt><trkpt lat="52.31703" lon="5.88552"></trkpt><trkpt lat="52.31703" lon="5.88591"></trkpt><trkpt lat="52.31704" lon="5.88605"></trkpt><trkpt lat="52.31704" lon="5.887"></trkpt><trkpt lat="52.31705" lon="5.88756"></trkpt><trkpt lat="52.31705" lon="5.88849"></trkpt><trkpt lat="52.31704" lon="5.88869"></trkpt><trkpt lat="52.31704" lon="5.88886"></trkpt><trkpt lat="52.31704" lon="5.88895"></trkpt><trkpt lat="52.31705" lon="5.88906"></trkpt><trkpt lat="52.31706" lon="5.88917"></trkpt><trkpt lat="52.31706" lon="5.8893"></trkpt><trkpt lat="52.31706" lon="5.88944"></trkpt><trkpt lat="52.31704" lon="5.88972"></trkpt><trkpt lat="52.317" lon="5.89073"></trkpt><trkpt lat="52.31695" lon="5.89154"></trkpt><trkpt lat="52.3169" lon="5.89236"></trkpt><trkpt lat="52.3168" lon="5.89416"></trkpt><trkpt lat="52.3168" lon="5.89419"></trkpt><trkpt lat="52.31679" lon="5.89422"></trkpt><trkpt lat="52.31677" lon="5.89425"></trkpt><trkpt lat="52.31676" lon="5.8943"></trkpt><trkpt lat="52.31676" lon="5.89434"></trkpt><trkpt lat="52.31676" lon="5.89462"></trkpt><trkpt lat="52.31675" lon="5.8948"></trkpt><trkpt lat="52.3167" lon="5.89591"></trkpt><trkpt lat="52.31666" lon="5.89673"></trkpt><trkpt lat="52.31667" lon="5.89672"></trkpt><trkpt lat="52.31715" lon="5.89594"></trkpt><trkpt lat="52.32223" lon="5.8878"></trkpt><trkpt lat="52.32237" lon="5.88761"></trkpt><trkpt lat="52.32252" lon="5.88745"></trkpt><trkpt lat="52.32282" lon="5.88725"></trkpt><trkpt lat="52.32426" lon="5.88664"></trkpt><trkpt lat="52.32456" lon="5.88651"></trkpt><trkpt lat="52.32469" lon="5.88646"></trkpt><trkpt lat="52.32468" lon="5.88651"></trkpt><trkpt lat="52.32463" lon="5.88691"></trkpt><trkpt lat="52.32449" lon="5.88796"></trkpt><trkpt lat="52.3245" lon="5.88803"></trkpt><trkpt lat="52.32476" lon="5.88838"></trkpt><trkpt lat="52.32514" lon="5.88892"></trkpt><trkpt lat="52.32582" lon="5.8899"></trkpt><trkpt lat="52.32597" lon="5.89008"></trkpt><trkpt lat="52.32601" lon="5.89013"></trkpt><trkpt lat="52.32605" lon="5.89019"></trkpt><trkpt lat="52.3261" lon="5.89029"></trkpt><trkpt lat="52.32621" lon="5.89048"></trkpt><trkpt lat="52.32699" lon="5.89161"></trkpt><trkpt lat="52.33079" lon="5.89707"></trkpt><trkpt lat="52.33218" lon="5.89913"></trkpt><trkpt lat="52.33351" lon="5.90107"></trkpt><trkpt lat="52.33365" lon="5.90127"></trkpt><trkpt lat="52.33391" lon="5.90166"></trkpt><trkpt lat="52.33449" lon="5.90248"></trkpt><trkpt lat="52.33548" lon="5.90391"></trkpt><trkpt lat="52.33681" lon="5.90584"></trkpt><trkpt lat="52.33843" lon="5.90818"></trkpt><trkpt lat="52.33866" lon="5.90852"></trkpt><trkpt lat="52.33878" lon="5.90867"></trkpt><trkpt lat="52.33878" lon="5.90867"></trkpt><trkpt lat="52.33891" lon="5.90881"></trkpt><trkpt lat="52.34" lon="5.90983"></trkpt><trkpt lat="52.3428" lon="5.91242"></trkpt><trkpt lat="52.34479" lon="5.91428"></trkpt><trkpt lat="52.34488" lon="5.91438"></trkpt><trkpt lat="52.34492" lon="5.91443"></trkpt><trkpt lat="52.3451" lon="5.91484"></trkpt><trkpt lat="52.34533" lon="5.91536"></trkpt><trkpt lat="52.34573" lon="5.91631"></trkpt><trkpt lat="52.34589" lon="5.91658"></trkpt><trkpt lat="52.34617" lon="5.917"></trkpt><trkpt lat="52.34639" lon="5.91732"></trkpt><trkpt lat="52.3466" lon="5.91759"></trkpt><trkpt lat="52.34664" lon="5.91764"></trkpt><trkpt lat="52.34666" lon="5.91767"></trkpt><trkpt lat="52.34675" lon="5.91778"></trkpt><trkpt lat="52.34681" lon="5.91782"></trkpt><trkpt lat="52.34686" lon="5.91786"></trkpt><trkpt lat="52.34707" lon="5.91797"></trkpt><trkpt lat="52.34723" lon="5.91801"></trkpt><trkpt lat="52.34731" lon="5.91802"></trkpt><trkpt lat="52.3474" lon="5.918"></trkpt><trkpt lat="52.34758" lon="5.91793"></trkpt><trkpt lat="52.34772" lon="5.91789"></trkpt><trkpt lat="52.34777" lon="5.91788"></trkpt><trkpt lat="52.34784" lon="5.91789"></trkpt><trkpt lat="52.34792" lon="5.91791"></trkpt><trkpt lat="52.34807" lon="5.91798"></trkpt><trkpt lat="52.34818" lon="5.91806"></trkpt><trkpt lat="52.34823" lon="5.91808"></trkpt><trkpt lat="52.34825" lon="5.91813"></trkpt><trkpt lat="52.34869" lon="5.91799"></trkpt><trkpt lat="52.34893" lon="5.91787"></trkpt><trkpt lat="52.34938" lon="5.91762"></trkpt><trkpt lat="52.34953" lon="5.91755"></trkpt><trkpt lat="52.34961" lon="5.91755"></trkpt><trkpt lat="52.34972" lon="5.91761"></trkpt><trkpt lat="52.34972" lon="5.91761"></trkpt><trkpt lat="52.34988" lon="5.91777"></trkpt><trkpt lat="52.35048" lon="5.91859"></trkpt><trkpt lat="52.35063" lon="5.91881"></trkpt><trkpt lat="52.35073" lon="5.91897"></trkpt><trkpt lat="52.35083" lon="5.91909"></trkpt><trkpt lat="52.35253" lon="5.92067"></trkpt><trkpt lat="52.35295" lon="5.92101"></trkpt><trkpt lat="52.35364" lon="5.92149"></trkpt><trkpt lat="52.35401" lon="5.9217"></trkpt><trkpt lat="52.35457" lon="5.92202"></trkpt><trkpt lat="52.35514" lon="5.92277"></trkpt><trkpt lat="52.35534" lon="5.92302"></trkpt><trkpt lat="52.35541" lon="5.92304"></trkpt><trkpt lat="52.3555" lon="5.9231"></trkpt><trkpt lat="52.35596" lon="5.92327"></trkpt><trkpt lat="52.35617" lon="5.92338"></trkpt><trkpt lat="52.35645" lon="5.92363"></trkpt><trkpt lat="52.35658" lon="5.92375"></trkpt><trkpt lat="52.35667" lon="5.92382"></trkpt><trkpt lat="52.35674" lon="5.92389"></trkpt><trkpt lat="52.35691" lon="5.92402"></trkpt><trkpt lat="52.35702" lon="5.9241"></trkpt><trkpt lat="52.35721" lon="5.92425"></trkpt><trkpt lat="52.35737" lon="5.92437"></trkpt><trkpt lat="52.35763" lon="5.92462"></trkpt><trkpt lat="52.3578" lon="5.92479"></trkpt><trkpt lat="52.35796" lon="5.92496"></trkpt><trkpt lat="52.35807" lon="5.92506"></trkpt><trkpt lat="52.35825" lon="5.92522"></trkpt><trkpt lat="52.35844" lon="5.92535"></trkpt><trkpt lat="52.35862" lon="5.92547"></trkpt><trkpt lat="52.35866" lon="5.92556"></trkpt><trkpt lat="52.35871" lon="5.92564"></trkpt><trkpt lat="52.35877" lon="5.92573"></trkpt><trkpt lat="52.35884" lon="5.92584"></trkpt><trkpt lat="52.3589" lon="5.92593"></trkpt><trkpt lat="52.35896" lon="5.92601"></trkpt><trkpt lat="52.359" lon="5.92606"></trkpt><trkpt lat="52.35905" lon="5.9261"></trkpt><trkpt lat="52.35907" lon="5.92612"></trkpt><trkpt lat="52.35909" lon="5.92614"></trkpt><trkpt lat="52.35909" lon="5.92617"></trkpt><trkpt lat="52.3591" lon="5.92618"></trkpt><trkpt lat="52.35912" lon="5.92623"></trkpt><trkpt lat="52.35913" lon="5.92625"></trkpt><trkpt lat="52.35914" lon="5.92627"></trkpt><trkpt lat="52.35912" lon="5.92633"></trkpt><trkpt lat="52.35898" lon="5.92683"></trkpt><trkpt lat="52.35894" lon="5.92696"></trkpt><trkpt lat="52.35892" lon="5.92707"></trkpt><trkpt lat="52.35889" lon="5.92721"></trkpt><trkpt lat="52.35886" lon="5.92735"></trkpt><trkpt lat="52.35864" lon="5.92829"></trkpt><trkpt lat="52.3583" lon="5.92967"></trkpt><trkpt lat="52.35794" lon="5.93129"></trkpt><trkpt lat="52.35751" lon="5.93292"></trkpt><trkpt lat="52.35669" lon="5.93622"></trkpt><trkpt lat="52.35627" lon="5.93788"></trkpt><trkpt lat="52.35609" lon="5.93854"></trkpt><trkpt lat="52.35601" lon="5.93915"></trkpt><trkpt lat="52.35592" lon="5.9395"></trkpt><trkpt lat="52.35583" lon="5.93988"></trkpt><trkpt lat="52.35517" lon="5.94254"></trkpt><trkpt lat="52.35512" lon="5.94272"></trkpt><trkpt lat="52.35508" lon="5.94284"></trkpt><trkpt lat="52.35505" lon="5.9429"></trkpt><trkpt lat="52.355" lon="5.94299"></trkpt><trkpt lat="52.35496" lon="5.94306"></trkpt><trkpt lat="52.35492" lon="5.94314"></trkpt><trkpt lat="52.35489" lon="5.94321"></trkpt><trkpt lat="52.35486" lon="5.94331"></trkpt><trkpt lat="52.35481" lon="5.94352"></trkpt><trkpt lat="52.35477" lon="5.94373"></trkpt><trkpt lat="52.35481" lon="5.94352"></trkpt><trkpt lat="52.35489" lon="5.94357"></trkpt><trkpt lat="52.355" lon="5.94364"></trkpt><trkpt lat="52.35512" lon="5.94374"></trkpt><trkpt lat="52.3552" lon="5.9438"></trkpt><trkpt lat="52.3553" lon="5.94384"></trkpt><trkpt lat="52.35536" lon="5.94386"></trkpt><trkpt lat="52.35544" lon="5.94388"></trkpt><trkpt lat="52.35553" lon="5.94387"></trkpt><trkpt lat="52.35572" lon="5.94376"></trkpt><trkpt lat="52.35589" lon="5.94371"></trkpt><trkpt lat="52.356" lon="5.94372"></trkpt><trkpt lat="52.3561" lon="5.94374"></trkpt><trkpt lat="52.35625" lon="5.94381"></trkpt><trkpt lat="52.35637" lon="5.94388"></trkpt><trkpt lat="52.35637" lon="5.94388"></trkpt><trkpt lat="52.35879" lon="5.94625"></trkpt><trkpt lat="52.35966" lon="5.94712"></trkpt><trkpt lat="52.36079" lon="5.94819"></trkpt><trkpt lat="52.36092" lon="5.94831"></trkpt><trkpt lat="52.36277" lon="5.95014"></trkpt><trkpt lat="52.36357" lon="5.95089"></trkpt><trkpt lat="52.36475" lon="5.95208"></trkpt><trkpt lat="52.36672" lon="5.954"></trkpt><trkpt lat="52.36767" lon="5.95495"></trkpt><trkpt lat="52.36865" lon="5.95588"></trkpt><trkpt lat="52.36879" lon="5.95602"></trkpt><trkpt lat="52.36972" lon="5.95693"></trkpt><trkpt lat="52.37058" lon="5.95777"></trkpt><trkpt lat="52.37064" lon="5.95783"></trkpt><trkpt lat="52.37137" lon="5.95851"></trkpt><trkpt lat="52.37261" lon="5.95973"></trkpt><trkpt lat="52.37377" lon="5.9609"></trkpt><trkpt lat="52.37469" lon="5.96179"></trkpt><trkpt lat="52.37377" lon="5.96442"></trkpt><trkpt lat="52.37283" lon="5.96708"></trkpt><trkpt lat="52.37271" lon="5.96753"></trkpt><trkpt lat="52.37248" lon="5.96812"></trkpt><trkpt lat="52.37223" lon="5.96916"></trkpt><trkpt lat="52.37217" lon="5.96936"></trkpt><trkpt lat="52.37192" lon="5.97012"></trkpt><trkpt lat="52.37165" lon="5.97096"></trkpt><trkpt lat="52.37227" lon="5.97325"></trkpt><trkpt lat="52.37235" lon="5.97353"></trkpt><trkpt lat="52.3727" lon="5.97482"></trkpt><trkpt lat="52.37287" lon="5.97541"></trkpt><trkpt lat="52.37348" lon="5.97761"></trkpt><trkpt lat="52.37361" lon="5.97808"></trkpt><trkpt lat="52.37362" lon="5.97818"></trkpt><trkpt lat="52.37362" lon="5.97824"></trkpt><trkpt lat="52.37361" lon="5.97828"></trkpt><trkpt lat="52.37363" lon="5.97834"></trkpt><trkpt lat="52.37364" lon="5.97842"></trkpt><trkpt lat="52.37368" lon="5.97858"></trkpt><trkpt lat="52.37372" lon="5.9786"></trkpt><trkpt lat="52.37384" lon="5.97906"></trkpt><trkpt lat="52.37405" lon="5.97987"></trkpt><trkpt lat="52.37441" lon="5.98116"></trkpt><trkpt lat="52.37514" lon="5.98393"></trkpt><trkpt lat="52.37534" lon="5.98466"></trkpt><trkpt lat="52.37554" lon="5.98541"></trkpt><trkpt lat="52.37588" lon="5.98674"></trkpt><trkpt lat="52.37607" lon="5.98742"></trkpt><trkpt lat="52.37625" lon="5.98816"></trkpt><trkpt lat="52.37659" lon="5.98957"></trkpt><trkpt lat="52.37662" lon="5.98966"></trkpt><trkpt lat="52.37664" lon="5.98971"></trkpt><trkpt lat="52.37666" lon="5.9898"></trkpt><trkpt lat="52.37668" lon="5.98992"></trkpt><trkpt lat="52.37686" lon="5.99069"></trkpt><trkpt lat="52.3772" lon="5.9921"></trkpt><trkpt lat="52.37761" lon="5.99416"></trkpt><trkpt lat="52.37764" lon="5.99437"></trkpt><trkpt lat="52.37765" lon="5.99446"></trkpt><trkpt lat="52.37772" lon="5.99486"></trkpt><trkpt lat="52.3778" lon="5.99537"></trkpt><trkpt lat="52.37801" lon="5.99693"></trkpt><trkpt lat="52.37806" lon="5.99731"></trkpt><trkpt lat="52.37815" lon="5.99795"></trkpt><trkpt lat="52.37822" lon="5.99831"></trkpt><trkpt lat="52.37828" lon="5.99853"></trkpt><trkpt lat="52.37837" lon="5.99879"></trkpt><trkpt lat="52.37847" lon="5.99907"></trkpt><trkpt lat="52.37856" lon="5.99931"></trkpt><trkpt lat="52.37878" lon="5.99983"></trkpt><trkpt lat="52.37881" lon="5.99989"></trkpt><trkpt lat="52.37884" lon="6.00001"></trkpt><trkpt lat="52.37892" lon="6.00085"></trkpt><trkpt lat="52.37901" lon="6.00083"></trkpt><trkpt lat="52.37901" lon="6.00083"></trkpt><trkpt lat="52.37892" lon="6.00085"></trkpt><trkpt lat="52.37897" lon="6.00154"></trkpt><trkpt lat="52.379" lon="6.00178"></trkpt><trkpt lat="52.37904" lon="6.00227"></trkpt><trkpt lat="52.3791" lon="6.0027"></trkpt><trkpt lat="52.37916" lon="6.003"></trkpt><trkpt lat="52.37917" lon="6.00308"></trkpt><trkpt lat="52.37919" lon="6.00317"></trkpt><trkpt lat="52.37898" lon="6.00408"></trkpt><trkpt lat="52.37892" lon="6.00441"></trkpt><trkpt lat="52.37889" lon="6.00468"></trkpt><trkpt lat="52.37887" lon="6.00498"></trkpt><trkpt lat="52.37887" lon="6.00581"></trkpt><trkpt lat="52.3789" lon="6.00683"></trkpt><trkpt lat="52.37894" lon="6.00885"></trkpt><trkpt lat="52.37892" lon="6.00906"></trkpt><trkpt lat="52.37892" lon="6.00919"></trkpt><trkpt lat="52.3788" lon="6.01046"></trkpt><trkpt lat="52.37871" lon="6.01123"></trkpt><trkpt lat="52.37864" lon="6.01191"></trkpt><trkpt lat="52.37863" lon="6.01196"></trkpt><trkpt lat="52.37862" lon="6.01199"></trkpt><trkpt lat="52.3787" lon="6.01221"></trkpt><trkpt lat="52.37891" lon="6.01278"></trkpt><trkpt lat="52.37914" lon="6.01333"></trkpt><trkpt lat="52.37959" lon="6.01447"></trkpt><trkpt lat="52.37968" lon="6.01467"></trkpt><trkpt lat="52.37974" lon="6.01477"></trkpt><trkpt lat="52.37978" lon="6.01485"></trkpt><trkpt lat="52.37989" lon="6.01501"></trkpt><trkpt lat="52.38104" lon="6.01674"></trkpt><trkpt lat="52.38112" lon="6.01686"></trkpt><trkpt lat="52.38122" lon="6.01697"></trkpt><trkpt lat="52.38132" lon="6.01708"></trkpt><trkpt lat="52.38142" lon="6.01713"></trkpt><trkpt lat="52.38153" lon="6.01716"></trkpt><trkpt lat="52.38173" lon="6.01721"></trkpt><trkpt lat="52.38187" lon="6.0172"></trkpt><trkpt lat="52.38187" lon="6.01754"></trkpt><trkpt lat="52.38185" lon="6.01826"></trkpt><trkpt lat="52.38184" lon="6.01855"></trkpt><trkpt lat="52.38181" lon="6.01918"></trkpt><trkpt lat="52.38179" lon="6.02037"></trkpt><trkpt lat="52.38177" lon="6.021"></trkpt><trkpt lat="52.38172" lon="6.02163"></trkpt><trkpt lat="52.3816" lon="6.02254"></trkpt><trkpt lat="52.3816" lon="6.0228"></trkpt><trkpt lat="52.38164" lon="6.02311"></trkpt><trkpt lat="52.38169" lon="6.02326"></trkpt><trkpt lat="52.38195" lon="6.02366"></trkpt><trkpt lat="52.382" lon="6.02379"></trkpt><trkpt lat="52.382" lon="6.02398"></trkpt><trkpt lat="52.38197" lon="6.02419"></trkpt><trkpt lat="52.38166" lon="6.02542"></trkpt><trkpt lat="52.38148" lon="6.02622"></trkpt><trkpt lat="52.38152" lon="6.02628"></trkpt><trkpt lat="52.38154" lon="6.02633"></trkpt><trkpt lat="52.38155" lon="6.02641"></trkpt><trkpt lat="52.38157" lon="6.02645"></trkpt><trkpt lat="52.38191" lon="6.02724"></trkpt><trkpt lat="52.38209" lon="6.02766"></trkpt><trkpt lat="52.3823" lon="6.02812"></trkpt><trkpt lat="52.38247" lon="6.0285"></trkpt><trkpt lat="52.38249" lon="6.02855"></trkpt><trkpt lat="52.38277" lon="6.02911"></trkpt><trkpt lat="52.38281" lon="6.02918"></trkpt><trkpt lat="52.38314" lon="6.02975"></trkpt><trkpt lat="52.38354" lon="6.03037"></trkpt><trkpt lat="52.38366" lon="6.03053"></trkpt><trkpt lat="52.38365" lon="6.03061"></trkpt><trkpt lat="52.38362" lon="6.0307"></trkpt><trkpt lat="52.38372" lon="6.03074"></trkpt><trkpt lat="52.38377" lon="6.03079"></trkpt><trkpt lat="52.38379" lon="6.03082"></trkpt><trkpt lat="52.38377" lon="6.03079"></trkpt><trkpt lat="52.38386" lon="6.0308"></trkpt><trkpt lat="52.38466" lon="6.0318"></trkpt><trkpt lat="52.3849" lon="6.03208"></trkpt><trkpt lat="52.38558" lon="6.03291"></trkpt><trkpt lat="52.38627" lon="6.03368"></trkpt><trkpt lat="52.38631" lon="6.03375"></trkpt><trkpt lat="52.38636" lon="6.03376"></trkpt><trkpt lat="52.38667" lon="6.03406"></trkpt><trkpt lat="52.38688" lon="6.03428"></trkpt><trkpt lat="52.38722" lon="6.0347"></trkpt><trkpt lat="52.38736" lon="6.03487"></trkpt><trkpt lat="52.38741" lon="6.03492"></trkpt><trkpt lat="52.38743" lon="6.03495"></trkpt><trkpt lat="52.38748" lon="6.03501"></trkpt><trkpt lat="52.38759" lon="6.03512"></trkpt><trkpt lat="52.38764" lon="6.03518"></trkpt><trkpt lat="52.38776" lon="6.03532"></trkpt><trkpt lat="52.38779" lon="6.03536"></trkpt><trkpt lat="52.38801" lon="6.03562"></trkpt><trkpt lat="52.38815" lon="6.03579"></trkpt><trkpt lat="52.38819" lon="6.03584"></trkpt><trkpt lat="52.3882" lon="6.03585"></trkpt><trkpt lat="52.38821" lon="6.03586"></trkpt><trkpt lat="52.38821" lon="6.03588"></trkpt><trkpt lat="52.38822" lon="6.03589"></trkpt><trkpt lat="52.38831" lon="6.03588"></trkpt><trkpt lat="52.38834" lon="6.03588"></trkpt><trkpt lat="52.38837" lon="6.03587"></trkpt><trkpt lat="52.38879" lon="6.03571"></trkpt><trkpt lat="52.38882" lon="6.0357"></trkpt><trkpt lat="52.38885" lon="6.03568"></trkpt><trkpt lat="52.38888" lon="6.03565"></trkpt><trkpt lat="52.3889" lon="6.03561"></trkpt><trkpt lat="52.38893" lon="6.03557"></trkpt><trkpt lat="52.38895" lon="6.03553"></trkpt><trkpt lat="52.38896" lon="6.03548"></trkpt><trkpt lat="52.38898" lon="6.03543"></trkpt><trkpt lat="52.38908" lon="6.03511"></trkpt><trkpt lat="52.38921" lon="6.03464"></trkpt><trkpt lat="52.38925" lon="6.03468"></trkpt><trkpt lat="52.3893" lon="6.03472"></trkpt><trkpt lat="52.38935" lon="6.03474"></trkpt><trkpt lat="52.38979" lon="6.03486"></trkpt><trkpt lat="52.38985" lon="6.03489"></trkpt><trkpt lat="52.3899" lon="6.03491"></trkpt><trkpt lat="52.38996" lon="6.03494"></trkpt><trkpt lat="52.39001" lon="6.03498"></trkpt><trkpt lat="52.39007" lon="6.03503"></trkpt><trkpt lat="52.39011" lon="6.03507"></trkpt><trkpt lat="52.3904" lon="6.03536"></trkpt><trkpt lat="52.39062" lon="6.03559"></trkpt><trkpt lat="52.39075" lon="6.03572"></trkpt><trkpt lat="52.39081" lon="6.03579"></trkpt><trkpt lat="52.39085" lon="6.03584"></trkpt><trkpt lat="52.39093" lon="6.0355"></trkpt><trkpt lat="52.39097" lon="6.03554"></trkpt><trkpt lat="52.39099" lon="6.03556"></trkpt><trkpt lat="52.391" lon="6.03557"></trkpt><trkpt lat="52.39101" lon="6.0356"></trkpt><trkpt lat="52.39104" lon="6.03566"></trkpt><trkpt lat="52.39107" lon="6.0357"></trkpt><trkpt lat="52.3911" lon="6.03575"></trkpt><trkpt lat="52.39147" lon="6.03618"></trkpt><trkpt lat="52.39137" lon="6.03628"></trkpt><trkpt lat="52.39137" lon="6.03628"></trkpt><trkpt lat="52.3913" lon="6.03636"></trkpt><trkpt lat="52.39124" lon="6.03646"></trkpt><trkpt lat="52.39118" lon="6.03655"></trkpt><trkpt lat="52.39114" lon="6.03662"></trkpt><trkpt lat="52.39106" lon="6.03675"></trkpt><trkpt lat="52.39099" lon="6.03687"></trkpt><trkpt lat="52.39092" lon="6.03696"></trkpt><trkpt lat="52.39082" lon="6.0371"></trkpt><trkpt lat="52.39076" lon="6.03719"></trkpt><trkpt lat="52.39071" lon="6.03727"></trkpt><trkpt lat="52.39064" lon="6.0374"></trkpt><trkpt lat="52.39061" lon="6.03747"></trkpt><trkpt lat="52.39058" lon="6.03754"></trkpt><trkpt lat="52.39057" lon="6.03761"></trkpt><trkpt lat="52.39056" lon="6.03768"></trkpt><trkpt lat="52.39055" lon="6.03773"></trkpt><trkpt lat="52.39052" lon="6.03782"></trkpt><trkpt lat="52.39051" lon="6.03788"></trkpt><trkpt lat="52.3905" lon="6.03792"></trkpt><trkpt lat="52.3905" lon="6.03795"></trkpt><trkpt lat="52.39052" lon="6.038"></trkpt><trkpt lat="52.3906" lon="6.03812"></trkpt><trkpt lat="52.39084" lon="6.03764"></trkpt><trkpt lat="52.39104" lon="6.03726"></trkpt><trkpt lat="52.39113" lon="6.03711"></trkpt><trkpt lat="52.39123" lon="6.03694"></trkpt><trkpt lat="52.39134" lon="6.03677"></trkpt><trkpt lat="52.39143" lon="6.03664"></trkpt><trkpt lat="52.39153" lon="6.03651"></trkpt><trkpt lat="52.3916" lon="6.03642"></trkpt><trkpt lat="52.39177" lon="6.03624"></trkpt><trkpt lat="52.39202" lon="6.03597"></trkpt><trkpt lat="52.39231" lon="6.03567"></trkpt><trkpt lat="52.39258" lon="6.03538"></trkpt><trkpt lat="52.39263" lon="6.03533"></trkpt><trkpt lat="52.39274" lon="6.03521"></trkpt><trkpt lat="52.39283" lon="6.03513"></trkpt><trkpt lat="52.39395" lon="6.03402"></trkpt><trkpt lat="52.39417" lon="6.0338"></trkpt><trkpt lat="52.39425" lon="6.03372"></trkpt><trkpt lat="52.39432" lon="6.03367"></trkpt><trkpt lat="52.39448" lon="6.0336"></trkpt><trkpt lat="52.39504" lon="6.03339"></trkpt><trkpt lat="52.39507" lon="6.03338"></trkpt><trkpt lat="52.39509" lon="6.03338"></trkpt><trkpt lat="52.39511" lon="6.03337"></trkpt><trkpt lat="52.39529" lon="6.03329"></trkpt><trkpt lat="52.39561" lon="6.03317"></trkpt><trkpt lat="52.39592" lon="6.03305"></trkpt><trkpt lat="52.3959" lon="6.03296"></trkpt><trkpt lat="52.39589" lon="6.03285"></trkpt><trkpt lat="52.39588" lon="6.0328"></trkpt><trkpt lat="52.39548" lon="6.03034"></trkpt><trkpt lat="52.39546" lon="6.03022"></trkpt><trkpt lat="52.39545" lon="6.03015"></trkpt><trkpt lat="52.39541" lon="6.02998"></trkpt><trkpt lat="52.39538" lon="6.02986"></trkpt><trkpt lat="52.39535" lon="6.02972"></trkpt><trkpt lat="52.39512" lon="6.0282"></trkpt><trkpt lat="52.3951" lon="6.02807"></trkpt><trkpt lat="52.39499" lon="6.02733"></trkpt><trkpt lat="52.39571" lon="6.0265"></trkpt><trkpt lat="52.39578" lon="6.02641"></trkpt><trkpt lat="52.39588" lon="6.02626"></trkpt><trkpt lat="52.39595" lon="6.02611"></trkpt><trkpt lat="52.396" lon="6.02594"></trkpt><trkpt lat="52.39604" lon="6.0258"></trkpt><trkpt lat="52.39614" lon="6.02531"></trkpt><trkpt lat="52.39633" lon="6.02445"></trkpt><trkpt lat="52.39639" lon="6.02421"></trkpt><trkpt lat="52.39655" lon="6.02362"></trkpt><trkpt lat="52.39664" lon="6.02328"></trkpt><trkpt lat="52.39673" lon="6.02298"></trkpt><trkpt lat="52.39684" lon="6.0226"></trkpt><trkpt lat="52.39697" lon="6.02219"></trkpt><trkpt lat="52.39707" lon="6.02191"></trkpt><trkpt lat="52.39715" lon="6.02171"></trkpt><trkpt lat="52.39719" lon="6.02159"></trkpt><trkpt lat="52.39723" lon="6.02149"></trkpt><trkpt lat="52.39726" lon="6.02139"></trkpt><trkpt lat="52.39727" lon="6.02133"></trkpt><trkpt lat="52.39729" lon="6.02126"></trkpt><trkpt lat="52.3973" lon="6.02121"></trkpt><trkpt lat="52.39731" lon="6.02114"></trkpt><trkpt lat="52.39746" lon="6.02004"></trkpt><trkpt lat="52.39747" lon="6.01998"></trkpt><trkpt lat="52.39748" lon="6.01987"></trkpt><trkpt lat="52.39781" lon="6.01746"></trkpt><trkpt lat="52.3979" lon="6.01684"></trkpt><trkpt lat="52.39792" lon="6.01674"></trkpt><trkpt lat="52.39795" lon="6.01665"></trkpt><trkpt lat="52.39799" lon="6.01647"></trkpt><trkpt lat="52.39803" lon="6.01633"></trkpt><trkpt lat="52.39807" lon="6.01619"></trkpt><trkpt lat="52.39814" lon="6.01599"></trkpt><trkpt lat="52.39819" lon="6.01584"></trkpt><trkpt lat="52.39822" lon="6.01574"></trkpt><trkpt lat="52.39824" lon="6.01566"></trkpt><trkpt lat="52.39826" lon="6.01557"></trkpt><trkpt lat="52.39827" lon="6.01547"></trkpt><trkpt lat="52.39828" lon="6.0154"></trkpt><trkpt lat="52.39828" lon="6.01532"></trkpt><trkpt lat="52.39828" lon="6.01516"></trkpt><trkpt lat="52.3983" lon="6.01432"></trkpt><trkpt lat="52.39831" lon="6.01357"></trkpt><trkpt lat="52.39856" lon="6.01357"></trkpt><trkpt lat="52.39861" lon="6.01358"></trkpt><trkpt lat="52.39865" lon="6.01359"></trkpt><trkpt lat="52.39869" lon="6.01358"></trkpt><trkpt lat="52.39877" lon="6.01359"></trkpt><trkpt lat="52.39893" lon="6.01358"></trkpt><trkpt lat="52.39906" lon="6.01352"></trkpt><trkpt lat="52.39918" lon="6.01342"></trkpt><trkpt lat="52.39948" lon="6.01354"></trkpt><trkpt lat="52.39975" lon="6.01353"></trkpt><trkpt lat="52.39981" lon="6.01352"></trkpt><trkpt lat="52.3999" lon="6.01353"></trkpt><trkpt lat="52.40014" lon="6.01359"></trkpt><trkpt lat="52.40025" lon="6.01356"></trkpt><trkpt lat="52.40039" lon="6.01355"></trkpt><trkpt lat="52.40058" lon="6.01367"></trkpt><trkpt lat="52.40061" lon="6.01369"></trkpt><trkpt lat="52.40086" lon="6.01384"></trkpt><trkpt lat="52.40108" lon="6.01391"></trkpt><trkpt lat="52.40133" lon="6.01405"></trkpt><trkpt lat="52.40159" lon="6.01397"></trkpt><trkpt lat="52.40175" lon="6.01397"></trkpt><trkpt lat="52.40199" lon="6.01403"></trkpt><trkpt lat="52.40215" lon="6.01399"></trkpt><trkpt lat="52.40229" lon="6.01392"></trkpt><trkpt lat="52.40258" lon="6.01399"></trkpt><trkpt lat="52.40272" lon="6.01395"></trkpt><trkpt lat="52.40284" lon="6.01392"></trkpt><trkpt lat="52.4031" lon="6.0139"></trkpt><trkpt lat="52.40315" lon="6.01388"></trkpt><trkpt lat="52.40322" lon="6.01381"></trkpt><trkpt lat="52.40341" lon="6.01351"></trkpt><trkpt lat="52.40352" lon="6.01335"></trkpt><trkpt lat="52.40364" lon="6.01314"></trkpt><trkpt lat="52.40379" lon="6.01276"></trkpt><trkpt lat="52.40384" lon="6.01264"></trkpt><trkpt lat="52.40396" lon="6.01234"></trkpt><trkpt lat="52.40404" lon="6.01212"></trkpt><trkpt lat="52.40416" lon="6.01162"></trkpt><trkpt lat="52.40425" lon="6.01141"></trkpt><trkpt lat="52.40441" lon="6.01116"></trkpt><trkpt lat="52.40446" lon="6.01105"></trkpt><trkpt lat="52.4045" lon="6.01094"></trkpt><trkpt lat="52.40452" lon="6.01084"></trkpt><trkpt lat="52.40455" lon="6.01073"></trkpt><trkpt lat="52.40458" lon="6.01059"></trkpt><trkpt lat="52.40462" lon="6.01045"></trkpt><trkpt lat="52.40469" lon="6.01034"></trkpt><trkpt lat="52.40476" lon="6.01029"></trkpt><trkpt lat="52.40492" lon="6.01019"></trkpt><trkpt lat="52.4049" lon="6.01013"></trkpt><trkpt lat="52.40484" lon="6.01"></trkpt><trkpt lat="52.40477" lon="6.00986"></trkpt><trkpt lat="52.40466" lon="6.00966"></trkpt><trkpt lat="52.4045" lon="6.00937"></trkpt><trkpt lat="52.40446" lon="6.0093"></trkpt><trkpt lat="52.40441" lon="6.00912"></trkpt><trkpt lat="52.40437" lon="6.00897"></trkpt><trkpt lat="52.40432" lon="6.00888"></trkpt><trkpt lat="52.40418" lon="6.00865"></trkpt><trkpt lat="52.40412" lon="6.00856"></trkpt><trkpt lat="52.40415" lon="6.0084"></trkpt><trkpt lat="52.40417" lon="6.00833"></trkpt><trkpt lat="52.40421" lon="6.00813"></trkpt><trkpt lat="52.40422" lon="6.00805"></trkpt><trkpt lat="52.40425" lon="6.00799"></trkpt><trkpt lat="52.4043" lon="6.00787"></trkpt><trkpt lat="52.40436" lon="6.00777"></trkpt><trkpt lat="52.40444" lon="6.00771"></trkpt><trkpt lat="52.40482" lon="6.00738"></trkpt><trkpt lat="52.40502" lon="6.00688"></trkpt><trkpt lat="52.40511" lon="6.00628"></trkpt><trkpt lat="52.40514" lon="6.00581"></trkpt><trkpt lat="52.40519" lon="6.00488"></trkpt><trkpt lat="52.40524" lon="6.00455"></trkpt><trkpt lat="52.40539" lon="6.00395"></trkpt><trkpt lat="52.40555" lon="6.00327"></trkpt><trkpt lat="52.40557" lon="6.00318"></trkpt><trkpt lat="52.40555" lon="6.0031"></trkpt><trkpt lat="52.40552" lon="6.00298"></trkpt><trkpt lat="52.40509" lon="6.00161"></trkpt><trkpt lat="52.40422" lon="5.99892"></trkpt><trkpt lat="52.40408" lon="5.99845"></trkpt><trkpt lat="52.40354" lon="5.99496"></trkpt><trkpt lat="52.40335" lon="5.99366"></trkpt><trkpt lat="52.40275" lon="5.98977"></trkpt><trkpt lat="52.40253" lon="5.9892"></trkpt><trkpt lat="52.40243" lon="5.98887"></trkpt><trkpt lat="52.40231" lon="5.98751"></trkpt><trkpt lat="52.40259" lon="5.98484"></trkpt><trkpt lat="52.40263" lon="5.98464"></trkpt><trkpt lat="52.40268" lon="5.98436"></trkpt><trkpt lat="52.40245" lon="5.982"></trkpt><trkpt lat="52.40245" lon="5.98173"></trkpt><trkpt lat="52.40248" lon="5.98144"></trkpt><trkpt lat="52.40248" lon="5.98115"></trkpt><trkpt lat="52.40243" lon="5.98099"></trkpt><trkpt lat="52.40229" lon="5.98075"></trkpt><trkpt lat="52.40227" lon="5.98071"></trkpt><trkpt lat="52.40145" lon="5.97936"></trkpt><trkpt lat="52.40009" lon="5.97673"></trkpt><trkpt lat="52.39976" lon="5.97633"></trkpt><trkpt lat="52.39971" lon="5.97624"></trkpt><trkpt lat="52.39959" lon="5.97595"></trkpt><trkpt lat="52.39939" lon="5.97564"></trkpt><trkpt lat="52.3993" lon="5.97543"></trkpt><trkpt lat="52.39914" lon="5.97473"></trkpt><trkpt lat="52.39895" lon="5.97401"></trkpt><trkpt lat="52.39872" lon="5.97334"></trkpt><trkpt lat="52.39858" lon="5.97317"></trkpt><trkpt lat="52.39814" lon="5.97284"></trkpt><trkpt lat="52.39793" lon="5.97271"></trkpt><trkpt lat="52.3977" lon="5.97268"></trkpt><trkpt lat="52.39697" lon="5.97259"></trkpt><trkpt lat="52.39622" lon="5.97248"></trkpt><trkpt lat="52.39593" lon="5.97241"></trkpt><trkpt lat="52.3956" lon="5.97221"></trkpt><trkpt lat="52.39554" lon="5.97221"></trkpt><trkpt lat="52.39549" lon="5.97223"></trkpt><trkpt lat="52.39605" lon="5.97029"></trkpt><trkpt lat="52.39629" lon="5.96952"></trkpt><trkpt lat="52.39679" lon="5.96791"></trkpt><trkpt lat="52.39742" lon="5.96592"></trkpt><trkpt lat="52.39762" lon="5.96531"></trkpt><trkpt lat="52.39781" lon="5.96465"></trkpt><trkpt lat="52.39788" lon="5.96446"></trkpt><trkpt lat="52.39784" lon="5.96433"></trkpt><trkpt lat="52.39778" lon="5.96409"></trkpt><trkpt lat="52.39775" lon="5.96389"></trkpt><trkpt lat="52.39773" lon="5.96368"></trkpt><trkpt lat="52.39772" lon="5.96342"></trkpt><trkpt lat="52.39773" lon="5.9631"></trkpt><trkpt lat="52.39774" lon="5.96276"></trkpt><trkpt lat="52.39775" lon="5.96235"></trkpt><trkpt lat="52.39775" lon="5.96203"></trkpt><trkpt lat="52.39776" lon="5.96187"></trkpt><trkpt lat="52.39775" lon="5.96164"></trkpt><trkpt lat="52.39772" lon="5.96148"></trkpt><trkpt lat="52.39756" lon="5.96058"></trkpt><trkpt lat="52.39754" lon="5.96045"></trkpt><trkpt lat="52.39751" lon="5.96032"></trkpt><trkpt lat="52.39747" lon="5.96022"></trkpt><trkpt lat="52.39743" lon="5.96012"></trkpt><trkpt lat="52.39731" lon="5.95981"></trkpt><trkpt lat="52.39707" lon="5.95927"></trkpt><trkpt lat="52.39675" lon="5.95852"></trkpt><trkpt lat="52.39664" lon="5.95825"></trkpt><trkpt lat="52.3965" lon="5.95796"></trkpt><trkpt lat="52.39641" lon="5.95816"></trkpt><trkpt lat="52.3962" lon="5.95875"></trkpt><trkpt lat="52.39524" lon="5.96055"></trkpt><trkpt lat="52.39514" lon="5.9607"></trkpt><trkpt lat="52.39506" lon="5.96078"></trkpt><trkpt lat="52.39487" lon="5.9609"></trkpt><trkpt lat="52.39459" lon="5.96102"></trkpt><trkpt lat="52.39454" lon="5.96104"></trkpt><trkpt lat="52.39416" lon="5.96125"></trkpt><trkpt lat="52.39324" lon="5.962"></trkpt><trkpt lat="52.39259" lon="5.96253"></trkpt><trkpt lat="52.39039" lon="5.96425"></trkpt><trkpt lat="52.38848" lon="5.9659"></trkpt><trkpt lat="52.38742" lon="5.96686"></trkpt><trkpt lat="52.38518" lon="5.96878"></trkpt><trkpt lat="52.38513" lon="5.96882"></trkpt><trkpt lat="52.38508" lon="5.96886"></trkpt><trkpt lat="52.38477" lon="5.96912"></trkpt></trkseg></trk></gpx>