<?xml version="1.0" encoding="UTF-8" standalone="no" ?>
<gpx xmlns="http://www.topografix.com/GPX/1/1"
		xmlns:gpxx="http://www.garmin.com/xmlschemas/GpxExtensions/v3"
		xmlns:gpxtpx="http://www.garmin.com/xmlschemas/TrackPointExtension/v1"
		xmlns:xsi="http://www.w3.org/2001/XMLSchema-instance"
		xsi:schemaLocation="http://www.topografix.com/GPX/1/1 http://www.topografix.com/GPX/1/1/gpx.xsd http://www.garmin.com/xmlschemas/GpxExtensions/v3 http://www.garmin.com/xmlschemas/GpxExtensionsv3.xsd http://www.garmin.com/xmlschemas/TrackPointExtension/v1 http://www.garmin.com/xmlschemas/TrackPointExtensionv1.xsd"
		creator="Gravelmap.com"
		version="1.1">

	<metadata>
		<name><![CDATA[Gravel Route: Gravelrit Assen-Assen]]></name>
		<desc><![CDATA[]]></desc>
		<link href="http://www.gravelmap.com/route/92833">
			<text><![CDATA[Gravel Route: Gravelrit Assen-Assen]]></text>
		</link>
		<time>2020-11-07T09:49:24-05:00</time>
	</metadata>

	<trk>
		<name><![CDATA[Gravel Route: Gravelrit Assen-Assen]]></name>
		<desc><![CDATA[]]></desc>
		<link href="http://www.gravelmap.com/route/92833">
			<text><![CDATA[Gravel Route: Gravelrit Assen-Assen]]></text>
		</link>
		<trkseg>
			<trkpt lat="52.97917" lon="6.55964">
				<ele>10.64</ele>
			</trkpt>
			<trkpt lat="52.97917" lon="6.55964">
				<ele>10.64</ele>
			</trkpt>
			<trkpt lat="52.97982" lon="6.56016">
				<ele>10.64</ele>
			</trkpt>
			<trkpt lat="52.97991" lon="6.55985">
				<ele>14.12</ele>
			</trkpt>
			<trkpt lat="52.97989" lon="6.55962">
				<ele>14.12</ele>
			</trkpt>
			<trkpt lat="52.98001" lon="6.55922">
				<ele>14.64</ele>
			</trkpt>
			<trkpt lat="52.98041" lon="6.55956">
				<ele>14.64</ele>
			</trkpt>
			<trkpt lat="52.98052" lon="6.55928">
				<ele>14.64</ele>
			</trkpt>
			<trkpt lat="52.97973" lon="6.55109">
				<ele>12.61</ele>
			</trkpt>
			<trkpt lat="52.97969" lon="6.55105">
				<ele>12.61</ele>
			</trkpt>
			<trkpt lat="52.97965" lon="6.55061">
				<ele>11</ele>
			</trkpt>
			<trkpt lat="52.97954" lon="6.55033">
				<ele>11</ele>
			</trkpt>
			<trkpt lat="52.97952" lon="6.55011">
				<ele>11</ele>
			</trkpt>
			<trkpt lat="52.97944" lon="6.55008">
				<ele>13.56</ele>
			</trkpt>
			<trkpt lat="52.97934" lon="6.55014">
				<ele>13.56</ele>
			</trkpt>
			<trkpt lat="52.97932" lon="6.55005">
				<ele>11.69</ele>
			</trkpt>
			<trkpt lat="52.97932" lon="6.55005">
				<ele>11.69</ele>
			</trkpt>
			<trkpt lat="52.97918" lon="6.54939">
				<ele>11.69</ele>
			</trkpt>
			<trkpt lat="52.97915" lon="6.54896">
				<ele>11.86</ele>
			</trkpt>
			<trkpt lat="52.9792" lon="6.54863">
				<ele>11.86</ele>
			</trkpt>
			<trkpt lat="52.97932" lon="6.54821">
				<ele>10.15</ele>
			</trkpt>
			<trkpt lat="52.97952" lon="6.54762">
				<ele>10.15</ele>
			</trkpt>
			<trkpt lat="52.97962" lon="6.54721">
				<ele>10.15</ele>
			</trkpt>
			<trkpt lat="52.97976" lon="6.5464">
				<ele>12.9</ele>
			</trkpt>
			<trkpt lat="52.97977" lon="6.54565">
				<ele>12.9</ele>
			</trkpt>
			<trkpt lat="52.9798" lon="6.54554">
				<ele>10.17</ele>
			</trkpt>
			<trkpt lat="52.9798" lon="6.54554">
				<ele>10.17</ele>
			</trkpt>
			<trkpt lat="52.97987" lon="6.54546">
				<ele>10.17</ele>
			</trkpt>
			<trkpt lat="52.97985" lon="6.5452">
				<ele>14.59</ele>
			</trkpt>
			<trkpt lat="52.97989" lon="6.545">
				<ele>14.59</ele>
			</trkpt>
			<trkpt lat="52.98025" lon="6.54458">
				<ele>13.42</ele>
			</trkpt>
			<trkpt lat="52.98037" lon="6.54413">
				<ele>13.42</ele>
			</trkpt>
			<trkpt lat="52.97943" lon="6.54308">
				<ele>13.42</ele>
			</trkpt>
			<trkpt lat="52.97918" lon="6.5422">
				<ele>15.24</ele>
			</trkpt>
			<trkpt lat="52.97934" lon="6.54187">
				<ele>15.24</ele>
			</trkpt>
			<trkpt lat="52.97996" lon="6.54116">
				<ele>13.13</ele>
			</trkpt>
			<trkpt lat="52.98063" lon="6.53878">
				<ele>13.13</ele>
			</trkpt>
			<trkpt lat="52.98214" lon="6.53808">
				<ele>13.13</ele>
			</trkpt>
			<trkpt lat="52.98221" lon="6.53791">
				<ele>13.04</ele>
			</trkpt>
			<trkpt lat="52.98239" lon="6.53674">
				<ele>13.04</ele>
			</trkpt>
			<trkpt lat="52.98247" lon="6.5367">
				<ele>12.02</ele>
			</trkpt>
			<trkpt lat="52.98252" lon="6.53642">
				<ele>12.02</ele>
			</trkpt>
			<trkpt lat="52.98264" lon="6.53625">
				<ele>12.02</ele>
			</trkpt>
			<trkpt lat="52.98264" lon="6.53591">
				<ele>10.1</ele>
			</trkpt>
			<trkpt lat="52.98269" lon="6.53583">
				<ele>10.1</ele>
			</trkpt>
			<trkpt lat="52.98311" lon="6.53588">
				<ele>11.44</ele>
			</trkpt>
			<trkpt lat="52.98333" lon="6.53559">
				<ele>11.44</ele>
			</trkpt>
			<trkpt lat="52.98329" lon="6.53529">
				<ele>9.2</ele>
			</trkpt>
			<trkpt lat="52.98315" lon="6.53503">
				<ele>9.2</ele>
			</trkpt>
			<trkpt lat="52.98295" lon="6.53432">
				<ele>9.2</ele>
			</trkpt>
			<trkpt lat="52.983" lon="6.53314">
				<ele>9.72</ele>
			</trkpt>
			<trkpt lat="52.98312" lon="6.53266">
				<ele>9.72</ele>
			</trkpt>
			<trkpt lat="52.98304" lon="6.53226">
				<ele>9</ele>
			</trkpt>
			<trkpt lat="52.98307" lon="6.53115">
				<ele>9</ele>
			</trkpt>
			<trkpt lat="52.98299" lon="6.53042">
				<ele>9</ele>
			</trkpt>
			<trkpt lat="52.98284" lon="6.53018">
				<ele>9</ele>
			</trkpt>
			<trkpt lat="52.98276" lon="6.52954">
				<ele>9</ele>
			</trkpt>
			<trkpt lat="52.98286" lon="6.52853">
				<ele>9</ele>
			</trkpt>
			<trkpt lat="52.98286" lon="6.52814">
				<ele>9</ele>
			</trkpt>
			<trkpt lat="52.98255" lon="6.52644">
				<ele>9</ele>
			</trkpt>
			<trkpt lat="52.98239" lon="6.5259">
				<ele>10</ele>
			</trkpt>
			<trkpt lat="52.9832" lon="6.5251">
				<ele>10</ele>
			</trkpt>
			<trkpt lat="52.98414" lon="6.52472">
				<ele>10</ele>
			</trkpt>
			<trkpt lat="52.98426" lon="6.52459">
				<ele>10</ele>
			</trkpt>
			<trkpt lat="52.98448" lon="6.52407">
				<ele>10</ele>
			</trkpt>
			<trkpt lat="52.985" lon="6.5242">
				<ele>10.19</ele>
			</trkpt>
			<trkpt lat="52.98501" lon="6.52371">
				<ele>10.19</ele>
			</trkpt>
			<trkpt lat="52.98485" lon="6.52381">
				<ele>14.98</ele>
			</trkpt>
			<trkpt lat="52.98469" lon="6.52375">
				<ele>14.98</ele>
			</trkpt>
			<trkpt lat="52.98469" lon="6.52375">
				<ele>14.98</ele>
			</trkpt>
			<trkpt lat="52.98481" lon="6.52381">
				<ele>11.48</ele>
			</trkpt>
			<trkpt lat="52.98489" lon="6.5238">
				<ele>11.48</ele>
			</trkpt>
			<trkpt lat="52.98529" lon="6.52345">
				<ele>13.79</ele>
			</trkpt>
			<trkpt lat="52.98568" lon="6.52324">
				<ele>13.79</ele>
			</trkpt>
			<trkpt lat="52.98582" lon="6.52305">
				<ele>13.79</ele>
			</trkpt>
			<trkpt lat="52.98588" lon="6.52289">
				<ele>10.35</ele>
			</trkpt>
			<trkpt lat="52.98595" lon="6.52247">
				<ele>10.35</ele>
			</trkpt>
			<trkpt lat="52.98594" lon="6.52221">
				<ele>9.95</ele>
			</trkpt>
			<trkpt lat="52.98591" lon="6.52202">
				<ele>9.95</ele>
			</trkpt>
			<trkpt lat="52.98575" lon="6.52158">
				<ele>9.95</ele>
			</trkpt>
			<trkpt lat="52.98574" lon="6.52146">
				<ele>11.77</ele>
			</trkpt>
			<trkpt lat="52.98578" lon="6.52114">
				<ele>11.77</ele>
			</trkpt>
			<trkpt lat="52.98578" lon="6.521">
				<ele>9.72</ele>
			</trkpt>
			<trkpt lat="52.98553" lon="6.52066">
				<ele>9.72</ele>
			</trkpt>
			<trkpt lat="52.98543" lon="6.52044">
				<ele>9.72</ele>
			</trkpt>
			<trkpt lat="52.98536" lon="6.52013">
				<ele>16.32</ele>
			</trkpt>
			<trkpt lat="52.98535" lon="6.51973">
				<ele>16.32</ele>
			</trkpt>
			<trkpt lat="52.9854" lon="6.51906">
				<ele>15.35</ele>
			</trkpt>
			<trkpt lat="52.98534" lon="6.51849">
				<ele>15.35</ele>
			</trkpt>
			<trkpt lat="52.98488" lon="6.51734">
				<ele>15.35</ele>
			</trkpt>
			<trkpt lat="52.98486" lon="6.51706">
				<ele>17.84</ele>
			</trkpt>
			<trkpt lat="52.98489" lon="6.51694">
				<ele>17.84</ele>
			</trkpt>
			<trkpt lat="52.98503" lon="6.51668">
				<ele>9.38</ele>
			</trkpt>
			<trkpt lat="52.9851" lon="6.51646">
				<ele>9.38</ele>
			</trkpt>
			<trkpt lat="52.98511" lon="6.51609">
				<ele>13.94</ele>
			</trkpt>
			<trkpt lat="52.98506" lon="6.51561">
				<ele>13.94</ele>
			</trkpt>
			<trkpt lat="52.98506" lon="6.51561">
				<ele>13.94</ele>
			</trkpt>
			<trkpt lat="52.98508" lon="6.51527">
				<ele>27.53</ele>
			</trkpt>
			<trkpt lat="52.98493" lon="6.51516">
				<ele>27.53</ele>
			</trkpt>
			<trkpt lat="52.98465" lon="6.51485">
				<ele>22.87</ele>
			</trkpt>
			<trkpt lat="52.98332" lon="6.5138">
				<ele>22.87</ele>
			</trkpt>
			<trkpt lat="52.98332" lon="6.5138">
				<ele>22.87</ele>
			</trkpt>
			<trkpt lat="52.98321" lon="6.51356">
				<ele>26.05</ele>
			</trkpt>
			<trkpt lat="52.98334" lon="6.51299">
				<ele>26.05</ele>
			</trkpt>
			<trkpt lat="52.98326" lon="6.51258">
				<ele>10.89</ele>
			</trkpt>
			<trkpt lat="52.98315" lon="6.51254">
				<ele>10.89</ele>
			</trkpt>
			<trkpt lat="52.98303" lon="6.5119">
				<ele>10.89</ele>
			</trkpt>
			<trkpt lat="52.98292" lon="6.5106">
				<ele>11.32</ele>
			</trkpt>
			<trkpt lat="52.98292" lon="6.5106">
				<ele>11.32</ele>
			</trkpt>
			<trkpt lat="52.98291" lon="6.51041">
				<ele>11.34</ele>
			</trkpt>
			<trkpt lat="52.98148" lon="6.51221">
				<ele>11.34</ele>
			</trkpt>
			<trkpt lat="52.98143" lon="6.5124">
				<ele>11.34</ele>
			</trkpt>
			<trkpt lat="52.98137" lon="6.51243">
				<ele>12.86</ele>
			</trkpt>
			<trkpt lat="52.98121" lon="6.51235">
				<ele>12.86</ele>
			</trkpt>
			<trkpt lat="52.98141" lon="6.51126">
				<ele>12.44</ele>
			</trkpt>
			<trkpt lat="52.98141" lon="6.51089">
				<ele>12.44</ele>
			</trkpt>
			<trkpt lat="52.98138" lon="6.51057">
				<ele>12.44</ele>
			</trkpt>
			<trkpt lat="52.98134" lon="6.51033">
				<ele>12.28</ele>
			</trkpt>
			<trkpt lat="52.98022" lon="6.50578">
				<ele>12.28</ele>
			</trkpt>
			<trkpt lat="52.98012" lon="6.50565">
				<ele>12.47</ele>
			</trkpt>
			<trkpt lat="52.98005" lon="6.50537">
				<ele>12.47</ele>
			</trkpt>
			<trkpt lat="52.98006" lon="6.50514">
				<ele>12.47</ele>
			</trkpt>
			<trkpt lat="52.97999" lon="6.5048">
				<ele>11.09</ele>
			</trkpt>
			<trkpt lat="52.97991" lon="6.50319">
				<ele>11.09</ele>
			</trkpt>
			<trkpt lat="52.97981" lon="6.50264">
				<ele>9.18</ele>
			</trkpt>
			<trkpt lat="52.97966" lon="6.50193">
				<ele>9.18</ele>
			</trkpt>
			<trkpt lat="52.97982" lon="6.50181">
				<ele>9.18</ele>
			</trkpt>
			<trkpt lat="52.97982" lon="6.50181">
				<ele>8.53</ele>
			</trkpt>
			<trkpt lat="52.98009" lon="6.50163">
				<ele>8.53</ele>
			</trkpt>
			<trkpt lat="52.98035" lon="6.50151">
				<ele>7.29</ele>
			</trkpt>
			<trkpt lat="52.98119" lon="6.50096">
				<ele>7.29</ele>
			</trkpt>
			<trkpt lat="52.98113" lon="6.50043">
				<ele>7.29</ele>
			</trkpt>
			<trkpt lat="52.98062" lon="6.49809">
				<ele>9.12</ele>
			</trkpt>
			<trkpt lat="52.98062" lon="6.49799">
				<ele>9.12</ele>
			</trkpt>
			<trkpt lat="52.98064" lon="6.49789">
				<ele>9</ele>
			</trkpt>
			<trkpt lat="52.98124" lon="6.49666">
				<ele>9</ele>
			</trkpt>
			<trkpt lat="52.9814" lon="6.4964">
				<ele>25</ele>
			</trkpt>
			<trkpt lat="52.98137" lon="6.49616">
				<ele>25</ele>
			</trkpt>
			<trkpt lat="52.9814" lon="6.49606">
				<ele>25</ele>
			</trkpt>
			<trkpt lat="52.98153" lon="6.4959">
				<ele>13.98</ele>
			</trkpt>
			<trkpt lat="52.982" lon="6.49517">
				<ele>13.98</ele>
			</trkpt>
			<trkpt lat="52.9823" lon="6.49443">
				<ele>9.22</ele>
			</trkpt>
			<trkpt lat="52.98232" lon="6.49428">
				<ele>9.22</ele>
			</trkpt>
			<trkpt lat="52.98229" lon="6.49414">
				<ele>9.22</ele>
			</trkpt>
			<trkpt lat="52.98181" lon="6.49357">
				<ele>8</ele>
			</trkpt>
			<trkpt lat="52.98181" lon="6.49357">
				<ele>8</ele>
			</trkpt>
			<trkpt lat="52.98272" lon="6.49134">
				<ele>8.65</ele>
			</trkpt>
			<trkpt lat="52.98279" lon="6.49139">
				<ele>8.65</ele>
			</trkpt>
			<trkpt lat="52.98286" lon="6.49175">
				<ele>8.65</ele>
			</trkpt>
			<trkpt lat="52.983" lon="6.49206">
				<ele>8.43</ele>
			</trkpt>
			<trkpt lat="52.9833" lon="6.49243">
				<ele>8.43</ele>
			</trkpt>
			<trkpt lat="52.98361" lon="6.49316">
				<ele>13.72</ele>
			</trkpt>
			<trkpt lat="52.98373" lon="6.49315">
				<ele>13.72</ele>
			</trkpt>
			<trkpt lat="52.98658" lon="6.48586">
				<ele>13.72</ele>
			</trkpt>
			<trkpt lat="52.98664" lon="6.48592">
				<ele>11.07</ele>
			</trkpt>
			<trkpt lat="52.98664" lon="6.48592">
				<ele>11.07</ele>
			</trkpt>
			<trkpt lat="52.9862" lon="6.48546">
				<ele>9.82</ele>
			</trkpt>
			<trkpt lat="52.98635" lon="6.48505">
				<ele>9.82</ele>
			</trkpt>
			<trkpt lat="52.98671" lon="6.48532">
				<ele>9.82</ele>
			</trkpt>
			<trkpt lat="52.99736" lon="6.45816">
				<ele>8.35</ele>
			</trkpt>
			<trkpt lat="52.99234" lon="6.43915">
				<ele>8.35</ele>
			</trkpt>
			<trkpt lat="52.99234" lon="6.43915">
				<ele>9.44</ele>
			</trkpt>
			<trkpt lat="52.99311" lon="6.43636">
				<ele>9.44</ele>
			</trkpt>
			<trkpt lat="52.99446" lon="6.43564">
				<ele>9.44</ele>
			</trkpt>
			<trkpt lat="52.99957" lon="6.43961">
				<ele>10.01</ele>
			</trkpt>
			<trkpt lat="52.9998" lon="6.43964">
				<ele>10.01</ele>
			</trkpt>
			<trkpt lat="53.00072" lon="6.43906">
				<ele>10.02</ele>
			</trkpt>
			<trkpt lat="53.00075" lon="6.43936">
				<ele>10.02</ele>
			</trkpt>
			<trkpt lat="53.00311" lon="6.44593">
				<ele>10.02</ele>
			</trkpt>
			<trkpt lat="53.00311" lon="6.44593">
				<ele>10.3</ele>
			</trkpt>
			<trkpt lat="53.01438" lon="6.43503">
				<ele>10.3</ele>
			</trkpt>
			<trkpt lat="53.01438" lon="6.43503">
				<ele>11.35</ele>
			</trkpt>
			<trkpt lat="53.01458" lon="6.4349">
				<ele>11.35</ele>
			</trkpt>
			<trkpt lat="53.01432" lon="6.42702">
				<ele>11.35</ele>
			</trkpt>
			<trkpt lat="53.0141" lon="6.42647">
				<ele>13</ele>
			</trkpt>
			<trkpt lat="53.01407" lon="6.42644">
				<ele>13</ele>
			</trkpt>
			<trkpt lat="53.01402" lon="6.42647">
				<ele>12</ele>
			</trkpt>
			<trkpt lat="53.01396" lon="6.42662">
				<ele>12</ele>
			</trkpt>
			<trkpt lat="53.01343" lon="6.42714">
				<ele>12</ele>
			</trkpt>
			<trkpt lat="53.01336" lon="6.42706">
				<ele>11.78</ele>
			</trkpt>
			<trkpt lat="53.01331" lon="6.42691">
				<ele>11.78</ele>
			</trkpt>
			<trkpt lat="53.01325" lon="6.42685">
				<ele>12</ele>
			</trkpt>
			<trkpt lat="53.01398" lon="6.42622">
				<ele>12</ele>
			</trkpt>
			<trkpt lat="53.01417" lon="6.42596">
				<ele>12</ele>
			</trkpt>
			<trkpt lat="53.01424" lon="6.42571">
				<ele>12</ele>
			</trkpt>
			<trkpt lat="53.01424" lon="6.42571">
				<ele>12</ele>
			</trkpt>
			<trkpt lat="53.01424" lon="6.42476">
				<ele>13.32</ele>
			</trkpt>
			<trkpt lat="53.01435" lon="6.42448">
				<ele>13.32</ele>
			</trkpt>
			<trkpt lat="53.01579" lon="6.42361">
				<ele>12</ele>
			</trkpt>
			<trkpt lat="53.01607" lon="6.42318">
				<ele>12</ele>
			</trkpt>
			<trkpt lat="53.0174" lon="6.41955">
				<ele>12</ele>
			</trkpt>
			<trkpt lat="53.01929" lon="6.41476">
				<ele>12</ele>
			</trkpt>
			<trkpt lat="53.02088" lon="6.41007">
				<ele>12</ele>
			</trkpt>
			<trkpt lat="53.02088" lon="6.41007">
				<ele>13</ele>
			</trkpt>
			<trkpt lat="53.00379" lon="6.3937">
				<ele>13</ele>
			</trkpt>
			<trkpt lat="53.00353" lon="6.39263">
				<ele>13</ele>
			</trkpt>
			<trkpt lat="53.00362" lon="6.39105">
				<ele>14.36</ele>
			</trkpt>
			<trkpt lat="53.00326" lon="6.3884">
				<ele>14.36</ele>
			</trkpt>
			<trkpt lat="53.00239" lon="6.38466">
				<ele>11</ele>
			</trkpt>
			<trkpt lat="53.00201" lon="6.38403">
				<ele>11</ele>
			</trkpt>
			<trkpt lat="53.00111" lon="6.38327">
				<ele>11</ele>
			</trkpt>
			<trkpt lat="52.99547" lon="6.38136">
				<ele>11</ele>
			</trkpt>
			<trkpt lat="52.99416" lon="6.37985">
				<ele>11</ele>
			</trkpt>
			<trkpt lat="52.99416" lon="6.37985">
				<ele>10.94</ele>
			</trkpt>
			<trkpt lat="52.9899" lon="6.37603">
				<ele>10.94</ele>
			</trkpt>
			<trkpt lat="52.98765" lon="6.37688">
				<ele>10.94</ele>
			</trkpt>
			<trkpt lat="52.98466" lon="6.38038">
				<ele>9.94</ele>
			</trkpt>
			<trkpt lat="52.98392" lon="6.38422">
				<ele>9.94</ele>
			</trkpt>
			<trkpt lat="52.98411" lon="6.38645">
				<ele>10.85</ele>
			</trkpt>
			<trkpt lat="52.98511" lon="6.38922">
				<ele>10.85</ele>
			</trkpt>
			<trkpt lat="52.9713" lon="6.42632">
				<ele>10.85</ele>
			</trkpt>
			<trkpt lat="52.97124" lon="6.42797">
				<ele>11</ele>
			</trkpt>
			<trkpt lat="52.97182" lon="6.42854">
				<ele>11</ele>
			</trkpt>
			<trkpt lat="52.94198" lon="6.50476">
				<ele>11</ele>
			</trkpt>
			<trkpt lat="52.9467" lon="6.51015">
				<ele>11</ele>
			</trkpt>
			<trkpt lat="52.94744" lon="6.50963">
				<ele>11</ele>
			</trkpt>
			<trkpt lat="52.95344" lon="6.51628">
				<ele>11.08</ele>
			</trkpt>
			<trkpt lat="52.95395" lon="6.52075">
				<ele>11.08</ele>
			</trkpt>
			<trkpt lat="52.95319" lon="6.52061">
				<ele>11.82</ele>
			</trkpt>
			<trkpt lat="52.9544" lon="6.52317">
				<ele>11.82</ele>
			</trkpt>
			<trkpt lat="52.95458" lon="6.52572">
				<ele>11.82</ele>
			</trkpt>
			<trkpt lat="52.95458" lon="6.52572">
				<ele>10.07</ele>
			</trkpt>
			<trkpt lat="52.95467" lon="6.52611">
				<ele>10.07</ele>
			</trkpt>
			<trkpt lat="52.94668" lon="6.52434">
				<ele>10.52</ele>
			</trkpt>
			<trkpt lat="52.9408" lon="6.52588">
				<ele>10.52</ele>
			</trkpt>
			<trkpt lat="52.9408" lon="6.52588">
				<ele>10.52</ele>
			</trkpt>
			<trkpt lat="52.9387" lon="6.52708">
				<ele>11</ele>
			</trkpt>
			<trkpt lat="52.93701" lon="6.52746">
				<ele>11</ele>
			</trkpt>
			<trkpt lat="52.93743" lon="6.53259">
				<ele>10.57</ele>
			</trkpt>
			<trkpt lat="52.93769" lon="6.534">
				<ele>10.57</ele>
			</trkpt>
			<trkpt lat="52.94185" lon="6.53564">
				<ele>10</ele>
			</trkpt>
			<trkpt lat="52.94211" lon="6.53605">
				<ele>10</ele>
			</trkpt>
			<trkpt lat="52.94234" lon="6.53704">
				<ele>10</ele>
			</trkpt>
			<trkpt lat="52.94265" lon="6.53743">
				<ele>10.33</ele>
			</trkpt>
			<trkpt lat="52.94472" lon="6.53785">
				<ele>10.33</ele>
			</trkpt>
			<trkpt lat="52.94672" lon="6.53856">
				<ele>11.81</ele>
			</trkpt>
			<trkpt lat="52.94933" lon="6.54019">
				<ele>11.81</ele>
			</trkpt>
			<trkpt lat="52.94984" lon="6.54037">
				<ele>11.81</ele>
			</trkpt>
			<trkpt lat="52.95252" lon="6.54057">
				<ele>11.06</ele>
			</trkpt>
			<trkpt lat="52.95262" lon="6.54009">
				<ele>11.06</ele>
			</trkpt>
			<trkpt lat="52.95262" lon="6.54009">
				<ele>9.72</ele>
			</trkpt>
			<trkpt lat="52.95267" lon="6.53981">
				<ele>9.72</ele>
			</trkpt>
			<trkpt lat="52.95273" lon="6.53969">
				<ele>9.72</ele>
			</trkpt>
			<trkpt lat="52.9528" lon="6.53966">
				<ele>10.94</ele>
			</trkpt>
			<trkpt lat="52.95374" lon="6.53998">
				<ele>10.94</ele>
			</trkpt>
			<trkpt lat="52.95384" lon="6.53995">
				<ele>10.04</ele>
			</trkpt>
			<trkpt lat="52.95392" lon="6.53978">
				<ele>10.04</ele>
			</trkpt>
			<trkpt lat="52.95476" lon="6.53669">
				<ele>10.04</ele>
			</trkpt>
			<trkpt lat="52.95516" lon="6.53549">
				<ele>10</ele>
			</trkpt>
			<trkpt lat="52.9552" lon="6.53531">
				<ele>10</ele>
			</trkpt>
			<trkpt lat="52.95497" lon="6.53114">
				<ele>11</ele>
			</trkpt>
			<trkpt lat="52.95497" lon="6.53092">
				<ele>11</ele>
			</trkpt>
			<trkpt lat="52.95507" lon="6.53074">
				<ele>11</ele>
			</trkpt>
			<trkpt lat="52.95569" lon="6.53017">
				<ele>11</ele>
			</trkpt>
			<trkpt lat="52.95588" lon="6.52973">
				<ele>11</ele>
			</trkpt>
			<trkpt lat="52.95616" lon="6.52949">
				<ele>12.27</ele>
			</trkpt>
			<trkpt lat="52.95616" lon="6.52949">
				<ele>12.27</ele>
			</trkpt>
			<trkpt lat="52.9567" lon="6.52894">
				<ele>12.27</ele>
			</trkpt>
			<trkpt lat="52.9568" lon="6.52895">
				<ele>14.04</ele>
			</trkpt>
			<trkpt lat="52.95697" lon="6.52871">
				<ele>14.04</ele>
			</trkpt>
			<trkpt lat="52.95755" lon="6.5302">
				<ele>12.12</ele>
			</trkpt>
			<trkpt lat="52.95811" lon="6.5326">
				<ele>12.12</ele>
			</trkpt>
			<trkpt lat="52.9584" lon="6.53358">
				<ele>12.12</ele>
			</trkpt>
			<trkpt lat="52.95971" lon="6.53625">
				<ele>15.51</ele>
			</trkpt>
			<trkpt lat="52.96036" lon="6.53782">
				<ele>15.51</ele>
			</trkpt>
			<trkpt lat="52.96036" lon="6.53782">
				<ele>10.13</ele>
			</trkpt>
			<trkpt lat="52.96092" lon="6.53971">
				<ele>10.13</ele>
			</trkpt>
			<trkpt lat="52.96359" lon="6.53769">
				<ele>10.13</ele>
			</trkpt>
			<trkpt lat="52.96598" lon="6.53504">
				<ele>11.76</ele>
			</trkpt>
			<trkpt lat="52.96672" lon="6.53486">
				<ele>11.76</ele>
			</trkpt>
			<trkpt lat="52.96679" lon="6.53453">
				<ele>11.97</ele>
			</trkpt>
			<trkpt lat="52.97423" lon="6.54432">
				<ele>11.97</ele>
			</trkpt>
			<trkpt lat="52.97772" lon="6.54832">
				<ele>13.45</ele>
			</trkpt>
			<trkpt lat="52.97725" lon="6.54958">
				<ele>13.45</ele>
			</trkpt>
			<trkpt lat="52.97696" lon="6.55593">
				<ele>13.45</ele>
			</trkpt>
			<trkpt lat="52.97592" lon="6.55558">
				<ele>12.48</ele>
			</trkpt>
			<trkpt lat="52.97576" lon="6.55645">
				<ele>12.48</ele>
			</trkpt>
			<trkpt lat="52.97477" lon="6.55597">
				<ele>10.91</ele>
			</trkpt>
			<trkpt lat="52.97073" lon="6.55556">
				<ele>10.91</ele>
			</trkpt>
			<trkpt lat="52.97051" lon="6.55812">
				<ele>10.91</ele>
			</trkpt>
			<trkpt lat="52.96949" lon="6.56076">
				<ele>9.53</ele>
			</trkpt>
			<trkpt lat="52.96908" lon="6.56297">
				<ele>9.53</ele>
			</trkpt>
			<trkpt lat="52.96907" lon="6.56427">
				<ele>10</ele>
			</trkpt>
			<trkpt lat="52.96952" lon="6.56588">
				<ele>10</ele>
			</trkpt>
			<trkpt lat="52.96925" lon="6.56432">
				<ele>10</ele>
			</trkpt>
			<trkpt lat="52.96928" lon="6.56305">
				<ele>8.08</ele>
			</trkpt>
			<trkpt lat="52.96869" lon="6.56272">
				<ele>8.08</ele>
			</trkpt>
			<trkpt lat="52.96812" lon="6.56623">
				<ele>11</ele>
			</trkpt>
			<trkpt lat="52.96562" lon="6.56815">
				<ele>11</ele>
			</trkpt>
			<trkpt lat="52.96547" lon="6.56771">
				<ele>11</ele>
			</trkpt>
			<trkpt lat="52.96547" lon="6.56771">
				<ele>12</ele>
			</trkpt>
			<trkpt lat="52.96531" lon="6.56713">
				<ele>12</ele>
			</trkpt>
			<trkpt lat="52.96508" lon="6.56607">
				<ele>11</ele>
			</trkpt>
			<trkpt lat="52.96512" lon="6.56481">
				<ele>11</ele>
			</trkpt>
			<trkpt lat="52.96506" lon="6.56227">
				<ele>11</ele>
			</trkpt>
			<trkpt lat="52.96331" lon="6.56367">
				<ele>9.84</ele>
			</trkpt>
			<trkpt lat="52.96331" lon="6.56367">
				<ele>9.84</ele>
			</trkpt>
			<trkpt lat="52.96198" lon="6.56473">
				<ele>12</ele>
			</trkpt>
			<trkpt lat="52.96035" lon="6.56459">
				<ele>12</ele>
			</trkpt>
			<trkpt lat="52.96014" lon="6.56483">
				<ele>12</ele>
			</trkpt>
			<trkpt lat="52.95906" lon="6.57147">
				<ele>11.96</ele>
			</trkpt>
			<trkpt lat="52.95921" lon="6.57166">
				<ele>11.96</ele>
			</trkpt>
			<trkpt lat="52.95768" lon="6.58105">
				<ele>13.01</ele>
			</trkpt>
			<trkpt lat="52.95749" lon="6.58133">
				<ele>13.01</ele>
			</trkpt>
			<trkpt lat="52.95815" lon="6.5877">
				<ele>13.01</ele>
			</trkpt>
			<trkpt lat="52.95578" lon="6.58982">
				<ele>13.39</ele>
			</trkpt>
			<trkpt lat="52.9532" lon="6.59267">
				<ele>13.39</ele>
			</trkpt>
			<trkpt lat="52.95067" lon="6.59475">
				<ele>13.53</ele>
			</trkpt>
			<trkpt lat="52.95186" lon="6.59714">
				<ele>13.53</ele>
			</trkpt>
			<trkpt lat="52.95161" lon="6.59736">
				<ele>13.53</ele>
			</trkpt>
			<trkpt lat="52.95161" lon="6.59736">
				<ele>10.22</ele>
			</trkpt>
			<trkpt lat="52.95011" lon="6.59873">
				<ele>10.22</ele>
			</trkpt>
			<trkpt lat="52.95008" lon="6.59864">
				<ele>11.79</ele>
			</trkpt>
			<trkpt lat="52.95008" lon="6.59864">
				<ele>11.79</ele>
			</trkpt>
			<trkpt lat="52.9513" lon="6.60443">
				<ele>11.79</ele>
			</trkpt>
			<trkpt lat="52.95173" lon="6.60434">
				<ele>11.63</ele>
			</trkpt>
			<trkpt lat="52.95225" lon="6.60387">
				<ele>11.63</ele>
			</trkpt>
			<trkpt lat="52.95229" lon="6.60397">
				<ele>12.45</ele>
			</trkpt>
			<trkpt lat="52.95258" lon="6.60553">
				<ele>12.45</ele>
			</trkpt>
			<trkpt lat="52.95267" lon="6.60688">
				<ele>12.88</ele>
			</trkpt>
			<trkpt lat="52.95335" lon="6.60803">
				<ele>12.88</ele>
			</trkpt>
			<trkpt lat="52.95385" lon="6.61128">
				<ele>12.88</ele>
			</trkpt>
			<trkpt lat="52.95403" lon="6.61499">
				<ele>18.25</ele>
			</trkpt>
			<trkpt lat="52.95266" lon="6.62097">
				<ele>18.25</ele>
			</trkpt>
			<trkpt lat="52.95249" lon="6.62132">
				<ele>16.49</ele>
			</trkpt>
			<trkpt lat="52.95327" lon="6.62261">
				<ele>16.49</ele>
			</trkpt>
			<trkpt lat="52.95405" lon="6.62461">
				<ele>16.49</ele>
			</trkpt>
			<trkpt lat="52.95351" lon="6.62506">
				<ele>15.76</ele>
			</trkpt>
			<trkpt lat="52.95351" lon="6.62506">
				<ele>15.76</ele>
			</trkpt>
			<trkpt lat="52.95248" lon="6.62548">
				<ele>14</ele>
			</trkpt>
			<trkpt lat="52.95207" lon="6.62586">
				<ele>14</ele>
			</trkpt>
			<trkpt lat="52.95166" lon="6.62639">
				<ele>14</ele>
			</trkpt>
			<trkpt lat="52.95114" lon="6.62674">
				<ele>12.76</ele>
			</trkpt>
			<trkpt lat="52.95053" lon="6.6268">
				<ele>12.76</ele>
			</trkpt>
			<trkpt lat="52.9497" lon="6.62648">
				<ele>12.36</ele>
			</trkpt>
			<trkpt lat="52.94922" lon="6.63022">
				<ele>12.36</ele>
			</trkpt>
			<trkpt lat="52.94922" lon="6.63022">
				<ele>12.36</ele>
			</trkpt>
			<trkpt lat="52.9397" lon="6.62549">
				<ele>14.75</ele>
			</trkpt>
			<trkpt lat="52.94225" lon="6.61281">
				<ele>14.75</ele>
			</trkpt>
			<trkpt lat="52.94058" lon="6.61178">
				<ele>15.86</ele>
			</trkpt>
			<trkpt lat="52.93922" lon="6.60734">
				<ele>15.86</ele>
			</trkpt>
			<trkpt lat="52.93506" lon="6.59647">
				<ele>15.86</ele>
			</trkpt>
			<trkpt lat="52.93466" lon="6.59406">
				<ele>16.66</ele>
			</trkpt>
			<trkpt lat="52.93351" lon="6.59187">
				<ele>16.66</ele>
			</trkpt>
			<trkpt lat="52.93199" lon="6.58756">
				<ele>19.73</ele>
			</trkpt>
			<trkpt lat="52.93165" lon="6.58808">
				<ele>19.73</ele>
			</trkpt>
			<trkpt lat="52.93165" lon="6.58808">
				<ele>19.73</ele>
			</trkpt>
			<trkpt lat="52.92715" lon="6.59492">
				<ele>22.93</ele>
			</trkpt>
			<trkpt lat="52.92683" lon="6.59655">
				<ele>22.93</ele>
			</trkpt>
			<trkpt lat="52.92635" lon="6.60022">
				<ele>24.85</ele>
			</trkpt>
			<trkpt lat="52.92626" lon="6.60277">
				<ele>24.85</ele>
			</trkpt>
			<trkpt lat="52.92596" lon="6.60468">
				<ele>24.85</ele>
			</trkpt>
			<trkpt lat="52.9245" lon="6.60953">
				<ele>23.37</ele>
			</trkpt>
			<trkpt lat="52.92408" lon="6.61226">
				<ele>23.37</ele>
			</trkpt>
			<trkpt lat="52.92389" lon="6.61253">
				<ele>25.59</ele>
			</trkpt>
			<trkpt lat="52.92361" lon="6.61251">
				<ele>25.59</ele>
			</trkpt>
			<trkpt lat="52.92361" lon="6.61251">
				<ele>25.59</ele>
			</trkpt>
			<trkpt lat="52.922" lon="6.61223">
				<ele>27.37</ele>
			</trkpt>
			<trkpt lat="52.92185" lon="6.61215">
				<ele>27.37</ele>
			</trkpt>
			<trkpt lat="52.92176" lon="6.61203">
				<ele>26.63</ele>
			</trkpt>
			<trkpt lat="52.9214" lon="6.61095">
				<ele>26.63</ele>
			</trkpt>
			<trkpt lat="52.9209" lon="6.61021">
				<ele>26.63</ele>
			</trkpt>
			<trkpt lat="52.92081" lon="6.61014">
				<ele>23.44</ele>
			</trkpt>
			<trkpt lat="52.92016" lon="6.61005">
				<ele>23.44</ele>
			</trkpt>
			<trkpt lat="52.9201" lon="6.61006">
				<ele>26.32</ele>
			</trkpt>
			<trkpt lat="52.92007" lon="6.61024">
				<ele>26.32</ele>
			</trkpt>
			<trkpt lat="52.92007" lon="6.61024">
				<ele>17.96</ele>
			</trkpt>
			<trkpt lat="52.92003" lon="6.61057">
				<ele>17.96</ele>
			</trkpt>
			<trkpt lat="52.91973" lon="6.61162">
				<ele>17.96</ele>
			</trkpt>
			<trkpt lat="52.9194" lon="6.6127">
				<ele>20.84</ele>
			</trkpt>
			<trkpt lat="52.91921" lon="6.6132">
				<ele>20.84</ele>
			</trkpt>
			<trkpt lat="52.91827" lon="6.61505">
				<ele>24.01</ele>
			</trkpt>
			<trkpt lat="52.91824" lon="6.615">
				<ele>24.01</ele>
			</trkpt>
			<trkpt lat="52.9182" lon="6.61504">
				<ele>24.01</ele>
			</trkpt>
			<trkpt lat="52.91714" lon="6.61698">
				<ele>25.94</ele>
			</trkpt>
			<trkpt lat="52.91705" lon="6.61708">
				<ele>25.94</ele>
			</trkpt>
			<trkpt lat="52.91692" lon="6.61714">
				<ele>31.17</ele>
			</trkpt>
			<trkpt lat="52.91685" lon="6.61744">
				<ele>31.17</ele>
			</trkpt>
			<trkpt lat="52.91685" lon="6.61744">
				<ele>31.17</ele>
			</trkpt>
			<trkpt lat="52.91673" lon="6.61777">
				<ele>18.45</ele>
			</trkpt>
			<trkpt lat="52.91371" lon="6.62356">
				<ele>18.45</ele>
			</trkpt>
			<trkpt lat="52.91365" lon="6.62372">
				<ele>28.78</ele>
			</trkpt>
			<trkpt lat="52.91369" lon="6.62386">
				<ele>28.78</ele>
			</trkpt>
			<trkpt lat="52.91289" lon="6.62537">
				<ele>28.78</ele>
			</trkpt>
			<trkpt lat="52.91283" lon="6.62591">
				<ele>23.6</ele>
			</trkpt>
			<trkpt lat="52.91249" lon="6.63267">
				<ele>23.6</ele>
			</trkpt>
			<trkpt lat="52.91249" lon="6.63267">
				<ele>26.17</ele>
			</trkpt>
			<trkpt lat="52.91245" lon="6.63335">
				<ele>26.17</ele>
			</trkpt>
			<trkpt lat="52.91235" lon="6.63335">
				<ele>26.17</ele>
			</trkpt>
			<trkpt lat="52.9119" lon="6.6417">
				<ele>31.46</ele>
			</trkpt>
			<trkpt lat="52.90935" lon="6.66653">
				<ele>31.46</ele>
			</trkpt>
			<trkpt lat="52.90935" lon="6.66653">
				<ele>24.48</ele>
			</trkpt>
			<trkpt lat="52.90918" lon="6.66701">
				<ele>24.48</ele>
			</trkpt>
			<trkpt lat="52.90866" lon="6.66799">
				<ele>24.48</ele>
			</trkpt>
			<trkpt lat="52.90871" lon="6.66811">
				<ele>26.84</ele>
			</trkpt>
			<trkpt lat="52.91495" lon="6.67965">
				<ele>26.84</ele>
			</trkpt>
			<trkpt lat="52.91495" lon="6.67965">
				<ele>20.1</ele>
			</trkpt>
			<trkpt lat="52.91676" lon="6.68065">
				<ele>20.1</ele>
			</trkpt>
			<trkpt lat="52.91821" lon="6.68438">
				<ele>20.1</ele>
			</trkpt>
			<trkpt lat="52.92019" lon="6.68895">
				<ele>19.59</ele>
			</trkpt>
			<trkpt lat="52.91989" lon="6.68925">
				<ele>19.59</ele>
			</trkpt>
			<trkpt lat="52.92081" lon="6.69457">
				<ele>22.35</ele>
			</trkpt>
			<trkpt lat="52.9225" lon="6.70198">
				<ele>22.35</ele>
			</trkpt>
			<trkpt lat="52.92495" lon="6.70771">
				<ele>22.35</ele>
			</trkpt>
			<trkpt lat="52.92495" lon="6.70771">
				<ele>20.83</ele>
			</trkpt>
			<trkpt lat="52.9246" lon="6.71689">
				<ele>20.83</ele>
			</trkpt>
			<trkpt lat="52.92908" lon="6.71763">
				<ele>25.45</ele>
			</trkpt>
			<trkpt lat="52.93096" lon="6.71754">
				<ele>25.45</ele>
			</trkpt>
			<trkpt lat="52.93136" lon="6.72478">
				<ele>16.56</ele>
			</trkpt>
			<trkpt lat="52.93229" lon="6.73599">
				<ele>16.56</ele>
			</trkpt>
			<trkpt lat="52.93129" lon="6.73618">
				<ele>16.56</ele>
			</trkpt>
			<trkpt lat="52.9312" lon="6.73632">
				<ele>24.22</ele>
			</trkpt>
			<trkpt lat="52.93162" lon="6.73683">
				<ele>24.22</ele>
			</trkpt>
			<trkpt lat="52.93176" lon="6.73816">
				<ele>31.94</ele>
			</trkpt>
			<trkpt lat="52.93192" lon="6.73872">
				<ele>31.94</ele>
			</trkpt>
			<trkpt lat="52.93223" lon="6.73903">
				<ele>31.94</ele>
			</trkpt>
			<trkpt lat="52.93296" lon="6.73902">
				<ele>26.55</ele>
			</trkpt>
			<trkpt lat="52.93336" lon="6.74867">
				<ele>26.55</ele>
			</trkpt>
			<trkpt lat="52.93404" lon="6.74905">
				<ele>21.42</ele>
			</trkpt>
			<trkpt lat="52.93346" lon="6.7508">
				<ele>21.42</ele>
			</trkpt>
			<trkpt lat="52.93358" lon="6.75105">
				<ele>21.42</ele>
			</trkpt>
			<trkpt lat="52.93358" lon="6.75105">
				<ele>19.5</ele>
			</trkpt>
			<trkpt lat="52.93541" lon="6.75277">
				<ele>19.5</ele>
			</trkpt>
			<trkpt lat="52.94033" lon="6.75224">
				<ele>17.74</ele>
			</trkpt>
			<trkpt lat="52.94253" lon="6.75113">
				<ele>17.74</ele>
			</trkpt>
			<trkpt lat="52.94427" lon="6.74962">
				<ele>17.74</ele>
			</trkpt>
			<trkpt lat="52.94419" lon="6.74944">
				<ele>21.39</ele>
			</trkpt>
			<trkpt lat="52.94484" lon="6.74876">
				<ele>21.39</ele>
			</trkpt>
			<trkpt lat="52.94617" lon="6.74821">
				<ele>21.73</ele>
			</trkpt>
			<trkpt lat="52.94733" lon="6.74637">
				<ele>21.73</ele>
			</trkpt>
			<trkpt lat="52.94813" lon="6.74574">
				<ele>21.73</ele>
			</trkpt>
			<trkpt lat="52.9522" lon="6.74466">
				<ele>25.93</ele>
			</trkpt>
			<trkpt lat="52.95603" lon="6.7442">
				<ele>25.93</ele>
			</trkpt>
			<trkpt lat="52.95838" lon="6.74336">
				<ele>25.78</ele>
			</trkpt>
			<trkpt lat="52.95838" lon="6.74336">
				<ele>25.78</ele>
			</trkpt>
			<trkpt lat="52.95949" lon="6.74294">
				<ele>25.78</ele>
			</trkpt>
			<trkpt lat="52.9577" lon="6.73111">
				<ele>23.78</ele>
			</trkpt>
			<trkpt lat="52.95757" lon="6.72977">
				<ele>23.78</ele>
			</trkpt>
			<trkpt lat="52.9574" lon="6.72889">
				<ele>24.83</ele>
			</trkpt>
			<trkpt lat="52.9574" lon="6.72889">
				<ele>24.83</ele>
			</trkpt>
			<trkpt lat="52.95731" lon="6.72836">
				<ele>24.83</ele>
			</trkpt>
			<trkpt lat="52.97344" lon="6.72227">
				<ele>26.31</ele>
			</trkpt>
			<trkpt lat="52.97344" lon="6.72227">
				<ele>26.31</ele>
			</trkpt>
			<trkpt lat="52.97452" lon="6.72184">
				<ele>27.35</ele>
			</trkpt>
			<trkpt lat="52.97861" lon="6.71494">
				<ele>27.35</ele>
			</trkpt>
			<trkpt lat="52.97904" lon="6.71439">
				<ele>27.35</ele>
			</trkpt>
			<trkpt lat="52.97943" lon="6.70956">
				<ele>26.57</ele>
			</trkpt>
			<trkpt lat="52.97979" lon="6.70878">
				<ele>26.57</ele>
			</trkpt>
			<trkpt lat="52.98032" lon="6.70703">
				<ele>28.73</ele>
			</trkpt>
			<trkpt lat="52.98147" lon="6.70518">
				<ele>28.73</ele>
			</trkpt>
			<trkpt lat="52.98102" lon="6.70277">
				<ele>28.73</ele>
			</trkpt>
			<trkpt lat="52.98092" lon="6.69977">
				<ele>24.13</ele>
			</trkpt>
			<trkpt lat="52.98111" lon="6.69863">
				<ele>24.13</ele>
			</trkpt>
			<trkpt lat="52.98165" lon="6.69662">
				<ele>24.66</ele>
			</trkpt>
			<trkpt lat="52.98212" lon="6.69142">
				<ele>24.66</ele>
			</trkpt>
			<trkpt lat="52.98472" lon="6.68876">
				<ele>22.99</ele>
			</trkpt>
			<trkpt lat="52.98645" lon="6.68794">
				<ele>22.99</ele>
			</trkpt>
			<trkpt lat="52.98645" lon="6.68794">
				<ele>22.99</ele>
			</trkpt>
			<trkpt lat="52.98737" lon="6.68719">
				<ele>16.33</ele>
			</trkpt>
			<trkpt lat="52.98769" lon="6.6872">
				<ele>16.33</ele>
			</trkpt>
			<trkpt lat="52.98933" lon="6.68924">
				<ele>17.55</ele>
			</trkpt>
			<trkpt lat="52.99028" lon="6.6902">
				<ele>17.55</ele>
			</trkpt>
			<trkpt lat="52.99076" lon="6.691">
				<ele>17.55</ele>
			</trkpt>
			<trkpt lat="52.99014" lon="6.68701">
				<ele>21.37</ele>
			</trkpt>
			<trkpt lat="52.9962" lon="6.68666">
				<ele>21.37</ele>
			</trkpt>
			<trkpt lat="52.99906" lon="6.68564">
				<ele>17.26</ele>
			</trkpt>
			<trkpt lat="52.99886" lon="6.68397">
				<ele>17.26</ele>
			</trkpt>
			<trkpt lat="52.99863" lon="6.67994">
				<ele>17.26</ele>
			</trkpt>
			<trkpt lat="52.99872" lon="6.67977">
				<ele>21.92</ele>
			</trkpt>
			<trkpt lat="52.99872" lon="6.67977">
				<ele>21.92</ele>
			</trkpt>
			<trkpt lat="53.00042" lon="6.67904">
				<ele>25.67</ele>
			</trkpt>
			<trkpt lat="53.00095" lon="6.67888">
				<ele>25.67</ele>
			</trkpt>
			<trkpt lat="53.00111" lon="6.67877">
				<ele>25.67</ele>
			</trkpt>
			<trkpt lat="53.00252" lon="6.67814">
				<ele>18.35</ele>
			</trkpt>
			<trkpt lat="53.00252" lon="6.67814">
				<ele>18.35</ele>
			</trkpt>
			<trkpt lat="53.00276" lon="6.67805">
				<ele>11.36</ele>
			</trkpt>
			<trkpt lat="53.00359" lon="6.6776">
				<ele>11.36</ele>
			</trkpt>
			<trkpt lat="53.00368" lon="6.67748">
				<ele>11.36</ele>
			</trkpt>
			<trkpt lat="53.00371" lon="6.67732">
				<ele>12.62</ele>
			</trkpt>
			<trkpt lat="53.00413" lon="6.67354">
				<ele>12.62</ele>
			</trkpt>
			<trkpt lat="53.0041" lon="6.67335">
				<ele>19.38</ele>
			</trkpt>
			<trkpt lat="53.00386" lon="6.67332">
				<ele>19.38</ele>
			</trkpt>
			<trkpt lat="53.00386" lon="6.67332">
				<ele>19.38</ele>
			</trkpt>
			<trkpt lat="52.99963" lon="6.67431">
				<ele>12.51</ele>
			</trkpt>
			<trkpt lat="52.99643" lon="6.67563">
				<ele>12.51</ele>
			</trkpt>
			<trkpt lat="52.99643" lon="6.67563">
				<ele>12</ele>
			</trkpt>
			<trkpt lat="52.99539" lon="6.67588">
				<ele>12</ele>
			</trkpt>
			<trkpt lat="52.99502" lon="6.67469">
				<ele>12</ele>
			</trkpt>
			<trkpt lat="52.99501" lon="6.67439">
				<ele>11.05</ele>
			</trkpt>
			<trkpt lat="52.99427" lon="6.67181">
				<ele>11.05</ele>
			</trkpt>
			<trkpt lat="52.99415" lon="6.67114">
				<ele>12.48</ele>
			</trkpt>
			<trkpt lat="52.99417" lon="6.67103">
				<ele>12.48</ele>
			</trkpt>
			<trkpt lat="52.9945" lon="6.67089">
				<ele>12.48</ele>
			</trkpt>
			<trkpt lat="52.99464" lon="6.67068">
				<ele>14.5</ele>
			</trkpt>
			<trkpt lat="52.99465" lon="6.67042">
				<ele>14.5</ele>
			</trkpt>
			<trkpt lat="52.99452" lon="6.6701">
				<ele>12</ele>
			</trkpt>
			<trkpt lat="52.99458" lon="6.66971">
				<ele>12</ele>
			</trkpt>
			<trkpt lat="52.99316" lon="6.66188">
				<ele>12</ele>
			</trkpt>
			<trkpt lat="52.99484" lon="6.66172">
				<ele>12</ele>
			</trkpt>
			<trkpt lat="52.99518" lon="6.6616">
				<ele>12</ele>
			</trkpt>
			<trkpt lat="53.00048" lon="6.65727">
				<ele>10.08</ele>
			</trkpt>
			<trkpt lat="53.00048" lon="6.65727">
				<ele>10.08</ele>
			</trkpt>
			<trkpt lat="53.00042" lon="6.65731">
				<ele>11.03</ele>
			</trkpt>
			<trkpt lat="53.00118" lon="6.65679">
				<ele>11.03</ele>
			</trkpt>
			<trkpt lat="53.00146" lon="6.65631">
				<ele>11.03</ele>
			</trkpt>
			<trkpt lat="53.002" lon="6.65586">
				<ele>12</ele>
			</trkpt>
			<trkpt lat="53.00218" lon="6.65557">
				<ele>12</ele>
			</trkpt>
			<trkpt lat="53.00264" lon="6.65432">
				<ele>8.91</ele>
			</trkpt>
			<trkpt lat="53.00273" lon="6.65168">
				<ele>8.91</ele>
			</trkpt>
			<trkpt lat="53.00275" lon="6.64886">
				<ele>8.91</ele>
			</trkpt>
			<trkpt lat="53.0027" lon="6.64802">
				<ele>8.09</ele>
			</trkpt>
			<trkpt lat="53.00251" lon="6.64642">
				<ele>8.09</ele>
			</trkpt>
			<trkpt lat="53.00248" lon="6.64577">
				<ele>8.6</ele>
			</trkpt>
			<trkpt lat="53.00253" lon="6.64527">
				<ele>8.6</ele>
			</trkpt>
			<trkpt lat="53.00282" lon="6.64441">
				<ele>8.6</ele>
			</trkpt>
			<trkpt lat="53.00287" lon="6.64406">
				<ele>8</ele>
			</trkpt>
			<trkpt lat="53.00275" lon="6.64331">
				<ele>8</ele>
			</trkpt>
			<trkpt lat="53.00233" lon="6.64243">
				<ele>7.44</ele>
			</trkpt>
			<trkpt lat="53.00235" lon="6.64233">
				<ele>7.44</ele>
			</trkpt>
			<trkpt lat="53.00235" lon="6.64233">
				<ele>7.44</ele>
			</trkpt>
			<trkpt lat="53.004" lon="6.64257">
				<ele>12.24</ele>
			</trkpt>
			<trkpt lat="53.00467" lon="6.64383">
				<ele>12.24</ele>
			</trkpt>
			<trkpt lat="53.00492" lon="6.64386">
				<ele>11.5</ele>
			</trkpt>
			<trkpt lat="53.00706" lon="6.64217">
				<ele>11.5</ele>
			</trkpt>
			<trkpt lat="53.00778" lon="6.64217">
				<ele>11.5</ele>
			</trkpt>
			<trkpt lat="53.00852" lon="6.6403">
				<ele>12.84</ele>
			</trkpt>
			<trkpt lat="53.0095" lon="6.63928">
				<ele>12.84</ele>
			</trkpt>
			<trkpt lat="53.01055" lon="6.6389">
				<ele>10.83</ele>
			</trkpt>
			<trkpt lat="53.01147" lon="6.639">
				<ele>10.83</ele>
			</trkpt>
			<trkpt lat="53.01392" lon="6.64069">
				<ele>10.83</ele>
			</trkpt>
			<trkpt lat="53.01631" lon="6.64043">
				<ele>13.08</ele>
			</trkpt>
			<trkpt lat="53.01821" lon="6.6407">
				<ele>13.08</ele>
			</trkpt>
			<trkpt lat="53.01968" lon="6.64193">
				<ele>12.5</ele>
			</trkpt>
			<trkpt lat="53.02116" lon="6.6423">
				<ele>12.5</ele>
			</trkpt>
			<trkpt lat="53.02198" lon="6.6419">
				<ele>12.5</ele>
			</trkpt>
			<trkpt lat="53.02349" lon="6.6391">
				<ele>13.45</ele>
			</trkpt>
			<trkpt lat="53.02349" lon="6.6391">
				<ele>13.45</ele>
			</trkpt>
			<trkpt lat="53.02399" lon="6.639">
				<ele>13.67</ele>
			</trkpt>
			<trkpt lat="53.02289" lon="6.63354">
				<ele>13.67</ele>
			</trkpt>
			<trkpt lat="53.02058" lon="6.63327">
				<ele>13.67</ele>
			</trkpt>
			<trkpt lat="53.02007" lon="6.63289">
				<ele>9.2</ele>
			</trkpt>
			<trkpt lat="53.01686" lon="6.63282">
				<ele>9.2</ele>
			</trkpt>
			<trkpt lat="53.01319" lon="6.63442">
				<ele>9.47</ele>
			</trkpt>
			<trkpt lat="53.00964" lon="6.63458">
				<ele>9.47</ele>
			</trkpt>
			<trkpt lat="53.009" lon="6.63376">
				<ele>9.1</ele>
			</trkpt>
			<trkpt lat="53.00708" lon="6.63415">
				<ele>9.1</ele>
			</trkpt>
			<trkpt lat="53.00673" lon="6.63385">
				<ele>9.1</ele>
			</trkpt>
			<trkpt lat="53.00673" lon="6.63385">
				<ele>10</ele>
			</trkpt>
			<trkpt lat="53.00607" lon="6.63334">
				<ele>10</ele>
			</trkpt>
			<trkpt lat="53.00055" lon="6.63485">
				<ele>7.95</ele>
			</trkpt>
			<trkpt lat="53.00054" lon="6.6346">
				<ele>7.95</ele>
			</trkpt>
			<trkpt lat="52.99981" lon="6.63434">
				<ele>7.95</ele>
			</trkpt>
			<trkpt lat="52.99744" lon="6.63397">
				<ele>9.03</ele>
			</trkpt>
			<trkpt lat="52.99635" lon="6.63235">
				<ele>9.03</ele>
			</trkpt>
			<trkpt lat="52.99515" lon="6.6295">
				<ele>10.14</ele>
			</trkpt>
			<trkpt lat="52.99412" lon="6.62848">
				<ele>10.14</ele>
			</trkpt>
			<trkpt lat="52.99331" lon="6.62836">
				<ele>10.14</ele>
			</trkpt>
			<trkpt lat="52.99293" lon="6.6265">
				<ele>6.97</ele>
			</trkpt>
			<trkpt lat="52.99021" lon="6.62186">
				<ele>6.97</ele>
			</trkpt>
			<trkpt lat="52.99048" lon="6.61606">
				<ele>8.39</ele>
			</trkpt>
			<trkpt lat="52.98899" lon="6.61001">
				<ele>8.39</ele>
			</trkpt>
			<trkpt lat="52.98948" lon="6.60535">
				<ele>8.39</ele>
			</trkpt>
			<trkpt lat="52.98948" lon="6.60535">
				<ele>7.97</ele>
			</trkpt>
			<trkpt lat="52.98952" lon="6.60536">
				<ele>7.97</ele>
			</trkpt>
			<trkpt lat="52.99001" lon="6.59984">
				<ele>10.22</ele>
			</trkpt>
			<trkpt lat="52.99001" lon="6.59984">
				<ele>10.22</ele>
			</trkpt>
			<trkpt lat="52.98615" lon="6.59909">
				<ele>10.22</ele>
			</trkpt>
			<trkpt lat="52.98553" lon="6.59836">
				<ele>9.58</ele>
			</trkpt>
			<trkpt lat="52.98504" lon="6.59756">
				<ele>9.58</ele>
			</trkpt>
			<trkpt lat="52.9848" lon="6.59655">
				<ele>13</ele>
			</trkpt>
			<trkpt lat="52.9843" lon="6.59549">
				<ele>13</ele>
			</trkpt>
			<trkpt lat="52.98369" lon="6.59099">
				<ele>13</ele>
			</trkpt>
			<trkpt lat="52.98369" lon="6.59099">
				<ele>15</ele>
			</trkpt>
			<trkpt lat="52.98032" lon="6.59087">
				<ele>15</ele>
			</trkpt>
			<trkpt lat="52.97827" lon="6.58983">
				<ele>15.08</ele>
			</trkpt>
			<trkpt lat="52.97782" lon="6.58881">
				<ele>15.08</ele>
			</trkpt>
			<trkpt lat="52.97731" lon="6.58805">
				<ele>15.08</ele>
			</trkpt>
			<trkpt lat="52.97686" lon="6.58668">
				<ele>13.3</ele>
			</trkpt>
			<trkpt lat="52.97646" lon="6.58577">
				<ele>13.3</ele>
			</trkpt>
			<trkpt lat="52.97633" lon="6.58505">
				<ele>21.52</ele>
			</trkpt>
			<trkpt lat="52.97637" lon="6.58334">
				<ele>21.52</ele>
			</trkpt>
			<trkpt lat="52.97637" lon="6.58334">
				<ele>21.52</ele>
			</trkpt>
			<trkpt lat="52.97796" lon="6.58301">
				<ele>14.1</ele>
			</trkpt>
			<trkpt lat="52.97803" lon="6.58293">
				<ele>14.1</ele>
			</trkpt>
			<trkpt lat="52.97807" lon="6.58266">
				<ele>10.72</ele>
			</trkpt>
			<trkpt lat="52.97833" lon="6.58237">
				<ele>10.72</ele>
			</trkpt>
			<trkpt lat="52.97944" lon="6.58225">
				<ele>10.72</ele>
			</trkpt>
			<trkpt lat="52.97962" lon="6.5815">
				<ele>8.91</ele>
			</trkpt>
			<trkpt lat="52.98088" lon="6.58153">
				<ele>8.91</ele>
			</trkpt>
			<trkpt lat="52.98098" lon="6.58091">
				<ele>10.06</ele>
			</trkpt>
			<trkpt lat="52.98103" lon="6.58087">
				<ele>10.06</ele>
			</trkpt>
			<trkpt lat="52.98148" lon="6.58086">
				<ele>9</ele>
			</trkpt>
			<trkpt lat="52.98197" lon="6.58045">
				<ele>9</ele>
			</trkpt>
			<trkpt lat="52.98267" lon="6.58039">
				<ele>9</ele>
			</trkpt>
			<trkpt lat="52.98267" lon="6.58039">
				<ele>9.92</ele>
			</trkpt>
			<trkpt lat="52.98277" lon="6.58038">
				<ele>9.92</ele>
			</trkpt>
			<trkpt lat="52.98284" lon="6.57996">
				<ele>9.11</ele>
			</trkpt>
			<trkpt lat="52.98598" lon="6.57125">
				<ele>9.11</ele>
			</trkpt>
			<trkpt lat="52.98624" lon="6.5709">
				<ele>9.11</ele>
			</trkpt>
			<trkpt lat="52.98613" lon="6.57065">
				<ele>8.48</ele>
			</trkpt>
			<trkpt lat="52.98617" lon="6.56985">
				<ele>8.48</ele>
			</trkpt>
			<trkpt lat="52.98624" lon="6.56932">
				<ele>7.17</ele>
			</trkpt>
			<trkpt lat="52.98645" lon="6.56845">
				<ele>7.17</ele>
			</trkpt>
			<trkpt lat="52.98618" lon="6.56845">
				<ele>7.17</ele>
			</trkpt>
			<trkpt lat="52.98627" lon="6.56773">
				<ele>8.03</ele>
			</trkpt>
			<trkpt lat="52.98608" lon="6.5676">
				<ele>8.03</ele>
			</trkpt>
			<trkpt lat="52.98577" lon="6.56755">
				<ele>7.19</ele>
			</trkpt>
			<trkpt lat="52.98546" lon="6.56754">
				<ele>7.19</ele>
			</trkpt>
			<trkpt lat="52.98519" lon="6.56766">
				<ele>7.19</ele>
			</trkpt>
			<trkpt lat="52.98436" lon="6.56737">
				<ele>9.73</ele>
			</trkpt>
			<trkpt lat="52.98438" lon="6.56712">
				<ele>9.73</ele>
			</trkpt>
			<trkpt lat="52.98438" lon="6.56712">
				<ele>10</ele>
			</trkpt>
			<trkpt lat="52.9849" lon="6.56213">
				<ele>10</ele>
			</trkpt>
			<trkpt lat="52.9849" lon="6.56213">
				<ele>10</ele>
			</trkpt>
			<trkpt lat="52.9849" lon="6.5621">
				<ele>11.99</ele>
			</trkpt>
			<trkpt lat="52.98304" lon="6.5616">
				<ele>11.99</ele>
			</trkpt>
			<trkpt lat="52.98287" lon="6.56152">
				<ele>12.23</ele>
			</trkpt>
			<trkpt lat="52.98247" lon="6.5612">
				<ele>12.23</ele>
			</trkpt>
			<trkpt lat="52.98254" lon="6.56086">
				<ele>12.23</ele>
			</trkpt>
			<trkpt lat="52.9825" lon="6.55262">
				<ele>12.73</ele>
			</trkpt>
			<trkpt lat="52.9825" lon="6.55262">
				<ele>12.73</ele>
			</trkpt>
			<trkpt lat="52.9825" lon="6.55256">
				<ele>18.68</ele>
			</trkpt>
			<trkpt lat="52.98224" lon="6.55241">
				<ele>18.68</ele>
			</trkpt>
			<trkpt lat="52.9799" lon="6.55116">
				<ele>18.68</ele>
			</trkpt>
			<trkpt lat="52.9799" lon="6.55116">
				<ele>18.86</ele>
			</trkpt>
			<trkpt lat="52.97973" lon="6.55109">
				<ele>18.86</ele>
			</trkpt>
			<trkpt lat="52.98052" lon="6.55928">
				<ele>17.92</ele>
			</trkpt>
			<trkpt lat="52.98041" lon="6.55956">
				<ele>17.92</ele>
			</trkpt>
			<trkpt lat="52.98001" lon="6.55922">
				<ele>17.92</ele>
			</trkpt>
			<trkpt lat="52.97989" lon="6.55962">
				<ele>18.5</ele>
			</trkpt>
			<trkpt lat="52.97976" lon="6.55972">
				<ele>18.5</ele>
			</trkpt>
			<trkpt lat="52.97966" lon="6.56002">
				<ele>10.89</ele>
			</trkpt>
			<trkpt lat="52.97923" lon="6.55969">
				<ele>10.89</ele>
			</trkpt>
		</trkseg>
	</trk>
</gpx>