<?xml version="1.0" encoding="UTF-8" standalone="no" ?>
<gpx xmlns="http://www.topografix.com/GPX/1/1"
		xmlns:gpxx="http://www.garmin.com/xmlschemas/GpxExtensions/v3"
		xmlns:gpxtpx="http://www.garmin.com/xmlschemas/TrackPointExtension/v1"
		xmlns:xsi="http://www.w3.org/2001/XMLSchema-instance"
		xsi:schemaLocation="http://www.topografix.com/GPX/1/1 http://www.topografix.com/GPX/1/1/gpx.xsd http://www.garmin.com/xmlschemas/GpxExtensions/v3 http://www.garmin.com/xmlschemas/GpxExtensionsv3.xsd http://www.garmin.com/xmlschemas/TrackPointExtension/v1 http://www.garmin.com/xmlschemas/TrackPointExtensionv1.xsd"
		creator="Gravelmap.com"
		version="1.1">

	<metadata>
		<name><![CDATA[Gravel Route: Gravelride Assen]]></name>
		<desc><![CDATA[]]></desc>
		<link href="http://www.gravelmap.com/route/87116">
			<text><![CDATA[Gravel Route: Gravelride Assen]]></text>
		</link>
		<time>2020-08-15T05:41:22-04:00</time>
	</metadata>

	<trk>
		<name><![CDATA[Gravel Route: Gravelride Assen]]></name>
		<desc><![CDATA[]]></desc>
		<link href="http://www.gravelmap.com/route/87116">
			<text><![CDATA[Gravel Route: Gravelride Assen]]></text>
		</link>
		<trkseg>
			<trkpt lat="52.97924" lon="6.55971">
				<ele>10.64</ele>
			</trkpt>
			<trkpt lat="52.97924" lon="6.5597">
				<ele>10.64</ele>
			</trkpt>
			<trkpt lat="52.97982" lon="6.56016">
				<ele>10.64</ele>
			</trkpt>
			<trkpt lat="52.98001" lon="6.55922">
				<ele>15.09</ele>
			</trkpt>
			<trkpt lat="52.98041" lon="6.55956">
				<ele>15.09</ele>
			</trkpt>
			<trkpt lat="52.98052" lon="6.55928">
				<ele>12.36</ele>
			</trkpt>
			<trkpt lat="52.97973" lon="6.55109">
				<ele>12.36</ele>
			</trkpt>
			<trkpt lat="52.97859" lon="6.55072">
				<ele>11.22</ele>
			</trkpt>
			<trkpt lat="52.97798" lon="6.54967">
				<ele>11.22</ele>
			</trkpt>
			<trkpt lat="52.97816" lon="6.54918">
				<ele>13.59</ele>
			</trkpt>
			<trkpt lat="52.97816" lon="6.54918">
				<ele>13.59</ele>
			</trkpt>
			<trkpt lat="52.97823" lon="6.54924">
				<ele>13.59</ele>
			</trkpt>
			<trkpt lat="52.97829" lon="6.54922">
				<ele>11</ele>
			</trkpt>
			<trkpt lat="52.97874" lon="6.54881">
				<ele>11</ele>
			</trkpt>
			<trkpt lat="52.97905" lon="6.54885">
				<ele>10.11</ele>
			</trkpt>
			<trkpt lat="52.97917" lon="6.54876">
				<ele>10.11</ele>
			</trkpt>
			<trkpt lat="52.97932" lon="6.54821">
				<ele>13.11</ele>
			</trkpt>
			<trkpt lat="52.97952" lon="6.54762">
				<ele>13.11</ele>
			</trkpt>
			<trkpt lat="52.97962" lon="6.54721">
				<ele>11.14</ele>
			</trkpt>
			<trkpt lat="52.97976" lon="6.5464">
				<ele>11.14</ele>
			</trkpt>
			<trkpt lat="52.97977" lon="6.54565">
				<ele>11.14</ele>
			</trkpt>
			<trkpt lat="52.97981" lon="6.54553">
				<ele>12</ele>
			</trkpt>
			<trkpt lat="52.97981" lon="6.54553">
				<ele>12</ele>
			</trkpt>
			<trkpt lat="52.97989" lon="6.545">
				<ele>10.72</ele>
			</trkpt>
			<trkpt lat="52.98025" lon="6.54458">
				<ele>10.72</ele>
			</trkpt>
			<trkpt lat="52.98037" lon="6.54413">
				<ele>13.37</ele>
			</trkpt>
			<trkpt lat="52.97943" lon="6.54308">
				<ele>13.37</ele>
			</trkpt>
			<trkpt lat="52.97918" lon="6.5422">
				<ele>13.42</ele>
			</trkpt>
			<trkpt lat="52.97996" lon="6.54116">
				<ele>13.42</ele>
			</trkpt>
			<trkpt lat="52.98063" lon="6.53878">
				<ele>13.42</ele>
			</trkpt>
			<trkpt lat="52.98214" lon="6.53808">
				<ele>14.01</ele>
			</trkpt>
			<trkpt lat="52.98239" lon="6.53674">
				<ele>14.01</ele>
			</trkpt>
			<trkpt lat="52.98264" lon="6.53625">
				<ele>14.03</ele>
			</trkpt>
			<trkpt lat="52.98264" lon="6.53591">
				<ele>14.03</ele>
			</trkpt>
			<trkpt lat="52.98311" lon="6.53588">
				<ele>14.19</ele>
			</trkpt>
			<trkpt lat="52.98333" lon="6.53558">
				<ele>14.19</ele>
			</trkpt>
			<trkpt lat="52.98295" lon="6.53432">
				<ele>15.37</ele>
			</trkpt>
			<trkpt lat="52.983" lon="6.53314">
				<ele>15.37</ele>
			</trkpt>
			<trkpt lat="52.98312" lon="6.53266">
				<ele>16.83</ele>
			</trkpt>
			<trkpt lat="52.98304" lon="6.53226">
				<ele>16.83</ele>
			</trkpt>
			<trkpt lat="52.98307" lon="6.53115">
				<ele>16.83</ele>
			</trkpt>
			<trkpt lat="52.98276" lon="6.52954">
				<ele>13.04</ele>
			</trkpt>
			<trkpt lat="52.98286" lon="6.52814">
				<ele>13.04</ele>
			</trkpt>
			<trkpt lat="52.98239" lon="6.5259">
				<ele>14.41</ele>
			</trkpt>
			<trkpt lat="52.9832" lon="6.5251">
				<ele>14.41</ele>
			</trkpt>
			<trkpt lat="52.98414" lon="6.52472">
				<ele>14.63</ele>
			</trkpt>
			<trkpt lat="52.98448" lon="6.52407">
				<ele>14.63</ele>
			</trkpt>
			<trkpt lat="52.985" lon="6.5242">
				<ele>11.25</ele>
			</trkpt>
			<trkpt lat="52.98501" lon="6.52371">
				<ele>11.25</ele>
			</trkpt>
			<trkpt lat="52.98581" lon="6.52306">
				<ele>11.25</ele>
			</trkpt>
			<trkpt lat="52.98581" lon="6.52306">
				<ele>11.4</ele>
			</trkpt>
			<trkpt lat="52.98591" lon="6.52276">
				<ele>11.4</ele>
			</trkpt>
			<trkpt lat="52.98595" lon="6.52238">
				<ele>13.38</ele>
			</trkpt>
			<trkpt lat="52.98591" lon="6.52202">
				<ele>13.38</ele>
			</trkpt>
			<trkpt lat="52.98575" lon="6.52158">
				<ele>11.19</ele>
			</trkpt>
			<trkpt lat="52.98574" lon="6.52146">
				<ele>11.19</ele>
			</trkpt>
			<trkpt lat="52.98578" lon="6.52114">
				<ele>12</ele>
			</trkpt>
			<trkpt lat="52.98578" lon="6.521">
				<ele>12</ele>
			</trkpt>
			<trkpt lat="52.98553" lon="6.52066">
				<ele>12</ele>
			</trkpt>
			<trkpt lat="52.98539" lon="6.52027">
				<ele>11.96</ele>
			</trkpt>
			<trkpt lat="52.98535" lon="6.51986">
				<ele>11.96</ele>
			</trkpt>
			<trkpt lat="52.9854" lon="6.51906">
				<ele>10.17</ele>
			</trkpt>
			<trkpt lat="52.98536" lon="6.51862">
				<ele>10.17</ele>
			</trkpt>
			<trkpt lat="52.98531" lon="6.51837">
				<ele>10.51</ele>
			</trkpt>
			<trkpt lat="52.98492" lon="6.51746">
				<ele>10.51</ele>
			</trkpt>
			<trkpt lat="52.98486" lon="6.51719">
				<ele>11.8</ele>
			</trkpt>
			<trkpt lat="52.98486" lon="6.51706">
				<ele>11.8</ele>
			</trkpt>
			<trkpt lat="52.98489" lon="6.51694">
				<ele>11.8</ele>
			</trkpt>
			<trkpt lat="52.98503" lon="6.51668">
				<ele>11.08</ele>
			</trkpt>
			<trkpt lat="52.9851" lon="6.51646">
				<ele>11.08</ele>
			</trkpt>
			<trkpt lat="52.98511" lon="6.51609">
				<ele>11.01</ele>
			</trkpt>
			<trkpt lat="52.98506" lon="6.51563">
				<ele>11.01</ele>
			</trkpt>
			<trkpt lat="52.98507" lon="6.51534">
				<ele>10.12</ele>
			</trkpt>
			<trkpt lat="52.98507" lon="6.51534">
				<ele>10.12</ele>
			</trkpt>
			<trkpt lat="52.98508" lon="6.51527">
				<ele>10.4</ele>
			</trkpt>
			<trkpt lat="52.98493" lon="6.51516">
				<ele>10.4</ele>
			</trkpt>
			<trkpt lat="52.98465" lon="6.51485">
				<ele>10</ele>
			</trkpt>
			<trkpt lat="52.98333" lon="6.51383">
				<ele>10</ele>
			</trkpt>
			<trkpt lat="52.9832" lon="6.51358">
				<ele>10</ele>
			</trkpt>
			<trkpt lat="52.9832" lon="6.51358">
				<ele>10.56</ele>
			</trkpt>
			<trkpt lat="52.98343" lon="6.51265">
				<ele>10.56</ele>
			</trkpt>
			<trkpt lat="52.98358" lon="6.51237">
				<ele>11.32</ele>
			</trkpt>
			<trkpt lat="52.98374" lon="6.5122">
				<ele>11.32</ele>
			</trkpt>
			<trkpt lat="52.98446" lon="6.51176">
				<ele>18.94</ele>
			</trkpt>
			<trkpt lat="52.98486" lon="6.51119">
				<ele>18.94</ele>
			</trkpt>
			<trkpt lat="52.98715" lon="6.51028">
				<ele>11.42</ele>
			</trkpt>
			<trkpt lat="52.9873" lon="6.51032">
				<ele>11.42</ele>
			</trkpt>
			<trkpt lat="52.98772" lon="6.51075">
				<ele>11.42</ele>
			</trkpt>
			<trkpt lat="52.98772" lon="6.51075">
				<ele>11.14</ele>
			</trkpt>
			<trkpt lat="52.98779" lon="6.51075">
				<ele>11.14</ele>
			</trkpt>
			<trkpt lat="52.98784" lon="6.51525">
				<ele>12.63</ele>
			</trkpt>
			<trkpt lat="52.98784" lon="6.51525">
				<ele>12.63</ele>
			</trkpt>
			<trkpt lat="52.98774" lon="6.51652">
				<ele>11.85</ele>
			</trkpt>
			<trkpt lat="52.98745" lon="6.51843">
				<ele>11.85</ele>
			</trkpt>
			<trkpt lat="52.98691" lon="6.52241">
				<ele>11.48</ele>
			</trkpt>
			<trkpt lat="52.98687" lon="6.52256">
				<ele>11.48</ele>
			</trkpt>
			<trkpt lat="52.9868" lon="6.52267">
				<ele>11.48</ele>
			</trkpt>
			<trkpt lat="52.98637" lon="6.52305">
				<ele>14.96</ele>
			</trkpt>
			<trkpt lat="52.98637" lon="6.52305">
				<ele>14.96</ele>
			</trkpt>
			<trkpt lat="52.98638" lon="6.52315">
				<ele>11.94</ele>
			</trkpt>
			<trkpt lat="52.98708" lon="6.52437">
				<ele>11.94</ele>
			</trkpt>
			<trkpt lat="52.98721" lon="6.52436">
				<ele>11.57</ele>
			</trkpt>
			<trkpt lat="52.98772" lon="6.52358">
				<ele>11.57</ele>
			</trkpt>
			<trkpt lat="52.98878" lon="6.52524">
				<ele>11.86</ele>
			</trkpt>
			<trkpt lat="52.98983" lon="6.52454">
				<ele>11.86</ele>
			</trkpt>
			<trkpt lat="52.99022" lon="6.5251">
				<ele>11.86</ele>
			</trkpt>
			<trkpt lat="52.99087" lon="6.52519">
				<ele>11.68</ele>
			</trkpt>
			<trkpt lat="52.99087" lon="6.52519">
				<ele>11.68</ele>
			</trkpt>
			<trkpt lat="52.99104" lon="6.52507">
				<ele>11.3</ele>
			</trkpt>
			<trkpt lat="52.99101" lon="6.52384">
				<ele>11.3</ele>
			</trkpt>
			<trkpt lat="52.99116" lon="6.52347">
				<ele>11.25</ele>
			</trkpt>
			<trkpt lat="52.99166" lon="6.52288">
				<ele>11.25</ele>
			</trkpt>
			<trkpt lat="52.99242" lon="6.52272">
				<ele>11.93</ele>
			</trkpt>
			<trkpt lat="52.99244" lon="6.52234">
				<ele>11.93</ele>
			</trkpt>
			<trkpt lat="52.99262" lon="6.52226">
				<ele>10.6</ele>
			</trkpt>
			<trkpt lat="52.9926" lon="6.52212">
				<ele>10.6</ele>
			</trkpt>
			<trkpt lat="52.9928" lon="6.52196">
				<ele>10.6</ele>
			</trkpt>
			<trkpt lat="52.99281" lon="6.52184">
				<ele>10.92</ele>
			</trkpt>
			<trkpt lat="52.99326" lon="6.52167">
				<ele>10.92</ele>
			</trkpt>
			<trkpt lat="52.99336" lon="6.52151">
				<ele>9.7</ele>
			</trkpt>
			<trkpt lat="52.99441" lon="6.52118">
				<ele>9.7</ele>
			</trkpt>
			<trkpt lat="52.99464" lon="6.52083">
				<ele>8.36</ele>
			</trkpt>
			<trkpt lat="52.99487" lon="6.52075">
				<ele>8.36</ele>
			</trkpt>
			<trkpt lat="52.99517" lon="6.52112">
				<ele>8.33</ele>
			</trkpt>
			<trkpt lat="52.99642" lon="6.52068">
				<ele>8.33</ele>
			</trkpt>
			<trkpt lat="52.99645" lon="6.5209">
				<ele>8.33</ele>
			</trkpt>
			<trkpt lat="52.99645" lon="6.5209">
				<ele>7.77</ele>
			</trkpt>
			<trkpt lat="52.99679" lon="6.52261">
				<ele>7.77</ele>
			</trkpt>
			<trkpt lat="52.99683" lon="6.52341">
				<ele>9.55</ele>
			</trkpt>
			<trkpt lat="52.99806" lon="6.53175">
				<ele>9.55</ele>
			</trkpt>
			<trkpt lat="52.99769" lon="6.5325">
				<ele>8.41</ele>
			</trkpt>
			<trkpt lat="52.99788" lon="6.53282">
				<ele>8.41</ele>
			</trkpt>
			<trkpt lat="53.00082" lon="6.5279">
				<ele>10.19</ele>
			</trkpt>
			<trkpt lat="53.00111" lon="6.5271">
				<ele>10.19</ele>
			</trkpt>
			<trkpt lat="53.00173" lon="6.52606">
				<ele>10.19</ele>
			</trkpt>
			<trkpt lat="53.00191" lon="6.52538">
				<ele>8.07</ele>
			</trkpt>
			<trkpt lat="53.00211" lon="6.52522">
				<ele>8.07</ele>
			</trkpt>
			<trkpt lat="53.00231" lon="6.5254">
				<ele>6.28</ele>
			</trkpt>
			<trkpt lat="53.00252" lon="6.52527">
				<ele>6.28</ele>
			</trkpt>
			<trkpt lat="53.00256" lon="6.52504">
				<ele>6.49</ele>
			</trkpt>
			<trkpt lat="53.00456" lon="6.52186">
				<ele>6.49</ele>
			</trkpt>
			<trkpt lat="53.01081" lon="6.51965">
				<ele>7.31</ele>
			</trkpt>
			<trkpt lat="53.01081" lon="6.51965">
				<ele>7.31</ele>
			</trkpt>
			<trkpt lat="53.01094" lon="6.51966">
				<ele>7.31</ele>
			</trkpt>
			<trkpt lat="53.01176" lon="6.53259">
				<ele>7.01</ele>
			</trkpt>
			<trkpt lat="53.01176" lon="6.53259">
				<ele>7.01</ele>
			</trkpt>
			<trkpt lat="53.01172" lon="6.53202">
				<ele>7.47</ele>
			</trkpt>
			<trkpt lat="53.01566" lon="6.52861">
				<ele>7.47</ele>
			</trkpt>
			<trkpt lat="53.01609" lon="6.52901">
				<ele>14.07</ele>
			</trkpt>
			<trkpt lat="53.01623" lon="6.52888">
				<ele>14.07</ele>
			</trkpt>
			<trkpt lat="53.02706" lon="6.53272">
				<ele>6.65</ele>
			</trkpt>
			<trkpt lat="53.02706" lon="6.53272">
				<ele>6.65</ele>
			</trkpt>
			<trkpt lat="53.03024" lon="6.52023">
				<ele>10.34</ele>
			</trkpt>
			<trkpt lat="53.03457" lon="6.51701">
				<ele>10.34</ele>
			</trkpt>
			<trkpt lat="53.03295" lon="6.51041">
				<ele>10.34</ele>
			</trkpt>
			<trkpt lat="53.03295" lon="6.51041">
				<ele>12.76</ele>
			</trkpt>
			<trkpt lat="53.03088" lon="6.50348">
				<ele>12.76</ele>
			</trkpt>
			<trkpt lat="53.03837" lon="6.49994">
				<ele>9.2</ele>
			</trkpt>
			<trkpt lat="53.03925" lon="6.50043">
				<ele>9.2</ele>
			</trkpt>
			<trkpt lat="53.03925" lon="6.50043">
				<ele>6.46</ele>
			</trkpt>
			<trkpt lat="53.04649" lon="6.50517">
				<ele>6.46</ele>
			</trkpt>
			<trkpt lat="53.04644" lon="6.50531">
				<ele>8.49</ele>
			</trkpt>
			<trkpt lat="53.04644" lon="6.50531">
				<ele>8.49</ele>
			</trkpt>
			<trkpt lat="53.04649" lon="6.50517">
				<ele>8.49</ele>
			</trkpt>
			<trkpt lat="53.04985" lon="6.50136">
				<ele>7.85</ele>
			</trkpt>
			<trkpt lat="53.04985" lon="6.50136">
				<ele>7.85</ele>
			</trkpt>
			<trkpt lat="53.05046" lon="6.5007">
				<ele>6.9</ele>
			</trkpt>
			<trkpt lat="53.05073" lon="6.50058">
				<ele>6.9</ele>
			</trkpt>
			<trkpt lat="53.05589" lon="6.49866">
				<ele>8.55</ele>
			</trkpt>
			<trkpt lat="53.05597" lon="6.4989">
				<ele>8.55</ele>
			</trkpt>
			<trkpt lat="53.05597" lon="6.4989">
				<ele>8</ele>
			</trkpt>
			<trkpt lat="53.05705" lon="6.50221">
				<ele>8</ele>
			</trkpt>
			<trkpt lat="53.05784" lon="6.5052">
				<ele>8</ele>
			</trkpt>
			<trkpt lat="53.05794" lon="6.50641">
				<ele>8.23</ele>
			</trkpt>
			<trkpt lat="53.05801" lon="6.50832">
				<ele>8.23</ele>
			</trkpt>
			<trkpt lat="53.05811" lon="6.50871">
				<ele>7.98</ele>
			</trkpt>
			<trkpt lat="53.05811" lon="6.50871">
				<ele>7.98</ele>
			</trkpt>
			<trkpt lat="53.05816" lon="6.50878">
				<ele>6.79</ele>
			</trkpt>
			<trkpt lat="53.05834" lon="6.50819">
				<ele>6.79</ele>
			</trkpt>
			<trkpt lat="53.06053" lon="6.50291">
				<ele>6.3</ele>
			</trkpt>
			<trkpt lat="53.06056" lon="6.50233">
				<ele>6.3</ele>
			</trkpt>
			<trkpt lat="53.06023" lon="6.50068">
				<ele>4.49</ele>
			</trkpt>
			<trkpt lat="53.06021" lon="6.50012">
				<ele>4.49</ele>
			</trkpt>
			<trkpt lat="53.06032" lon="6.5001">
				<ele>4.49</ele>
			</trkpt>
			<trkpt lat="53.0611" lon="6.49942">
				<ele>3.83</ele>
			</trkpt>
			<trkpt lat="53.06139" lon="6.49926">
				<ele>3.83</ele>
			</trkpt>
			<trkpt lat="53.06158" lon="6.49909">
				<ele>4.36</ele>
			</trkpt>
			<trkpt lat="53.0617" lon="6.49883">
				<ele>4.36</ele>
			</trkpt>
			<trkpt lat="53.06186" lon="6.498">
				<ele>4.13</ele>
			</trkpt>
			<trkpt lat="53.0615" lon="6.49681">
				<ele>4.13</ele>
			</trkpt>
			<trkpt lat="53.0615" lon="6.49681">
				<ele>3.96</ele>
			</trkpt>
			<trkpt lat="53.06248" lon="6.49674">
				<ele>3.96</ele>
			</trkpt>
			<trkpt lat="53.07173" lon="6.49235">
				<ele>3.96</ele>
			</trkpt>
			<trkpt lat="53.07266" lon="6.49282">
				<ele>5.1</ele>
			</trkpt>
			<trkpt lat="53.0735" lon="6.49237">
				<ele>5.1</ele>
			</trkpt>
			<trkpt lat="53.07475" lon="6.49317">
				<ele>4.31</ele>
			</trkpt>
			<trkpt lat="53.07743" lon="6.48966">
				<ele>4.31</ele>
			</trkpt>
			<trkpt lat="53.07808" lon="6.48993">
				<ele>6.53</ele>
			</trkpt>
			<trkpt lat="53.07898" lon="6.48813">
				<ele>6.53</ele>
			</trkpt>
			<trkpt lat="53.07898" lon="6.48813">
				<ele>6.05</ele>
			</trkpt>
			<trkpt lat="53.07912" lon="6.48784">
				<ele>6.05</ele>
			</trkpt>
			<trkpt lat="53.07929" lon="6.48802">
				<ele>6.05</ele>
			</trkpt>
			<trkpt lat="53.07948" lon="6.48788">
				<ele>6.73</ele>
			</trkpt>
			<trkpt lat="53.08035" lon="6.4894">
				<ele>6.73</ele>
			</trkpt>
			<trkpt lat="53.0812" lon="6.49156">
				<ele>5.18</ele>
			</trkpt>
			<trkpt lat="53.08162" lon="6.49588">
				<ele>5.18</ele>
			</trkpt>
			<trkpt lat="53.08342" lon="6.50325">
				<ele>4.64</ele>
			</trkpt>
			<trkpt lat="53.08497" lon="6.51055">
				<ele>4.64</ele>
			</trkpt>
			<trkpt lat="53.08548" lon="6.51006">
				<ele>2.93</ele>
			</trkpt>
			<trkpt lat="53.08548" lon="6.51006">
				<ele>2.93</ele>
			</trkpt>
			<trkpt lat="53.09834" lon="6.49767">
				<ele>2.93</ele>
			</trkpt>
			<trkpt lat="53.09834" lon="6.49767">
				<ele>2.68</ele>
			</trkpt>
			<trkpt lat="53.09844" lon="6.49694">
				<ele>2.68</ele>
			</trkpt>
			<trkpt lat="53.09648" lon="6.49125">
				<ele>1.31</ele>
			</trkpt>
			<trkpt lat="53.10616" lon="6.48495">
				<ele>1.31</ele>
			</trkpt>
			<trkpt lat="53.11166" lon="6.4844">
				<ele>1.59</ele>
			</trkpt>
			<trkpt lat="53.12083" lon="6.48035">
				<ele>1.59</ele>
			</trkpt>
			<trkpt lat="53.13195" lon="6.47433">
				<ele>0.65</ele>
			</trkpt>
			<trkpt lat="53.13237" lon="6.47486">
				<ele>0.65</ele>
			</trkpt>
			<trkpt lat="53.13843" lon="6.47391">
				<ele>-0.72</ele>
			</trkpt>
			<trkpt lat="53.14263" lon="6.47547">
				<ele>-0.72</ele>
			</trkpt>
			<trkpt lat="53.14375" lon="6.47507">
				<ele>-0.72</ele>
			</trkpt>
			<trkpt lat="53.14741" lon="6.47607">
				<ele>0.11</ele>
			</trkpt>
			<trkpt lat="53.14746" lon="6.47261">
				<ele>0.11</ele>
			</trkpt>
			<trkpt lat="53.14948" lon="6.46809">
				<ele>3.7</ele>
			</trkpt>
			<trkpt lat="53.15026" lon="6.46204">
				<ele>3.7</ele>
			</trkpt>
			<trkpt lat="53.15119" lon="6.45933">
				<ele>1.31</ele>
			</trkpt>
			<trkpt lat="53.15518" lon="6.46246">
				<ele>1.31</ele>
			</trkpt>
			<trkpt lat="53.15518" lon="6.46246">
				<ele>0.53</ele>
			</trkpt>
			<trkpt lat="53.15919" lon="6.46564">
				<ele>0.53</ele>
			</trkpt>
			<trkpt lat="53.16026" lon="6.46373">
				<ele>0.53</ele>
			</trkpt>
			<trkpt lat="53.16148" lon="6.46087">
				<ele>0.68</ele>
			</trkpt>
			<trkpt lat="53.16148" lon="6.46087">
				<ele>0.68</ele>
			</trkpt>
			<trkpt lat="53.16162" lon="6.46054">
				<ele>0.52</ele>
			</trkpt>
			<trkpt lat="53.16181" lon="6.46072">
				<ele>0.52</ele>
			</trkpt>
			<trkpt lat="53.16465" lon="6.46431">
				<ele>1.79</ele>
			</trkpt>
			<trkpt lat="53.16532" lon="6.46554">
				<ele>1.79</ele>
			</trkpt>
			<trkpt lat="53.16638" lon="6.46622">
				<ele>1.24</ele>
			</trkpt>
			<trkpt lat="53.16763" lon="6.46849">
				<ele>1.24</ele>
			</trkpt>
			<trkpt lat="53.16801" lon="6.46742">
				<ele>1.24</ele>
			</trkpt>
			<trkpt lat="53.16806" lon="6.46693">
				<ele>-0.44</ele>
			</trkpt>
			<trkpt lat="53.1676" lon="6.46066">
				<ele>-0.44</ele>
			</trkpt>
			<trkpt lat="53.16728" lon="6.45839">
				<ele>-0.21</ele>
			</trkpt>
			<trkpt lat="53.17206" lon="6.45697">
				<ele>-0.21</ele>
			</trkpt>
			<trkpt lat="53.17196" lon="6.45638">
				<ele>-0.41</ele>
			</trkpt>
			<trkpt lat="53.17348" lon="6.45582">
				<ele>-0.41</ele>
			</trkpt>
			<trkpt lat="53.17348" lon="6.45582">
				<ele>0.1</ele>
			</trkpt>
			<trkpt lat="53.176" lon="6.45508">
				<ele>0.1</ele>
			</trkpt>
			<trkpt lat="53.17692" lon="6.4566">
				<ele>0.1</ele>
			</trkpt>
			<trkpt lat="53.17992" lon="6.45577">
				<ele>0.27</ele>
			</trkpt>
			<trkpt lat="53.18206" lon="6.46039">
				<ele>0.27</ele>
			</trkpt>
			<trkpt lat="53.18251" lon="6.46256">
				<ele>-1.5</ele>
			</trkpt>
			<trkpt lat="53.18363" lon="6.46591">
				<ele>-1.5</ele>
			</trkpt>
			<trkpt lat="53.18363" lon="6.46591">
				<ele>-0.68</ele>
			</trkpt>
			<trkpt lat="53.18392" lon="6.46676">
				<ele>-0.68</ele>
			</trkpt>
			<trkpt lat="53.18254" lon="6.47136">
				<ele>-0.74</ele>
			</trkpt>
			<trkpt lat="53.18277" lon="6.47157">
				<ele>-0.74</ele>
			</trkpt>
			<trkpt lat="53.18289" lon="6.4718">
				<ele>-0.3</ele>
			</trkpt>
			<trkpt lat="53.18337" lon="6.47332">
				<ele>-0.3</ele>
			</trkpt>
			<trkpt lat="53.18409" lon="6.47527">
				<ele>-0.3</ele>
			</trkpt>
			<trkpt lat="53.18409" lon="6.47527">
				<ele>-0.84</ele>
			</trkpt>
			<trkpt lat="53.18526" lon="6.47834">
				<ele>-0.84</ele>
			</trkpt>
			<trkpt lat="53.18628" lon="6.48236">
				<ele>-0.76</ele>
			</trkpt>
			<trkpt lat="53.18641" lon="6.48321">
				<ele>-0.76</ele>
			</trkpt>
			<trkpt lat="53.18659" lon="6.48391">
				<ele>0.01</ele>
			</trkpt>
			<trkpt lat="53.1872" lon="6.48619">
				<ele>0.01</ele>
			</trkpt>
			<trkpt lat="53.18752" lon="6.48702">
				<ele>0.45</ele>
			</trkpt>
			<trkpt lat="53.18874" lon="6.49129">
				<ele>0.45</ele>
			</trkpt>
			<trkpt lat="53.18904" lon="6.49359">
				<ele>0.45</ele>
			</trkpt>
			<trkpt lat="53.18924" lon="6.49559">
				<ele>0.08</ele>
			</trkpt>
			<trkpt lat="53.18895" lon="6.49544">
				<ele>0.08</ele>
			</trkpt>
			<trkpt lat="53.18895" lon="6.49544">
				<ele>0.33</ele>
			</trkpt>
			<trkpt lat="53.18973" lon="6.49574">
				<ele>0.33</ele>
			</trkpt>
			<trkpt lat="53.19117" lon="6.4958">
				<ele>-0.28</ele>
			</trkpt>
			<trkpt lat="53.19145" lon="6.4994">
				<ele>-0.28</ele>
			</trkpt>
			<trkpt lat="53.19167" lon="6.49999">
				<ele>0.17</ele>
			</trkpt>
			<trkpt lat="53.19129" lon="6.50254">
				<ele>0.17</ele>
			</trkpt>
			<trkpt lat="53.19116" lon="6.5025">
				<ele>0.17</ele>
			</trkpt>
			<trkpt lat="53.19103" lon="6.50372">
				<ele>-1.34</ele>
			</trkpt>
			<trkpt lat="53.19183" lon="6.51011">
				<ele>-1.34</ele>
			</trkpt>
			<trkpt lat="53.19179" lon="6.51149">
				<ele>-1.24</ele>
			</trkpt>
			<trkpt lat="53.18962" lon="6.5115">
				<ele>-1.24</ele>
			</trkpt>
			<trkpt lat="53.1908" lon="6.5164">
				<ele>0.36</ele>
			</trkpt>
			<trkpt lat="53.19145" lon="6.51731">
				<ele>0.36</ele>
			</trkpt>
			<trkpt lat="53.19168" lon="6.51794">
				<ele>0.47</ele>
			</trkpt>
			<trkpt lat="53.19194" lon="6.51972">
				<ele>0.47</ele>
			</trkpt>
			<trkpt lat="53.19148" lon="6.52042">
				<ele>-0.52</ele>
			</trkpt>
			<trkpt lat="53.19148" lon="6.52042">
				<ele>-0.52</ele>
			</trkpt>
			<trkpt lat="53.19194" lon="6.51972">
				<ele>-0.52</ele>
			</trkpt>
			<trkpt lat="53.19144" lon="6.52095">
				<ele>-0.8</ele>
			</trkpt>
			<trkpt lat="53.18807" lon="6.52466">
				<ele>-0.8</ele>
			</trkpt>
			<trkpt lat="53.17255" lon="6.54042">
				<ele>0.14</ele>
			</trkpt>
			<trkpt lat="53.1672" lon="6.54157">
				<ele>0.14</ele>
			</trkpt>
			<trkpt lat="53.16305" lon="6.5405">
				<ele>0.25</ele>
			</trkpt>
			<trkpt lat="53.1603" lon="6.54224">
				<ele>0.25</ele>
			</trkpt>
			<trkpt lat="53.15864" lon="6.53826">
				<ele>0.29</ele>
			</trkpt>
			<trkpt lat="53.15754" lon="6.53727">
				<ele>0.29</ele>
			</trkpt>
			<trkpt lat="53.15681" lon="6.53728">
				<ele>0.29</ele>
			</trkpt>
			<trkpt lat="53.15588" lon="6.53837">
				<ele>0.09</ele>
			</trkpt>
			<trkpt lat="53.15283" lon="6.5365">
				<ele>0.09</ele>
			</trkpt>
			<trkpt lat="53.14831" lon="6.53858">
				<ele>-0.45</ele>
			</trkpt>
			<trkpt lat="53.14716" lon="6.54118">
				<ele>-0.45</ele>
			</trkpt>
			<trkpt lat="53.14276" lon="6.54263">
				<ele>0.04</ele>
			</trkpt>
			<trkpt lat="53.14274" lon="6.54444">
				<ele>0.04</ele>
			</trkpt>
			<trkpt lat="53.14274" lon="6.54444">
				<ele>-0.02</ele>
			</trkpt>
			<trkpt lat="53.1428" lon="6.54528">
				<ele>-0.02</ele>
			</trkpt>
			<trkpt lat="53.14305" lon="6.54549">
				<ele>-0.02</ele>
			</trkpt>
			<trkpt lat="53.1432" lon="6.54579">
				<ele>0.65</ele>
			</trkpt>
			<trkpt lat="53.14336" lon="6.54809">
				<ele>0.65</ele>
			</trkpt>
			<trkpt lat="53.14377" lon="6.5497">
				<ele>0.08</ele>
			</trkpt>
			<trkpt lat="53.14414" lon="6.55236">
				<ele>0.08</ele>
			</trkpt>
			<trkpt lat="53.1441" lon="6.55319">
				<ele>-0.6</ele>
			</trkpt>
			<trkpt lat="53.14426" lon="6.55329">
				<ele>-0.6</ele>
			</trkpt>
			<trkpt lat="53.14429" lon="6.5534">
				<ele>-0.83</ele>
			</trkpt>
			<trkpt lat="53.14452" lon="6.55479">
				<ele>-0.83</ele>
			</trkpt>
			<trkpt lat="53.14474" lon="6.55575">
				<ele>-0.83</ele>
			</trkpt>
			<trkpt lat="53.14719" lon="6.55515">
				<ele>-0.6</ele>
			</trkpt>
			<trkpt lat="53.1474" lon="6.55786">
				<ele>-0.6</ele>
			</trkpt>
			<trkpt lat="53.14808" lon="6.55969">
				<ele>-0.19</ele>
			</trkpt>
			<trkpt lat="53.14891" lon="6.55876">
				<ele>-0.19</ele>
			</trkpt>
			<trkpt lat="53.15044" lon="6.5567">
				<ele>-0.54</ele>
			</trkpt>
			<trkpt lat="53.15047" lon="6.5568">
				<ele>-0.54</ele>
			</trkpt>
			<trkpt lat="53.1504" lon="6.55688">
				<ele>-0.61</ele>
			</trkpt>
			<trkpt lat="53.1504" lon="6.55688">
				<ele>-0.61</ele>
			</trkpt>
			<trkpt lat="53.15047" lon="6.5568">
				<ele>-0.01</ele>
			</trkpt>
			<trkpt lat="53.15136" lon="6.56072">
				<ele>-0.01</ele>
			</trkpt>
			<trkpt lat="53.1515" lon="6.56139">
				<ele>-0.01</ele>
			</trkpt>
			<trkpt lat="53.15151" lon="6.56163">
				<ele>0.75</ele>
			</trkpt>
			<trkpt lat="53.15151" lon="6.56163">
				<ele>0.75</ele>
			</trkpt>
			<trkpt lat="53.1514" lon="6.56201">
				<ele>2.31</ele>
			</trkpt>
			<trkpt lat="53.15109" lon="6.56253">
				<ele>2.31</ele>
			</trkpt>
			<trkpt lat="53.15099" lon="6.56286">
				<ele>1.05</ele>
			</trkpt>
			<trkpt lat="53.15098" lon="6.56344">
				<ele>1.05</ele>
			</trkpt>
			<trkpt lat="53.15103" lon="6.56424">
				<ele>2.95</ele>
			</trkpt>
			<trkpt lat="53.15112" lon="6.5647">
				<ele>2.95</ele>
			</trkpt>
			<trkpt lat="53.15121" lon="6.56494">
				<ele>2.95</ele>
			</trkpt>
			<trkpt lat="53.15131" lon="6.56517">
				<ele>3.79</ele>
			</trkpt>
			<trkpt lat="53.15152" lon="6.56549">
				<ele>3.79</ele>
			</trkpt>
			<trkpt lat="53.15195" lon="6.56574">
				<ele>5.82</ele>
			</trkpt>
			<trkpt lat="53.15209" lon="6.56563">
				<ele>5.82</ele>
			</trkpt>
			<trkpt lat="53.15228" lon="6.56556">
				<ele>5.96</ele>
			</trkpt>
			<trkpt lat="53.15228" lon="6.56562">
				<ele>5.96</ele>
			</trkpt>
			<trkpt lat="53.15228" lon="6.56562">
				<ele>1.68</ele>
			</trkpt>
			<trkpt lat="53.15228" lon="6.56639">
				<ele>1.68</ele>
			</trkpt>
			<trkpt lat="53.15202" lon="6.56668">
				<ele>1.68</ele>
			</trkpt>
			<trkpt lat="53.15177" lon="6.56704">
				<ele>9.49</ele>
			</trkpt>
			<trkpt lat="53.15163" lon="6.56718">
				<ele>9.49</ele>
			</trkpt>
			<trkpt lat="53.15128" lon="6.56738">
				<ele>2.73</ele>
			</trkpt>
			<trkpt lat="53.15053" lon="6.56743">
				<ele>2.73</ele>
			</trkpt>
			<trkpt lat="53.15039" lon="6.5674">
				<ele>3.84</ele>
			</trkpt>
			<trkpt lat="53.1502" lon="6.56744">
				<ele>3.84</ele>
			</trkpt>
			<trkpt lat="53.15019" lon="6.5697">
				<ele>2.17</ele>
			</trkpt>
			<trkpt lat="53.1505" lon="6.56969">
				<ele>2.17</ele>
			</trkpt>
			<trkpt lat="53.15055" lon="6.57067">
				<ele>2.17</ele>
			</trkpt>
			<trkpt lat="53.15067" lon="6.57108">
				<ele>1.14</ele>
			</trkpt>
			<trkpt lat="53.15093" lon="6.57388">
				<ele>1.14</ele>
			</trkpt>
			<trkpt lat="53.15098" lon="6.57393">
				<ele>1.35</ele>
			</trkpt>
			<trkpt lat="53.15107" lon="6.57393">
				<ele>1.35</ele>
			</trkpt>
			<trkpt lat="53.15133" lon="6.57387">
				<ele>0.7</ele>
			</trkpt>
			<trkpt lat="53.15139" lon="6.5739">
				<ele>0.7</ele>
			</trkpt>
			<trkpt lat="53.15143" lon="6.57397">
				<ele>0.89</ele>
			</trkpt>
			<trkpt lat="53.15148" lon="6.57397">
				<ele>0.89</ele>
			</trkpt>
			<trkpt lat="53.15148" lon="6.57397">
				<ele>0.84</ele>
			</trkpt>
			<trkpt lat="53.15143" lon="6.57397">
				<ele>0.84</ele>
			</trkpt>
			<trkpt lat="53.15154" lon="6.57582">
				<ele>0.84</ele>
			</trkpt>
			<trkpt lat="53.15165" lon="6.57897">
				<ele>0.33</ele>
			</trkpt>
			<trkpt lat="53.15171" lon="6.57934">
				<ele>0.33</ele>
			</trkpt>
			<trkpt lat="53.15171" lon="6.57934">
				<ele>-0.32</ele>
			</trkpt>
			<trkpt lat="53.15176" lon="6.57948">
				<ele>-0.32</ele>
			</trkpt>
			<trkpt lat="53.15166" lon="6.57957">
				<ele>-0.35</ele>
			</trkpt>
			<trkpt lat="53.15113" lon="6.57987">
				<ele>-0.35</ele>
			</trkpt>
			<trkpt lat="53.15105" lon="6.58002">
				<ele>-0.24</ele>
			</trkpt>
			<trkpt lat="53.15177" lon="6.5838">
				<ele>-0.24</ele>
			</trkpt>
			<trkpt lat="53.15215" lon="6.58566">
				<ele>-0.24</ele>
			</trkpt>
			<trkpt lat="53.1522" lon="6.58585">
				<ele>0.21</ele>
			</trkpt>
			<trkpt lat="53.15398" lon="6.59009">
				<ele>0.21</ele>
			</trkpt>
			<trkpt lat="53.15398" lon="6.59009">
				<ele>6.91</ele>
			</trkpt>
			<trkpt lat="53.15411" lon="6.5904">
				<ele>6.91</ele>
			</trkpt>
			<trkpt lat="53.15211" lon="6.5926">
				<ele>11.07</ele>
			</trkpt>
			<trkpt lat="53.14892" lon="6.59565">
				<ele>11.07</ele>
			</trkpt>
			<trkpt lat="53.14726" lon="6.59655">
				<ele>4.66</ele>
			</trkpt>
			<trkpt lat="53.14717" lon="6.59667">
				<ele>4.66</ele>
			</trkpt>
			<trkpt lat="53.14717" lon="6.59667">
				<ele>4.66</ele>
			</trkpt>
			<trkpt lat="53.14685" lon="6.59545">
				<ele>14.54</ele>
			</trkpt>
			<trkpt lat="53.14592" lon="6.58795">
				<ele>14.54</ele>
			</trkpt>
			<trkpt lat="53.14607" lon="6.58755">
				<ele>9.54</ele>
			</trkpt>
			<trkpt lat="53.14504" lon="6.58539">
				<ele>9.54</ele>
			</trkpt>
			<trkpt lat="53.14389" lon="6.58424">
				<ele>4.84</ele>
			</trkpt>
			<trkpt lat="53.14332" lon="6.58375">
				<ele>4.84</ele>
			</trkpt>
			<trkpt lat="53.14319" lon="6.58358">
				<ele>3.84</ele>
			</trkpt>
			<trkpt lat="53.14176" lon="6.58069">
				<ele>3.84</ele>
			</trkpt>
			<trkpt lat="53.14149" lon="6.5809">
				<ele>3.84</ele>
			</trkpt>
			<trkpt lat="53.14139" lon="6.58143">
				<ele>3.54</ele>
			</trkpt>
			<trkpt lat="53.14139" lon="6.58143">
				<ele>3.54</ele>
			</trkpt>
			<trkpt lat="53.14109" lon="6.58252">
				<ele>2.35</ele>
			</trkpt>
			<trkpt lat="53.14097" lon="6.58358">
				<ele>2.35</ele>
			</trkpt>
			<trkpt lat="53.14084" lon="6.58429">
				<ele>3.79</ele>
			</trkpt>
			<trkpt lat="53.14049" lon="6.58551">
				<ele>3.79</ele>
			</trkpt>
			<trkpt lat="53.14023" lon="6.58598">
				<ele>5.19</ele>
			</trkpt>
			<trkpt lat="53.13974" lon="6.58622">
				<ele>5.19</ele>
			</trkpt>
			<trkpt lat="53.13898" lon="6.58744">
				<ele>5.5</ele>
			</trkpt>
			<trkpt lat="53.13813" lon="6.58774">
				<ele>5.5</ele>
			</trkpt>
			<trkpt lat="53.13798" lon="6.58771">
				<ele>5.5</ele>
			</trkpt>
			<trkpt lat="53.13742" lon="6.58723">
				<ele>5.52</ele>
			</trkpt>
			<trkpt lat="53.13657" lon="6.58703">
				<ele>5.52</ele>
			</trkpt>
			<trkpt lat="53.13594" lon="6.58651">
				<ele>6.96</ele>
			</trkpt>
			<trkpt lat="53.13553" lon="6.58633">
				<ele>6.96</ele>
			</trkpt>
			<trkpt lat="53.13326" lon="6.58679">
				<ele>7.44</ele>
			</trkpt>
			<trkpt lat="53.13326" lon="6.58679">
				<ele>7.44</ele>
			</trkpt>
			<trkpt lat="53.13306" lon="6.5867">
				<ele>7.45</ele>
			</trkpt>
			<trkpt lat="53.13243" lon="6.58776">
				<ele>7.45</ele>
			</trkpt>
			<trkpt lat="53.12223" lon="6.59897">
				<ele>7.45</ele>
			</trkpt>
			<trkpt lat="53.11741" lon="6.59323">
				<ele>7.09</ele>
			</trkpt>
			<trkpt lat="53.11585" lon="6.5902">
				<ele>7.09</ele>
			</trkpt>
			<trkpt lat="53.11351" lon="6.58807">
				<ele>7.92</ele>
			</trkpt>
			<trkpt lat="53.1132" lon="6.58809">
				<ele>7.92</ele>
			</trkpt>
			<trkpt lat="53.11258" lon="6.58628">
				<ele>7.1</ele>
			</trkpt>
			<trkpt lat="53.11149" lon="6.58447">
				<ele>7.1</ele>
			</trkpt>
			<trkpt lat="53.1109" lon="6.58458">
				<ele>6.41</ele>
			</trkpt>
			<trkpt lat="53.11082" lon="6.58427">
				<ele>6.41</ele>
			</trkpt>
			<trkpt lat="53.11082" lon="6.58427">
				<ele>6.41</ele>
			</trkpt>
			<trkpt lat="53.1109" lon="6.58458">
				<ele>7.58</ele>
			</trkpt>
			<trkpt lat="53.1102" lon="6.58486">
				<ele>7.58</ele>
			</trkpt>
			<trkpt lat="53.10814" lon="6.5864">
				<ele>10.14</ele>
			</trkpt>
			<trkpt lat="53.10191" lon="6.58875">
				<ele>10.14</ele>
			</trkpt>
			<trkpt lat="53.10053" lon="6.58953">
				<ele>7.2</ele>
			</trkpt>
			<trkpt lat="53.09963" lon="6.58961">
				<ele>7.2</ele>
			</trkpt>
			<trkpt lat="53.09963" lon="6.58961">
				<ele>6.69</ele>
			</trkpt>
			<trkpt lat="53.09714" lon="6.59055">
				<ele>6.69</ele>
			</trkpt>
			<trkpt lat="53.09649" lon="6.5906">
				<ele>5.15</ele>
			</trkpt>
			<trkpt lat="53.09428" lon="6.59443">
				<ele>5.15</ele>
			</trkpt>
			<trkpt lat="53.09233" lon="6.59664">
				<ele>5.15</ele>
			</trkpt>
			<trkpt lat="53.08968" lon="6.59501">
				<ele>7.42</ele>
			</trkpt>
			<trkpt lat="53.08968" lon="6.59501">
				<ele>7.42</ele>
			</trkpt>
			<trkpt lat="53.08636" lon="6.59307">
				<ele>9.43</ele>
			</trkpt>
			<trkpt lat="53.08363" lon="6.59225">
				<ele>9.43</ele>
			</trkpt>
			<trkpt lat="53.07558" lon="6.59237">
				<ele>10.06</ele>
			</trkpt>
			<trkpt lat="53.07136" lon="6.59358">
				<ele>10.06</ele>
			</trkpt>
			<trkpt lat="53.06716" lon="6.5965">
				<ele>8.66</ele>
			</trkpt>
			<trkpt lat="53.06695" lon="6.59636">
				<ele>8.66</ele>
			</trkpt>
			<trkpt lat="53.06683" lon="6.59676">
				<ele>8.66</ele>
			</trkpt>
			<trkpt lat="53.06683" lon="6.59676">
				<ele>6.84</ele>
			</trkpt>
			<trkpt lat="53.05888" lon="6.60363">
				<ele>6.84</ele>
			</trkpt>
			<trkpt lat="53.05062" lon="6.60765">
				<ele>5.93</ele>
			</trkpt>
			<trkpt lat="53.04675" lon="6.60801">
				<ele>5.93</ele>
			</trkpt>
			<trkpt lat="53.03731" lon="6.60604">
				<ele>5.61</ele>
			</trkpt>
			<trkpt lat="53.03372" lon="6.6177">
				<ele>5.61</ele>
			</trkpt>
			<trkpt lat="53.03287" lon="6.62601">
				<ele>6.76</ele>
			</trkpt>
			<trkpt lat="53.03188" lon="6.6261">
				<ele>6.76</ele>
			</trkpt>
			<trkpt lat="53.02954" lon="6.63365">
				<ele>6.76</ele>
			</trkpt>
			<trkpt lat="53.02954" lon="6.63365">
				<ele>11.02</ele>
			</trkpt>
			<trkpt lat="53.02947" lon="6.63385">
				<ele>11.02</ele>
			</trkpt>
			<trkpt lat="53.02918" lon="6.634">
				<ele>9.17</ele>
			</trkpt>
			<trkpt lat="53.02766" lon="6.63579">
				<ele>9.17</ele>
			</trkpt>
			<trkpt lat="53.0263" lon="6.63606">
				<ele>7.39</ele>
			</trkpt>
			<trkpt lat="53.02483" lon="6.63506">
				<ele>7.39</ele>
			</trkpt>
			<trkpt lat="53.02437" lon="6.63447">
				<ele>8.74</ele>
			</trkpt>
			<trkpt lat="53.02409" lon="6.63421">
				<ele>8.74</ele>
			</trkpt>
			<trkpt lat="53.02304" lon="6.6336">
				<ele>8.74</ele>
			</trkpt>
			<trkpt lat="53.02304" lon="6.6336">
				<ele>8.78</ele>
			</trkpt>
			<trkpt lat="53.02289" lon="6.63354">
				<ele>8.78</ele>
			</trkpt>
			<trkpt lat="53.02291" lon="6.63374">
				<ele>9.48</ele>
			</trkpt>
			<trkpt lat="53.02307" lon="6.63461">
				<ele>9.48</ele>
			</trkpt>
			<trkpt lat="53.02346" lon="6.63635">
				<ele>6.48</ele>
			</trkpt>
			<trkpt lat="53.02399" lon="6.639">
				<ele>6.48</ele>
			</trkpt>
			<trkpt lat="53.02378" lon="6.63911">
				<ele>5.04</ele>
			</trkpt>
			<trkpt lat="53.02368" lon="6.63905">
				<ele>5.04</ele>
			</trkpt>
			<trkpt lat="53.02358" lon="6.6391">
				<ele>4.72</ele>
			</trkpt>
			<trkpt lat="53.02337" lon="6.63911">
				<ele>4.72</ele>
			</trkpt>
			<trkpt lat="53.02337" lon="6.63911">
				<ele>4.72</ele>
			</trkpt>
			<trkpt lat="53.02198" lon="6.6419">
				<ele>6</ele>
			</trkpt>
			<trkpt lat="53.02116" lon="6.6423">
				<ele>6</ele>
			</trkpt>
			<trkpt lat="53.01968" lon="6.64193">
				<ele>7.98</ele>
			</trkpt>
			<trkpt lat="53.01821" lon="6.6407">
				<ele>7.98</ele>
			</trkpt>
			<trkpt lat="53.01631" lon="6.64043">
				<ele>9</ele>
			</trkpt>
			<trkpt lat="53.01392" lon="6.64069">
				<ele>9</ele>
			</trkpt>
			<trkpt lat="53.01147" lon="6.639">
				<ele>7.13</ele>
			</trkpt>
			<trkpt lat="53.01055" lon="6.6389">
				<ele>7.13</ele>
			</trkpt>
			<trkpt lat="53.0095" lon="6.63928">
				<ele>7.13</ele>
			</trkpt>
			<trkpt lat="53.00852" lon="6.6403">
				<ele>7.28</ele>
			</trkpt>
			<trkpt lat="53.00778" lon="6.64217">
				<ele>7.28</ele>
			</trkpt>
			<trkpt lat="53.00706" lon="6.64217">
				<ele>4</ele>
			</trkpt>
			<trkpt lat="53.00476" lon="6.64387">
				<ele>4</ele>
			</trkpt>
			<trkpt lat="53.004" lon="6.64257">
				<ele>6.32</ele>
			</trkpt>
			<trkpt lat="53.00256" lon="6.64217">
				<ele>6.32</ele>
			</trkpt>
			<trkpt lat="53.00233" lon="6.64243">
				<ele>4</ele>
			</trkpt>
			<trkpt lat="53.00144" lon="6.64062">
				<ele>4</ele>
			</trkpt>
			<trkpt lat="53.00077" lon="6.63819">
				<ele>4</ele>
			</trkpt>
			<trkpt lat="53.00077" lon="6.63819">
				<ele>5.57</ele>
			</trkpt>
			<trkpt lat="52.99996" lon="6.6344">
				<ele>5.57</ele>
			</trkpt>
			<trkpt lat="52.99714" lon="6.63375">
				<ele>8.22</ele>
			</trkpt>
			<trkpt lat="52.99515" lon="6.6295">
				<ele>8.22</ele>
			</trkpt>
			<trkpt lat="52.99412" lon="6.62848">
				<ele>8.36</ele>
			</trkpt>
			<trkpt lat="52.99331" lon="6.62836">
				<ele>8.36</ele>
			</trkpt>
			<trkpt lat="52.99293" lon="6.6265">
				<ele>8.86</ele>
			</trkpt>
			<trkpt lat="52.99021" lon="6.62186">
				<ele>8.86</ele>
			</trkpt>
			<trkpt lat="52.99048" lon="6.61606">
				<ele>8.86</ele>
			</trkpt>
			<trkpt lat="52.98898" lon="6.6097">
				<ele>10</ele>
			</trkpt>
			<trkpt lat="52.98934" lon="6.60779">
				<ele>10</ele>
			</trkpt>
			<trkpt lat="52.99056" lon="6.59421">
				<ele>8.6</ele>
			</trkpt>
			<trkpt lat="52.99056" lon="6.59421">
				<ele>8.6</ele>
			</trkpt>
			<trkpt lat="52.99061" lon="6.59431">
				<ele>8.77</ele>
			</trkpt>
			<trkpt lat="52.99167" lon="6.59211">
				<ele>8.77</ele>
			</trkpt>
			<trkpt lat="52.99191" lon="6.5913">
				<ele>10</ele>
			</trkpt>
			<trkpt lat="52.9914" lon="6.59069">
				<ele>10</ele>
			</trkpt>
			<trkpt lat="52.99061" lon="6.58957">
				<ele>12.33</ele>
			</trkpt>
			<trkpt lat="52.99018" lon="6.59037">
				<ele>12.33</ele>
			</trkpt>
			<trkpt lat="52.98919" lon="6.59045">
				<ele>12.33</ele>
			</trkpt>
			<trkpt lat="52.98818" lon="6.58904">
				<ele>14.64</ele>
			</trkpt>
			<trkpt lat="52.9882" lon="6.58838">
				<ele>14.64</ele>
			</trkpt>
			<trkpt lat="52.98756" lon="6.58622">
				<ele>13.8</ele>
			</trkpt>
			<trkpt lat="52.98746" lon="6.58611">
				<ele>13.8</ele>
			</trkpt>
			<trkpt lat="52.98681" lon="6.5859">
				<ele>12.1</ele>
			</trkpt>
			<trkpt lat="52.98582" lon="6.58406">
				<ele>12.1</ele>
			</trkpt>
			<trkpt lat="52.98582" lon="6.58406">
				<ele>15</ele>
			</trkpt>
			<trkpt lat="52.98576" lon="6.58392">
				<ele>15</ele>
			</trkpt>
			<trkpt lat="52.98577" lon="6.58381">
				<ele>15</ele>
			</trkpt>
			<trkpt lat="52.98645" lon="6.58282">
				<ele>14.14</ele>
			</trkpt>
			<trkpt lat="52.98613" lon="6.5822">
				<ele>14.14</ele>
			</trkpt>
			<trkpt lat="52.98476" lon="6.58012">
				<ele>14.91</ele>
			</trkpt>
			<trkpt lat="52.98428" lon="6.57947">
				<ele>14.91</ele>
			</trkpt>
			<trkpt lat="52.98372" lon="6.58051">
				<ele>13.24</ele>
			</trkpt>
			<trkpt lat="52.98367" lon="6.58054">
				<ele>13.24</ele>
			</trkpt>
			<trkpt lat="52.98361" lon="6.58051">
				<ele>19.46</ele>
			</trkpt>
			<trkpt lat="52.98358" lon="6.5806">
				<ele>19.46</ele>
			</trkpt>
			<trkpt lat="52.98359" lon="6.58066">
				<ele>19.46</ele>
			</trkpt>
			<trkpt lat="52.98371" lon="6.58087">
				<ele>15.58</ele>
			</trkpt>
			<trkpt lat="52.98371" lon="6.58087">
				<ele>15.58</ele>
			</trkpt>
			<trkpt lat="52.98359" lon="6.58066">
				<ele>15.21</ele>
			</trkpt>
			<trkpt lat="52.98358" lon="6.5806">
				<ele>15.21</ele>
			</trkpt>
			<trkpt lat="52.98361" lon="6.58051">
				<ele>9.11</ele>
			</trkpt>
			<trkpt lat="52.98289" lon="6.5798">
				<ele>9.11</ele>
			</trkpt>
			<trkpt lat="52.98279" lon="6.58014">
				<ele>10.12</ele>
			</trkpt>
			<trkpt lat="52.98277" lon="6.58038">
				<ele>10.12</ele>
			</trkpt>
			<trkpt lat="52.98257" lon="6.58039">
				<ele>10.12</ele>
			</trkpt>
			<trkpt lat="52.98257" lon="6.58039">
				<ele>11.94</ele>
			</trkpt>
			<trkpt lat="52.98197" lon="6.58045">
				<ele>11.94</ele>
			</trkpt>
			<trkpt lat="52.98148" lon="6.58086">
				<ele>10</ele>
			</trkpt>
			<trkpt lat="52.98103" lon="6.58087">
				<ele>10</ele>
			</trkpt>
			<trkpt lat="52.98098" lon="6.58091">
				<ele>10.64</ele>
			</trkpt>
			<trkpt lat="52.98088" lon="6.58153">
				<ele>10.64</ele>
			</trkpt>
			<trkpt lat="52.97962" lon="6.5815">
				<ele>12</ele>
			</trkpt>
			<trkpt lat="52.97944" lon="6.58225">
				<ele>12</ele>
			</trkpt>
			<trkpt lat="52.97833" lon="6.58237">
				<ele>12.26</ele>
			</trkpt>
			<trkpt lat="52.97807" lon="6.58266">
				<ele>12.26</ele>
			</trkpt>
			<trkpt lat="52.97803" lon="6.58293">
				<ele>12.26</ele>
			</trkpt>
			<trkpt lat="52.97796" lon="6.58301">
				<ele>10</ele>
			</trkpt>
			<trkpt lat="52.97653" lon="6.58329">
				<ele>10</ele>
			</trkpt>
			<trkpt lat="52.97653" lon="6.58329">
				<ele>10.57</ele>
			</trkpt>
			<trkpt lat="52.97637" lon="6.58332">
				<ele>10.57</ele>
			</trkpt>
			<trkpt lat="52.97618" lon="6.58202">
				<ele>11.1</ele>
			</trkpt>
			<trkpt lat="52.97578" lon="6.58125">
				<ele>11.1</ele>
			</trkpt>
			<trkpt lat="52.97632" lon="6.58055">
				<ele>8.26</ele>
			</trkpt>
			<trkpt lat="52.97654" lon="6.58">
				<ele>8.26</ele>
			</trkpt>
			<trkpt lat="52.9768" lon="6.57741">
				<ele>8.26</ele>
			</trkpt>
			<trkpt lat="52.97867" lon="6.56957">
				<ele>7</ele>
			</trkpt>
			<trkpt lat="52.97889" lon="6.56919">
				<ele>7</ele>
			</trkpt>
			<trkpt lat="52.97988" lon="6.56837">
				<ele>9.7</ele>
			</trkpt>
			<trkpt lat="52.97945" lon="6.56727">
				<ele>9.7</ele>
			</trkpt>
			<trkpt lat="52.97928" lon="6.5663">
				<ele>10.78</ele>
			</trkpt>
			<trkpt lat="52.97929" lon="6.56546">
				<ele>10.78</ele>
			</trkpt>
			<trkpt lat="52.97951" lon="6.56423">
				<ele>13.01</ele>
			</trkpt>
			<trkpt lat="52.97902" lon="6.56395">
				<ele>13.01</ele>
			</trkpt>
			<trkpt lat="52.98069" lon="6.56355">
				<ele>13.01</ele>
			</trkpt>
			<trkpt lat="52.98088" lon="6.56199">
				<ele>11.25</ele>
			</trkpt>
			<trkpt lat="52.98052" lon="6.56167">
				<ele>11.25</ele>
			</trkpt>
			<trkpt lat="52.98062" lon="6.56117">
				<ele>12.55</ele>
			</trkpt>
			<trkpt lat="52.98012" lon="6.56074">
				<ele>12.55</ele>
			</trkpt>
			<trkpt lat="52.98041" lon="6.55956">
				<ele>10.72</ele>
			</trkpt>
			<trkpt lat="52.98001" lon="6.55922">
				<ele>10.72</ele>
			</trkpt>
			<trkpt lat="52.97966" lon="6.56002">
				<ele>14.68</ele>
			</trkpt>
			<trkpt lat="52.97916" lon="6.55963">
				<ele>14.68</ele>
			</trkpt>
		</trkseg>
	</trk>
</gpx>