<?xml version="1.0" encoding="UTF-8"?>
<gpx version="1.1" creator="https://www.hammerhead.io" xmlns:xsi="http://www.w3.org/2001/XMLSchema-instance" xmlns="http://www.topografix.com/GPX/1/1" xsi:schemaLocation="http://www.topografix.com/GPX/1/1 http://www.topografix.com/GPX/1/1/gpx.xsd"><metadata><name>H&#39;wijk 2</name><time>0001-01-01T00:00:00Z</time></metadata><trk><name>H&#39;wijk 2</name><trkseg><trkpt lat="52.48054" lon="6.09264"></trkpt><trkpt lat="52.4805" lon="6.09238"></trkpt><trkpt lat="52.48029" lon="6.09135"></trkpt><trkpt lat="52.48029" lon="6.09121"></trkpt><trkpt lat="52.48061" lon="6.09013"></trkpt><trkpt lat="52.48082" lon="6.08956"></trkpt><trkpt lat="52.48027" lon="6.08987"></trkpt><trkpt lat="52.48005" lon="6.08991"></trkpt><trkpt lat="52.47984" lon="6.08987"></trkpt><trkpt lat="52.47974" lon="6.08982"></trkpt><trkpt lat="52.47946" lon="6.08948"></trkpt><trkpt lat="52.47943" lon="6.08942"></trkpt><trkpt lat="52.47942" lon="6.08931"></trkpt><trkpt lat="52.47953" lon="6.08847"></trkpt><trkpt lat="52.47961" lon="6.08724"></trkpt><trkpt lat="52.47967" lon="6.08695"></trkpt><trkpt lat="52.4799" lon="6.08663"></trkpt><trkpt lat="52.48055" lon="6.08556"></trkpt><trkpt lat="52.48089" lon="6.08504"></trkpt><trkpt lat="52.48121" lon="6.08464"></trkpt><trkpt lat="52.48135" lon="6.0845"></trkpt><trkpt lat="52.48151" lon="6.08438"></trkpt><trkpt lat="52.48214" lon="6.08406"></trkpt><trkpt lat="52.48283" lon="6.08364"></trkpt><trkpt lat="52.4832" lon="6.08339"></trkpt><trkpt lat="52.48366" lon="6.08304"></trkpt><trkpt lat="52.48404" lon="6.08266"></trkpt><trkpt lat="52.48424" lon="6.08241"></trkpt><trkpt lat="52.48503" lon="6.08132"></trkpt><trkpt lat="52.48519" lon="6.08107"></trkpt><trkpt lat="52.48538" lon="6.08073"></trkpt><trkpt lat="52.48574" lon="6.07999"></trkpt><trkpt lat="52.48595" lon="6.07963"></trkpt><trkpt lat="52.48613" lon="6.07937"></trkpt><trkpt lat="52.48634" lon="6.07914"></trkpt><trkpt lat="52.48642" lon="6.07907"></trkpt><trkpt lat="52.48659" lon="6.07897"></trkpt><trkpt lat="52.48713" lon="6.07879"></trkpt><trkpt lat="52.48742" lon="6.07867"></trkpt><trkpt lat="52.48757" lon="6.07858"></trkpt><trkpt lat="52.48773" lon="6.07851"></trkpt><trkpt lat="52.48812" lon="6.07828"></trkpt><trkpt lat="52.48825" lon="6.07813"></trkpt><trkpt lat="52.48835" lon="6.07788"></trkpt><trkpt lat="52.48838" lon="6.07773"></trkpt><trkpt lat="52.4885" lon="6.07688"></trkpt><trkpt lat="52.48876" lon="6.07544"></trkpt><trkpt lat="52.48903" lon="6.07407"></trkpt><trkpt lat="52.48921" lon="6.07346"></trkpt><trkpt lat="52.4894" lon="6.07293"></trkpt><trkpt lat="52.48967" lon="6.07242"></trkpt><trkpt lat="52.49004" lon="6.07182"></trkpt><trkpt lat="52.49042" lon="6.07138"></trkpt><trkpt lat="52.49069" lon="6.07111"></trkpt><trkpt lat="52.49096" lon="6.07089"></trkpt><trkpt lat="52.49132" lon="6.07067"></trkpt><trkpt lat="52.49145" lon="6.07068"></trkpt><trkpt lat="52.4918" lon="6.07087"></trkpt><trkpt lat="52.49189" lon="6.0709"></trkpt><trkpt lat="52.49195" lon="6.07075"></trkpt><trkpt lat="52.49223" lon="6.0704"></trkpt><trkpt lat="52.49228" lon="6.07028"></trkpt><trkpt lat="52.4923" lon="6.07018"></trkpt><trkpt lat="52.49229" lon="6.06997"></trkpt><trkpt lat="52.49226" lon="6.06984"></trkpt><trkpt lat="52.49198" lon="6.06924"></trkpt><trkpt lat="52.49164" lon="6.06844"></trkpt><trkpt lat="52.49142" lon="6.06789"></trkpt><trkpt lat="52.49104" lon="6.06681"></trkpt><trkpt lat="52.4908" lon="6.06603"></trkpt><trkpt lat="52.49055" lon="6.06515"></trkpt><trkpt lat="52.49003" lon="6.06304"></trkpt><trkpt lat="52.48905" lon="6.05881"></trkpt><trkpt lat="52.48821" lon="6.05558"></trkpt><trkpt lat="52.48779" lon="6.05368"></trkpt><trkpt lat="52.48721" lon="6.05089"></trkpt><trkpt lat="52.4872" lon="6.05087"></trkpt><trkpt lat="52.48717" lon="6.05086"></trkpt><trkpt lat="52.48711" lon="6.05089"></trkpt><trkpt lat="52.48697" lon="6.05024"></trkpt><trkpt lat="52.48672" lon="6.04927"></trkpt><trkpt lat="52.48651" lon="6.04857"></trkpt><trkpt lat="52.48606" lon="6.04726"></trkpt><trkpt lat="52.48568" lon="6.0463"></trkpt><trkpt lat="52.48521" lon="6.04526"></trkpt><trkpt lat="52.48476" lon="6.04431"></trkpt><trkpt lat="52.4845" lon="6.04383"></trkpt><trkpt lat="52.48422" lon="6.04334"></trkpt><trkpt lat="52.48403" lon="6.04309"></trkpt><trkpt lat="52.48385" lon="6.0428"></trkpt><trkpt lat="52.48334" lon="6.04188"></trkpt><trkpt lat="52.48331" lon="6.04169"></trkpt><trkpt lat="52.48326" lon="6.04156"></trkpt><trkpt lat="52.48299" lon="6.04166"></trkpt><trkpt lat="52.4828" lon="6.04171"></trkpt><trkpt lat="52.48218" lon="6.04182"></trkpt><trkpt lat="52.48175" lon="6.04194"></trkpt><trkpt lat="52.48148" lon="6.0421"></trkpt><trkpt lat="52.48124" lon="6.0423"></trkpt><trkpt lat="52.48095" lon="6.0426"></trkpt><trkpt lat="52.48084" lon="6.04283"></trkpt><trkpt lat="52.48063" lon="6.04258"></trkpt><trkpt lat="52.48046" lon="6.04245"></trkpt><trkpt lat="52.48035" lon="6.0424"></trkpt><trkpt lat="52.47736" lon="6.04191"></trkpt><trkpt lat="52.47717" lon="6.04159"></trkpt><trkpt lat="52.47718" lon="6.03978"></trkpt><trkpt lat="52.47709" lon="6.03709"></trkpt><trkpt lat="52.47704" lon="6.03678"></trkpt><trkpt lat="52.477" lon="6.03658"></trkpt><trkpt lat="52.47635" lon="6.03423"></trkpt><trkpt lat="52.47613" lon="6.03348"></trkpt><trkpt lat="52.47603" lon="6.03318"></trkpt><trkpt lat="52.47553" lon="6.03189"></trkpt><trkpt lat="52.47505" lon="6.03057"></trkpt><trkpt lat="52.47498" lon="6.03023"></trkpt><trkpt lat="52.47496" lon="6.02999"></trkpt><trkpt lat="52.47496" lon="6.02978"></trkpt><trkpt lat="52.47472" lon="6.02976"></trkpt><trkpt lat="52.47463" lon="6.02977"></trkpt><trkpt lat="52.47447" lon="6.02982"></trkpt><trkpt lat="52.47399" lon="6.02967"></trkpt><trkpt lat="52.47392" lon="6.02969"></trkpt><trkpt lat="52.47386" lon="6.02973"></trkpt><trkpt lat="52.47378" lon="6.02979"></trkpt><trkpt lat="52.47362" lon="6.03002"></trkpt><trkpt lat="52.47351" lon="6.03026"></trkpt><trkpt lat="52.47337" lon="6.0307"></trkpt><trkpt lat="52.47325" lon="6.03101"></trkpt><trkpt lat="52.4732" lon="6.0311"></trkpt><trkpt lat="52.47306" lon="6.03129"></trkpt><trkpt lat="52.47287" lon="6.03147"></trkpt><trkpt lat="52.47264" lon="6.03161"></trkpt><trkpt lat="52.47245" lon="6.03164"></trkpt><trkpt lat="52.47231" lon="6.03162"></trkpt><trkpt lat="52.47215" lon="6.03158"></trkpt><trkpt lat="52.47181" lon="6.03144"></trkpt><trkpt lat="52.4716" lon="6.03132"></trkpt><trkpt lat="52.47116" lon="6.03111"></trkpt><trkpt lat="52.47084" lon="6.03099"></trkpt><trkpt lat="52.47029" lon="6.03084"></trkpt><trkpt lat="52.46966" lon="6.03057"></trkpt><trkpt lat="52.46477" lon="6.02828"></trkpt><trkpt lat="52.46429" lon="6.02807"></trkpt><trkpt lat="52.46423" lon="6.02806"></trkpt><trkpt lat="52.46419" lon="6.02807"></trkpt><trkpt lat="52.46393" lon="6.02607"></trkpt><trkpt lat="52.4632" lon="6.02092"></trkpt><trkpt lat="52.46305" lon="6.02002"></trkpt><trkpt lat="52.4627" lon="6.01811"></trkpt><trkpt lat="52.46251" lon="6.01721"></trkpt><trkpt lat="52.46148" lon="6.01289"></trkpt><trkpt lat="52.4608" lon="6.01032"></trkpt><trkpt lat="52.46077" lon="6.00979"></trkpt><trkpt lat="52.46063" lon="6.00941"></trkpt><trkpt lat="52.46057" lon="6.00936"></trkpt><trkpt lat="52.46011" lon="6.00746"></trkpt><trkpt lat="52.45974" lon="6.00606"></trkpt><trkpt lat="52.45961" lon="6.00616"></trkpt><trkpt lat="52.45957" lon="6.00621"></trkpt><trkpt lat="52.45961" lon="6.00616"></trkpt><trkpt lat="52.45974" lon="6.00606"></trkpt><trkpt lat="52.45859" lon="6.0012"></trkpt><trkpt lat="52.45849" lon="6.00089"></trkpt><trkpt lat="52.458" lon="5.99958"></trkpt><trkpt lat="52.45793" lon="5.99944"></trkpt><trkpt lat="52.45805" lon="5.99933"></trkpt><trkpt lat="52.45829" lon="5.99906"></trkpt><trkpt lat="52.45873" lon="5.99846"></trkpt><trkpt lat="52.45884" lon="5.99821"></trkpt><trkpt lat="52.4593" lon="5.99756"></trkpt><trkpt lat="52.45938" lon="5.99742"></trkpt><trkpt lat="52.45947" lon="5.99719"></trkpt><trkpt lat="52.46037" lon="5.99574"></trkpt><trkpt lat="52.46029" lon="5.99561"></trkpt><trkpt lat="52.46022" lon="5.99559"></trkpt><trkpt lat="52.46016" lon="5.99553"></trkpt><trkpt lat="52.45985" lon="5.99492"></trkpt><trkpt lat="52.4598" lon="5.99479"></trkpt><trkpt lat="52.45965" lon="5.99423"></trkpt><trkpt lat="52.45958" lon="5.99364"></trkpt><trkpt lat="52.45957" lon="5.99331"></trkpt><trkpt lat="52.45965" lon="5.99183"></trkpt><trkpt lat="52.45963" lon="5.99149"></trkpt><trkpt lat="52.45957" lon="5.99096"></trkpt><trkpt lat="52.4595" lon="5.99051"></trkpt><trkpt lat="52.45942" lon="5.99017"></trkpt><trkpt lat="52.45852" lon="5.98674"></trkpt><trkpt lat="52.4583" lon="5.98582"></trkpt><trkpt lat="52.45764" lon="5.98087"></trkpt><trkpt lat="52.45756" lon="5.98053"></trkpt><trkpt lat="52.45745" lon="5.97967"></trkpt><trkpt lat="52.45745" lon="5.97944"></trkpt><trkpt lat="52.4574" lon="5.97919"></trkpt><trkpt lat="52.45732" lon="5.97886"></trkpt><trkpt lat="52.45714" lon="5.97847"></trkpt><trkpt lat="52.45689" lon="5.97809"></trkpt><trkpt lat="52.45655" lon="5.97752"></trkpt><trkpt lat="52.45634" lon="5.9771"></trkpt><trkpt lat="52.45613" lon="5.97653"></trkpt><trkpt lat="52.45579" lon="5.97529"></trkpt><trkpt lat="52.45559" lon="5.97465"></trkpt><trkpt lat="52.45551" lon="5.97446"></trkpt><trkpt lat="52.45523" lon="5.97365"></trkpt><trkpt lat="52.45493" lon="5.97287"></trkpt><trkpt lat="52.45462" lon="5.97212"></trkpt><trkpt lat="52.45452" lon="5.97194"></trkpt><trkpt lat="52.45446" lon="5.97174"></trkpt><trkpt lat="52.45444" lon="5.97162"></trkpt><trkpt lat="52.45445" lon="5.97151"></trkpt><trkpt lat="52.45449" lon="5.97136"></trkpt><trkpt lat="52.45449" lon="5.97129"></trkpt><trkpt lat="52.45446" lon="5.97123"></trkpt><trkpt lat="52.45435" lon="5.97115"></trkpt><trkpt lat="52.45424" lon="5.97104"></trkpt><trkpt lat="52.45414" lon="5.97088"></trkpt><trkpt lat="52.45406" lon="5.9707"></trkpt><trkpt lat="52.45399" lon="5.97049"></trkpt><trkpt lat="52.45352" lon="5.96884"></trkpt><trkpt lat="52.45348" lon="5.96858"></trkpt><trkpt lat="52.45332" lon="5.96801"></trkpt><trkpt lat="52.45313" lon="5.96721"></trkpt><trkpt lat="52.45309" lon="5.96698"></trkpt><trkpt lat="52.45293" lon="5.96628"></trkpt><trkpt lat="52.45286" lon="5.96585"></trkpt><trkpt lat="52.4526" lon="5.96483"></trkpt><trkpt lat="52.45256" lon="5.96472"></trkpt><trkpt lat="52.45228" lon="5.96358"></trkpt><trkpt lat="52.45219" lon="5.96337"></trkpt><trkpt lat="52.45208" lon="5.9628"></trkpt><trkpt lat="52.45188" lon="5.96205"></trkpt><trkpt lat="52.45169" lon="5.96142"></trkpt><trkpt lat="52.45164" lon="5.9613"></trkpt><trkpt lat="52.45158" lon="5.96122"></trkpt><trkpt lat="52.45155" lon="5.96109"></trkpt><trkpt lat="52.45133" lon="5.96058"></trkpt><trkpt lat="52.45118" lon="5.96018"></trkpt><trkpt lat="52.45094" lon="5.95949"></trkpt><trkpt lat="52.45067" lon="5.9588"></trkpt><trkpt lat="52.45055" lon="5.95838"></trkpt><trkpt lat="52.45037" lon="5.95787"></trkpt><trkpt lat="52.45001" lon="5.95648"></trkpt><trkpt lat="52.44979" lon="5.95575"></trkpt><trkpt lat="52.44961" lon="5.95497"></trkpt><trkpt lat="52.44959" lon="5.95473"></trkpt><trkpt lat="52.44961" lon="5.95363"></trkpt><trkpt lat="52.44958" lon="5.95267"></trkpt><trkpt lat="52.44954" lon="5.9522"></trkpt><trkpt lat="52.44953" lon="5.95172"></trkpt><trkpt lat="52.44948" lon="5.95088"></trkpt><trkpt lat="52.44948" lon="5.95063"></trkpt><trkpt lat="52.44941" lon="5.94964"></trkpt><trkpt lat="52.44926" lon="5.94665"></trkpt><trkpt lat="52.44922" lon="5.94617"></trkpt><trkpt lat="52.4492" lon="5.94569"></trkpt><trkpt lat="52.4491" lon="5.94469"></trkpt><trkpt lat="52.44912" lon="5.94403"></trkpt><trkpt lat="52.44907" lon="5.9438"></trkpt><trkpt lat="52.44896" lon="5.9436"></trkpt><trkpt lat="52.44892" lon="5.94349"></trkpt><trkpt lat="52.44886" lon="5.94299"></trkpt><trkpt lat="52.44882" lon="5.94278"></trkpt><trkpt lat="52.44857" lon="5.94212"></trkpt><trkpt lat="52.44826" lon="5.94139"></trkpt><trkpt lat="52.44807" lon="5.94098"></trkpt><trkpt lat="52.44784" lon="5.94033"></trkpt><trkpt lat="52.44761" lon="5.93981"></trkpt><trkpt lat="52.44749" lon="5.9395"></trkpt><trkpt lat="52.44716" lon="5.93878"></trkpt><trkpt lat="52.44682" lon="5.93793"></trkpt><trkpt lat="52.44677" lon="5.93784"></trkpt><trkpt lat="52.4462" lon="5.9365"></trkpt><trkpt lat="52.44571" lon="5.93531"></trkpt><trkpt lat="52.44551" lon="5.93481"></trkpt><trkpt lat="52.44532" lon="5.93419"></trkpt><trkpt lat="52.44523" lon="5.93401"></trkpt><trkpt lat="52.44512" lon="5.93373"></trkpt><trkpt lat="52.44494" lon="5.93339"></trkpt><trkpt lat="52.44492" lon="5.93328"></trkpt><trkpt lat="52.44491" lon="5.93306"></trkpt><trkpt lat="52.44488" lon="5.93296"></trkpt><trkpt lat="52.44484" lon="5.93287"></trkpt><trkpt lat="52.4447" lon="5.93275"></trkpt><trkpt lat="52.44458" lon="5.93262"></trkpt><trkpt lat="52.44438" lon="5.93227"></trkpt><trkpt lat="52.4442" lon="5.93175"></trkpt><trkpt lat="52.44411" lon="5.93157"></trkpt><trkpt lat="52.44371" lon="5.9306"></trkpt><trkpt lat="52.44353" lon="5.9302"></trkpt><trkpt lat="52.44296" lon="5.92879"></trkpt><trkpt lat="52.44268" lon="5.92817"></trkpt><trkpt lat="52.4424" lon="5.92746"></trkpt><trkpt lat="52.44204" lon="5.92664"></trkpt><trkpt lat="52.4415" lon="5.92529"></trkpt><trkpt lat="52.44123" lon="5.92457"></trkpt><trkpt lat="52.4407" lon="5.92342"></trkpt><trkpt lat="52.44058" lon="5.92312"></trkpt><trkpt lat="52.44054" lon="5.92291"></trkpt><trkpt lat="52.44055" lon="5.9226"></trkpt><trkpt lat="52.44054" lon="5.92251"></trkpt><trkpt lat="52.44051" lon="5.92243"></trkpt><trkpt lat="52.44046" lon="5.92237"></trkpt><trkpt lat="52.44027" lon="5.92226"></trkpt><trkpt lat="52.44021" lon="5.92221"></trkpt><trkpt lat="52.44006" lon="5.92196"></trkpt><trkpt lat="52.43998" lon="5.92176"></trkpt><trkpt lat="52.43988" lon="5.92156"></trkpt><trkpt lat="52.4396" lon="5.92086"></trkpt><trkpt lat="52.43946" lon="5.92056"></trkpt><trkpt lat="52.43934" lon="5.92025"></trkpt><trkpt lat="52.43908" lon="5.91966"></trkpt><trkpt lat="52.43884" lon="5.91905"></trkpt><trkpt lat="52.43858" lon="5.91846"></trkpt><trkpt lat="52.43848" lon="5.91815"></trkpt><trkpt lat="52.43838" lon="5.91797"></trkpt><trkpt lat="52.4381" lon="5.91727"></trkpt><trkpt lat="52.43792" lon="5.91687"></trkpt><trkpt lat="52.43743" lon="5.91567"></trkpt><trkpt lat="52.43722" lon="5.91507"></trkpt><trkpt lat="52.437" lon="5.91462"></trkpt><trkpt lat="52.43687" lon="5.91431"></trkpt><trkpt lat="52.4367" lon="5.91389"></trkpt><trkpt lat="52.43647" lon="5.91326"></trkpt><trkpt lat="52.43618" lon="5.91256"></trkpt><trkpt lat="52.43594" lon="5.91193"></trkpt><trkpt lat="52.43539" lon="5.91061"></trkpt><trkpt lat="52.43507" lon="5.90978"></trkpt><trkpt lat="52.43481" lon="5.90916"></trkpt><trkpt lat="52.43431" lon="5.90804"></trkpt><trkpt lat="52.43366" lon="5.90649"></trkpt><trkpt lat="52.43354" lon="5.90616"></trkpt><trkpt lat="52.43324" lon="5.90543"></trkpt><trkpt lat="52.43313" lon="5.90511"></trkpt><trkpt lat="52.43304" lon="5.90492"></trkpt><trkpt lat="52.43268" lon="5.904"></trkpt><trkpt lat="52.43237" lon="5.90332"></trkpt><trkpt lat="52.43207" lon="5.90275"></trkpt><trkpt lat="52.43109" lon="5.90052"></trkpt><trkpt lat="52.43032" lon="5.89853"></trkpt><trkpt lat="52.4299" lon="5.89752"></trkpt><trkpt lat="52.42944" lon="5.89656"></trkpt><trkpt lat="52.42914" lon="5.89588"></trkpt><trkpt lat="52.42895" lon="5.89551"></trkpt><trkpt lat="52.42887" lon="5.89532"></trkpt><trkpt lat="52.42847" lon="5.89463"></trkpt><trkpt lat="52.42829" lon="5.89425"></trkpt><trkpt lat="52.42819" lon="5.89393"></trkpt><trkpt lat="52.4281" lon="5.89347"></trkpt><trkpt lat="52.42804" lon="5.89266"></trkpt><trkpt lat="52.428" lon="5.89109"></trkpt><trkpt lat="52.4279" lon="5.89064"></trkpt><trkpt lat="52.42776" lon="5.88975"></trkpt><trkpt lat="52.42768" lon="5.88935"></trkpt><trkpt lat="52.42762" lon="5.88857"></trkpt><trkpt lat="52.4276" lon="5.88846"></trkpt><trkpt lat="52.42757" lon="5.88763"></trkpt><trkpt lat="52.42751" lon="5.88719"></trkpt><trkpt lat="52.4275" lon="5.88672"></trkpt><trkpt lat="52.42748" lon="5.88649"></trkpt><trkpt lat="52.42747" lon="5.88638"></trkpt><trkpt lat="52.42741" lon="5.88614"></trkpt><trkpt lat="52.42735" lon="5.88567"></trkpt><trkpt lat="52.42726" lon="5.88531"></trkpt><trkpt lat="52.42701" lon="5.8846"></trkpt><trkpt lat="52.42695" lon="5.88436"></trkpt><trkpt lat="52.42682" lon="5.88397"></trkpt><trkpt lat="52.42668" lon="5.88343"></trkpt><trkpt lat="52.4265" lon="5.88287"></trkpt><trkpt lat="52.42627" lon="5.882"></trkpt><trkpt lat="52.42593" lon="5.88095"></trkpt><trkpt lat="52.42576" lon="5.88031"></trkpt><trkpt lat="52.42556" lon="5.87978"></trkpt><trkpt lat="52.42539" lon="5.87923"></trkpt><trkpt lat="52.42523" lon="5.87881"></trkpt><trkpt lat="52.42479" lon="5.8774"></trkpt><trkpt lat="52.42446" lon="5.87659"></trkpt><trkpt lat="52.4244" lon="5.8765"></trkpt><trkpt lat="52.42402" lon="5.87573"></trkpt><trkpt lat="52.42373" lon="5.87521"></trkpt><trkpt lat="52.42362" lon="5.87506"></trkpt><trkpt lat="52.42326" lon="5.87466"></trkpt><trkpt lat="52.4229" lon="5.8743"></trkpt><trkpt lat="52.42263" lon="5.87412"></trkpt><trkpt lat="52.42256" lon="5.87409"></trkpt><trkpt lat="52.42234" lon="5.87407"></trkpt><trkpt lat="52.42191" lon="5.87415"></trkpt><trkpt lat="52.42177" lon="5.87416"></trkpt><trkpt lat="52.42169" lon="5.87414"></trkpt><trkpt lat="52.42163" lon="5.87409"></trkpt><trkpt lat="52.42141" lon="5.8738"></trkpt><trkpt lat="52.42114" lon="5.87338"></trkpt><trkpt lat="52.42099" lon="5.87311"></trkpt><trkpt lat="52.42073" lon="5.87253"></trkpt><trkpt lat="52.42043" lon="5.87202"></trkpt><trkpt lat="52.42026" lon="5.87179"></trkpt><trkpt lat="52.42002" lon="5.87152"></trkpt><trkpt lat="52.4198" lon="5.87123"></trkpt><trkpt lat="52.41956" lon="5.87095"></trkpt><trkpt lat="52.41918" lon="5.87043"></trkpt><trkpt lat="52.41913" lon="5.87038"></trkpt><trkpt lat="52.41907" lon="5.87035"></trkpt><trkpt lat="52.41901" lon="5.87037"></trkpt><trkpt lat="52.41895" lon="5.87045"></trkpt><trkpt lat="52.41887" lon="5.87064"></trkpt><trkpt lat="52.41864" lon="5.87148"></trkpt><trkpt lat="52.41819" lon="5.87235"></trkpt><trkpt lat="52.41806" lon="5.87248"></trkpt><trkpt lat="52.41799" lon="5.87251"></trkpt><trkpt lat="52.41792" lon="5.87252"></trkpt><trkpt lat="52.41785" lon="5.87249"></trkpt><trkpt lat="52.41773" lon="5.87235"></trkpt><trkpt lat="52.41709" lon="5.87133"></trkpt><trkpt lat="52.41663" lon="5.87067"></trkpt><trkpt lat="52.4162" lon="5.86998"></trkpt><trkpt lat="52.41588" lon="5.86946"></trkpt><trkpt lat="52.41564" lon="5.86897"></trkpt><trkpt lat="52.41553" lon="5.86864"></trkpt><trkpt lat="52.4154" lon="5.86833"></trkpt><trkpt lat="52.41534" lon="5.86811"></trkpt><trkpt lat="52.41517" lon="5.86715"></trkpt><trkpt lat="52.41505" lon="5.86669"></trkpt><trkpt lat="52.4149" lon="5.86598"></trkpt><trkpt lat="52.41479" lon="5.86567"></trkpt><trkpt lat="52.41469" lon="5.86549"></trkpt><trkpt lat="52.41457" lon="5.86532"></trkpt><trkpt lat="52.41452" lon="5.86522"></trkpt><trkpt lat="52.41449" lon="5.86511"></trkpt><trkpt lat="52.41439" lon="5.86493"></trkpt><trkpt lat="52.41417" lon="5.86483"></trkpt><trkpt lat="52.41405" lon="5.86466"></trkpt><trkpt lat="52.41394" lon="5.86447"></trkpt><trkpt lat="52.41371" lon="5.86396"></trkpt><trkpt lat="52.41351" lon="5.86358"></trkpt><trkpt lat="52.41333" lon="5.86318"></trkpt><trkpt lat="52.413" lon="5.86251"></trkpt><trkpt lat="52.41265" lon="5.86173"></trkpt><trkpt lat="52.41232" lon="5.86106"></trkpt><trkpt lat="52.41215" lon="5.86068"></trkpt><trkpt lat="52.41195" lon="5.86031"></trkpt><trkpt lat="52.41184" lon="5.86001"></trkpt><trkpt lat="52.4117" lon="5.85946"></trkpt><trkpt lat="52.41163" lon="5.85926"></trkpt><trkpt lat="52.41146" lon="5.85864"></trkpt><trkpt lat="52.41141" lon="5.85855"></trkpt><trkpt lat="52.41135" lon="5.85849"></trkpt><trkpt lat="52.41126" lon="5.85844"></trkpt><trkpt lat="52.41098" lon="5.85839"></trkpt><trkpt lat="52.41083" lon="5.85839"></trkpt><trkpt lat="52.41069" lon="5.85834"></trkpt><trkpt lat="52.41062" lon="5.85828"></trkpt><trkpt lat="52.41057" lon="5.85818"></trkpt><trkpt lat="52.41005" lon="5.85626"></trkpt><trkpt lat="52.40984" lon="5.85563"></trkpt><trkpt lat="52.40945" lon="5.85461"></trkpt><trkpt lat="52.40932" lon="5.85416"></trkpt><trkpt lat="52.40908" lon="5.85324"></trkpt><trkpt lat="52.40904" lon="5.853"></trkpt><trkpt lat="52.40888" lon="5.85231"></trkpt><trkpt lat="52.4088" lon="5.85185"></trkpt><trkpt lat="52.40855" lon="5.85106"></trkpt><trkpt lat="52.40808" lon="5.84981"></trkpt><trkpt lat="52.40798" lon="5.8495"></trkpt><trkpt lat="52.40775" lon="5.84893"></trkpt><trkpt lat="52.4077" lon="5.84884"></trkpt><trkpt lat="52.40759" lon="5.84851"></trkpt><trkpt lat="52.40718" lon="5.84755"></trkpt><trkpt lat="52.40694" lon="5.84695"></trkpt><trkpt lat="52.40684" lon="5.84664"></trkpt><trkpt lat="52.40671" lon="5.84636"></trkpt><trkpt lat="52.40648" lon="5.8458"></trkpt><trkpt lat="52.40611" lon="5.84482"></trkpt><trkpt lat="52.40566" lon="5.84372"></trkpt><trkpt lat="52.40552" lon="5.84343"></trkpt><trkpt lat="52.40545" lon="5.84323"></trkpt><trkpt lat="52.4054" lon="5.843"></trkpt><trkpt lat="52.40539" lon="5.84289"></trkpt><trkpt lat="52.40536" lon="5.84229"></trkpt><trkpt lat="52.40529" lon="5.84142"></trkpt><trkpt lat="52.40515" lon="5.8407"></trkpt><trkpt lat="52.40486" lon="5.83954"></trkpt><trkpt lat="52.40453" lon="5.83801"></trkpt><trkpt lat="52.4043" lon="5.83725"></trkpt><trkpt lat="52.40412" lon="5.83688"></trkpt><trkpt lat="52.40394" lon="5.83669"></trkpt><trkpt lat="52.40367" lon="5.83645"></trkpt><trkpt lat="52.40354" lon="5.8363"></trkpt><trkpt lat="52.40326" lon="5.83592"></trkpt><trkpt lat="52.40313" lon="5.8358"></trkpt><trkpt lat="52.40306" lon="5.83576"></trkpt><trkpt lat="52.40263" lon="5.83556"></trkpt><trkpt lat="52.4025" lon="5.83545"></trkpt><trkpt lat="52.40238" lon="5.83532"></trkpt><trkpt lat="52.40204" lon="5.83484"></trkpt><trkpt lat="52.40199" lon="5.83474"></trkpt><trkpt lat="52.40196" lon="5.83464"></trkpt><trkpt lat="52.40194" lon="5.83453"></trkpt><trkpt lat="52.40196" lon="5.83441"></trkpt><trkpt lat="52.40212" lon="5.83388"></trkpt><trkpt lat="52.40216" lon="5.83364"></trkpt><trkpt lat="52.40214" lon="5.83339"></trkpt><trkpt lat="52.4019" lon="5.83238"></trkpt><trkpt lat="52.40179" lon="5.8318"></trkpt><trkpt lat="52.40175" lon="5.83144"></trkpt><trkpt lat="52.4018" lon="5.8307"></trkpt><trkpt lat="52.40175" lon="5.82917"></trkpt><trkpt lat="52.40177" lon="5.82768"></trkpt><trkpt lat="52.40174" lon="5.82694"></trkpt><trkpt lat="52.40167" lon="5.82642"></trkpt><trkpt lat="52.40141" lon="5.82533"></trkpt><trkpt lat="52.40127" lon="5.82489"></trkpt><trkpt lat="52.40107" lon="5.82452"></trkpt><trkpt lat="52.4009" lon="5.82427"></trkpt><trkpt lat="52.40076" lon="5.82413"></trkpt><trkpt lat="52.4007" lon="5.82409"></trkpt><trkpt lat="52.40049" lon="5.82397"></trkpt><trkpt lat="52.40027" lon="5.82389"></trkpt><trkpt lat="52.40005" lon="5.82383"></trkpt><trkpt lat="52.39983" lon="5.82374"></trkpt><trkpt lat="52.39947" lon="5.82363"></trkpt><trkpt lat="52.39909" lon="5.82347"></trkpt><trkpt lat="52.39873" lon="5.82325"></trkpt><trkpt lat="52.39854" lon="5.8231"></trkpt><trkpt lat="52.39827" lon="5.82286"></trkpt><trkpt lat="52.398" lon="5.82259"></trkpt><trkpt lat="52.3979" lon="5.82247"></trkpt><trkpt lat="52.39772" lon="5.82223"></trkpt><trkpt lat="52.39751" lon="5.82186"></trkpt><trkpt lat="52.39731" lon="5.82139"></trkpt><trkpt lat="52.39724" lon="5.82118"></trkpt><trkpt lat="52.39712" lon="5.82073"></trkpt><trkpt lat="52.3971" lon="5.82061"></trkpt><trkpt lat="52.39708" lon="5.82037"></trkpt><trkpt lat="52.39708" lon="5.81987"></trkpt><trkpt lat="52.39711" lon="5.81914"></trkpt><trkpt lat="52.39711" lon="5.8183"></trkpt><trkpt lat="52.39706" lon="5.81791"></trkpt><trkpt lat="52.3967" lon="5.81657"></trkpt><trkpt lat="52.39662" lon="5.81634"></trkpt><trkpt lat="52.39647" lon="5.81578"></trkpt><trkpt lat="52.39631" lon="5.81539"></trkpt><trkpt lat="52.3961" lon="5.815"></trkpt><trkpt lat="52.39571" lon="5.81438"></trkpt><trkpt lat="52.39555" lon="5.8141"></trkpt><trkpt lat="52.39537" lon="5.81384"></trkpt><trkpt lat="52.395" lon="5.81319"></trkpt><trkpt lat="52.39442" lon="5.81231"></trkpt><trkpt lat="52.39437" lon="5.81221"></trkpt><trkpt lat="52.39426" lon="5.8116"></trkpt><trkpt lat="52.39417" lon="5.81125"></trkpt><trkpt lat="52.39406" lon="5.81093"></trkpt><trkpt lat="52.39398" lon="5.8106"></trkpt><trkpt lat="52.39391" lon="5.80945"></trkpt><trkpt lat="52.39386" lon="5.8092"></trkpt><trkpt lat="52.39362" lon="5.80855"></trkpt><trkpt lat="52.39354" lon="5.80819"></trkpt><trkpt lat="52.39352" lon="5.80795"></trkpt><trkpt lat="52.39351" lon="5.80758"></trkpt><trkpt lat="52.39361" lon="5.80646"></trkpt><trkpt lat="52.39364" lon="5.80595"></trkpt><trkpt lat="52.39363" lon="5.8057"></trkpt><trkpt lat="52.39349" lon="5.80484"></trkpt><trkpt lat="52.39348" lon="5.80459"></trkpt><trkpt lat="52.39352" lon="5.80423"></trkpt><trkpt lat="52.3936" lon="5.80388"></trkpt><trkpt lat="52.39371" lon="5.80329"></trkpt><trkpt lat="52.39387" lon="5.80217"></trkpt><trkpt lat="52.39389" lon="5.80168"></trkpt><trkpt lat="52.39388" lon="5.80143"></trkpt><trkpt lat="52.39389" lon="5.79971"></trkpt><trkpt lat="52.39386" lon="5.79913"></trkpt><trkpt lat="52.39382" lon="5.79883"></trkpt><trkpt lat="52.39378" lon="5.79875"></trkpt><trkpt lat="52.39373" lon="5.79869"></trkpt><trkpt lat="52.39366" lon="5.79865"></trkpt><trkpt lat="52.39347" lon="5.79864"></trkpt><trkpt lat="52.39341" lon="5.79863"></trkpt><trkpt lat="52.39336" lon="5.7986"></trkpt><trkpt lat="52.39332" lon="5.79854"></trkpt><trkpt lat="52.39327" lon="5.79835"></trkpt><trkpt lat="52.39326" lon="5.79825"></trkpt><trkpt lat="52.3933" lon="5.79778"></trkpt><trkpt lat="52.39334" lon="5.79757"></trkpt><trkpt lat="52.39342" lon="5.7974"></trkpt><trkpt lat="52.39346" lon="5.79719"></trkpt><trkpt lat="52.39345" lon="5.79708"></trkpt><trkpt lat="52.39342" lon="5.79698"></trkpt><trkpt lat="52.39337" lon="5.79692"></trkpt><trkpt lat="52.3933" lon="5.79688"></trkpt><trkpt lat="52.39323" lon="5.79686"></trkpt><trkpt lat="52.39316" lon="5.79688"></trkpt><trkpt lat="52.39309" lon="5.79692"></trkpt><trkpt lat="52.39302" lon="5.79693"></trkpt><trkpt lat="52.39294" lon="5.79692"></trkpt><trkpt lat="52.39279" lon="5.79685"></trkpt><trkpt lat="52.39215" lon="5.79645"></trkpt><trkpt lat="52.39117" lon="5.79573"></trkpt><trkpt lat="52.39046" lon="5.79527"></trkpt><trkpt lat="52.39033" lon="5.79516"></trkpt><trkpt lat="52.39018" lon="5.79508"></trkpt><trkpt lat="52.3899" lon="5.7949"></trkpt><trkpt lat="52.38957" lon="5.79463"></trkpt><trkpt lat="52.38929" lon="5.79444"></trkpt><trkpt lat="52.38918" lon="5.79431"></trkpt><trkpt lat="52.38912" lon="5.79427"></trkpt><trkpt lat="52.38898" lon="5.79425"></trkpt><trkpt lat="52.38883" lon="5.79419"></trkpt><trkpt lat="52.38858" lon="5.79391"></trkpt><trkpt lat="52.38812" lon="5.79348"></trkpt><trkpt lat="52.38774" lon="5.79307"></trkpt><trkpt lat="52.38721" lon="5.79254"></trkpt><trkpt lat="52.38708" lon="5.79239"></trkpt><trkpt lat="52.38647" lon="5.79146"></trkpt><trkpt lat="52.38593" lon="5.79045"></trkpt><trkpt lat="52.38589" lon="5.79036"></trkpt><trkpt lat="52.38578" lon="5.78992"></trkpt><trkpt lat="52.38573" lon="5.78982"></trkpt><trkpt lat="52.38567" lon="5.78975"></trkpt><trkpt lat="52.38553" lon="5.78965"></trkpt><trkpt lat="52.38535" lon="5.78939"></trkpt><trkpt lat="52.38469" lon="5.78817"></trkpt><trkpt lat="52.38446" lon="5.78784"></trkpt><trkpt lat="52.38436" lon="5.78766"></trkpt><trkpt lat="52.38415" lon="5.78719"></trkpt><trkpt lat="52.38395" lon="5.78684"></trkpt><trkpt lat="52.38391" lon="5.78674"></trkpt><trkpt lat="52.38387" lon="5.7865"></trkpt><trkpt lat="52.38383" lon="5.78641"></trkpt><trkpt lat="52.38377" lon="5.78634"></trkpt><trkpt lat="52.38364" lon="5.78623"></trkpt><trkpt lat="52.38352" lon="5.78607"></trkpt><trkpt lat="52.38302" lon="5.78517"></trkpt><trkpt lat="52.38277" lon="5.78469"></trkpt><trkpt lat="52.38266" lon="5.78451"></trkpt><trkpt lat="52.38227" lon="5.78371"></trkpt><trkpt lat="52.38217" lon="5.78353"></trkpt><trkpt lat="52.38205" lon="5.78336"></trkpt><trkpt lat="52.38148" lon="5.78235"></trkpt><trkpt lat="52.38124" lon="5.78189"></trkpt><trkpt lat="52.38087" lon="5.78112"></trkpt><trkpt lat="52.38081" lon="5.78103"></trkpt><trkpt lat="52.38045" lon="5.78035"></trkpt><trkpt lat="52.38042" lon="5.78013"></trkpt><trkpt lat="52.38034" lon="5.77994"></trkpt><trkpt lat="52.3802" lon="5.77985"></trkpt><trkpt lat="52.38013" lon="5.77978"></trkpt><trkpt lat="52.37993" lon="5.77942"></trkpt><trkpt lat="52.37989" lon="5.77932"></trkpt><trkpt lat="52.37973" lon="5.77905"></trkpt><trkpt lat="52.37958" lon="5.77874"></trkpt><trkpt lat="52.37933" lon="5.77828"></trkpt><trkpt lat="52.3791" lon="5.7778"></trkpt><trkpt lat="52.37865" lon="5.77698"></trkpt><trkpt lat="52.37852" lon="5.77667"></trkpt><trkpt lat="52.37829" lon="5.77632"></trkpt><trkpt lat="52.37789" lon="5.77556"></trkpt><trkpt lat="52.37762" lon="5.77509"></trkpt><trkpt lat="52.37703" lon="5.77399"></trkpt><trkpt lat="52.37681" lon="5.77367"></trkpt><trkpt lat="52.37665" lon="5.77328"></trkpt><trkpt lat="52.37645" lon="5.77288"></trkpt><trkpt lat="52.37614" lon="5.77233"></trkpt><trkpt lat="52.376" lon="5.77205"></trkpt><trkpt lat="52.37585" lon="5.77179"></trkpt><trkpt lat="52.37581" lon="5.77169"></trkpt><trkpt lat="52.37565" lon="5.77142"></trkpt><trkpt lat="52.37561" lon="5.77132"></trkpt><trkpt lat="52.37545" lon="5.77105"></trkpt><trkpt lat="52.37515" lon="5.77048"></trkpt><trkpt lat="52.37508" lon="5.77031"></trkpt><trkpt lat="52.37498" lon="5.77012"></trkpt><trkpt lat="52.37494" lon="5.76999"></trkpt><trkpt lat="52.3749" lon="5.76971"></trkpt><trkpt lat="52.37475" lon="5.7695"></trkpt><trkpt lat="52.37471" lon="5.76942"></trkpt><trkpt lat="52.37451" lon="5.76878"></trkpt><trkpt lat="52.37439" lon="5.76819"></trkpt><trkpt lat="52.37433" lon="5.76796"></trkpt><trkpt lat="52.37429" lon="5.76773"></trkpt><trkpt lat="52.37425" lon="5.76736"></trkpt><trkpt lat="52.37421" lon="5.76713"></trkpt><trkpt lat="52.37412" lon="5.76679"></trkpt><trkpt lat="52.37388" lon="5.76528"></trkpt><trkpt lat="52.37372" lon="5.76449"></trkpt><trkpt lat="52.37355" lon="5.76331"></trkpt><trkpt lat="52.3735" lon="5.7631"></trkpt><trkpt lat="52.37345" lon="5.76273"></trkpt><trkpt lat="52.37334" lon="5.76215"></trkpt><trkpt lat="52.37317" lon="5.76146"></trkpt><trkpt lat="52.37313" lon="5.76122"></trkpt><trkpt lat="52.37294" lon="5.76067"></trkpt><trkpt lat="52.37264" lon="5.75951"></trkpt><trkpt lat="52.37258" lon="5.75903"></trkpt><trkpt lat="52.3726" lon="5.75865"></trkpt><trkpt lat="52.37259" lon="5.75854"></trkpt><trkpt lat="52.37242" lon="5.75814"></trkpt><trkpt lat="52.37178" lon="5.75558"></trkpt><trkpt lat="52.37155" lon="5.75478"></trkpt><trkpt lat="52.37122" lon="5.75377"></trkpt><trkpt lat="52.37106" lon="5.75336"></trkpt><trkpt lat="52.37089" lon="5.7528"></trkpt><trkpt lat="52.37045" lon="5.75149"></trkpt><trkpt lat="52.37036" lon="5.75117"></trkpt><trkpt lat="52.37018" lon="5.75066"></trkpt><trkpt lat="52.36944" lon="5.74838"></trkpt><trkpt lat="52.36939" lon="5.74828"></trkpt><trkpt lat="52.3693" lon="5.74795"></trkpt><trkpt lat="52.36894" lon="5.74688"></trkpt><trkpt lat="52.36879" lon="5.74632"></trkpt><trkpt lat="52.36858" lon="5.74541"></trkpt><trkpt lat="52.36824" lon="5.74366"></trkpt><trkpt lat="52.36787" lon="5.74188"></trkpt><trkpt lat="52.36756" lon="5.74085"></trkpt><trkpt lat="52.3671" lon="5.73965"></trkpt><trkpt lat="52.36687" lon="5.73916"></trkpt><trkpt lat="52.3668" lon="5.73895"></trkpt><trkpt lat="52.36665" lon="5.73863"></trkpt><trkpt lat="52.36645" lon="5.73809"></trkpt><trkpt lat="52.36618" lon="5.73747"></trkpt><trkpt lat="52.3658" lon="5.73646"></trkpt><trkpt lat="52.36512" lon="5.7351"></trkpt><trkpt lat="52.36476" lon="5.73432"></trkpt><trkpt lat="52.36461" lon="5.73403"></trkpt><trkpt lat="52.36437" lon="5.73342"></trkpt><trkpt lat="52.36422" lon="5.73299"></trkpt><trkpt lat="52.36392" lon="5.73199"></trkpt><trkpt lat="52.36374" lon="5.73144"></trkpt><trkpt lat="52.36365" lon="5.73108"></trkpt><trkpt lat="52.36356" lon="5.73088"></trkpt><trkpt lat="52.36333" lon="5.73005"></trkpt><trkpt lat="52.36311" lon="5.72938"></trkpt><trkpt lat="52.36291" lon="5.7287"></trkpt><trkpt lat="52.36254" lon="5.72727"></trkpt><trkpt lat="52.36197" lon="5.72487"></trkpt><trkpt lat="52.3619" lon="5.72451"></trkpt><trkpt lat="52.36171" lon="5.72381"></trkpt><trkpt lat="52.36112" lon="5.72191"></trkpt><trkpt lat="52.36075" lon="5.7208"></trkpt><trkpt lat="52.36058" lon="5.72023"></trkpt><trkpt lat="52.3604" lon="5.71969"></trkpt><trkpt lat="52.36011" lon="5.71899"></trkpt><trkpt lat="52.35981" lon="5.7184"></trkpt><trkpt lat="52.35959" lon="5.71788"></trkpt><trkpt lat="52.35937" lon="5.71753"></trkpt><trkpt lat="52.35913" lon="5.71707"></trkpt><trkpt lat="52.35786" lon="5.71457"></trkpt><trkpt lat="52.35723" lon="5.71329"></trkpt><trkpt lat="52.35693" lon="5.71274"></trkpt><trkpt lat="52.35649" lon="5.71188"></trkpt><trkpt lat="52.35615" lon="5.7112"></trkpt><trkpt lat="52.35591" lon="5.71068"></trkpt><trkpt lat="52.35572" lon="5.71018"></trkpt><trkpt lat="52.35552" lon="5.70952"></trkpt><trkpt lat="52.35506" lon="5.7078"></trkpt><trkpt lat="52.35486" lon="5.70713"></trkpt><trkpt lat="52.35466" lon="5.70632"></trkpt><trkpt lat="52.35455" lon="5.70574"></trkpt><trkpt lat="52.35449" lon="5.70511"></trkpt><trkpt lat="52.35449" lon="5.70475"></trkpt><trkpt lat="52.35454" lon="5.7041"></trkpt><trkpt lat="52.35469" lon="5.70324"></trkpt><trkpt lat="52.35484" lon="5.70281"></trkpt><trkpt lat="52.3549" lon="5.70257"></trkpt><trkpt lat="52.35519" lon="5.70165"></trkpt><trkpt lat="52.35533" lon="5.70115"></trkpt><trkpt lat="52.35549" lon="5.70072"></trkpt><trkpt lat="52.35571" lon="5.70001"></trkpt><trkpt lat="52.35579" lon="5.69981"></trkpt><trkpt lat="52.35629" lon="5.69815"></trkpt><trkpt lat="52.3566" lon="5.69729"></trkpt><trkpt lat="52.3569" lon="5.69657"></trkpt><trkpt lat="52.35723" lon="5.69586"></trkpt><trkpt lat="52.35745" lon="5.69535"></trkpt><trkpt lat="52.35789" lon="5.69418"></trkpt><trkpt lat="52.35796" lon="5.69393"></trkpt><trkpt lat="52.35812" lon="5.69318"></trkpt><trkpt lat="52.35815" lon="5.69293"></trkpt><trkpt lat="52.35822" lon="5.69257"></trkpt><trkpt lat="52.35828" lon="5.69198"></trkpt><trkpt lat="52.35831" lon="5.69126"></trkpt><trkpt lat="52.35825" lon="5.69001"></trkpt><trkpt lat="52.35816" lon="5.68904"></trkpt><trkpt lat="52.35815" lon="5.68868"></trkpt><trkpt lat="52.35807" lon="5.6877"></trkpt><trkpt lat="52.35806" lon="5.68734"></trkpt><trkpt lat="52.35801" lon="5.68672"></trkpt><trkpt lat="52.35795" lon="5.68559"></trkpt><trkpt lat="52.35785" lon="5.6842"></trkpt><trkpt lat="52.35781" lon="5.68383"></trkpt><trkpt lat="52.35778" lon="5.6832"></trkpt><trkpt lat="52.35769" lon="5.68197"></trkpt><trkpt lat="52.35757" lon="5.68114"></trkpt><trkpt lat="52.35747" lon="5.68068"></trkpt><trkpt lat="52.35745" lon="5.68032"></trkpt><trkpt lat="52.3574" lon="5.68009"></trkpt><trkpt lat="52.35714" lon="5.67963"></trkpt><trkpt lat="52.35686" lon="5.67889"></trkpt><trkpt lat="52.35681" lon="5.67879"></trkpt><trkpt lat="52.35669" lon="5.67848"></trkpt><trkpt lat="52.35653" lon="5.67796"></trkpt><trkpt lat="52.35619" lon="5.67699"></trkpt><trkpt lat="52.35608" lon="5.67655"></trkpt><trkpt lat="52.35604" lon="5.67607"></trkpt><trkpt lat="52.35595" lon="5.67561"></trkpt><trkpt lat="52.35586" lon="5.67501"></trkpt><trkpt lat="52.35584" lon="5.67476"></trkpt><trkpt lat="52.35583" lon="5.6726"></trkpt><trkpt lat="52.35579" lon="5.67045"></trkpt><trkpt lat="52.35578" lon="5.66883"></trkpt><trkpt lat="52.3558" lon="5.66847"></trkpt><trkpt lat="52.35574" lon="5.66749"></trkpt><trkpt lat="52.35568" lon="5.66677"></trkpt><trkpt lat="52.3556" lon="5.66606"></trkpt><trkpt lat="52.35549" lon="5.66534"></trkpt><trkpt lat="52.35509" lon="5.66326"></trkpt><trkpt lat="52.35491" lon="5.66199"></trkpt><trkpt lat="52.35482" lon="5.66117"></trkpt><trkpt lat="52.35474" lon="5.66069"></trkpt><trkpt lat="52.35472" lon="5.66045"></trkpt><trkpt lat="52.35466" lon="5.6601"></trkpt><trkpt lat="52.35448" lon="5.65877"></trkpt><trkpt lat="52.35441" lon="5.65815"></trkpt><trkpt lat="52.3543" lon="5.65757"></trkpt><trkpt lat="52.3542" lon="5.65683"></trkpt><trkpt lat="52.35405" lon="5.65626"></trkpt><trkpt lat="52.35403" lon="5.65603"></trkpt><trkpt lat="52.35364" lon="5.65316"></trkpt><trkpt lat="52.35355" lon="5.65269"></trkpt><trkpt lat="52.35354" lon="5.65257"></trkpt><trkpt lat="52.35342" lon="5.65211"></trkpt><trkpt lat="52.35326" lon="5.65169"></trkpt><trkpt lat="52.3532" lon="5.65147"></trkpt><trkpt lat="52.35304" lon="5.65105"></trkpt><trkpt lat="52.35294" lon="5.65072"></trkpt><trkpt lat="52.35266" lon="5.64997"></trkpt><trkpt lat="52.35263" lon="5.64985"></trkpt><trkpt lat="52.35225" lon="5.64876"></trkpt><trkpt lat="52.35181" lon="5.64758"></trkpt><trkpt lat="52.3517" lon="5.64725"></trkpt><trkpt lat="52.35144" lon="5.64658"></trkpt><trkpt lat="52.35136" lon="5.64632"></trkpt><trkpt lat="52.35126" lon="5.64569"></trkpt><trkpt lat="52.35114" lon="5.64506"></trkpt><trkpt lat="52.35107" lon="5.64445"></trkpt><trkpt lat="52.35107" lon="5.64421"></trkpt><trkpt lat="52.35105" lon="5.64397"></trkpt><trkpt lat="52.35084" lon="5.64257"></trkpt><trkpt lat="52.3506" lon="5.64115"></trkpt><trkpt lat="52.35047" lon="5.6402"></trkpt><trkpt lat="52.35045" lon="5.64009"></trkpt><trkpt lat="52.35035" lon="5.63978"></trkpt><trkpt lat="52.35029" lon="5.63915"></trkpt><trkpt lat="52.35012" lon="5.63851"></trkpt><trkpt lat="52.35011" lon="5.6384"></trkpt><trkpt lat="52.35013" lon="5.63828"></trkpt><trkpt lat="52.34995" lon="5.63725"></trkpt><trkpt lat="52.34959" lon="5.63494"></trkpt><trkpt lat="52.34948" lon="5.63449"></trkpt><trkpt lat="52.34931" lon="5.63344"></trkpt><trkpt lat="52.34926" lon="5.63322"></trkpt><trkpt lat="52.34911" lon="5.63284"></trkpt><trkpt lat="52.34895" lon="5.63262"></trkpt><trkpt lat="52.34892" lon="5.63252"></trkpt><trkpt lat="52.34891" lon="5.63218"></trkpt><trkpt lat="52.34889" lon="5.63207"></trkpt><trkpt lat="52.34879" lon="5.63174"></trkpt><trkpt lat="52.34871" lon="5.63154"></trkpt><trkpt lat="52.34855" lon="5.63127"></trkpt><trkpt lat="52.34847" lon="5.63107"></trkpt><trkpt lat="52.34827" lon="5.63069"></trkpt><trkpt lat="52.34801" lon="5.63026"></trkpt><trkpt lat="52.3479" lon="5.63011"></trkpt><trkpt lat="52.34771" lon="5.62992"></trkpt><trkpt lat="52.34765" lon="5.62984"></trkpt><trkpt lat="52.34755" lon="5.62967"></trkpt><trkpt lat="52.34747" lon="5.62947"></trkpt><trkpt lat="52.34737" lon="5.62929"></trkpt><trkpt lat="52.34627" lon="5.62765"></trkpt><trkpt lat="52.3461" lon="5.62742"></trkpt><trkpt lat="52.34589" lon="5.62708"></trkpt><trkpt lat="52.34554" lon="5.6266"></trkpt><trkpt lat="52.34542" lon="5.62652"></trkpt><trkpt lat="52.34535" lon="5.62651"></trkpt><trkpt lat="52.34528" lon="5.62652"></trkpt><trkpt lat="52.34521" lon="5.62649"></trkpt><trkpt lat="52.34516" lon="5.62642"></trkpt><trkpt lat="52.34509" lon="5.62624"></trkpt><trkpt lat="52.34504" lon="5.62591"></trkpt><trkpt lat="52.345" lon="5.62581"></trkpt><trkpt lat="52.34414" lon="5.62439"></trkpt><trkpt lat="52.34401" lon="5.62422"></trkpt><trkpt lat="52.34394" lon="5.62416"></trkpt><trkpt lat="52.34367" lon="5.62375"></trkpt><trkpt lat="52.34326" lon="5.62322"></trkpt><trkpt lat="52.34321" lon="5.62314"></trkpt><trkpt lat="52.34305" lon="5.62275"></trkpt><trkpt lat="52.34273" lon="5.62224"></trkpt><trkpt lat="52.34256" lon="5.622"></trkpt><trkpt lat="52.34236" lon="5.62167"></trkpt><trkpt lat="52.34218" lon="5.62144"></trkpt><trkpt lat="52.342" lon="5.62126"></trkpt><trkpt lat="52.34167" lon="5.621"></trkpt><trkpt lat="52.34141" lon="5.62086"></trkpt><trkpt lat="52.34131" lon="5.62076"></trkpt><trkpt lat="52.3412" lon="5.62054"></trkpt><trkpt lat="52.34117" lon="5.62045"></trkpt><trkpt lat="52.34116" lon="5.62025"></trkpt><trkpt lat="52.34112" lon="5.62006"></trkpt><trkpt lat="52.34107" lon="5.61999"></trkpt><trkpt lat="52.34096" lon="5.61989"></trkpt></trkseg></trk></gpx>