<?xml version="1.0" encoding="UTF-8"?>
<gpx version="1.1" creator="https://www.hammerhead.io" xmlns:xsi="http://www.w3.org/2001/XMLSchema-instance" xmlns="http://www.topografix.com/GPX/1/1" xsi:schemaLocation="http://www.topografix.com/GPX/1/1 http://www.topografix.com/GPX/1/1/gpx.xsd"><metadata><name>Ittersum Classic 2025</name><time>0001-01-01T00:00:00Z</time></metadata><trk><name>Ittersum Classic 2025</name><trkseg><trkpt lat="52.47759" lon="6.11478"></trkpt><trkpt lat="52.47771" lon="6.11502"></trkpt><trkpt lat="52.47813" lon="6.11606"></trkpt><trkpt lat="52.47828" lon="6.11637"></trkpt><trkpt lat="52.4784" lon="6.11676"></trkpt><trkpt lat="52.47887" lon="6.11795"></trkpt><trkpt lat="52.47893" lon="6.11806"></trkpt><trkpt lat="52.479" lon="6.11825"></trkpt><trkpt lat="52.47902" lon="6.11838"></trkpt><trkpt lat="52.47943" lon="6.11946"></trkpt><trkpt lat="52.47953" lon="6.11964"></trkpt><trkpt lat="52.47972" lon="6.11984"></trkpt><trkpt lat="52.47983" lon="6.12013"></trkpt><trkpt lat="52.47972" lon="6.1203"></trkpt><trkpt lat="52.47967" lon="6.12035"></trkpt><trkpt lat="52.4796" lon="6.12038"></trkpt><trkpt lat="52.47952" lon="6.12045"></trkpt><trkpt lat="52.4792" lon="6.12077"></trkpt><trkpt lat="52.47673" lon="6.12334"></trkpt><trkpt lat="52.47596" lon="6.12436"></trkpt><trkpt lat="52.4753" lon="6.12527"></trkpt><trkpt lat="52.47522" lon="6.12557"></trkpt><trkpt lat="52.47518" lon="6.12562"></trkpt><trkpt lat="52.475" lon="6.12568"></trkpt><trkpt lat="52.47427" lon="6.12666"></trkpt><trkpt lat="52.47415" lon="6.12686"></trkpt><trkpt lat="52.47393" lon="6.1273"></trkpt><trkpt lat="52.47372" lon="6.12766"></trkpt><trkpt lat="52.47332" lon="6.12824"></trkpt><trkpt lat="52.47296" lon="6.12873"></trkpt><trkpt lat="52.47183" lon="6.13037"></trkpt><trkpt lat="52.47153" lon="6.13075"></trkpt><trkpt lat="52.47122" lon="6.13104"></trkpt><trkpt lat="52.47097" lon="6.13123"></trkpt><trkpt lat="52.47077" lon="6.13135"></trkpt><trkpt lat="52.47045" lon="6.1315"></trkpt><trkpt lat="52.47041" lon="6.13154"></trkpt><trkpt lat="52.47023" lon="6.13194"></trkpt><trkpt lat="52.46977" lon="6.13306"></trkpt><trkpt lat="52.46966" lon="6.13294"></trkpt><trkpt lat="52.46963" lon="6.13288"></trkpt><trkpt lat="52.46958" lon="6.13274"></trkpt><trkpt lat="52.46948" lon="6.13228"></trkpt><trkpt lat="52.46944" lon="6.13219"></trkpt><trkpt lat="52.46932" lon="6.13202"></trkpt><trkpt lat="52.46907" lon="6.13188"></trkpt><trkpt lat="52.46889" lon="6.13181"></trkpt><trkpt lat="52.4687" lon="6.13175"></trkpt><trkpt lat="52.46841" lon="6.13169"></trkpt><trkpt lat="52.46817" lon="6.13168"></trkpt><trkpt lat="52.46754" lon="6.1317"></trkpt><trkpt lat="52.4637" lon="6.13184"></trkpt><trkpt lat="52.46362" lon="6.13194"></trkpt><trkpt lat="52.46357" lon="6.13196"></trkpt><trkpt lat="52.46351" lon="6.13195"></trkpt><trkpt lat="52.46332" lon="6.13184"></trkpt><trkpt lat="52.46292" lon="6.13187"></trkpt><trkpt lat="52.46268" lon="6.13187"></trkpt><trkpt lat="52.46233" lon="6.13181"></trkpt><trkpt lat="52.46204" lon="6.13179"></trkpt><trkpt lat="52.4619" lon="6.1318"></trkpt><trkpt lat="52.4617" lon="6.13184"></trkpt><trkpt lat="52.46153" lon="6.13193"></trkpt><trkpt lat="52.46148" lon="6.13198"></trkpt><trkpt lat="52.4614" lon="6.13203"></trkpt><trkpt lat="52.46123" lon="6.13208"></trkpt><trkpt lat="52.46106" lon="6.13209"></trkpt><trkpt lat="52.46101" lon="6.13208"></trkpt><trkpt lat="52.46089" lon="6.13202"></trkpt><trkpt lat="52.46065" lon="6.13188"></trkpt><trkpt lat="52.46056" lon="6.13186"></trkpt><trkpt lat="52.46035" lon="6.13187"></trkpt><trkpt lat="52.45944" lon="6.13198"></trkpt><trkpt lat="52.45911" lon="6.132"></trkpt><trkpt lat="52.45875" lon="6.13199"></trkpt><trkpt lat="52.45873" lon="6.132"></trkpt><trkpt lat="52.45821" lon="6.13193"></trkpt><trkpt lat="52.45792" lon="6.13187"></trkpt><trkpt lat="52.45756" lon="6.13178"></trkpt><trkpt lat="52.45634" lon="6.13141"></trkpt><trkpt lat="52.45492" lon="6.13073"></trkpt><trkpt lat="52.45453" lon="6.13061"></trkpt><trkpt lat="52.45379" lon="6.13052"></trkpt><trkpt lat="52.45329" lon="6.13059"></trkpt><trkpt lat="52.45158" lon="6.13112"></trkpt><trkpt lat="52.45112" lon="6.13133"></trkpt><trkpt lat="52.45094" lon="6.13143"></trkpt><trkpt lat="52.4508" lon="6.13153"></trkpt><trkpt lat="52.45068" lon="6.13168"></trkpt><trkpt lat="52.45056" lon="6.13189"></trkpt><trkpt lat="52.45047" lon="6.13213"></trkpt><trkpt lat="52.45038" lon="6.13231"></trkpt><trkpt lat="52.45031" lon="6.1324"></trkpt><trkpt lat="52.44972" lon="6.13287"></trkpt><trkpt lat="52.44934" lon="6.13292"></trkpt><trkpt lat="52.4489" lon="6.13325"></trkpt><trkpt lat="52.44846" lon="6.13368"></trkpt><trkpt lat="52.44829" lon="6.1338"></trkpt><trkpt lat="52.44825" lon="6.13359"></trkpt><trkpt lat="52.44812" lon="6.13311"></trkpt><trkpt lat="52.44758" lon="6.13164"></trkpt><trkpt lat="52.44747" lon="6.13152"></trkpt><trkpt lat="52.44712" lon="6.13176"></trkpt><trkpt lat="52.44591" lon="6.12918"></trkpt><trkpt lat="52.44583" lon="6.12891"></trkpt><trkpt lat="52.44573" lon="6.12845"></trkpt><trkpt lat="52.4456" lon="6.12775"></trkpt><trkpt lat="52.44519" lon="6.12584"></trkpt><trkpt lat="52.44487" lon="6.12603"></trkpt><trkpt lat="52.44459" lon="6.12618"></trkpt><trkpt lat="52.44448" lon="6.12618"></trkpt><trkpt lat="52.44337" lon="6.12586"></trkpt><trkpt lat="52.44254" lon="6.12564"></trkpt><trkpt lat="52.44175" lon="6.12539"></trkpt><trkpt lat="52.44159" lon="6.12536"></trkpt><trkpt lat="52.44138" lon="6.12536"></trkpt><trkpt lat="52.44045" lon="6.12545"></trkpt><trkpt lat="52.43962" lon="6.12548"></trkpt><trkpt lat="52.43944" lon="6.12553"></trkpt><trkpt lat="52.43933" lon="6.1256"></trkpt><trkpt lat="52.43906" lon="6.12586"></trkpt><trkpt lat="52.43888" lon="6.12601"></trkpt><trkpt lat="52.43863" lon="6.12616"></trkpt><trkpt lat="52.43841" lon="6.12627"></trkpt><trkpt lat="52.43824" lon="6.12633"></trkpt><trkpt lat="52.43796" lon="6.12639"></trkpt><trkpt lat="52.43758" lon="6.12653"></trkpt><trkpt lat="52.43618" lon="6.1271"></trkpt><trkpt lat="52.43604" lon="6.12718"></trkpt><trkpt lat="52.43594" lon="6.12728"></trkpt><trkpt lat="52.43571" lon="6.12768"></trkpt><trkpt lat="52.43549" lon="6.12811"></trkpt><trkpt lat="52.43512" lon="6.12891"></trkpt><trkpt lat="52.4345" lon="6.1297"></trkpt><trkpt lat="52.43445" lon="6.12981"></trkpt><trkpt lat="52.43442" lon="6.13001"></trkpt><trkpt lat="52.43442" lon="6.13091"></trkpt><trkpt lat="52.43441" lon="6.13098"></trkpt><trkpt lat="52.43436" lon="6.13109"></trkpt><trkpt lat="52.43428" lon="6.13117"></trkpt><trkpt lat="52.43376" lon="6.13153"></trkpt><trkpt lat="52.43311" lon="6.13205"></trkpt><trkpt lat="52.43215" lon="6.13259"></trkpt><trkpt lat="52.43134" lon="6.13317"></trkpt><trkpt lat="52.43091" lon="6.1334"></trkpt><trkpt lat="52.43036" lon="6.13361"></trkpt><trkpt lat="52.42926" lon="6.13406"></trkpt><trkpt lat="52.42743" lon="6.13469"></trkpt><trkpt lat="52.42734" lon="6.13472"></trkpt><trkpt lat="52.42728" lon="6.13477"></trkpt><trkpt lat="52.4272" lon="6.13478"></trkpt><trkpt lat="52.42715" lon="6.13475"></trkpt><trkpt lat="52.427" lon="6.13474"></trkpt><trkpt lat="52.42653" lon="6.13461"></trkpt><trkpt lat="52.42639" lon="6.13451"></trkpt><trkpt lat="52.42558" lon="6.13366"></trkpt><trkpt lat="52.42548" lon="6.1336"></trkpt><trkpt lat="52.42539" lon="6.13357"></trkpt><trkpt lat="52.4252" lon="6.13354"></trkpt><trkpt lat="52.42503" lon="6.13355"></trkpt><trkpt lat="52.42444" lon="6.134"></trkpt><trkpt lat="52.42428" lon="6.13414"></trkpt><trkpt lat="52.42412" lon="6.13429"></trkpt><trkpt lat="52.42391" lon="6.13454"></trkpt><trkpt lat="52.42377" lon="6.13482"></trkpt><trkpt lat="52.42362" lon="6.13527"></trkpt><trkpt lat="52.42348" lon="6.1355"></trkpt><trkpt lat="52.4234" lon="6.13558"></trkpt><trkpt lat="52.42322" lon="6.13573"></trkpt><trkpt lat="52.42287" lon="6.13593"></trkpt><trkpt lat="52.42275" lon="6.13597"></trkpt><trkpt lat="52.42253" lon="6.13601"></trkpt><trkpt lat="52.42214" lon="6.13597"></trkpt><trkpt lat="52.42207" lon="6.13599"></trkpt><trkpt lat="52.42199" lon="6.13606"></trkpt><trkpt lat="52.42159" lon="6.13665"></trkpt><trkpt lat="52.42145" lon="6.13681"></trkpt><trkpt lat="52.42128" lon="6.13691"></trkpt><trkpt lat="52.42089" lon="6.13701"></trkpt><trkpt lat="52.42069" lon="6.137"></trkpt><trkpt lat="52.42052" lon="6.13692"></trkpt><trkpt lat="52.42002" lon="6.13649"></trkpt><trkpt lat="52.41993" lon="6.13643"></trkpt><trkpt lat="52.41983" lon="6.13639"></trkpt><trkpt lat="52.4197" lon="6.13635"></trkpt><trkpt lat="52.41917" lon="6.1363"></trkpt><trkpt lat="52.41878" lon="6.13624"></trkpt><trkpt lat="52.41807" lon="6.136"></trkpt><trkpt lat="52.41775" lon="6.13591"></trkpt><trkpt lat="52.41761" lon="6.13589"></trkpt><trkpt lat="52.41736" lon="6.13595"></trkpt><trkpt lat="52.41671" lon="6.13623"></trkpt><trkpt lat="52.41506" lon="6.13684"></trkpt><trkpt lat="52.41493" lon="6.1369"></trkpt><trkpt lat="52.4148" lon="6.13697"></trkpt><trkpt lat="52.41469" lon="6.13705"></trkpt><trkpt lat="52.4146" lon="6.1372"></trkpt><trkpt lat="52.41457" lon="6.13749"></trkpt><trkpt lat="52.41444" lon="6.13952"></trkpt><trkpt lat="52.41438" lon="6.13979"></trkpt><trkpt lat="52.41432" lon="6.13997"></trkpt><trkpt lat="52.41419" lon="6.14025"></trkpt><trkpt lat="52.41413" lon="6.14034"></trkpt><trkpt lat="52.41379" lon="6.14071"></trkpt><trkpt lat="52.41339" lon="6.14137"></trkpt><trkpt lat="52.41332" lon="6.14145"></trkpt><trkpt lat="52.41322" lon="6.14152"></trkpt><trkpt lat="52.41296" lon="6.14166"></trkpt><trkpt lat="52.41288" lon="6.14173"></trkpt><trkpt lat="52.41271" lon="6.14194"></trkpt><trkpt lat="52.41257" lon="6.14183"></trkpt><trkpt lat="52.41223" lon="6.14167"></trkpt><trkpt lat="52.41212" lon="6.14169"></trkpt><trkpt lat="52.41183" lon="6.14182"></trkpt><trkpt lat="52.41176" lon="6.14183"></trkpt><trkpt lat="52.4117" lon="6.14182"></trkpt><trkpt lat="52.41125" lon="6.14163"></trkpt><trkpt lat="52.41117" lon="6.14164"></trkpt><trkpt lat="52.41108" lon="6.14163"></trkpt><trkpt lat="52.41049" lon="6.14141"></trkpt><trkpt lat="52.4086" lon="6.14053"></trkpt><trkpt lat="52.40851" lon="6.14048"></trkpt><trkpt lat="52.40836" lon="6.14028"></trkpt><trkpt lat="52.40828" lon="6.14022"></trkpt><trkpt lat="52.40809" lon="6.14018"></trkpt><trkpt lat="52.40763" lon="6.14019"></trkpt><trkpt lat="52.40726" lon="6.14006"></trkpt><trkpt lat="52.40687" lon="6.13997"></trkpt><trkpt lat="52.40668" lon="6.13991"></trkpt><trkpt lat="52.40587" lon="6.13959"></trkpt><trkpt lat="52.40502" lon="6.13927"></trkpt><trkpt lat="52.40466" lon="6.13915"></trkpt><trkpt lat="52.40343" lon="6.13879"></trkpt><trkpt lat="52.40321" lon="6.13873"></trkpt><trkpt lat="52.40202" lon="6.13847"></trkpt><trkpt lat="52.40194" lon="6.13906"></trkpt><trkpt lat="52.4019" lon="6.13913"></trkpt><trkpt lat="52.40185" lon="6.13915"></trkpt><trkpt lat="52.40148" lon="6.1391"></trkpt><trkpt lat="52.40139" lon="6.13929"></trkpt><trkpt lat="52.40055" lon="6.13879"></trkpt><trkpt lat="52.40018" lon="6.13855"></trkpt><trkpt lat="52.39857" lon="6.13798"></trkpt><trkpt lat="52.39802" lon="6.13765"></trkpt><trkpt lat="52.39744" lon="6.13719"></trkpt><trkpt lat="52.39613" lon="6.13577"></trkpt><trkpt lat="52.39557" lon="6.13514"></trkpt><trkpt lat="52.39491" lon="6.13439"></trkpt><trkpt lat="52.39468" lon="6.13407"></trkpt><trkpt lat="52.39438" lon="6.13373"></trkpt><trkpt lat="52.39425" lon="6.13362"></trkpt><trkpt lat="52.39414" lon="6.13357"></trkpt><trkpt lat="52.39404" lon="6.13355"></trkpt><trkpt lat="52.39388" lon="6.13355"></trkpt><trkpt lat="52.39374" lon="6.13361"></trkpt><trkpt lat="52.39341" lon="6.13384"></trkpt><trkpt lat="52.3933" lon="6.13394"></trkpt><trkpt lat="52.39322" lon="6.13409"></trkpt><trkpt lat="52.3929" lon="6.13491"></trkpt><trkpt lat="52.3926" lon="6.13563"></trkpt><trkpt lat="52.39244" lon="6.13591"></trkpt><trkpt lat="52.39226" lon="6.13611"></trkpt><trkpt lat="52.39218" lon="6.13616"></trkpt><trkpt lat="52.39202" lon="6.13617"></trkpt><trkpt lat="52.39175" lon="6.13614"></trkpt><trkpt lat="52.39111" lon="6.13601"></trkpt><trkpt lat="52.39079" lon="6.13592"></trkpt><trkpt lat="52.3905" lon="6.13578"></trkpt><trkpt lat="52.38984" lon="6.13552"></trkpt><trkpt lat="52.38973" lon="6.13545"></trkpt><trkpt lat="52.38966" lon="6.13538"></trkpt><trkpt lat="52.3896" lon="6.13525"></trkpt><trkpt lat="52.38934" lon="6.1353"></trkpt><trkpt lat="52.38884" lon="6.13543"></trkpt><trkpt lat="52.3883" lon="6.13547"></trkpt><trkpt lat="52.38808" lon="6.1355"></trkpt><trkpt lat="52.38779" lon="6.13558"></trkpt><trkpt lat="52.38733" lon="6.13574"></trkpt><trkpt lat="52.38675" lon="6.13579"></trkpt><trkpt lat="52.38624" lon="6.13587"></trkpt><trkpt lat="52.38608" lon="6.13588"></trkpt><trkpt lat="52.38601" lon="6.13584"></trkpt><trkpt lat="52.38574" lon="6.1358"></trkpt><trkpt lat="52.3852" lon="6.13579"></trkpt><trkpt lat="52.38511" lon="6.13577"></trkpt><trkpt lat="52.38493" lon="6.13567"></trkpt><trkpt lat="52.38451" lon="6.13536"></trkpt><trkpt lat="52.3844" lon="6.13555"></trkpt><trkpt lat="52.38432" lon="6.13586"></trkpt><trkpt lat="52.38417" lon="6.13656"></trkpt><trkpt lat="52.38411" lon="6.1367"></trkpt><trkpt lat="52.38407" lon="6.13685"></trkpt><trkpt lat="52.38405" lon="6.1371"></trkpt><trkpt lat="52.38387" lon="6.1383"></trkpt><trkpt lat="52.38377" lon="6.13917"></trkpt><trkpt lat="52.38374" lon="6.13927"></trkpt><trkpt lat="52.38372" lon="6.13949"></trkpt><trkpt lat="52.38373" lon="6.13968"></trkpt><trkpt lat="52.38368" lon="6.14033"></trkpt><trkpt lat="52.38367" lon="6.14124"></trkpt><trkpt lat="52.38371" lon="6.14185"></trkpt><trkpt lat="52.38386" lon="6.14294"></trkpt><trkpt lat="52.38385" lon="6.14313"></trkpt><trkpt lat="52.38387" lon="6.14332"></trkpt><trkpt lat="52.3839" lon="6.14352"></trkpt><trkpt lat="52.38393" lon="6.14356"></trkpt><trkpt lat="52.38398" lon="6.14373"></trkpt><trkpt lat="52.38402" lon="6.14401"></trkpt><trkpt lat="52.3841" lon="6.14495"></trkpt><trkpt lat="52.38402" lon="6.14678"></trkpt><trkpt lat="52.38398" lon="6.14716"></trkpt><trkpt lat="52.38387" lon="6.14779"></trkpt><trkpt lat="52.38377" lon="6.14823"></trkpt><trkpt lat="52.38355" lon="6.14898"></trkpt><trkpt lat="52.38285" lon="6.15077"></trkpt><trkpt lat="52.38248" lon="6.15153"></trkpt><trkpt lat="52.38241" lon="6.1516"></trkpt><trkpt lat="52.38232" lon="6.15165"></trkpt><trkpt lat="52.38221" lon="6.15165"></trkpt><trkpt lat="52.38196" lon="6.15161"></trkpt><trkpt lat="52.38194" lon="6.15163"></trkpt><trkpt lat="52.38191" lon="6.15172"></trkpt><trkpt lat="52.38187" lon="6.15192"></trkpt><trkpt lat="52.38187" lon="6.15199"></trkpt><trkpt lat="52.38205" lon="6.15239"></trkpt><trkpt lat="52.38209" lon="6.15258"></trkpt><trkpt lat="52.38209" lon="6.15273"></trkpt><trkpt lat="52.38193" lon="6.15345"></trkpt><trkpt lat="52.38188" lon="6.15362"></trkpt><trkpt lat="52.3818" lon="6.15406"></trkpt><trkpt lat="52.38168" lon="6.15478"></trkpt><trkpt lat="52.38157" lon="6.15566"></trkpt><trkpt lat="52.3815" lon="6.15666"></trkpt><trkpt lat="52.3815" lon="6.15776"></trkpt><trkpt lat="52.38152" lon="6.15834"></trkpt><trkpt lat="52.38156" lon="6.15891"></trkpt><trkpt lat="52.3818" lon="6.16142"></trkpt><trkpt lat="52.38183" lon="6.162"></trkpt><trkpt lat="52.38203" lon="6.16473"></trkpt><trkpt lat="52.38211" lon="6.16621"></trkpt><trkpt lat="52.38211" lon="6.16721"></trkpt><trkpt lat="52.38208" lon="6.1683"></trkpt><trkpt lat="52.38203" lon="6.16908"></trkpt><trkpt lat="52.38194" lon="6.16998"></trkpt><trkpt lat="52.3818" lon="6.17098"></trkpt><trkpt lat="52.38159" lon="6.17212"></trkpt><trkpt lat="52.38111" lon="6.17403"></trkpt><trkpt lat="52.38055" lon="6.17581"></trkpt><trkpt lat="52.3801" lon="6.17731"></trkpt><trkpt lat="52.37938" lon="6.17958"></trkpt><trkpt lat="52.37889" lon="6.1812"></trkpt><trkpt lat="52.37853" lon="6.18233"></trkpt><trkpt lat="52.37816" lon="6.18355"></trkpt><trkpt lat="52.37795" lon="6.18431"></trkpt><trkpt lat="52.37783" lon="6.18482"></trkpt><trkpt lat="52.37761" lon="6.18594"></trkpt><trkpt lat="52.37724" lon="6.18827"></trkpt><trkpt lat="52.37708" lon="6.18913"></trkpt><trkpt lat="52.37703" lon="6.18912"></trkpt><trkpt lat="52.37689" lon="6.18916"></trkpt><trkpt lat="52.37667" lon="6.18933"></trkpt><trkpt lat="52.37656" lon="6.18939"></trkpt><trkpt lat="52.37644" lon="6.1894"></trkpt><trkpt lat="52.37345" lon="6.18903"></trkpt><trkpt lat="52.37282" lon="6.18892"></trkpt><trkpt lat="52.37136" lon="6.18848"></trkpt><trkpt lat="52.37087" lon="6.18837"></trkpt><trkpt lat="52.37064" lon="6.18838"></trkpt><trkpt lat="52.37038" lon="6.18844"></trkpt><trkpt lat="52.36778" lon="6.18936"></trkpt><trkpt lat="52.36761" lon="6.18939"></trkpt><trkpt lat="52.36721" lon="6.18931"></trkpt><trkpt lat="52.36561" lon="6.18888"></trkpt><trkpt lat="52.36544" lon="6.18885"></trkpt><trkpt lat="52.36541" lon="6.18911"></trkpt><trkpt lat="52.36357" lon="6.1949"></trkpt><trkpt lat="52.36347" lon="6.19536"></trkpt><trkpt lat="52.36324" lon="6.19681"></trkpt><trkpt lat="52.36276" lon="6.1996"></trkpt><trkpt lat="52.36267" lon="6.1999"></trkpt><trkpt lat="52.36201" lon="6.2013"></trkpt><trkpt lat="52.36036" lon="6.2047"></trkpt><trkpt lat="52.35955" lon="6.20642"></trkpt><trkpt lat="52.3576" lon="6.21042"></trkpt><trkpt lat="52.35751" lon="6.21051"></trkpt><trkpt lat="52.35742" lon="6.21056"></trkpt><trkpt lat="52.35673" lon="6.21074"></trkpt><trkpt lat="52.35647" lon="6.21083"></trkpt><trkpt lat="52.35634" lon="6.21086"></trkpt><trkpt lat="52.35621" lon="6.21086"></trkpt><trkpt lat="52.35603" lon="6.21082"></trkpt><trkpt lat="52.35436" lon="6.21039"></trkpt><trkpt lat="52.35425" lon="6.21042"></trkpt><trkpt lat="52.3505" lon="6.21516"></trkpt><trkpt lat="52.3503" lon="6.2152"></trkpt><trkpt lat="52.34866" lon="6.21566"></trkpt><trkpt lat="52.34855" lon="6.21577"></trkpt><trkpt lat="52.34851" lon="6.21582"></trkpt><trkpt lat="52.34682" lon="6.21886"></trkpt><trkpt lat="52.34665" lon="6.21911"></trkpt><trkpt lat="52.34654" lon="6.21921"></trkpt><trkpt lat="52.34479" lon="6.22012"></trkpt><trkpt lat="52.34461" lon="6.22029"></trkpt><trkpt lat="52.34455" lon="6.22038"></trkpt><trkpt lat="52.34419" lon="6.22142"></trkpt><trkpt lat="52.3403" lon="6.2314"></trkpt><trkpt lat="52.33979" lon="6.23261"></trkpt><trkpt lat="52.33876" lon="6.23463"></trkpt><trkpt lat="52.33871" lon="6.2347"></trkpt><trkpt lat="52.33863" lon="6.23475"></trkpt><trkpt lat="52.33855" lon="6.23477"></trkpt><trkpt lat="52.33766" lon="6.23481"></trkpt><trkpt lat="52.33765" lon="6.23473"></trkpt><trkpt lat="52.33768" lon="6.23492"></trkpt><trkpt lat="52.33769" lon="6.23512"></trkpt><trkpt lat="52.33773" lon="6.23533"></trkpt><trkpt lat="52.33586" lon="6.23555"></trkpt><trkpt lat="52.33508" lon="6.23557"></trkpt><trkpt lat="52.33354" lon="6.23539"></trkpt><trkpt lat="52.33352" lon="6.23661"></trkpt><trkpt lat="52.33356" lon="6.23734"></trkpt><trkpt lat="52.33352" lon="6.23751"></trkpt><trkpt lat="52.3324" lon="6.24037"></trkpt><trkpt lat="52.33156" lon="6.24258"></trkpt><trkpt lat="52.33154" lon="6.24265"></trkpt><trkpt lat="52.33148" lon="6.24446"></trkpt><trkpt lat="52.33146" lon="6.24456"></trkpt><trkpt lat="52.33144" lon="6.24462"></trkpt><trkpt lat="52.33063" lon="6.24609"></trkpt><trkpt lat="52.33032" lon="6.24674"></trkpt><trkpt lat="52.32961" lon="6.24879"></trkpt><trkpt lat="52.32941" lon="6.24945"></trkpt><trkpt lat="52.32886" lon="6.25182"></trkpt><trkpt lat="52.32859" lon="6.25284"></trkpt><trkpt lat="52.32809" lon="6.25446"></trkpt><trkpt lat="52.32786" lon="6.25547"></trkpt><trkpt lat="52.32785" lon="6.25562"></trkpt><trkpt lat="52.3279" lon="6.25576"></trkpt><trkpt lat="52.3287" lon="6.25673"></trkpt><trkpt lat="52.32873" lon="6.25678"></trkpt><trkpt lat="52.32875" lon="6.25687"></trkpt><trkpt lat="52.32873" lon="6.25697"></trkpt><trkpt lat="52.32798" lon="6.25917"></trkpt><trkpt lat="52.32773" lon="6.26032"></trkpt><trkpt lat="52.32813" lon="6.26078"></trkpt><trkpt lat="52.3282" lon="6.26093"></trkpt><trkpt lat="52.32821" lon="6.26106"></trkpt><trkpt lat="52.32788" lon="6.26296"></trkpt><trkpt lat="52.32777" lon="6.26367"></trkpt><trkpt lat="52.32759" lon="6.26436"></trkpt><trkpt lat="52.32757" lon="6.26471"></trkpt><trkpt lat="52.32706" lon="6.2679"></trkpt><trkpt lat="52.32699" lon="6.26813"></trkpt><trkpt lat="52.32689" lon="6.26836"></trkpt><trkpt lat="52.32539" lon="6.27092"></trkpt><trkpt lat="52.3252" lon="6.27138"></trkpt><trkpt lat="52.32491" lon="6.27216"></trkpt><trkpt lat="52.32446" lon="6.27336"></trkpt><trkpt lat="52.32427" lon="6.27398"></trkpt><trkpt lat="52.3237" lon="6.27622"></trkpt><trkpt lat="52.32369" lon="6.27643"></trkpt><trkpt lat="52.32375" lon="6.27666"></trkpt><trkpt lat="52.32473" lon="6.27905"></trkpt><trkpt lat="52.325" lon="6.28055"></trkpt><trkpt lat="52.32504" lon="6.28073"></trkpt><trkpt lat="52.32519" lon="6.28114"></trkpt><trkpt lat="52.32549" lon="6.28181"></trkpt><trkpt lat="52.32558" lon="6.28198"></trkpt><trkpt lat="52.32565" lon="6.28206"></trkpt><trkpt lat="52.32583" lon="6.2822"></trkpt><trkpt lat="52.32565" lon="6.28251"></trkpt><trkpt lat="52.3255" lon="6.28273"></trkpt><trkpt lat="52.32532" lon="6.28289"></trkpt><trkpt lat="52.32511" lon="6.28303"></trkpt><trkpt lat="52.32489" lon="6.28315"></trkpt><trkpt lat="52.32463" lon="6.28324"></trkpt><trkpt lat="52.32409" lon="6.28346"></trkpt><trkpt lat="52.32397" lon="6.28354"></trkpt><trkpt lat="52.32247" lon="6.28407"></trkpt><trkpt lat="52.32238" lon="6.28405"></trkpt><trkpt lat="52.3218" lon="6.2838"></trkpt><trkpt lat="52.32116" lon="6.28349"></trkpt><trkpt lat="52.32098" lon="6.28346"></trkpt><trkpt lat="52.32067" lon="6.28326"></trkpt><trkpt lat="52.3202" lon="6.28306"></trkpt><trkpt lat="52.32002" lon="6.28282"></trkpt><trkpt lat="52.31977" lon="6.28286"></trkpt><trkpt lat="52.31951" lon="6.28275"></trkpt><trkpt lat="52.31936" lon="6.28265"></trkpt><trkpt lat="52.31873" lon="6.28203"></trkpt><trkpt lat="52.31861" lon="6.28193"></trkpt><trkpt lat="52.31802" lon="6.28154"></trkpt><trkpt lat="52.31787" lon="6.28131"></trkpt><trkpt lat="52.31742" lon="6.28105"></trkpt><trkpt lat="52.31643" lon="6.28035"></trkpt><trkpt lat="52.31624" lon="6.28111"></trkpt><trkpt lat="52.31617" lon="6.2812"></trkpt><trkpt lat="52.31572" lon="6.2816"></trkpt><trkpt lat="52.31641" lon="6.28329"></trkpt><trkpt lat="52.3166" lon="6.28379"></trkpt><trkpt lat="52.31677" lon="6.28433"></trkpt><trkpt lat="52.31684" lon="6.28465"></trkpt><trkpt lat="52.31687" lon="6.28492"></trkpt><trkpt lat="52.31686" lon="6.28582"></trkpt><trkpt lat="52.31662" lon="6.28803"></trkpt><trkpt lat="52.31657" lon="6.28829"></trkpt><trkpt lat="52.3164" lon="6.28907"></trkpt><trkpt lat="52.3162" lon="6.2898"></trkpt><trkpt lat="52.31609" lon="6.2901"></trkpt><trkpt lat="52.31593" lon="6.29043"></trkpt><trkpt lat="52.31582" lon="6.29081"></trkpt><trkpt lat="52.31579" lon="6.29103"></trkpt><trkpt lat="52.31565" lon="6.29349"></trkpt><trkpt lat="52.3149" lon="6.30365"></trkpt><trkpt lat="52.31461" lon="6.30731"></trkpt><trkpt lat="52.31434" lon="6.31078"></trkpt><trkpt lat="52.31417" lon="6.31284"></trkpt><trkpt lat="52.31414" lon="6.31306"></trkpt><trkpt lat="52.31296" lon="6.3175"></trkpt><trkpt lat="52.31281" lon="6.31796"></trkpt><trkpt lat="52.31223" lon="6.31996"></trkpt><trkpt lat="52.31166" lon="6.32205"></trkpt><trkpt lat="52.31137" lon="6.32275"></trkpt><trkpt lat="52.30991" lon="6.32569"></trkpt><trkpt lat="52.30845" lon="6.3287"></trkpt><trkpt lat="52.30718" lon="6.33021"></trkpt><trkpt lat="52.30703" lon="6.33035"></trkpt><trkpt lat="52.30681" lon="6.33352"></trkpt><trkpt lat="52.30679" lon="6.33399"></trkpt><trkpt lat="52.30685" lon="6.33469"></trkpt><trkpt lat="52.30721" lon="6.33669"></trkpt><trkpt lat="52.30734" lon="6.33751"></trkpt><trkpt lat="52.30753" lon="6.34027"></trkpt><trkpt lat="52.30786" lon="6.34307"></trkpt><trkpt lat="52.3079" lon="6.34375"></trkpt><trkpt lat="52.30787" lon="6.34409"></trkpt><trkpt lat="52.30783" lon="6.34434"></trkpt><trkpt lat="52.30761" lon="6.34514"></trkpt><trkpt lat="52.30491" lon="6.3549"></trkpt><trkpt lat="52.30482" lon="6.35514"></trkpt><trkpt lat="52.30428" lon="6.35713"></trkpt><trkpt lat="52.30407" lon="6.35812"></trkpt><trkpt lat="52.3039" lon="6.35902"></trkpt><trkpt lat="52.30383" lon="6.35927"></trkpt><trkpt lat="52.30366" lon="6.35977"></trkpt><trkpt lat="52.30202" lon="6.36338"></trkpt><trkpt lat="52.30143" lon="6.36473"></trkpt><trkpt lat="52.30345" lon="6.3675"></trkpt><trkpt lat="52.30524" lon="6.37003"></trkpt><trkpt lat="52.30687" lon="6.37228"></trkpt><trkpt lat="52.30703" lon="6.37244"></trkpt><trkpt lat="52.30715" lon="6.3725"></trkpt><trkpt lat="52.3074" lon="6.37257"></trkpt><trkpt lat="52.30754" lon="6.37267"></trkpt><trkpt lat="52.3077" lon="6.37307"></trkpt><trkpt lat="52.30784" lon="6.37336"></trkpt><trkpt lat="52.30791" lon="6.37343"></trkpt><trkpt lat="52.30822" lon="6.37407"></trkpt><trkpt lat="52.30847" lon="6.37444"></trkpt><trkpt lat="52.31257" lon="6.38007"></trkpt><trkpt lat="52.31263" lon="6.38022"></trkpt><trkpt lat="52.31267" lon="6.38039"></trkpt><trkpt lat="52.31267" lon="6.38049"></trkpt><trkpt lat="52.31262" lon="6.38204"></trkpt><trkpt lat="52.31226" lon="6.38881"></trkpt><trkpt lat="52.31195" lon="6.39524"></trkpt><trkpt lat="52.31188" lon="6.39671"></trkpt><trkpt lat="52.30974" lon="6.39952"></trkpt><trkpt lat="52.30946" lon="6.39976"></trkpt><trkpt lat="52.30928" lon="6.39986"></trkpt><trkpt lat="52.30678" lon="6.40093"></trkpt><trkpt lat="52.30643" lon="6.40114"></trkpt><trkpt lat="52.30569" lon="6.40173"></trkpt><trkpt lat="52.30543" lon="6.4019"></trkpt><trkpt lat="52.30516" lon="6.40204"></trkpt><trkpt lat="52.30487" lon="6.40215"></trkpt><trkpt lat="52.3046" lon="6.40222"></trkpt><trkpt lat="52.30437" lon="6.40226"></trkpt><trkpt lat="52.30294" lon="6.40231"></trkpt><trkpt lat="52.30196" lon="6.40248"></trkpt><trkpt lat="52.30061" lon="6.40275"></trkpt><trkpt lat="52.30013" lon="6.4029"></trkpt><trkpt lat="52.29975" lon="6.40309"></trkpt><trkpt lat="52.29884" lon="6.40346"></trkpt><trkpt lat="52.29838" lon="6.40358"></trkpt><trkpt lat="52.29797" lon="6.40362"></trkpt><trkpt lat="52.29705" lon="6.40365"></trkpt><trkpt lat="52.29676" lon="6.40368"></trkpt><trkpt lat="52.29604" lon="6.40381"></trkpt><trkpt lat="52.29565" lon="6.40393"></trkpt><trkpt lat="52.29457" lon="6.40425"></trkpt><trkpt lat="52.29479" lon="6.40495"></trkpt><trkpt lat="52.29535" lon="6.40706"></trkpt><trkpt lat="52.29573" lon="6.40838"></trkpt><trkpt lat="52.29585" lon="6.40873"></trkpt><trkpt lat="52.29639" lon="6.41015"></trkpt><trkpt lat="52.29688" lon="6.41153"></trkpt><trkpt lat="52.29692" lon="6.41179"></trkpt><trkpt lat="52.29663" lon="6.41493"></trkpt><trkpt lat="52.29662" lon="6.41509"></trkpt><trkpt lat="52.29663" lon="6.41528"></trkpt><trkpt lat="52.29764" lon="6.41887"></trkpt><trkpt lat="52.29773" lon="6.41917"></trkpt><trkpt lat="52.29781" lon="6.41932"></trkpt><trkpt lat="52.29784" lon="6.41935"></trkpt><trkpt lat="52.29844" lon="6.41963"></trkpt><trkpt lat="52.29849" lon="6.41967"></trkpt><trkpt lat="52.29854" lon="6.41975"></trkpt><trkpt lat="52.29856" lon="6.42009"></trkpt><trkpt lat="52.29877" lon="6.42004"></trkpt><trkpt lat="52.29912" lon="6.41999"></trkpt><trkpt lat="52.30027" lon="6.41994"></trkpt><trkpt lat="52.30138" lon="6.41991"></trkpt><trkpt lat="52.30268" lon="6.41992"></trkpt><trkpt lat="52.30301" lon="6.41987"></trkpt><trkpt lat="52.3035" lon="6.41984"></trkpt><trkpt lat="52.30462" lon="6.41982"></trkpt><trkpt lat="52.30473" lon="6.41976"></trkpt><trkpt lat="52.30503" lon="6.41951"></trkpt><trkpt lat="52.3052" lon="6.41922"></trkpt><trkpt lat="52.30556" lon="6.41831"></trkpt><trkpt lat="52.30649" lon="6.41613"></trkpt><trkpt lat="52.30671" lon="6.41561"></trkpt><trkpt lat="52.30682" lon="6.41541"></trkpt><trkpt lat="52.30694" lon="6.41525"></trkpt><trkpt lat="52.30703" lon="6.41517"></trkpt><trkpt lat="52.30717" lon="6.41508"></trkpt><trkpt lat="52.3073" lon="6.41503"></trkpt><trkpt lat="52.30909" lon="6.41508"></trkpt><trkpt lat="52.30926" lon="6.41506"></trkpt><trkpt lat="52.3094" lon="6.41498"></trkpt><trkpt lat="52.30955" lon="6.41486"></trkpt><trkpt lat="52.30998" lon="6.41434"></trkpt><trkpt lat="52.31024" lon="6.41412"></trkpt><trkpt lat="52.31044" lon="6.414"></trkpt><trkpt lat="52.31073" lon="6.41393"></trkpt><trkpt lat="52.31091" lon="6.41394"></trkpt><trkpt lat="52.31128" lon="6.41405"></trkpt><trkpt lat="52.31154" lon="6.41416"></trkpt><trkpt lat="52.31179" lon="6.41432"></trkpt><trkpt lat="52.31259" lon="6.41536"></trkpt><trkpt lat="52.31275" lon="6.4155"></trkpt><trkpt lat="52.31284" lon="6.41555"></trkpt><trkpt lat="52.31292" lon="6.41559"></trkpt><trkpt lat="52.31315" lon="6.41562"></trkpt><trkpt lat="52.31371" lon="6.41561"></trkpt><trkpt lat="52.31396" lon="6.41557"></trkpt><trkpt lat="52.31448" lon="6.41495"></trkpt><trkpt lat="52.31465" lon="6.4148"></trkpt><trkpt lat="52.31474" lon="6.41476"></trkpt><trkpt lat="52.31529" lon="6.41464"></trkpt><trkpt lat="52.31537" lon="6.4146"></trkpt><trkpt lat="52.31549" lon="6.41452"></trkpt><trkpt lat="52.31591" lon="6.41413"></trkpt><trkpt lat="52.31752" lon="6.41322"></trkpt><trkpt lat="52.3178" lon="6.41299"></trkpt><trkpt lat="52.31796" lon="6.41282"></trkpt><trkpt lat="52.31819" lon="6.41254"></trkpt><trkpt lat="52.3193" lon="6.4108"></trkpt><trkpt lat="52.31958" lon="6.4104"></trkpt><trkpt lat="52.32001" lon="6.40985"></trkpt><trkpt lat="52.32025" lon="6.40957"></trkpt><trkpt lat="52.32053" lon="6.40929"></trkpt><trkpt lat="52.32081" lon="6.40907"></trkpt><trkpt lat="52.32108" lon="6.40892"></trkpt><trkpt lat="52.32128" lon="6.40885"></trkpt><trkpt lat="52.32168" lon="6.40878"></trkpt><trkpt lat="52.32199" lon="6.40879"></trkpt><trkpt lat="52.32289" lon="6.4089"></trkpt><trkpt lat="52.32318" lon="6.40896"></trkpt><trkpt lat="52.32328" lon="6.409"></trkpt><trkpt lat="52.32358" lon="6.4092"></trkpt><trkpt lat="52.3237" lon="6.40932"></trkpt><trkpt lat="52.32394" lon="6.40963"></trkpt><trkpt lat="52.3241" lon="6.40991"></trkpt><trkpt lat="52.32418" lon="6.41011"></trkpt><trkpt lat="52.32427" lon="6.41039"></trkpt><trkpt lat="52.32432" lon="6.41061"></trkpt><trkpt lat="52.32439" lon="6.41104"></trkpt><trkpt lat="52.32458" lon="6.41271"></trkpt><trkpt lat="52.3246" lon="6.41308"></trkpt><trkpt lat="52.32453" lon="6.41475"></trkpt><trkpt lat="52.32453" lon="6.41519"></trkpt><trkpt lat="52.32459" lon="6.41562"></trkpt><trkpt lat="52.32469" lon="6.41594"></trkpt><trkpt lat="52.32485" lon="6.41628"></trkpt><trkpt lat="52.32496" lon="6.41644"></trkpt><trkpt lat="52.32511" lon="6.4166"></trkpt><trkpt lat="52.32563" lon="6.41708"></trkpt><trkpt lat="52.32576" lon="6.41725"></trkpt><trkpt lat="52.32597" lon="6.41759"></trkpt><trkpt lat="52.32604" lon="6.4178"></trkpt><trkpt lat="52.32612" lon="6.41812"></trkpt><trkpt lat="52.32631" lon="6.41935"></trkpt><trkpt lat="52.32636" lon="6.41953"></trkpt><trkpt lat="52.32646" lon="6.41975"></trkpt><trkpt lat="52.32669" lon="6.42008"></trkpt><trkpt lat="52.32717" lon="6.42065"></trkpt><trkpt lat="52.32768" lon="6.42122"></trkpt><trkpt lat="52.3279" lon="6.4214"></trkpt><trkpt lat="52.32817" lon="6.42162"></trkpt><trkpt lat="52.32846" lon="6.42174"></trkpt><trkpt lat="52.32899" lon="6.42192"></trkpt><trkpt lat="52.32922" lon="6.42198"></trkpt><trkpt lat="52.3296" lon="6.42204"></trkpt><trkpt lat="52.32987" lon="6.42204"></trkpt><trkpt lat="52.33001" lon="6.42209"></trkpt><trkpt lat="52.33034" lon="6.42229"></trkpt><trkpt lat="52.33048" lon="6.42235"></trkpt><trkpt lat="52.33067" lon="6.4224"></trkpt><trkpt lat="52.33115" lon="6.42251"></trkpt><trkpt lat="52.33212" lon="6.4227"></trkpt><trkpt lat="52.33224" lon="6.42271"></trkpt><trkpt lat="52.33338" lon="6.42268"></trkpt><trkpt lat="52.33353" lon="6.42273"></trkpt><trkpt lat="52.33488" lon="6.42338"></trkpt><trkpt lat="52.33502" lon="6.42352"></trkpt><trkpt lat="52.33508" lon="6.42361"></trkpt><trkpt lat="52.33557" lon="6.42463"></trkpt><trkpt lat="52.33564" lon="6.42473"></trkpt><trkpt lat="52.33581" lon="6.42488"></trkpt><trkpt lat="52.33594" lon="6.42495"></trkpt><trkpt lat="52.33649" lon="6.42507"></trkpt><trkpt lat="52.33659" lon="6.42511"></trkpt><trkpt lat="52.3374" lon="6.4256"></trkpt><trkpt lat="52.33757" lon="6.42564"></trkpt><trkpt lat="52.33801" lon="6.42563"></trkpt><trkpt lat="52.33808" lon="6.42556"></trkpt><trkpt lat="52.33819" lon="6.42541"></trkpt><trkpt lat="52.33869" lon="6.4245"></trkpt><trkpt lat="52.33914" lon="6.42374"></trkpt><trkpt lat="52.33922" lon="6.42366"></trkpt><trkpt lat="52.33933" lon="6.42359"></trkpt><trkpt lat="52.33951" lon="6.42361"></trkpt><trkpt lat="52.33958" lon="6.42365"></trkpt><trkpt lat="52.34067" lon="6.42462"></trkpt><trkpt lat="52.34082" lon="6.42476"></trkpt><trkpt lat="52.34161" lon="6.42558"></trkpt><trkpt lat="52.34214" lon="6.42604"></trkpt><trkpt lat="52.34262" lon="6.42642"></trkpt><trkpt lat="52.34371" lon="6.42721"></trkpt><trkpt lat="52.344" lon="6.42744"></trkpt><trkpt lat="52.34444" lon="6.42784"></trkpt><trkpt lat="52.3456" lon="6.42905"></trkpt><trkpt lat="52.34581" lon="6.42918"></trkpt><trkpt lat="52.34601" lon="6.42925"></trkpt><trkpt lat="52.34613" lon="6.42926"></trkpt><trkpt lat="52.34931" lon="6.42936"></trkpt><trkpt lat="52.34947" lon="6.42939"></trkpt><trkpt lat="52.3497" lon="6.42953"></trkpt><trkpt lat="52.3556" lon="6.43488"></trkpt><trkpt lat="52.3574" lon="6.43655"></trkpt><trkpt lat="52.36061" lon="6.43946"></trkpt><trkpt lat="52.36121" lon="6.44002"></trkpt><trkpt lat="52.36131" lon="6.44013"></trkpt><trkpt lat="52.36161" lon="6.44039"></trkpt><trkpt lat="52.36174" lon="6.44049"></trkpt><trkpt lat="52.36461" lon="6.44178"></trkpt><trkpt lat="52.36506" lon="6.442"></trkpt><trkpt lat="52.36514" lon="6.44209"></trkpt><trkpt lat="52.36562" lon="6.44286"></trkpt><trkpt lat="52.36577" lon="6.443"></trkpt><trkpt lat="52.36588" lon="6.44306"></trkpt><trkpt lat="52.36598" lon="6.4431"></trkpt><trkpt lat="52.36622" lon="6.44316"></trkpt><trkpt lat="52.36626" lon="6.44263"></trkpt><trkpt lat="52.36633" lon="6.44245"></trkpt><trkpt lat="52.36646" lon="6.44223"></trkpt><trkpt lat="52.3665" lon="6.44205"></trkpt><trkpt lat="52.36663" lon="6.43994"></trkpt><trkpt lat="52.36658" lon="6.43972"></trkpt><trkpt lat="52.36683" lon="6.4355"></trkpt><trkpt lat="52.3669" lon="6.43454"></trkpt><trkpt lat="52.36694" lon="6.43357"></trkpt><trkpt lat="52.36788" lon="6.41947"></trkpt><trkpt lat="52.36806" lon="6.41638"></trkpt><trkpt lat="52.36816" lon="6.41516"></trkpt><trkpt lat="52.36824" lon="6.41394"></trkpt><trkpt lat="52.36826" lon="6.41332"></trkpt><trkpt lat="52.36837" lon="6.41137"></trkpt><trkpt lat="52.36853" lon="6.40881"></trkpt><trkpt lat="52.36861" lon="6.40762"></trkpt><trkpt lat="52.36873" lon="6.40641"></trkpt><trkpt lat="52.36913" lon="6.40027"></trkpt><trkpt lat="52.3691" lon="6.39986"></trkpt><trkpt lat="52.36903" lon="6.39955"></trkpt><trkpt lat="52.36902" lon="6.39937"></trkpt><trkpt lat="52.36909" lon="6.39914"></trkpt><trkpt lat="52.36956" lon="6.39921"></trkpt><trkpt lat="52.36968" lon="6.39922"></trkpt><trkpt lat="52.37005" lon="6.39921"></trkpt><trkpt lat="52.37022" lon="6.39924"></trkpt><trkpt lat="52.3703" lon="6.39927"></trkpt><trkpt lat="52.37107" lon="6.39977"></trkpt><trkpt lat="52.37115" lon="6.39987"></trkpt><trkpt lat="52.37128" lon="6.40014"></trkpt><trkpt lat="52.37142" lon="6.40056"></trkpt><trkpt lat="52.37179" lon="6.40123"></trkpt><trkpt lat="52.37281" lon="6.40293"></trkpt><trkpt lat="52.3754" lon="6.40739"></trkpt><trkpt lat="52.37647" lon="6.40926"></trkpt><trkpt lat="52.37717" lon="6.41042"></trkpt><trkpt lat="52.37882" lon="6.41329"></trkpt><trkpt lat="52.37966" lon="6.41472"></trkpt><trkpt lat="52.38023" lon="6.41563"></trkpt><trkpt lat="52.38177" lon="6.41791"></trkpt><trkpt lat="52.38194" lon="6.41826"></trkpt><trkpt lat="52.38292" lon="6.42116"></trkpt><trkpt lat="52.38492" lon="6.42673"></trkpt><trkpt lat="52.38529" lon="6.4278"></trkpt><trkpt lat="52.38542" lon="6.42803"></trkpt><trkpt lat="52.38554" lon="6.42816"></trkpt><trkpt lat="52.38574" lon="6.42828"></trkpt><trkpt lat="52.38617" lon="6.42834"></trkpt><trkpt lat="52.38652" lon="6.42835"></trkpt><trkpt lat="52.38658" lon="6.42621"></trkpt><trkpt lat="52.38671" lon="6.41696"></trkpt><trkpt lat="52.38677" lon="6.41404"></trkpt><trkpt lat="52.38679" lon="6.41376"></trkpt><trkpt lat="52.38685" lon="6.41322"></trkpt><trkpt lat="52.38804" lon="6.40433"></trkpt><trkpt lat="52.38959" lon="6.39326"></trkpt><trkpt lat="52.39018" lon="6.38895"></trkpt><trkpt lat="52.39043" lon="6.38724"></trkpt><trkpt lat="52.39025" lon="6.38713"></trkpt><trkpt lat="52.39003" lon="6.38696"></trkpt><trkpt lat="52.38994" lon="6.38682"></trkpt><trkpt lat="52.38991" lon="6.38674"></trkpt><trkpt lat="52.3896" lon="6.38533"></trkpt><trkpt lat="52.38876" lon="6.38127"></trkpt><trkpt lat="52.38761" lon="6.37326"></trkpt><trkpt lat="52.38758" lon="6.373"></trkpt><trkpt lat="52.38756" lon="6.3726"></trkpt><trkpt lat="52.38756" lon="6.3718"></trkpt><trkpt lat="52.38737" lon="6.36808"></trkpt><trkpt lat="52.38737" lon="6.36773"></trkpt><trkpt lat="52.38739" lon="6.3674"></trkpt><trkpt lat="52.38749" lon="6.36651"></trkpt><trkpt lat="52.38772" lon="6.36483"></trkpt><trkpt lat="52.38771" lon="6.36491"></trkpt><trkpt lat="52.38823" lon="6.36537"></trkpt><trkpt lat="52.38865" lon="6.36565"></trkpt><trkpt lat="52.38888" lon="6.36577"></trkpt><trkpt lat="52.38916" lon="6.3659"></trkpt><trkpt lat="52.38928" lon="6.36593"></trkpt><trkpt lat="52.38973" lon="6.36596"></trkpt><trkpt lat="52.38988" lon="6.366"></trkpt><trkpt lat="52.39022" lon="6.36615"></trkpt><trkpt lat="52.39075" lon="6.36634"></trkpt><trkpt lat="52.39119" lon="6.36644"></trkpt><trkpt lat="52.39137" lon="6.36651"></trkpt><trkpt lat="52.39148" lon="6.36658"></trkpt><trkpt lat="52.39153" lon="6.36665"></trkpt><trkpt lat="52.39159" lon="6.36682"></trkpt><trkpt lat="52.39159" lon="6.36702"></trkpt><trkpt lat="52.39146" lon="6.36786"></trkpt><trkpt lat="52.39147" lon="6.36811"></trkpt><trkpt lat="52.39154" lon="6.36843"></trkpt><trkpt lat="52.39182" lon="6.36935"></trkpt><trkpt lat="52.39195" lon="6.36968"></trkpt><trkpt lat="52.39216" lon="6.37014"></trkpt><trkpt lat="52.39259" lon="6.37064"></trkpt><trkpt lat="52.39279" lon="6.3709"></trkpt><trkpt lat="52.393" lon="6.37125"></trkpt><trkpt lat="52.39378" lon="6.37267"></trkpt><trkpt lat="52.39386" lon="6.3728"></trkpt><trkpt lat="52.39403" lon="6.37299"></trkpt><trkpt lat="52.39474" lon="6.37363"></trkpt><trkpt lat="52.39486" lon="6.37372"></trkpt><trkpt lat="52.39504" lon="6.3738"></trkpt><trkpt lat="52.39542" lon="6.37388"></trkpt><trkpt lat="52.39564" lon="6.3739"></trkpt><trkpt lat="52.39584" lon="6.37388"></trkpt><trkpt lat="52.39689" lon="6.37354"></trkpt><trkpt lat="52.39704" lon="6.37354"></trkpt><trkpt lat="52.39725" lon="6.37365"></trkpt><trkpt lat="52.3974" lon="6.37377"></trkpt><trkpt lat="52.39761" lon="6.37401"></trkpt><trkpt lat="52.39773" lon="6.37411"></trkpt><trkpt lat="52.39785" lon="6.37418"></trkpt><trkpt lat="52.3979" lon="6.37399"></trkpt><trkpt lat="52.39798" lon="6.3738"></trkpt><trkpt lat="52.39812" lon="6.37357"></trkpt><trkpt lat="52.39849" lon="6.37312"></trkpt><trkpt lat="52.39886" lon="6.37276"></trkpt><trkpt lat="52.39923" lon="6.37243"></trkpt><trkpt lat="52.40008" lon="6.37186"></trkpt><trkpt lat="52.40029" lon="6.37175"></trkpt><trkpt lat="52.4008" lon="6.37154"></trkpt><trkpt lat="52.40107" lon="6.37146"></trkpt><trkpt lat="52.40134" lon="6.3714"></trkpt><trkpt lat="52.40169" lon="6.37128"></trkpt><trkpt lat="52.40247" lon="6.37071"></trkpt><trkpt lat="52.40284" lon="6.37042"></trkpt><trkpt lat="52.40305" lon="6.37018"></trkpt><trkpt lat="52.40357" lon="6.36948"></trkpt><trkpt lat="52.40376" lon="6.3692"></trkpt><trkpt lat="52.40402" lon="6.36873"></trkpt><trkpt lat="52.40449" lon="6.36821"></trkpt><trkpt lat="52.40461" lon="6.36805"></trkpt><trkpt lat="52.40546" lon="6.36666"></trkpt><trkpt lat="52.40562" lon="6.36633"></trkpt><trkpt lat="52.40573" lon="6.36642"></trkpt><trkpt lat="52.4075" lon="6.36819"></trkpt><trkpt lat="52.4076" lon="6.36845"></trkpt><trkpt lat="52.4077" lon="6.36891"></trkpt><trkpt lat="52.40771" lon="6.3691"></trkpt><trkpt lat="52.40775" lon="6.37015"></trkpt><trkpt lat="52.4079" lon="6.37591"></trkpt><trkpt lat="52.40794" lon="6.37666"></trkpt><trkpt lat="52.40801" lon="6.37707"></trkpt><trkpt lat="52.40812" lon="6.37748"></trkpt><trkpt lat="52.4082" lon="6.37769"></trkpt><trkpt lat="52.41034" lon="6.38283"></trkpt><trkpt lat="52.41136" lon="6.38521"></trkpt><trkpt lat="52.41176" lon="6.38611"></trkpt><trkpt lat="52.41189" lon="6.38628"></trkpt><trkpt lat="52.41201" lon="6.38637"></trkpt><trkpt lat="52.4122" lon="6.38647"></trkpt><trkpt lat="52.41247" lon="6.3865"></trkpt><trkpt lat="52.41804" lon="6.38674"></trkpt><trkpt lat="52.42061" lon="6.3869"></trkpt><trkpt lat="52.42183" lon="6.38696"></trkpt><trkpt lat="52.42217" lon="6.38689"></trkpt><trkpt lat="52.42271" lon="6.38674"></trkpt><trkpt lat="52.42666" lon="6.38557"></trkpt><trkpt lat="52.42686" lon="6.38555"></trkpt><trkpt lat="52.42703" lon="6.38556"></trkpt><trkpt lat="52.42718" lon="6.3856"></trkpt><trkpt lat="52.42879" lon="6.38633"></trkpt><trkpt lat="52.43265" lon="6.38811"></trkpt><trkpt lat="52.43279" lon="6.3882"></trkpt><trkpt lat="52.43296" lon="6.3883"></trkpt><trkpt lat="52.43323" lon="6.38859"></trkpt><trkpt lat="52.4337" lon="6.38919"></trkpt><trkpt lat="52.43436" lon="6.39015"></trkpt><trkpt lat="52.43614" lon="6.39263"></trkpt><trkpt lat="52.43699" lon="6.39379"></trkpt><trkpt lat="52.43719" lon="6.39395"></trkpt><trkpt lat="52.43755" lon="6.39416"></trkpt><trkpt lat="52.43761" lon="6.39422"></trkpt><trkpt lat="52.43761" lon="6.39443"></trkpt><trkpt lat="52.43764" lon="6.39449"></trkpt><trkpt lat="52.43779" lon="6.39469"></trkpt><trkpt lat="52.43793" lon="6.39497"></trkpt><trkpt lat="52.43828" lon="6.39544"></trkpt><trkpt lat="52.43837" lon="6.39563"></trkpt><trkpt lat="52.43876" lon="6.39617"></trkpt><trkpt lat="52.43892" lon="6.39625"></trkpt><trkpt lat="52.43898" lon="6.39633"></trkpt><trkpt lat="52.43905" lon="6.39649"></trkpt><trkpt lat="52.43908" lon="6.39661"></trkpt><trkpt lat="52.43916" lon="6.39675"></trkpt><trkpt lat="52.43929" lon="6.39686"></trkpt><trkpt lat="52.43935" lon="6.39693"></trkpt><trkpt lat="52.43972" lon="6.39744"></trkpt><trkpt lat="52.44348" lon="6.40267"></trkpt><trkpt lat="52.44454" lon="6.40418"></trkpt><trkpt lat="52.44466" lon="6.40433"></trkpt><trkpt lat="52.44478" lon="6.4044"></trkpt><trkpt lat="52.44485" lon="6.40446"></trkpt><trkpt lat="52.44491" lon="6.40455"></trkpt><trkpt lat="52.44497" lon="6.40476"></trkpt><trkpt lat="52.4479" lon="6.40883"></trkpt><trkpt lat="52.44888" lon="6.41023"></trkpt><trkpt lat="52.44894" lon="6.41028"></trkpt><trkpt lat="52.44901" lon="6.4103"></trkpt><trkpt lat="52.44906" lon="6.41038"></trkpt><trkpt lat="52.4491" lon="6.41052"></trkpt><trkpt lat="52.45029" lon="6.41214"></trkpt><trkpt lat="52.45037" lon="6.4123"></trkpt><trkpt lat="52.45061" lon="6.41264"></trkpt><trkpt lat="52.45085" lon="6.41295"></trkpt><trkpt lat="52.45105" lon="6.41324"></trkpt><trkpt lat="52.45109" lon="6.41325"></trkpt><trkpt lat="52.45109" lon="6.41329"></trkpt><trkpt lat="52.45106" lon="6.41334"></trkpt><trkpt lat="52.45143" lon="6.41388"></trkpt><trkpt lat="52.45226" lon="6.41519"></trkpt><trkpt lat="52.45234" lon="6.41506"></trkpt><trkpt lat="52.45269" lon="6.41465"></trkpt><trkpt lat="52.45334" lon="6.41396"></trkpt><trkpt lat="52.45401" lon="6.41328"></trkpt><trkpt lat="52.45433" lon="6.41291"></trkpt><trkpt lat="52.45446" lon="6.41275"></trkpt><trkpt lat="52.4545" lon="6.41268"></trkpt><trkpt lat="52.45459" lon="6.41255"></trkpt><trkpt lat="52.45562" lon="6.41077"></trkpt><trkpt lat="52.45573" lon="6.41048"></trkpt><trkpt lat="52.45606" lon="6.40914"></trkpt><trkpt lat="52.45617" lon="6.40853"></trkpt><trkpt lat="52.45635" lon="6.40684"></trkpt><trkpt lat="52.45645" lon="6.4063"></trkpt><trkpt lat="52.45655" lon="6.40605"></trkpt><trkpt lat="52.45718" lon="6.40485"></trkpt><trkpt lat="52.4573" lon="6.40455"></trkpt><trkpt lat="52.45743" lon="6.40401"></trkpt><trkpt lat="52.45746" lon="6.4036"></trkpt><trkpt lat="52.45753" lon="6.40082"></trkpt><trkpt lat="52.45756" lon="6.40012"></trkpt><trkpt lat="52.45759" lon="6.39837"></trkpt><trkpt lat="52.45755" lon="6.39803"></trkpt><trkpt lat="52.45738" lon="6.39702"></trkpt><trkpt lat="52.45736" lon="6.39679"></trkpt><trkpt lat="52.4574" lon="6.39474"></trkpt><trkpt lat="52.45744" lon="6.39446"></trkpt><trkpt lat="52.45754" lon="6.39411"></trkpt><trkpt lat="52.45794" lon="6.39283"></trkpt><trkpt lat="52.45812" lon="6.39237"></trkpt><trkpt lat="52.45811" lon="6.39263"></trkpt><trkpt lat="52.45812" lon="6.39237"></trkpt><trkpt lat="52.45834" lon="6.39195"></trkpt><trkpt lat="52.45855" lon="6.39162"></trkpt><trkpt lat="52.45872" lon="6.39144"></trkpt><trkpt lat="52.45892" lon="6.39126"></trkpt><trkpt lat="52.45967" lon="6.3908"></trkpt><trkpt lat="52.46005" lon="6.39055"></trkpt><trkpt lat="52.46052" lon="6.39028"></trkpt><trkpt lat="52.46137" lon="6.38987"></trkpt><trkpt lat="52.46178" lon="6.38964"></trkpt><trkpt lat="52.46214" lon="6.38941"></trkpt><trkpt lat="52.4628" lon="6.38902"></trkpt><trkpt lat="52.46299" lon="6.38887"></trkpt><trkpt lat="52.46309" lon="6.38876"></trkpt><trkpt lat="52.46318" lon="6.38855"></trkpt><trkpt lat="52.46388" lon="6.38649"></trkpt><trkpt lat="52.46521" lon="6.38791"></trkpt><trkpt lat="52.46526" lon="6.38794"></trkpt><trkpt lat="52.46532" lon="6.38794"></trkpt><trkpt lat="52.46537" lon="6.38789"></trkpt><trkpt lat="52.46576" lon="6.38699"></trkpt><trkpt lat="52.46624" lon="6.386"></trkpt><trkpt lat="52.46659" lon="6.3852"></trkpt><trkpt lat="52.46669" lon="6.38494"></trkpt><trkpt lat="52.46726" lon="6.38366"></trkpt><trkpt lat="52.46767" lon="6.38263"></trkpt><trkpt lat="52.46955" lon="6.37753"></trkpt><trkpt lat="52.47031" lon="6.37554"></trkpt><trkpt lat="52.47077" lon="6.37443"></trkpt><trkpt lat="52.47233" lon="6.37141"></trkpt><trkpt lat="52.47426" lon="6.3679"></trkpt><trkpt lat="52.47575" lon="6.36551"></trkpt><trkpt lat="52.47586" lon="6.36531"></trkpt><trkpt lat="52.47608" lon="6.36471"></trkpt><trkpt lat="52.47675" lon="6.36255"></trkpt><trkpt lat="52.47684" lon="6.36231"></trkpt><trkpt lat="52.47695" lon="6.36218"></trkpt><trkpt lat="52.47703" lon="6.36211"></trkpt><trkpt lat="52.4771" lon="6.36208"></trkpt><trkpt lat="52.47717" lon="6.36207"></trkpt><trkpt lat="52.47733" lon="6.36211"></trkpt><trkpt lat="52.47793" lon="6.36257"></trkpt><trkpt lat="52.47832" lon="6.36279"></trkpt><trkpt lat="52.47857" lon="6.36298"></trkpt><trkpt lat="52.48027" lon="6.36438"></trkpt><trkpt lat="52.4803" lon="6.36444"></trkpt><trkpt lat="52.48032" lon="6.36453"></trkpt><trkpt lat="52.4803" lon="6.36468"></trkpt><trkpt lat="52.48008" lon="6.36509"></trkpt><trkpt lat="52.48006" lon="6.36516"></trkpt><trkpt lat="52.48006" lon="6.3653"></trkpt><trkpt lat="52.48011" lon="6.36551"></trkpt><trkpt lat="52.48014" lon="6.3656"></trkpt><trkpt lat="52.4802" lon="6.36566"></trkpt><trkpt lat="52.48027" lon="6.36567"></trkpt><trkpt lat="52.4804" lon="6.36564"></trkpt><trkpt lat="52.48076" lon="6.36551"></trkpt><trkpt lat="52.48129" lon="6.36537"></trkpt><trkpt lat="52.48143" lon="6.36535"></trkpt><trkpt lat="52.48148" lon="6.36537"></trkpt><trkpt lat="52.48215" lon="6.3659"></trkpt><trkpt lat="52.4825" lon="6.3661"></trkpt><trkpt lat="52.48424" lon="6.36753"></trkpt><trkpt lat="52.48465" lon="6.368"></trkpt><trkpt lat="52.48486" lon="6.3682"></trkpt><trkpt lat="52.48514" lon="6.36842"></trkpt><trkpt lat="52.48541" lon="6.36861"></trkpt><trkpt lat="52.48567" lon="6.36872"></trkpt><trkpt lat="52.48598" lon="6.36894"></trkpt><trkpt lat="52.49292" lon="6.3746"></trkpt><trkpt lat="52.49351" lon="6.37526"></trkpt><trkpt lat="52.4938" lon="6.37548"></trkpt><trkpt lat="52.49418" lon="6.37568"></trkpt><trkpt lat="52.4947" lon="6.37607"></trkpt><trkpt lat="52.49859" lon="6.37926"></trkpt><trkpt lat="52.4994" lon="6.37991"></trkpt><trkpt lat="52.49957" lon="6.38009"></trkpt><trkpt lat="52.50033" lon="6.38119"></trkpt><trkpt lat="52.50041" lon="6.38136"></trkpt><trkpt lat="52.50058" lon="6.38186"></trkpt><trkpt lat="52.50066" lon="6.38204"></trkpt><trkpt lat="52.50076" lon="6.38216"></trkpt><trkpt lat="52.50101" lon="6.3824"></trkpt><trkpt lat="52.50123" lon="6.38258"></trkpt><trkpt lat="52.50134" lon="6.38266"></trkpt><trkpt lat="52.5015" lon="6.38274"></trkpt><trkpt lat="52.50162" lon="6.38278"></trkpt><trkpt lat="52.5017" lon="6.38279"></trkpt><trkpt lat="52.50216" lon="6.38272"></trkpt><trkpt lat="52.50234" lon="6.38274"></trkpt><trkpt lat="52.50254" lon="6.38279"></trkpt><trkpt lat="52.50277" lon="6.38291"></trkpt><trkpt lat="52.50299" lon="6.38308"></trkpt><trkpt lat="52.50417" lon="6.38406"></trkpt><trkpt lat="52.50438" lon="6.38431"></trkpt><trkpt lat="52.50492" lon="6.38517"></trkpt><trkpt lat="52.50509" lon="6.38547"></trkpt><trkpt lat="52.50549" lon="6.38626"></trkpt><trkpt lat="52.506" lon="6.38744"></trkpt><trkpt lat="52.50614" lon="6.38781"></trkpt><trkpt lat="52.50639" lon="6.38858"></trkpt><trkpt lat="52.50663" lon="6.3894"></trkpt><trkpt lat="52.50685" lon="6.39033"></trkpt><trkpt lat="52.50689" lon="6.39082"></trkpt><trkpt lat="52.50688" lon="6.39156"></trkpt><trkpt lat="52.50689" lon="6.39169"></trkpt><trkpt lat="52.50693" lon="6.39175"></trkpt><trkpt lat="52.50698" lon="6.39178"></trkpt><trkpt lat="52.50703" lon="6.39178"></trkpt><trkpt lat="52.50797" lon="6.39162"></trkpt><trkpt lat="52.50806" lon="6.39163"></trkpt><trkpt lat="52.50811" lon="6.39166"></trkpt><trkpt lat="52.50821" lon="6.39176"></trkpt><trkpt lat="52.50863" lon="6.39245"></trkpt><trkpt lat="52.50866" lon="6.39248"></trkpt><trkpt lat="52.5087" lon="6.39249"></trkpt><trkpt lat="52.50876" lon="6.39248"></trkpt><trkpt lat="52.50881" lon="6.39242"></trkpt><trkpt lat="52.50985" lon="6.39104"></trkpt><trkpt lat="52.51081" lon="6.39019"></trkpt><trkpt lat="52.51097" lon="6.39008"></trkpt><trkpt lat="52.51057" lon="6.38943"></trkpt><trkpt lat="52.5103" lon="6.38917"></trkpt><trkpt lat="52.51008" lon="6.38905"></trkpt><trkpt lat="52.50899" lon="6.38879"></trkpt><trkpt lat="52.50884" lon="6.38868"></trkpt><trkpt lat="52.50874" lon="6.38853"></trkpt><trkpt lat="52.50865" lon="6.38835"></trkpt><trkpt lat="52.50859" lon="6.38804"></trkpt><trkpt lat="52.50859" lon="6.38786"></trkpt><trkpt lat="52.5086" lon="6.38766"></trkpt><trkpt lat="52.50864" lon="6.38742"></trkpt><trkpt lat="52.509" lon="6.38627"></trkpt><trkpt lat="52.50915" lon="6.38603"></trkpt><trkpt lat="52.50934" lon="6.38586"></trkpt><trkpt lat="52.50985" lon="6.38547"></trkpt><trkpt lat="52.51014" lon="6.38519"></trkpt><trkpt lat="52.51027" lon="6.38495"></trkpt><trkpt lat="52.51049" lon="6.38444"></trkpt><trkpt lat="52.51057" lon="6.38419"></trkpt><trkpt lat="52.51064" lon="6.38354"></trkpt><trkpt lat="52.51077" lon="6.38121"></trkpt><trkpt lat="52.51081" lon="6.38026"></trkpt><trkpt lat="52.51092" lon="6.37943"></trkpt><trkpt lat="52.51124" lon="6.37356"></trkpt><trkpt lat="52.5113" lon="6.37268"></trkpt><trkpt lat="52.51171" lon="6.36485"></trkpt><trkpt lat="52.51153" lon="6.35675"></trkpt><trkpt lat="52.51145" lon="6.35491"></trkpt><trkpt lat="52.51134" lon="6.35149"></trkpt><trkpt lat="52.5113" lon="6.35111"></trkpt><trkpt lat="52.51127" lon="6.35094"></trkpt><trkpt lat="52.51049" lon="6.34778"></trkpt><trkpt lat="52.5102" lon="6.34659"></trkpt><trkpt lat="52.51014" lon="6.34625"></trkpt><trkpt lat="52.51011" lon="6.34587"></trkpt><trkpt lat="52.5087" lon="6.34022"></trkpt><trkpt lat="52.50836" lon="6.33935"></trkpt><trkpt lat="52.50757" lon="6.33597"></trkpt><trkpt lat="52.50697" lon="6.33351"></trkpt><trkpt lat="52.50656" lon="6.33173"></trkpt><trkpt lat="52.50632" lon="6.33085"></trkpt><trkpt lat="52.50584" lon="6.32897"></trkpt><trkpt lat="52.50544" lon="6.32709"></trkpt><trkpt lat="52.50424" lon="6.3222"></trkpt><trkpt lat="52.504" lon="6.32131"></trkpt><trkpt lat="52.50375" lon="6.3203"></trkpt><trkpt lat="52.50364" lon="6.31977"></trkpt><trkpt lat="52.50355" lon="6.31916"></trkpt><trkpt lat="52.50235" lon="6.31419"></trkpt><trkpt lat="52.50224" lon="6.31378"></trkpt><trkpt lat="52.50213" lon="6.31349"></trkpt><trkpt lat="52.50144" lon="6.31066"></trkpt><trkpt lat="52.50135" lon="6.31038"></trkpt><trkpt lat="52.50121" lon="6.30983"></trkpt><trkpt lat="52.49674" lon="6.28945"></trkpt><trkpt lat="52.49671" lon="6.28917"></trkpt><trkpt lat="52.49661" lon="6.2872"></trkpt><trkpt lat="52.49652" lon="6.28587"></trkpt><trkpt lat="52.49651" lon="6.28545"></trkpt><trkpt lat="52.49655" lon="6.28478"></trkpt><trkpt lat="52.49656" lon="6.28416"></trkpt><trkpt lat="52.49655" lon="6.28382"></trkpt><trkpt lat="52.4965" lon="6.28285"></trkpt><trkpt lat="52.49636" lon="6.28091"></trkpt><trkpt lat="52.49623" lon="6.28011"></trkpt><trkpt lat="52.49611" lon="6.27966"></trkpt><trkpt lat="52.49562" lon="6.27829"></trkpt><trkpt lat="52.49551" lon="6.27784"></trkpt><trkpt lat="52.49542" lon="6.27734"></trkpt><trkpt lat="52.49537" lon="6.27683"></trkpt><trkpt lat="52.49538" lon="6.27622"></trkpt><trkpt lat="52.49542" lon="6.27557"></trkpt><trkpt lat="52.49545" lon="6.27531"></trkpt><trkpt lat="52.49727" lon="6.27089"></trkpt><trkpt lat="52.49756" lon="6.27023"></trkpt><trkpt lat="52.49933" lon="6.26391"></trkpt><trkpt lat="52.49941" lon="6.26353"></trkpt><trkpt lat="52.49985" lon="6.26197"></trkpt><trkpt lat="52.49993" lon="6.2616"></trkpt><trkpt lat="52.49998" lon="6.26113"></trkpt><trkpt lat="52.50003" lon="6.25989"></trkpt><trkpt lat="52.50005" lon="6.25971"></trkpt><trkpt lat="52.50007" lon="6.25966"></trkpt><trkpt lat="52.50011" lon="6.25961"></trkpt><trkpt lat="52.50017" lon="6.25959"></trkpt><trkpt lat="52.50017" lon="6.25916"></trkpt><trkpt lat="52.5" lon="6.25896"></trkpt><trkpt lat="52.49995" lon="6.25895"></trkpt><trkpt lat="52.4998" lon="6.25897"></trkpt><trkpt lat="52.49983" lon="6.25855"></trkpt><trkpt lat="52.49981" lon="6.25821"></trkpt><trkpt lat="52.49981" lon="6.25463"></trkpt><trkpt lat="52.49984" lon="6.254"></trkpt><trkpt lat="52.49991" lon="6.25336"></trkpt><trkpt lat="52.50002" lon="6.25276"></trkpt><trkpt lat="52.50057" lon="6.25087"></trkpt><trkpt lat="52.50065" lon="6.25051"></trkpt><trkpt lat="52.50071" lon="6.25003"></trkpt><trkpt lat="52.5007" lon="6.24975"></trkpt><trkpt lat="52.50068" lon="6.24966"></trkpt><trkpt lat="52.50057" lon="6.24939"></trkpt><trkpt lat="52.50054" lon="6.24923"></trkpt><trkpt lat="52.50058" lon="6.24871"></trkpt><trkpt lat="52.5005" lon="6.24793"></trkpt><trkpt lat="52.50042" lon="6.24745"></trkpt><trkpt lat="52.50029" lon="6.24686"></trkpt><trkpt lat="52.49971" lon="6.24498"></trkpt><trkpt lat="52.4996" lon="6.24452"></trkpt><trkpt lat="52.49929" lon="6.24367"></trkpt><trkpt lat="52.49895" lon="6.24258"></trkpt><trkpt lat="52.49886" lon="6.24223"></trkpt><trkpt lat="52.49884" lon="6.24195"></trkpt><trkpt lat="52.49898" lon="6.24083"></trkpt><trkpt lat="52.49896" lon="6.24037"></trkpt><trkpt lat="52.499" lon="6.23746"></trkpt><trkpt lat="52.49895" lon="6.23683"></trkpt><trkpt lat="52.49887" lon="6.23617"></trkpt><trkpt lat="52.49858" lon="6.23525"></trkpt><trkpt lat="52.49787" lon="6.23237"></trkpt><trkpt lat="52.49783" lon="6.23208"></trkpt><trkpt lat="52.49781" lon="6.23132"></trkpt><trkpt lat="52.49775" lon="6.23065"></trkpt><trkpt lat="52.49776" lon="6.23038"></trkpt><trkpt lat="52.49786" lon="6.22964"></trkpt><trkpt lat="52.49788" lon="6.22923"></trkpt><trkpt lat="52.49785" lon="6.22899"></trkpt><trkpt lat="52.49785" lon="6.22888"></trkpt><trkpt lat="52.49791" lon="6.22826"></trkpt><trkpt lat="52.49791" lon="6.22776"></trkpt><trkpt lat="52.49805" lon="6.2262"></trkpt><trkpt lat="52.49811" lon="6.22586"></trkpt><trkpt lat="52.49874" lon="6.21886"></trkpt><trkpt lat="52.49882" lon="6.21813"></trkpt><trkpt lat="52.49885" lon="6.21706"></trkpt><trkpt lat="52.49884" lon="6.21651"></trkpt><trkpt lat="52.49893" lon="6.21567"></trkpt><trkpt lat="52.49903" lon="6.21365"></trkpt><trkpt lat="52.49915" lon="6.21168"></trkpt><trkpt lat="52.49915" lon="6.21131"></trkpt><trkpt lat="52.49913" lon="6.21092"></trkpt><trkpt lat="52.49911" lon="6.21078"></trkpt><trkpt lat="52.49924" lon="6.21067"></trkpt><trkpt lat="52.49933" lon="6.21054"></trkpt><trkpt lat="52.50331" lon="6.20576"></trkpt><trkpt lat="52.50484" lon="6.20385"></trkpt><trkpt lat="52.50481" lon="6.20377"></trkpt><trkpt lat="52.50485" lon="6.20287"></trkpt><trkpt lat="52.50485" lon="6.20269"></trkpt><trkpt lat="52.50482" lon="6.20244"></trkpt><trkpt lat="52.50408" lon="6.19948"></trkpt><trkpt lat="52.50405" lon="6.19919"></trkpt><trkpt lat="52.50413" lon="6.19872"></trkpt><trkpt lat="52.5046" lon="6.19638"></trkpt><trkpt lat="52.50471" lon="6.19596"></trkpt><trkpt lat="52.50486" lon="6.19547"></trkpt><trkpt lat="52.50504" lon="6.19496"></trkpt><trkpt lat="52.5052" lon="6.19437"></trkpt><trkpt lat="52.50525" lon="6.19404"></trkpt><trkpt lat="52.50531" lon="6.19345"></trkpt><trkpt lat="52.50533" lon="6.19337"></trkpt><trkpt lat="52.50541" lon="6.19316"></trkpt><trkpt lat="52.50545" lon="6.1931"></trkpt><trkpt lat="52.50571" lon="6.19286"></trkpt><trkpt lat="52.50582" lon="6.19279"></trkpt><trkpt lat="52.50588" lon="6.19272"></trkpt><trkpt lat="52.50596" lon="6.19259"></trkpt><trkpt lat="52.50603" lon="6.1924"></trkpt><trkpt lat="52.50611" lon="6.19147"></trkpt><trkpt lat="52.50653" lon="6.18926"></trkpt><trkpt lat="52.50675" lon="6.18771"></trkpt><trkpt lat="52.50695" lon="6.18683"></trkpt><trkpt lat="52.50716" lon="6.18605"></trkpt><trkpt lat="52.50753" lon="6.18501"></trkpt><trkpt lat="52.50763" lon="6.18465"></trkpt><trkpt lat="52.50767" lon="6.18433"></trkpt><trkpt lat="52.50766" lon="6.18391"></trkpt><trkpt lat="52.50761" lon="6.18356"></trkpt><trkpt lat="52.50743" lon="6.18269"></trkpt><trkpt lat="52.50739" lon="6.18237"></trkpt><trkpt lat="52.50739" lon="6.18203"></trkpt><trkpt lat="52.50751" lon="6.1796"></trkpt><trkpt lat="52.50744" lon="6.17734"></trkpt><trkpt lat="52.50744" lon="6.17727"></trkpt><trkpt lat="52.50727" lon="6.17634"></trkpt><trkpt lat="52.50726" lon="6.17619"></trkpt><trkpt lat="52.50728" lon="6.17609"></trkpt><trkpt lat="52.50901" lon="6.17451"></trkpt><trkpt lat="52.50926" lon="6.17426"></trkpt><trkpt lat="52.50935" lon="6.17413"></trkpt><trkpt lat="52.50944" lon="6.17394"></trkpt><trkpt lat="52.50944" lon="6.17377"></trkpt><trkpt lat="52.50942" lon="6.17359"></trkpt><trkpt lat="52.50854" lon="6.16967"></trkpt><trkpt lat="52.50822" lon="6.16877"></trkpt><trkpt lat="52.50763" lon="6.16668"></trkpt><trkpt lat="52.50759" lon="6.1665"></trkpt><trkpt lat="52.5075" lon="6.16586"></trkpt><trkpt lat="52.50743" lon="6.16567"></trkpt><trkpt lat="52.50733" lon="6.16554"></trkpt><trkpt lat="52.50639" lon="6.16453"></trkpt><trkpt lat="52.50623" lon="6.16426"></trkpt><trkpt lat="52.50614" lon="6.16398"></trkpt><trkpt lat="52.50605" lon="6.16346"></trkpt><trkpt lat="52.50585" lon="6.16205"></trkpt><trkpt lat="52.50581" lon="6.16187"></trkpt><trkpt lat="52.50573" lon="6.16172"></trkpt><trkpt lat="52.50562" lon="6.16207"></trkpt><trkpt lat="52.50548" lon="6.16242"></trkpt><trkpt lat="52.50525" lon="6.16283"></trkpt><trkpt lat="52.50463" lon="6.16359"></trkpt><trkpt lat="52.50449" lon="6.16385"></trkpt><trkpt lat="52.50416" lon="6.1644"></trkpt><trkpt lat="52.50405" lon="6.16451"></trkpt><trkpt lat="52.50391" lon="6.16461"></trkpt><trkpt lat="52.50359" lon="6.16476"></trkpt><trkpt lat="52.50328" lon="6.16502"></trkpt><trkpt lat="52.50306" lon="6.16526"></trkpt><trkpt lat="52.50296" lon="6.16533"></trkpt><trkpt lat="52.50273" lon="6.16544"></trkpt><trkpt lat="52.50245" lon="6.16554"></trkpt><trkpt lat="52.50174" lon="6.16568"></trkpt><trkpt lat="52.50154" lon="6.16575"></trkpt><trkpt lat="52.50116" lon="6.16605"></trkpt><trkpt lat="52.501" lon="6.16616"></trkpt><trkpt lat="52.50071" lon="6.16623"></trkpt><trkpt lat="52.50055" lon="6.16625"></trkpt><trkpt lat="52.50038" lon="6.16622"></trkpt><trkpt lat="52.50016" lon="6.1661"></trkpt><trkpt lat="52.49996" lon="6.16593"></trkpt><trkpt lat="52.49907" lon="6.16484"></trkpt><trkpt lat="52.4984" lon="6.16406"></trkpt><trkpt lat="52.49757" lon="6.16315"></trkpt><trkpt lat="52.49706" lon="6.16263"></trkpt><trkpt lat="52.49582" lon="6.16416"></trkpt><trkpt lat="52.4945" lon="6.16589"></trkpt><trkpt lat="52.4944" lon="6.16567"></trkpt><trkpt lat="52.4934" lon="6.1642"></trkpt><trkpt lat="52.49315" lon="6.16381"></trkpt><trkpt lat="52.49322" lon="6.16373"></trkpt><trkpt lat="52.49318" lon="6.1636"></trkpt><trkpt lat="52.49313" lon="6.16311"></trkpt><trkpt lat="52.49304" lon="6.16253"></trkpt><trkpt lat="52.49295" lon="6.16236"></trkpt><trkpt lat="52.49284" lon="6.16221"></trkpt><trkpt lat="52.49278" lon="6.16215"></trkpt><trkpt lat="52.49263" lon="6.16206"></trkpt><trkpt lat="52.49257" lon="6.16198"></trkpt><trkpt lat="52.49255" lon="6.16191"></trkpt><trkpt lat="52.49234" lon="6.16003"></trkpt><trkpt lat="52.49172" lon="6.15481"></trkpt><trkpt lat="52.49171" lon="6.15473"></trkpt><trkpt lat="52.49161" lon="6.15436"></trkpt><trkpt lat="52.4912" lon="6.15454"></trkpt><trkpt lat="52.49059" lon="6.15484"></trkpt><trkpt lat="52.49073" lon="6.15564"></trkpt><trkpt lat="52.49072" lon="6.15579"></trkpt><trkpt lat="52.49066" lon="6.15594"></trkpt><trkpt lat="52.49062" lon="6.156"></trkpt><trkpt lat="52.49056" lon="6.15604"></trkpt><trkpt lat="52.49051" lon="6.15607"></trkpt><trkpt lat="52.49042" lon="6.15609"></trkpt><trkpt lat="52.49034" lon="6.1561"></trkpt><trkpt lat="52.49027" lon="6.15609"></trkpt><trkpt lat="52.49013" lon="6.15603"></trkpt><trkpt lat="52.48977" lon="6.15581"></trkpt><trkpt lat="52.4896" lon="6.1556"></trkpt><trkpt lat="52.48949" lon="6.15535"></trkpt><trkpt lat="52.48936" lon="6.15499"></trkpt><trkpt lat="52.48933" lon="6.15493"></trkpt><trkpt lat="52.48906" lon="6.15464"></trkpt><trkpt lat="52.48889" lon="6.15427"></trkpt><trkpt lat="52.48872" lon="6.15383"></trkpt><trkpt lat="52.48862" lon="6.15342"></trkpt><trkpt lat="52.48855" lon="6.15231"></trkpt><trkpt lat="52.48851" lon="6.15208"></trkpt><trkpt lat="52.48847" lon="6.1517"></trkpt><trkpt lat="52.4885" lon="6.1512"></trkpt><trkpt lat="52.48853" lon="6.15097"></trkpt><trkpt lat="52.48853" lon="6.1508"></trkpt><trkpt lat="52.48851" lon="6.15066"></trkpt><trkpt lat="52.48845" lon="6.15051"></trkpt><trkpt lat="52.4881" lon="6.15008"></trkpt><trkpt lat="52.48801" lon="6.1499"></trkpt><trkpt lat="52.48766" lon="6.14858"></trkpt><trkpt lat="52.48766" lon="6.14835"></trkpt><trkpt lat="52.4878" lon="6.14782"></trkpt><trkpt lat="52.48796" lon="6.14757"></trkpt><trkpt lat="52.48822" lon="6.14722"></trkpt><trkpt lat="52.48855" lon="6.14684"></trkpt><trkpt lat="52.48817" lon="6.14635"></trkpt><trkpt lat="52.48829" lon="6.14605"></trkpt><trkpt lat="52.48825" lon="6.14596"></trkpt><trkpt lat="52.48803" lon="6.14517"></trkpt><trkpt lat="52.48795" lon="6.14475"></trkpt><trkpt lat="52.48792" lon="6.14467"></trkpt><trkpt lat="52.4871" lon="6.14285"></trkpt><trkpt lat="52.48694" lon="6.1427"></trkpt><trkpt lat="52.48684" lon="6.14268"></trkpt><trkpt lat="52.48694" lon="6.1427"></trkpt><trkpt lat="52.4871" lon="6.14285"></trkpt><trkpt lat="52.48605" lon="6.14057"></trkpt><trkpt lat="52.48591" lon="6.1404"></trkpt><trkpt lat="52.48585" lon="6.14029"></trkpt><trkpt lat="52.48571" lon="6.1399"></trkpt><trkpt lat="52.48516" lon="6.13852"></trkpt><trkpt lat="52.48399" lon="6.13597"></trkpt><trkpt lat="52.48394" lon="6.1358"></trkpt><trkpt lat="52.48381" lon="6.13521"></trkpt><trkpt lat="52.48359" lon="6.13487"></trkpt><trkpt lat="52.48306" lon="6.13338"></trkpt><trkpt lat="52.48307" lon="6.13323"></trkpt><trkpt lat="52.48437" lon="6.13112"></trkpt><trkpt lat="52.48399" lon="6.13048"></trkpt><trkpt lat="52.4839" lon="6.13029"></trkpt><trkpt lat="52.48382" lon="6.12994"></trkpt><trkpt lat="52.4838" lon="6.1298"></trkpt><trkpt lat="52.48382" lon="6.12935"></trkpt><trkpt lat="52.48387" lon="6.12872"></trkpt><trkpt lat="52.48386" lon="6.12826"></trkpt><trkpt lat="52.48354" lon="6.12603"></trkpt><trkpt lat="52.48296" lon="6.12635"></trkpt><trkpt lat="52.48286" lon="6.12636"></trkpt><trkpt lat="52.48277" lon="6.12631"></trkpt><trkpt lat="52.48274" lon="6.12627"></trkpt><trkpt lat="52.48261" lon="6.12594"></trkpt><trkpt lat="52.48253" lon="6.12595"></trkpt><trkpt lat="52.48219" lon="6.12316"></trkpt><trkpt lat="52.48216" lon="6.12293"></trkpt><trkpt lat="52.48211" lon="6.1227"></trkpt><trkpt lat="52.48206" lon="6.12252"></trkpt><trkpt lat="52.48069" lon="6.11922"></trkpt><trkpt lat="52.48012" lon="6.11981"></trkpt><trkpt lat="52.47983" lon="6.12013"></trkpt><trkpt lat="52.47972" lon="6.11984"></trkpt><trkpt lat="52.47953" lon="6.11964"></trkpt><trkpt lat="52.47943" lon="6.11946"></trkpt><trkpt lat="52.47902" lon="6.11838"></trkpt><trkpt lat="52.479" lon="6.11825"></trkpt><trkpt lat="52.47893" lon="6.11806"></trkpt><trkpt lat="52.47887" lon="6.11795"></trkpt><trkpt lat="52.4784" lon="6.11676"></trkpt><trkpt lat="52.47828" lon="6.11637"></trkpt><trkpt lat="52.47813" lon="6.11606"></trkpt><trkpt lat="52.47785" lon="6.11535"></trkpt><trkpt lat="52.47768" lon="6.11497"></trkpt></trkseg></trk></gpx>