<?xml version="1.0" encoding="UTF-8"?>
<gpx version="1.1" creator="https://www.hammerhead.io" xmlns:xsi="http://www.w3.org/2001/XMLSchema-instance" xmlns="http://www.topografix.com/GPX/1/1" xsi:schemaLocation="http://www.topografix.com/GPX/1/1 http://www.topografix.com/GPX/1/1/gpx.xsd"><metadata><name>Middelstum 50k</name><time>0001-01-01T00:00:00Z</time></metadata><trk><name>Middelstum 50k</name><trkseg><trkpt lat="53.22981" lon="6.56742"></trkpt><trkpt lat="53.2298" lon="6.56738"></trkpt><trkpt lat="53.229789999999994" lon="6.56735"></trkpt><trkpt lat="53.22977999999999" lon="6.5673200000000005"></trkpt><trkpt lat="53.22975999999999" lon="6.5673"></trkpt><trkpt lat="53.22973999999999" lon="6.56728"></trkpt><trkpt lat="53.22970999999999" lon="6.567270000000001"></trkpt><trkpt lat="53.22968999999999" lon="6.567270000000001"></trkpt><trkpt lat="53.22966999999999" lon="6.567270000000001"></trkpt><trkpt lat="53.22964999999999" lon="6.56728"></trkpt><trkpt lat="53.22962999999999" lon="6.5673"></trkpt><trkpt lat="53.22961999999999" lon="6.5673200000000005"></trkpt><trkpt lat="53.22960999999999" lon="6.567340000000001"></trkpt><trkpt lat="53.229599999999984" lon="6.56737"></trkpt><trkpt lat="53.22958999999998" lon="6.5674"></trkpt><trkpt lat="53.22957999999998" lon="6.56744"></trkpt><trkpt lat="53.22957999999998" lon="6.56749"></trkpt><trkpt lat="53.22958999999998" lon="6.5675300000000005"></trkpt><trkpt lat="53.22960999999998" lon="6.567590000000001"></trkpt><trkpt lat="53.22963999999998" lon="6.567630000000001"></trkpt><trkpt lat="53.22965999999998" lon="6.567650000000001"></trkpt><trkpt lat="53.229689999999984" lon="6.567650000000001"></trkpt><trkpt lat="53.22970999999998" lon="6.567650000000001"></trkpt><trkpt lat="53.229759999999985" lon="6.567770000000001"></trkpt><trkpt lat="53.23010999999998" lon="6.568550000000001"></trkpt><trkpt lat="53.23021999999998" lon="6.568780000000001"></trkpt><trkpt lat="53.230429999999984" lon="6.569250000000001"></trkpt><trkpt lat="53.230609999999984" lon="6.569650000000001"></trkpt><trkpt lat="53.23102999999998" lon="6.570550000000001"></trkpt><trkpt lat="53.23106999999998" lon="6.570620000000001"></trkpt><trkpt lat="53.23111999999998" lon="6.5707"></trkpt><trkpt lat="53.23120999999998" lon="6.570900000000001"></trkpt><trkpt lat="53.23124999999998" lon="6.571020000000001"></trkpt><trkpt lat="53.23133999999998" lon="6.571210000000001"></trkpt><trkpt lat="53.23138999999998" lon="6.57136"></trkpt><trkpt lat="53.231529999999985" lon="6.5716600000000005"></trkpt><trkpt lat="53.23176999999998" lon="6.57216"></trkpt><trkpt lat="53.231819999999985" lon="6.5722700000000005"></trkpt><trkpt lat="53.232039999999984" lon="6.57275"></trkpt><trkpt lat="53.232359999999986" lon="6.57347"></trkpt><trkpt lat="53.232669999999985" lon="6.57413"></trkpt><trkpt lat="53.23288999999998" lon="6.57463"></trkpt><trkpt lat="53.23330999999998" lon="6.57554"></trkpt><trkpt lat="53.233429999999984" lon="6.5758"></trkpt><trkpt lat="53.233589999999985" lon="6.57615"></trkpt><trkpt lat="53.233679999999985" lon="6.5763300000000005"></trkpt><trkpt lat="53.23375999999998" lon="6.57643"></trkpt><trkpt lat="53.23388999999998" lon="6.57658"></trkpt><trkpt lat="53.233989999999984" lon="6.57667"></trkpt><trkpt lat="53.234059999999985" lon="6.57673"></trkpt><trkpt lat="53.234129999999986" lon="6.57676"></trkpt><trkpt lat="53.234329999999986" lon="6.57692"></trkpt><trkpt lat="53.23486999999999" lon="6.577380000000001"></trkpt><trkpt lat="53.23507999999999" lon="6.577560000000001"></trkpt><trkpt lat="53.23523999999999" lon="6.577700000000001"></trkpt><trkpt lat="53.23551999999999" lon="6.577950000000001"></trkpt><trkpt lat="53.23556999999999" lon="6.577980000000001"></trkpt><trkpt lat="53.23561999999999" lon="6.578020000000001"></trkpt><trkpt lat="53.23573999999999" lon="6.578050000000001"></trkpt><trkpt lat="53.23579999999999" lon="6.578060000000001"></trkpt><trkpt lat="53.23583999999999" lon="6.578080000000001"></trkpt><trkpt lat="53.236299999999986" lon="6.578480000000001"></trkpt><trkpt lat="53.23637999999998" lon="6.578550000000001"></trkpt><trkpt lat="53.23648999999998" lon="6.5786500000000006"></trkpt><trkpt lat="53.23655999999998" lon="6.578710000000001"></trkpt><trkpt lat="53.236569999999986" lon="6.5786500000000006"></trkpt><trkpt lat="53.236569999999986" lon="6.578570000000001"></trkpt><trkpt lat="53.23657999999999" lon="6.578430000000001"></trkpt><trkpt lat="53.23658999999999" lon="6.578410000000001"></trkpt><trkpt lat="53.236599999999996" lon="6.578380000000001"></trkpt><trkpt lat="53.23658999999999" lon="6.578410000000001"></trkpt><trkpt lat="53.23657999999999" lon="6.578430000000001"></trkpt><trkpt lat="53.236569999999986" lon="6.578570000000001"></trkpt><trkpt lat="53.236569999999986" lon="6.5786500000000006"></trkpt><trkpt lat="53.23655999999998" lon="6.578710000000001"></trkpt><trkpt lat="53.236659999999986" lon="6.580230000000001"></trkpt><trkpt lat="53.23673999999998" lon="6.580530000000001"></trkpt><trkpt lat="53.236789999999985" lon="6.580790000000001"></trkpt><trkpt lat="53.23688999999999" lon="6.580820000000001"></trkpt><trkpt lat="53.23693999999999" lon="6.580870000000001"></trkpt><trkpt lat="53.23702999999999" lon="6.580990000000001"></trkpt><trkpt lat="53.23709999999999" lon="6.581120000000001"></trkpt><trkpt lat="53.23718999999999" lon="6.581330000000001"></trkpt><trkpt lat="53.23732999999999" lon="6.581660000000001"></trkpt><trkpt lat="53.237449999999995" lon="6.582030000000001"></trkpt><trkpt lat="53.23752999999999" lon="6.582320000000001"></trkpt><trkpt lat="53.237559999999995" lon="6.5825200000000015"></trkpt><trkpt lat="53.23761" lon="6.582750000000002"></trkpt><trkpt lat="53.237629999999996" lon="6.583050000000002"></trkpt><trkpt lat="53.237629999999996" lon="6.583380000000002"></trkpt><trkpt lat="53.23761" lon="6.5836700000000015"></trkpt><trkpt lat="53.23755" lon="6.5844200000000015"></trkpt><trkpt lat="53.237539999999996" lon="6.584580000000002"></trkpt><trkpt lat="53.23755" lon="6.584710000000002"></trkpt><trkpt lat="53.23757" lon="6.584810000000002"></trkpt><trkpt lat="53.23761" lon="6.584920000000002"></trkpt><trkpt lat="53.23817" lon="6.586170000000002"></trkpt><trkpt lat="53.23768999999999" lon="6.586920000000002"></trkpt><trkpt lat="53.237869999999994" lon="6.587280000000002"></trkpt><trkpt lat="53.23817" lon="6.587900000000001"></trkpt><trkpt lat="53.238479999999996" lon="6.588540000000001"></trkpt><trkpt lat="53.238589999999995" lon="6.588750000000001"></trkpt><trkpt lat="53.23884999999999" lon="6.589270000000001"></trkpt><trkpt lat="53.23913999999999" lon="6.589790000000001"></trkpt><trkpt lat="53.239729999999994" lon="6.590800000000001"></trkpt><trkpt lat="53.240019999999994" lon="6.590230000000001"></trkpt><trkpt lat="53.240069999999996" lon="6.590220000000001"></trkpt><trkpt lat="53.24012" lon="6.590280000000002"></trkpt><trkpt lat="53.24015" lon="6.590320000000002"></trkpt><trkpt lat="53.24024" lon="6.590450000000002"></trkpt><trkpt lat="53.24044" lon="6.590960000000003"></trkpt><trkpt lat="53.24156" lon="6.593350000000003"></trkpt><trkpt lat="53.24162" lon="6.593550000000003"></trkpt><trkpt lat="53.24172" lon="6.594040000000003"></trkpt><trkpt lat="53.24187" lon="6.594860000000003"></trkpt><trkpt lat="53.24198" lon="6.595630000000003"></trkpt><trkpt lat="53.242" lon="6.595750000000003"></trkpt><trkpt lat="53.24207" lon="6.596240000000003"></trkpt><trkpt lat="53.242149999999995" lon="6.596810000000003"></trkpt><trkpt lat="53.2422" lon="6.5971300000000035"></trkpt><trkpt lat="53.24241" lon="6.598410000000004"></trkpt><trkpt lat="53.24262" lon="6.599510000000004"></trkpt><trkpt lat="53.242650000000005" lon="6.599730000000004"></trkpt><trkpt lat="53.242670000000004" lon="6.599810000000003"></trkpt><trkpt lat="53.24268000000001" lon="6.599890000000003"></trkpt><trkpt lat="53.24304000000001" lon="6.601640000000003"></trkpt><trkpt lat="53.24356000000001" lon="6.603830000000003"></trkpt><trkpt lat="53.24416000000001" lon="6.605930000000003"></trkpt><trkpt lat="53.24426000000001" lon="6.606260000000003"></trkpt><trkpt lat="53.244470000000014" lon="6.606930000000004"></trkpt><trkpt lat="53.24480000000001" lon="6.607950000000003"></trkpt><trkpt lat="53.24538000000001" lon="6.6096100000000035"></trkpt><trkpt lat="53.24547000000001" lon="6.609840000000004"></trkpt><trkpt lat="53.24552000000001" lon="6.609980000000004"></trkpt><trkpt lat="53.245640000000016" lon="6.609880000000004"></trkpt><trkpt lat="53.246470000000016" lon="6.609180000000004"></trkpt><trkpt lat="53.24652000000002" lon="6.609110000000004"></trkpt><trkpt lat="53.24655000000002" lon="6.609030000000004"></trkpt><trkpt lat="53.24658000000002" lon="6.609050000000004"></trkpt><trkpt lat="53.246610000000025" lon="6.609050000000004"></trkpt><trkpt lat="53.24693000000003" lon="6.608800000000004"></trkpt><trkpt lat="53.24722000000003" lon="6.608580000000004"></trkpt><trkpt lat="53.247480000000024" lon="6.608420000000004"></trkpt><trkpt lat="53.247620000000026" lon="6.608330000000004"></trkpt><trkpt lat="53.247820000000026" lon="6.608180000000004"></trkpt><trkpt lat="53.24796000000003" lon="6.608080000000005"></trkpt><trkpt lat="53.24807000000003" lon="6.6079900000000045"></trkpt><trkpt lat="53.24810000000003" lon="6.608000000000004"></trkpt><trkpt lat="53.24821000000003" lon="6.608040000000004"></trkpt><trkpt lat="53.248290000000026" lon="6.608030000000005"></trkpt><trkpt lat="53.24857000000002" lon="6.607800000000005"></trkpt><trkpt lat="53.24891000000002" lon="6.6075900000000045"></trkpt><trkpt lat="53.24922000000002" lon="6.6074500000000045"></trkpt><trkpt lat="53.24928000000002" lon="6.607400000000005"></trkpt><trkpt lat="53.24932000000002" lon="6.607330000000005"></trkpt><trkpt lat="53.24933000000002" lon="6.607130000000004"></trkpt><trkpt lat="53.24933000000002" lon="6.607000000000004"></trkpt><trkpt lat="53.24937000000002" lon="6.606930000000004"></trkpt><trkpt lat="53.24946000000002" lon="6.6068900000000035"></trkpt><trkpt lat="53.25096000000002" lon="6.606610000000003"></trkpt><trkpt lat="53.25101000000002" lon="6.606610000000003"></trkpt><trkpt lat="53.25184000000002" lon="6.606410000000003"></trkpt><trkpt lat="53.25201000000002" lon="6.606400000000003"></trkpt><trkpt lat="53.25235000000002" lon="6.6064200000000035"></trkpt><trkpt lat="53.25243000000002" lon="6.606440000000004"></trkpt><trkpt lat="53.252510000000015" lon="6.606530000000004"></trkpt><trkpt lat="53.252550000000014" lon="6.606550000000004"></trkpt><trkpt lat="53.252780000000016" lon="6.606610000000004"></trkpt><trkpt lat="53.25295000000001" lon="6.606640000000004"></trkpt><trkpt lat="53.253070000000015" lon="6.606640000000004"></trkpt><trkpt lat="53.25335000000001" lon="6.606590000000004"></trkpt><trkpt lat="53.25339000000001" lon="6.606610000000004"></trkpt><trkpt lat="53.25339000000001" lon="6.606630000000004"></trkpt><trkpt lat="53.25341000000001" lon="6.606790000000005"></trkpt><trkpt lat="53.25347000000001" lon="6.606780000000005"></trkpt><trkpt lat="53.25379000000001" lon="6.606700000000005"></trkpt><trkpt lat="53.253960000000006" lon="6.606560000000005"></trkpt><trkpt lat="53.254780000000004" lon="6.606710000000005"></trkpt><trkpt lat="53.25602000000001" lon="6.606930000000005"></trkpt><trkpt lat="53.256400000000006" lon="6.606880000000005"></trkpt><trkpt lat="53.257000000000005" lon="6.6069800000000045"></trkpt><trkpt lat="53.257580000000004" lon="6.607220000000004"></trkpt><trkpt lat="53.25761000000001" lon="6.607240000000004"></trkpt><trkpt lat="53.25768000000001" lon="6.607170000000004"></trkpt><trkpt lat="53.257740000000005" lon="6.607150000000004"></trkpt><trkpt lat="53.25865" lon="6.607220000000004"></trkpt><trkpt lat="53.25947" lon="6.6073800000000045"></trkpt><trkpt lat="53.259570000000004" lon="6.607370000000005"></trkpt><trkpt lat="53.259600000000006" lon="6.607330000000005"></trkpt><trkpt lat="53.259620000000005" lon="6.607290000000004"></trkpt><trkpt lat="53.25981000000001" lon="6.5987000000000045"></trkpt><trkpt lat="53.25990000000001" lon="6.594300000000004"></trkpt><trkpt lat="53.25993000000001" lon="6.593310000000004"></trkpt><trkpt lat="53.259960000000014" lon="6.593150000000004"></trkpt><trkpt lat="53.260050000000014" lon="6.592950000000004"></trkpt><trkpt lat="53.260100000000016" lon="6.5928600000000035"></trkpt><trkpt lat="53.260140000000014" lon="6.592820000000003"></trkpt><trkpt lat="53.260280000000016" lon="6.592780000000003"></trkpt><trkpt lat="53.260460000000016" lon="6.592750000000003"></trkpt><trkpt lat="53.26051000000002" lon="6.592850000000003"></trkpt><trkpt lat="53.261060000000015" lon="6.593490000000003"></trkpt><trkpt lat="53.26118000000002" lon="6.593610000000003"></trkpt><trkpt lat="53.26230000000002" lon="6.594540000000003"></trkpt><trkpt lat="53.262630000000016" lon="6.594800000000003"></trkpt><trkpt lat="53.26306000000002" lon="6.595160000000003"></trkpt><trkpt lat="53.26403000000002" lon="6.596050000000003"></trkpt><trkpt lat="53.26567000000002" lon="6.597540000000003"></trkpt><trkpt lat="53.26669000000002" lon="6.598500000000003"></trkpt><trkpt lat="53.26734000000002" lon="6.5991000000000035"></trkpt><trkpt lat="53.26956000000002" lon="6.600990000000004"></trkpt><trkpt lat="53.26994000000002" lon="6.601310000000004"></trkpt><trkpt lat="53.27061000000002" lon="6.6018900000000045"></trkpt><trkpt lat="53.27068000000002" lon="6.601950000000005"></trkpt><trkpt lat="53.27070000000002" lon="6.602010000000005"></trkpt><trkpt lat="53.27049000000002" lon="6.602980000000005"></trkpt><trkpt lat="53.27050000000002" lon="6.603070000000005"></trkpt><trkpt lat="53.27055000000002" lon="6.603100000000005"></trkpt><trkpt lat="53.27089000000002" lon="6.603310000000005"></trkpt><trkpt lat="53.27091000000002" lon="6.6033200000000045"></trkpt><trkpt lat="53.270920000000025" lon="6.603360000000005"></trkpt><trkpt lat="53.270920000000025" lon="6.603590000000005"></trkpt><trkpt lat="53.27093000000003" lon="6.603650000000005"></trkpt><trkpt lat="53.27097000000003" lon="6.603690000000006"></trkpt><trkpt lat="53.271010000000025" lon="6.603710000000006"></trkpt><trkpt lat="53.272710000000025" lon="6.604270000000006"></trkpt><trkpt lat="53.27279000000002" lon="6.6042800000000055"></trkpt><trkpt lat="53.27287000000002" lon="6.604270000000006"></trkpt><trkpt lat="53.27679000000002" lon="6.6032700000000055"></trkpt><trkpt lat="53.27721000000002" lon="6.603080000000006"></trkpt><trkpt lat="53.27734000000002" lon="6.603080000000006"></trkpt><trkpt lat="53.27781000000002" lon="6.6030600000000055"></trkpt><trkpt lat="53.277850000000015" lon="6.6030600000000055"></trkpt><trkpt lat="53.27781000000002" lon="6.603790000000005"></trkpt><trkpt lat="53.277870000000014" lon="6.604440000000006"></trkpt><trkpt lat="53.27797000000002" lon="6.605000000000006"></trkpt><trkpt lat="53.278030000000015" lon="6.6052400000000056"></trkpt><trkpt lat="53.278190000000016" lon="6.605600000000005"></trkpt><trkpt lat="53.27855000000002" lon="6.606160000000005"></trkpt><trkpt lat="53.27865000000002" lon="6.606470000000005"></trkpt><trkpt lat="53.27867000000002" lon="6.606560000000005"></trkpt><trkpt lat="53.27881000000002" lon="6.6070700000000055"></trkpt><trkpt lat="53.27901000000002" lon="6.608020000000005"></trkpt><trkpt lat="53.27914000000002" lon="6.6089000000000055"></trkpt><trkpt lat="53.27916000000002" lon="6.608950000000005"></trkpt><trkpt lat="53.279240000000016" lon="6.609830000000006"></trkpt><trkpt lat="53.279350000000015" lon="6.610650000000006"></trkpt><trkpt lat="53.27943000000001" lon="6.612360000000006"></trkpt><trkpt lat="53.279460000000014" lon="6.612680000000006"></trkpt><trkpt lat="53.279530000000015" lon="6.612900000000006"></trkpt><trkpt lat="53.27958000000002" lon="6.612990000000006"></trkpt><trkpt lat="53.27974000000002" lon="6.613170000000006"></trkpt><trkpt lat="53.279820000000015" lon="6.613300000000007"></trkpt><trkpt lat="53.27987000000002" lon="6.613410000000007"></trkpt><trkpt lat="53.27992000000002" lon="6.6136100000000075"></trkpt><trkpt lat="53.28003000000002" lon="6.614420000000008"></trkpt><trkpt lat="53.280090000000015" lon="6.614690000000008"></trkpt><trkpt lat="53.280180000000016" lon="6.614930000000008"></trkpt><trkpt lat="53.28028000000002" lon="6.615130000000009"></trkpt><trkpt lat="53.28035000000002" lon="6.615300000000008"></trkpt><trkpt lat="53.28048000000002" lon="6.615840000000008"></trkpt><trkpt lat="53.28064000000002" lon="6.616420000000009"></trkpt><trkpt lat="53.28068000000002" lon="6.6166800000000086"></trkpt><trkpt lat="53.28069000000002" lon="6.617490000000009"></trkpt><trkpt lat="53.280700000000024" lon="6.617710000000009"></trkpt><trkpt lat="53.28074000000002" lon="6.617970000000009"></trkpt><trkpt lat="53.280790000000025" lon="6.618360000000009"></trkpt><trkpt lat="53.28080000000003" lon="6.618580000000009"></trkpt><trkpt lat="53.28083000000003" lon="6.618750000000008"></trkpt><trkpt lat="53.28106000000003" lon="6.619550000000008"></trkpt><trkpt lat="53.281090000000034" lon="6.619780000000008"></trkpt><trkpt lat="53.281360000000035" lon="6.621410000000008"></trkpt><trkpt lat="53.28146000000004" lon="6.622170000000008"></trkpt><trkpt lat="53.28149000000004" lon="6.622660000000008"></trkpt><trkpt lat="53.28151000000004" lon="6.623550000000008"></trkpt><trkpt lat="53.28155000000004" lon="6.623880000000008"></trkpt><trkpt lat="53.28165000000004" lon="6.6245900000000075"></trkpt><trkpt lat="53.28176000000004" lon="6.625280000000007"></trkpt><trkpt lat="53.28180000000004" lon="6.6254600000000075"></trkpt><trkpt lat="53.28186000000004" lon="6.625590000000008"></trkpt><trkpt lat="53.282010000000035" lon="6.625770000000008"></trkpt><trkpt lat="53.28211000000004" lon="6.625940000000008"></trkpt><trkpt lat="53.28220000000004" lon="6.626130000000008"></trkpt><trkpt lat="53.28239000000004" lon="6.626540000000007"></trkpt><trkpt lat="53.28256000000004" lon="6.626800000000007"></trkpt><trkpt lat="53.28304000000004" lon="6.627400000000008"></trkpt><trkpt lat="53.283450000000045" lon="6.627870000000008"></trkpt><trkpt lat="53.28368000000005" lon="6.628030000000008"></trkpt><trkpt lat="53.284080000000046" lon="6.628270000000008"></trkpt><trkpt lat="53.28445000000004" lon="6.628610000000007"></trkpt><trkpt lat="53.28581000000004" lon="6.629890000000008"></trkpt><trkpt lat="53.28598000000004" lon="6.630020000000008"></trkpt><trkpt lat="53.286060000000035" lon="6.630070000000008"></trkpt><trkpt lat="53.28632000000003" lon="6.630200000000008"></trkpt><trkpt lat="53.28632000000003" lon="6.630200000000008"></trkpt><trkpt lat="53.28750000000003" lon="6.631190000000008"></trkpt><trkpt lat="53.28764000000003" lon="6.631350000000008"></trkpt><trkpt lat="53.28771000000003" lon="6.631490000000008"></trkpt><trkpt lat="53.28775000000003" lon="6.631610000000008"></trkpt><trkpt lat="53.28783000000003" lon="6.6318600000000085"></trkpt><trkpt lat="53.28793000000003" lon="6.632150000000008"></trkpt><trkpt lat="53.28807000000003" lon="6.632420000000009"></trkpt><trkpt lat="53.28816000000003" lon="6.6325400000000085"></trkpt><trkpt lat="53.288300000000035" lon="6.632670000000009"></trkpt><trkpt lat="53.28845000000003" lon="6.632770000000009"></trkpt><trkpt lat="53.28858000000003" lon="6.632830000000009"></trkpt><trkpt lat="53.288680000000035" lon="6.632920000000009"></trkpt><trkpt lat="53.289420000000035" lon="6.633820000000009"></trkpt><trkpt lat="53.28952000000004" lon="6.633890000000009"></trkpt><trkpt lat="53.28962000000004" lon="6.633910000000009"></trkpt><trkpt lat="53.28970000000004" lon="6.633880000000009"></trkpt><trkpt lat="53.28993000000004" lon="6.633700000000009"></trkpt><trkpt lat="53.29206000000004" lon="6.632180000000009"></trkpt><trkpt lat="53.292250000000045" lon="6.632030000000009"></trkpt><trkpt lat="53.29244000000005" lon="6.631860000000009"></trkpt><trkpt lat="53.29278000000005" lon="6.63150000000001"></trkpt><trkpt lat="53.29295000000005" lon="6.63134000000001"></trkpt><trkpt lat="53.29519000000005" lon="6.629800000000009"></trkpt><trkpt lat="53.301900000000046" lon="6.62512000000001"></trkpt><trkpt lat="53.301900000000046" lon="6.62563000000001"></trkpt><trkpt lat="53.30193000000005" lon="6.62607000000001"></trkpt><trkpt lat="53.301990000000046" lon="6.62687000000001"></trkpt><trkpt lat="53.30204000000005" lon="6.62762000000001"></trkpt><trkpt lat="53.302100000000046" lon="6.62817000000001"></trkpt><trkpt lat="53.302320000000044" lon="6.62965000000001"></trkpt><trkpt lat="53.302460000000046" lon="6.63089000000001"></trkpt><trkpt lat="53.302590000000045" lon="6.63307000000001"></trkpt><trkpt lat="53.30263000000004" lon="6.634090000000009"></trkpt><trkpt lat="53.30269000000004" lon="6.635720000000009"></trkpt><trkpt lat="53.30269000000004" lon="6.636420000000009"></trkpt><trkpt lat="53.30263000000004" lon="6.639870000000009"></trkpt><trkpt lat="53.30260000000004" lon="6.641130000000009"></trkpt><trkpt lat="53.30254000000004" lon="6.64234000000001"></trkpt><trkpt lat="53.302410000000044" lon="6.644390000000009"></trkpt><trkpt lat="53.30231000000004" lon="6.6453700000000095"></trkpt><trkpt lat="53.30228000000004" lon="6.64579000000001"></trkpt><trkpt lat="53.30220000000004" lon="6.64649000000001"></trkpt><trkpt lat="53.30213000000004" lon="6.64694000000001"></trkpt><trkpt lat="53.30218000000004" lon="6.64696000000001"></trkpt><trkpt lat="53.308970000000045" lon="6.64876000000001"></trkpt><trkpt lat="53.30901000000004" lon="6.64849000000001"></trkpt><trkpt lat="53.309060000000045" lon="6.64839000000001"></trkpt><trkpt lat="53.30914000000004" lon="6.64831000000001"></trkpt><trkpt lat="53.309280000000044" lon="6.64822000000001"></trkpt><trkpt lat="53.312870000000046" lon="6.64717000000001"></trkpt><trkpt lat="53.313490000000044" lon="6.64702000000001"></trkpt><trkpt lat="53.314140000000044" lon="6.64692000000001"></trkpt><trkpt lat="53.314540000000044" lon="6.6466600000000104"></trkpt><trkpt lat="53.31753000000004" lon="6.6445000000000105"></trkpt><trkpt lat="53.31902000000004" lon="6.6434200000000105"></trkpt><trkpt lat="53.319330000000036" lon="6.643080000000011"></trkpt><trkpt lat="53.32180000000004" lon="6.641320000000011"></trkpt><trkpt lat="53.322440000000036" lon="6.640870000000011"></trkpt><trkpt lat="53.32887000000004" lon="6.636300000000011"></trkpt><trkpt lat="53.32888000000004" lon="6.636290000000011"></trkpt><trkpt lat="53.32890000000004" lon="6.636280000000012"></trkpt><trkpt lat="53.32893000000004" lon="6.636270000000012"></trkpt><trkpt lat="53.32895000000004" lon="6.6362600000000125"></trkpt><trkpt lat="53.32897000000004" lon="6.6362600000000125"></trkpt><trkpt lat="53.32903000000004" lon="6.6362600000000125"></trkpt><trkpt lat="53.32906000000004" lon="6.6362600000000125"></trkpt><trkpt lat="53.32909000000004" lon="6.636270000000012"></trkpt><trkpt lat="53.32913000000004" lon="6.636300000000012"></trkpt><trkpt lat="53.329160000000044" lon="6.636330000000012"></trkpt><trkpt lat="53.32919000000005" lon="6.636370000000012"></trkpt><trkpt lat="53.32922000000005" lon="6.636430000000012"></trkpt><trkpt lat="53.32926000000005" lon="6.636490000000013"></trkpt><trkpt lat="53.32927000000005" lon="6.6365400000000125"></trkpt><trkpt lat="53.32929000000005" lon="6.636600000000013"></trkpt><trkpt lat="53.32930000000005" lon="6.636650000000013"></trkpt><trkpt lat="53.329310000000056" lon="6.636720000000013"></trkpt><trkpt lat="53.329440000000055" lon="6.637930000000013"></trkpt><trkpt lat="53.32948000000005" lon="6.638200000000014"></trkpt><trkpt lat="53.329510000000056" lon="6.638390000000014"></trkpt><trkpt lat="53.32954000000006" lon="6.638500000000014"></trkpt><trkpt lat="53.32956000000006" lon="6.638550000000014"></trkpt><trkpt lat="53.32957000000006" lon="6.638600000000014"></trkpt><trkpt lat="53.32960000000006" lon="6.638630000000013"></trkpt><trkpt lat="53.329610000000066" lon="6.638640000000013"></trkpt><trkpt lat="53.32962000000007" lon="6.638650000000013"></trkpt><trkpt lat="53.32964000000007" lon="6.638660000000012"></trkpt><trkpt lat="53.32967000000007" lon="6.638660000000012"></trkpt><trkpt lat="53.329700000000074" lon="6.638660000000012"></trkpt><trkpt lat="53.329770000000075" lon="6.638640000000012"></trkpt><trkpt lat="53.32983000000007" lon="6.638610000000012"></trkpt><trkpt lat="53.32990000000007" lon="6.638580000000013"></trkpt><trkpt lat="53.32996000000007" lon="6.638540000000012"></trkpt><trkpt lat="53.33007000000007" lon="6.638450000000012"></trkpt><trkpt lat="53.33014000000007" lon="6.638410000000012"></trkpt><trkpt lat="53.33019000000007" lon="6.638360000000012"></trkpt><trkpt lat="53.33025000000007" lon="6.638320000000012"></trkpt><trkpt lat="53.33031000000007" lon="6.6382800000000115"></trkpt><trkpt lat="53.33036000000007" lon="6.638220000000011"></trkpt><trkpt lat="53.33041000000007" lon="6.638170000000011"></trkpt><trkpt lat="53.33046000000007" lon="6.638110000000011"></trkpt><trkpt lat="53.33050000000007" lon="6.638060000000011"></trkpt><trkpt lat="53.33054000000007" lon="6.638000000000011"></trkpt><trkpt lat="53.33058000000007" lon="6.63794000000001"></trkpt><trkpt lat="53.330640000000066" lon="6.63783000000001"></trkpt><trkpt lat="53.33082000000007" lon="6.63754000000001"></trkpt><trkpt lat="53.330990000000064" lon="6.63727000000001"></trkpt><trkpt lat="53.33112000000006" lon="6.6370900000000095"></trkpt><trkpt lat="53.331240000000065" lon="6.636930000000009"></trkpt><trkpt lat="53.33128000000006" lon="6.636880000000009"></trkpt><trkpt lat="53.331330000000065" lon="6.636840000000009"></trkpt><trkpt lat="53.33138000000007" lon="6.636790000000009"></trkpt><trkpt lat="53.33143000000007" lon="6.6367600000000095"></trkpt><trkpt lat="53.33147000000007" lon="6.63673000000001"></trkpt><trkpt lat="53.33152000000007" lon="6.63671000000001"></trkpt><trkpt lat="53.331580000000066" lon="6.63670000000001"></trkpt><trkpt lat="53.33165000000007" lon="6.63671000000001"></trkpt><trkpt lat="53.331710000000065" lon="6.636720000000009"></trkpt><trkpt lat="53.33176000000007" lon="6.636730000000009"></trkpt><trkpt lat="53.331820000000064" lon="6.636750000000009"></trkpt><trkpt lat="53.331870000000066" lon="6.636780000000009"></trkpt><trkpt lat="53.331930000000064" lon="6.636820000000009"></trkpt><trkpt lat="53.33203000000007" lon="6.636900000000009"></trkpt><trkpt lat="53.33213000000007" lon="6.636990000000009"></trkpt><trkpt lat="53.33217000000007" lon="6.637030000000009"></trkpt><trkpt lat="53.33221000000007" lon="6.637060000000009"></trkpt><trkpt lat="53.33226000000007" lon="6.637100000000009"></trkpt><trkpt lat="53.33231000000007" lon="6.637130000000009"></trkpt><trkpt lat="53.33234000000007" lon="6.637150000000009"></trkpt><trkpt lat="53.332370000000076" lon="6.637160000000009"></trkpt><trkpt lat="53.332390000000075" lon="6.637170000000008"></trkpt><trkpt lat="53.33242000000008" lon="6.637180000000008"></trkpt><trkpt lat="53.332460000000076" lon="6.6371900000000075"></trkpt><trkpt lat="53.332500000000074" lon="6.637200000000007"></trkpt><trkpt lat="53.332570000000075" lon="6.637210000000007"></trkpt><trkpt lat="53.33265000000007" lon="6.637220000000006"></trkpt><trkpt lat="53.33273000000007" lon="6.637210000000007"></trkpt><trkpt lat="53.33292000000007" lon="6.637200000000007"></trkpt><trkpt lat="53.333130000000075" lon="6.637180000000007"></trkpt><trkpt lat="53.33610000000007" lon="6.636620000000007"></trkpt><trkpt lat="53.33657000000007" lon="6.636520000000007"></trkpt><trkpt lat="53.33665000000007" lon="6.636500000000007"></trkpt><trkpt lat="53.33672000000007" lon="6.636470000000007"></trkpt><trkpt lat="53.33677000000007" lon="6.636450000000007"></trkpt><trkpt lat="53.33684000000007" lon="6.636410000000007"></trkpt><trkpt lat="53.336910000000074" lon="6.636360000000007"></trkpt><trkpt lat="53.33701000000008" lon="6.636310000000007"></trkpt><trkpt lat="53.33708000000008" lon="6.636280000000007"></trkpt><trkpt lat="53.33715000000008" lon="6.636270000000008"></trkpt><trkpt lat="53.33731000000008" lon="6.6363200000000075"></trkpt><trkpt lat="53.33740000000008" lon="6.636330000000007"></trkpt><trkpt lat="53.33746000000008" lon="6.636330000000007"></trkpt><trkpt lat="53.33750000000008" lon="6.636330000000007"></trkpt><trkpt lat="53.337540000000075" lon="6.6363200000000075"></trkpt><trkpt lat="53.33759000000008" lon="6.636310000000008"></trkpt><trkpt lat="53.33764000000008" lon="6.636290000000008"></trkpt><trkpt lat="53.33769000000008" lon="6.636260000000008"></trkpt><trkpt lat="53.33775000000008" lon="6.636230000000008"></trkpt><trkpt lat="53.33791000000008" lon="6.636150000000009"></trkpt><trkpt lat="53.33797000000008" lon="6.636120000000009"></trkpt><trkpt lat="53.338030000000074" lon="6.636100000000009"></trkpt><trkpt lat="53.33816000000007" lon="6.6360600000000085"></trkpt><trkpt lat="53.338280000000076" lon="6.636030000000009"></trkpt><trkpt lat="53.338410000000074" lon="6.636010000000009"></trkpt><trkpt lat="53.338680000000075" lon="6.635980000000009"></trkpt><trkpt lat="53.33898000000008" lon="6.635970000000009"></trkpt><trkpt lat="53.339150000000075" lon="6.635950000000009"></trkpt><trkpt lat="53.33952000000007" lon="6.635830000000009"></trkpt><trkpt lat="53.339820000000074" lon="6.6357300000000095"></trkpt><trkpt lat="53.33988000000007" lon="6.635710000000009"></trkpt><trkpt lat="53.34004000000007" lon="6.635650000000009"></trkpt><trkpt lat="53.34012000000007" lon="6.635630000000009"></trkpt><trkpt lat="53.34020000000007" lon="6.635610000000009"></trkpt><trkpt lat="53.34027000000007" lon="6.635600000000009"></trkpt><trkpt lat="53.34034000000007" lon="6.635610000000009"></trkpt><trkpt lat="53.34038000000007" lon="6.635610000000009"></trkpt><trkpt lat="53.340420000000066" lon="6.635620000000008"></trkpt><trkpt lat="53.340510000000066" lon="6.635640000000008"></trkpt><trkpt lat="53.34068000000006" lon="6.635680000000009"></trkpt><trkpt lat="53.34086000000006" lon="6.635720000000009"></trkpt><trkpt lat="53.34105000000007" lon="6.635750000000009"></trkpt><trkpt lat="53.34124000000007" lon="6.6357800000000084"></trkpt><trkpt lat="53.34129000000007" lon="6.635790000000008"></trkpt><trkpt lat="53.34133000000007" lon="6.635800000000008"></trkpt><trkpt lat="53.34137000000007" lon="6.635820000000008"></trkpt><trkpt lat="53.34142000000007" lon="6.6358300000000074"></trkpt><trkpt lat="53.34146000000007" lon="6.635870000000008"></trkpt><trkpt lat="53.34150000000007" lon="6.6359000000000075"></trkpt><trkpt lat="53.341540000000066" lon="6.635940000000008"></trkpt><trkpt lat="53.341580000000064" lon="6.635990000000008"></trkpt><trkpt lat="53.34173000000006" lon="6.636210000000007"></trkpt><trkpt lat="53.34190000000006" lon="6.636480000000008"></trkpt><trkpt lat="53.342450000000056" lon="6.637360000000008"></trkpt><trkpt lat="53.34261000000006" lon="6.637620000000008"></trkpt><trkpt lat="53.342670000000055" lon="6.637720000000008"></trkpt><trkpt lat="53.34295000000005" lon="6.638170000000008"></trkpt><trkpt lat="53.34311000000005" lon="6.638430000000008"></trkpt><trkpt lat="53.34315000000005" lon="6.638490000000008"></trkpt><trkpt lat="53.343250000000054" lon="6.638620000000008"></trkpt><trkpt lat="53.34326000000006" lon="6.6386400000000085"></trkpt><trkpt lat="53.34385000000006" lon="6.639540000000008"></trkpt><trkpt lat="53.34402000000006" lon="6.639830000000008"></trkpt><trkpt lat="53.34411000000006" lon="6.6399800000000075"></trkpt><trkpt lat="53.34421000000006" lon="6.640130000000007"></trkpt><trkpt lat="53.34442000000006" lon="6.640470000000007"></trkpt><trkpt lat="53.34461000000007" lon="6.640790000000007"></trkpt><trkpt lat="53.34470000000007" lon="6.640960000000007"></trkpt><trkpt lat="53.34479000000007" lon="6.641130000000007"></trkpt><trkpt lat="53.34481000000007" lon="6.641160000000006"></trkpt><trkpt lat="53.34482000000007" lon="6.6411800000000065"></trkpt><trkpt lat="53.34483000000007" lon="6.641190000000006"></trkpt><trkpt lat="53.344860000000075" lon="6.641220000000006"></trkpt><trkpt lat="53.344880000000074" lon="6.641240000000006"></trkpt><trkpt lat="53.34492000000007" lon="6.641270000000006"></trkpt><trkpt lat="53.34496000000007" lon="6.6413000000000055"></trkpt><trkpt lat="53.34500000000007" lon="6.641320000000006"></trkpt><trkpt lat="53.34505000000007" lon="6.641340000000006"></trkpt><trkpt lat="53.34513000000007" lon="6.641350000000005"></trkpt><trkpt lat="53.34526000000007" lon="6.6413700000000055"></trkpt><trkpt lat="53.34524000000007" lon="6.641510000000006"></trkpt><trkpt lat="53.34558000000007" lon="6.6415600000000055"></trkpt><trkpt lat="53.345950000000066" lon="6.641550000000006"></trkpt><trkpt lat="53.346350000000065" lon="6.641520000000006"></trkpt><trkpt lat="53.345950000000066" lon="6.641550000000006"></trkpt><trkpt lat="53.34558000000007" lon="6.6415600000000055"></trkpt><trkpt lat="53.34524000000007" lon="6.641510000000006"></trkpt><trkpt lat="53.34524000000007" lon="6.641600000000006"></trkpt><trkpt lat="53.345230000000065" lon="6.6417000000000055"></trkpt><trkpt lat="53.34524000000007" lon="6.641780000000005"></trkpt><trkpt lat="53.34524000000007" lon="6.6418400000000055"></trkpt><trkpt lat="53.34529000000007" lon="6.642110000000006"></trkpt><trkpt lat="53.34534000000007" lon="6.642340000000006"></trkpt><trkpt lat="53.34539000000007" lon="6.642570000000006"></trkpt><trkpt lat="53.345440000000075" lon="6.6427300000000065"></trkpt><trkpt lat="53.345490000000076" lon="6.642880000000006"></trkpt><trkpt lat="53.34572000000008" lon="6.643380000000006"></trkpt><trkpt lat="53.34530000000008" lon="6.643920000000006"></trkpt><trkpt lat="53.34528000000008" lon="6.643960000000006"></trkpt><trkpt lat="53.34527000000008" lon="6.644010000000006"></trkpt><trkpt lat="53.34525000000008" lon="6.644110000000006"></trkpt><trkpt lat="53.345240000000075" lon="6.644100000000006"></trkpt><trkpt lat="53.34521000000007" lon="6.644100000000006"></trkpt><trkpt lat="53.34519000000007" lon="6.644100000000006"></trkpt><trkpt lat="53.34516000000007" lon="6.644110000000006"></trkpt><trkpt lat="53.34514000000007" lon="6.644130000000006"></trkpt><trkpt lat="53.34449000000007" lon="6.645040000000006"></trkpt><trkpt lat="53.34440000000007" lon="6.645150000000006"></trkpt><trkpt lat="53.34431000000007" lon="6.645280000000007"></trkpt><trkpt lat="53.34426000000007" lon="6.645350000000007"></trkpt><trkpt lat="53.34405000000007" lon="6.645640000000006"></trkpt><trkpt lat="53.343820000000065" lon="6.645950000000006"></trkpt><trkpt lat="53.343690000000066" lon="6.646140000000006"></trkpt><trkpt lat="53.343040000000066" lon="6.647020000000007"></trkpt><trkpt lat="53.342990000000064" lon="6.647100000000006"></trkpt><trkpt lat="53.342970000000065" lon="6.647060000000006"></trkpt><trkpt lat="53.34296000000006" lon="6.647050000000006"></trkpt><trkpt lat="53.34295000000006" lon="6.647050000000006"></trkpt><trkpt lat="53.34279000000006" lon="6.647260000000006"></trkpt><trkpt lat="53.34273000000006" lon="6.6473500000000065"></trkpt><trkpt lat="53.34270000000006" lon="6.647390000000007"></trkpt><trkpt lat="53.34254000000006" lon="6.647560000000007"></trkpt><trkpt lat="53.34239000000006" lon="6.647730000000006"></trkpt><trkpt lat="53.34219000000006" lon="6.647930000000007"></trkpt><trkpt lat="53.34206000000006" lon="6.648080000000006"></trkpt><trkpt lat="53.34198000000006" lon="6.648190000000007"></trkpt><trkpt lat="53.34188000000006" lon="6.648300000000007"></trkpt><trkpt lat="53.34151000000006" lon="6.648830000000007"></trkpt><trkpt lat="53.34148000000006" lon="6.648870000000008"></trkpt><trkpt lat="53.34147000000006" lon="6.648880000000007"></trkpt><trkpt lat="53.341460000000055" lon="6.648890000000007"></trkpt><trkpt lat="53.341440000000055" lon="6.6489000000000065"></trkpt><trkpt lat="53.341420000000056" lon="6.648910000000006"></trkpt><trkpt lat="53.34140000000006" lon="6.648930000000006"></trkpt><trkpt lat="53.34136000000006" lon="6.648990000000007"></trkpt><trkpt lat="53.34132000000006" lon="6.6490400000000065"></trkpt><trkpt lat="53.34131000000006" lon="6.649050000000006"></trkpt><trkpt lat="53.34129000000006" lon="6.649050000000006"></trkpt><trkpt lat="53.341280000000054" lon="6.649050000000006"></trkpt><trkpt lat="53.34127000000005" lon="6.649030000000006"></trkpt><trkpt lat="53.34116000000005" lon="6.648800000000006"></trkpt><trkpt lat="53.34105000000005" lon="6.648570000000006"></trkpt><trkpt lat="53.34095000000005" lon="6.6483400000000055"></trkpt><trkpt lat="53.34089000000005" lon="6.648400000000006"></trkpt><trkpt lat="53.34085000000005" lon="6.648420000000006"></trkpt><trkpt lat="53.340810000000054" lon="6.648450000000006"></trkpt><trkpt lat="53.340740000000054" lon="6.648470000000006"></trkpt><trkpt lat="53.340610000000055" lon="6.648510000000006"></trkpt><trkpt lat="53.34035000000006" lon="6.648530000000006"></trkpt><trkpt lat="53.340010000000056" lon="6.648560000000006"></trkpt><trkpt lat="53.33999000000006" lon="6.648570000000006"></trkpt><trkpt lat="53.33997000000006" lon="6.648590000000006"></trkpt><trkpt lat="53.339870000000055" lon="6.648710000000006"></trkpt><trkpt lat="53.33984000000005" lon="6.6487600000000056"></trkpt><trkpt lat="53.33973000000005" lon="6.648970000000006"></trkpt><trkpt lat="53.339600000000054" lon="6.6492300000000055"></trkpt><trkpt lat="53.33930000000005" lon="6.649880000000006"></trkpt><trkpt lat="53.339020000000055" lon="6.650550000000006"></trkpt><trkpt lat="53.338890000000056" lon="6.650880000000006"></trkpt><trkpt lat="53.338820000000055" lon="6.651100000000006"></trkpt><trkpt lat="53.33877000000005" lon="6.651260000000006"></trkpt><trkpt lat="53.33872000000005" lon="6.651440000000006"></trkpt><trkpt lat="53.33868000000005" lon="6.651670000000006"></trkpt><trkpt lat="53.338640000000055" lon="6.651890000000006"></trkpt><trkpt lat="53.338620000000056" lon="6.652050000000006"></trkpt><trkpt lat="53.338600000000056" lon="6.652210000000006"></trkpt><trkpt lat="53.338600000000056" lon="6.652340000000007"></trkpt><trkpt lat="53.33859000000005" lon="6.652480000000007"></trkpt><trkpt lat="53.33859000000005" lon="6.652620000000007"></trkpt><trkpt lat="53.33858000000005" lon="6.652750000000007"></trkpt><trkpt lat="53.33859000000005" lon="6.6530500000000075"></trkpt><trkpt lat="53.33859000000005" lon="6.653440000000008"></trkpt><trkpt lat="53.33859000000005" lon="6.653510000000008"></trkpt><trkpt lat="53.338600000000056" lon="6.653560000000008"></trkpt><trkpt lat="53.33861000000006" lon="6.653600000000008"></trkpt><trkpt lat="53.33862000000006" lon="6.653640000000008"></trkpt><trkpt lat="53.33864000000006" lon="6.6536800000000085"></trkpt><trkpt lat="53.33866000000006" lon="6.653710000000008"></trkpt><trkpt lat="53.33871000000006" lon="6.6537500000000085"></trkpt><trkpt lat="53.33870000000006" lon="6.653800000000008"></trkpt><trkpt lat="53.33870000000006" lon="6.653830000000008"></trkpt><trkpt lat="53.33870000000006" lon="6.653880000000008"></trkpt><trkpt lat="53.33870000000006" lon="6.653930000000008"></trkpt><trkpt lat="53.33871000000006" lon="6.653960000000008"></trkpt><trkpt lat="53.33873000000006" lon="6.6540100000000075"></trkpt><trkpt lat="53.33873000000006" lon="6.654040000000007"></trkpt><trkpt lat="53.338740000000065" lon="6.654100000000008"></trkpt><trkpt lat="53.338740000000065" lon="6.654160000000008"></trkpt><trkpt lat="53.33873000000006" lon="6.654210000000008"></trkpt><trkpt lat="53.33873000000006" lon="6.654240000000008"></trkpt><trkpt lat="53.33872000000006" lon="6.6542700000000075"></trkpt><trkpt lat="53.338620000000056" lon="6.654760000000008"></trkpt><trkpt lat="53.338550000000055" lon="6.655140000000007"></trkpt><trkpt lat="53.33847000000006" lon="6.655550000000007"></trkpt><trkpt lat="53.33838000000006" lon="6.656010000000007"></trkpt><trkpt lat="53.338240000000056" lon="6.656700000000007"></trkpt><trkpt lat="53.33811000000006" lon="6.657330000000007"></trkpt><trkpt lat="53.337680000000056" lon="6.659240000000007"></trkpt><trkpt lat="53.337390000000056" lon="6.660520000000007"></trkpt><trkpt lat="53.33711000000006" lon="6.661810000000007"></trkpt><trkpt lat="53.33694000000006" lon="6.662570000000007"></trkpt><trkpt lat="53.336860000000065" lon="6.662950000000007"></trkpt><trkpt lat="53.33678000000007" lon="6.663340000000007"></trkpt><trkpt lat="53.33669000000007" lon="6.663780000000007"></trkpt><trkpt lat="53.33660000000007" lon="6.664230000000007"></trkpt><trkpt lat="53.33651000000007" lon="6.664690000000007"></trkpt><trkpt lat="53.336410000000065" lon="6.665280000000007"></trkpt><trkpt lat="53.33631000000006" lon="6.665880000000008"></trkpt><trkpt lat="53.33617000000006" lon="6.6667500000000075"></trkpt><trkpt lat="53.33601000000006" lon="6.667670000000007"></trkpt><trkpt lat="53.33592000000006" lon="6.668220000000007"></trkpt><trkpt lat="53.335800000000056" lon="6.668980000000007"></trkpt><trkpt lat="53.33567000000006" lon="6.669750000000007"></trkpt><trkpt lat="53.33522000000006" lon="6.672510000000007"></trkpt><trkpt lat="53.33520000000006" lon="6.672680000000007"></trkpt><trkpt lat="53.335190000000054" lon="6.672820000000007"></trkpt><trkpt lat="53.335130000000056" lon="6.673150000000007"></trkpt><trkpt lat="53.335040000000056" lon="6.673670000000007"></trkpt><trkpt lat="53.33500000000006" lon="6.6739100000000064"></trkpt><trkpt lat="53.334950000000056" lon="6.674150000000006"></trkpt><trkpt lat="53.334770000000056" lon="6.675210000000006"></trkpt><trkpt lat="53.334590000000055" lon="6.676280000000006"></trkpt><trkpt lat="53.33424000000006" lon="6.678410000000007"></trkpt><trkpt lat="53.334300000000056" lon="6.678480000000007"></trkpt><trkpt lat="53.334340000000054" lon="6.6785300000000065"></trkpt><trkpt lat="53.33435000000006" lon="6.678540000000006"></trkpt><trkpt lat="53.33435000000006" lon="6.678550000000006"></trkpt><trkpt lat="53.33435000000006" lon="6.678590000000006"></trkpt><trkpt lat="53.33433000000006" lon="6.678710000000006"></trkpt><trkpt lat="53.33428000000006" lon="6.678990000000006"></trkpt><trkpt lat="53.334230000000055" lon="6.679190000000006"></trkpt><trkpt lat="53.33418000000005" lon="6.679390000000007"></trkpt><trkpt lat="53.334120000000055" lon="6.679640000000007"></trkpt><trkpt lat="53.334050000000055" lon="6.679900000000007"></trkpt><trkpt lat="53.33397000000006" lon="6.680300000000007"></trkpt><trkpt lat="53.33389000000006" lon="6.680690000000007"></trkpt><trkpt lat="53.33368000000006" lon="6.681810000000008"></trkpt><trkpt lat="53.33364000000006" lon="6.681980000000007"></trkpt><trkpt lat="53.33361000000006" lon="6.6821400000000075"></trkpt><trkpt lat="53.333580000000055" lon="6.682230000000008"></trkpt><trkpt lat="53.33355000000005" lon="6.682390000000008"></trkpt><trkpt lat="53.33353000000005" lon="6.682570000000008"></trkpt><trkpt lat="53.333490000000054" lon="6.682940000000008"></trkpt><trkpt lat="53.33348000000005" lon="6.683300000000008"></trkpt><trkpt lat="53.33347000000005" lon="6.683480000000008"></trkpt><trkpt lat="53.33348000000005" lon="6.683660000000009"></trkpt><trkpt lat="53.33350000000005" lon="6.683910000000009"></trkpt><trkpt lat="53.33355000000005" lon="6.684420000000009"></trkpt><trkpt lat="53.33357000000005" lon="6.68469000000001"></trkpt><trkpt lat="53.333580000000055" lon="6.6849500000000095"></trkpt><trkpt lat="53.333580000000055" lon="6.685330000000009"></trkpt><trkpt lat="53.333580000000055" lon="6.68558000000001"></trkpt><trkpt lat="53.33355000000005" lon="6.68595000000001"></trkpt><trkpt lat="53.33350000000005" lon="6.68626000000001"></trkpt><trkpt lat="53.33340000000005" lon="6.686670000000009"></trkpt><trkpt lat="53.333210000000044" lon="6.687380000000009"></trkpt><trkpt lat="53.33311000000004" lon="6.687730000000009"></trkpt><trkpt lat="53.33301000000004" lon="6.688160000000009"></trkpt><trkpt lat="53.33295000000004" lon="6.688470000000009"></trkpt><trkpt lat="53.332850000000036" lon="6.689020000000008"></trkpt><trkpt lat="53.33274000000004" lon="6.689760000000009"></trkpt><trkpt lat="53.33263000000004" lon="6.690600000000009"></trkpt><trkpt lat="53.332580000000036" lon="6.691000000000009"></trkpt><trkpt lat="53.33248000000003" lon="6.691350000000009"></trkpt><trkpt lat="53.33218000000003" lon="6.692260000000009"></trkpt><trkpt lat="53.33206000000003" lon="6.692750000000009"></trkpt><trkpt lat="53.331990000000026" lon="6.693250000000009"></trkpt><trkpt lat="53.331960000000024" lon="6.693390000000009"></trkpt><trkpt lat="53.331940000000024" lon="6.693500000000009"></trkpt><trkpt lat="53.331900000000026" lon="6.693670000000009"></trkpt><trkpt lat="53.331810000000026" lon="6.694270000000009"></trkpt><trkpt lat="53.331630000000025" lon="6.695300000000009"></trkpt><trkpt lat="53.33148000000003" lon="6.696150000000009"></trkpt><trkpt lat="53.33133000000003" lon="6.697050000000009"></trkpt><trkpt lat="53.33122000000003" lon="6.697800000000009"></trkpt><trkpt lat="53.33121000000003" lon="6.698370000000009"></trkpt><trkpt lat="53.331200000000024" lon="6.698740000000009"></trkpt><trkpt lat="53.33117000000002" lon="6.699040000000009"></trkpt><trkpt lat="53.33113000000002" lon="6.699260000000009"></trkpt><trkpt lat="53.33097000000002" lon="6.700240000000009"></trkpt><trkpt lat="53.33084000000002" lon="6.700980000000009"></trkpt><trkpt lat="53.330730000000024" lon="6.701470000000009"></trkpt><trkpt lat="53.330510000000025" lon="6.70205000000001"></trkpt><trkpt lat="53.33039000000002" lon="6.70232000000001"></trkpt><trkpt lat="53.33030000000002" lon="6.70249000000001"></trkpt><trkpt lat="53.33007000000002" lon="6.70274000000001"></trkpt><trkpt lat="53.33001000000002" lon="6.70282000000001"></trkpt><trkpt lat="53.32967000000002" lon="6.70324000000001"></trkpt><trkpt lat="53.32958000000002" lon="6.7033200000000095"></trkpt><trkpt lat="53.329520000000024" lon="6.70336000000001"></trkpt><trkpt lat="53.32947000000002" lon="6.70343000000001"></trkpt><trkpt lat="53.32944000000002" lon="6.70356000000001"></trkpt><trkpt lat="53.32945000000002" lon="6.70364000000001"></trkpt><trkpt lat="53.329520000000024" lon="6.70404000000001"></trkpt><trkpt lat="53.32953000000003" lon="6.70427000000001"></trkpt><trkpt lat="53.32951000000003" lon="6.70471000000001"></trkpt><trkpt lat="53.32940000000003" lon="6.70533000000001"></trkpt><trkpt lat="53.32936000000003" lon="6.70550000000001"></trkpt><trkpt lat="53.32930000000003" lon="6.70571000000001"></trkpt><trkpt lat="53.329220000000035" lon="6.70596000000001"></trkpt><trkpt lat="53.329110000000036" lon="6.70616000000001"></trkpt><trkpt lat="53.32890000000003" lon="6.70649000000001"></trkpt><trkpt lat="53.328570000000035" lon="6.707020000000011"></trkpt><trkpt lat="53.32804000000004" lon="6.707860000000011"></trkpt><trkpt lat="53.32769000000004" lon="6.708580000000011"></trkpt><trkpt lat="53.32761000000004" lon="6.708810000000011"></trkpt><trkpt lat="53.32758000000004" lon="6.709040000000011"></trkpt><trkpt lat="53.32756000000004" lon="6.709290000000012"></trkpt><trkpt lat="53.327480000000044" lon="6.709280000000012"></trkpt><trkpt lat="53.32740000000005" lon="6.709260000000012"></trkpt><trkpt lat="53.32722000000005" lon="6.709280000000012"></trkpt><trkpt lat="53.326860000000046" lon="6.710110000000012"></trkpt><trkpt lat="53.326680000000046" lon="6.710630000000012"></trkpt><trkpt lat="53.32665000000004" lon="6.710720000000012"></trkpt><trkpt lat="53.32658000000004" lon="6.711020000000012"></trkpt><trkpt lat="53.32646000000004" lon="6.711370000000012"></trkpt><trkpt lat="53.32635000000004" lon="6.711590000000012"></trkpt><trkpt lat="53.32622000000004" lon="6.711780000000012"></trkpt><trkpt lat="53.326050000000045" lon="6.711980000000012"></trkpt><trkpt lat="53.325650000000046" lon="6.712360000000012"></trkpt><trkpt lat="53.325020000000045" lon="6.712710000000012"></trkpt><trkpt lat="53.32458000000005" lon="6.712920000000012"></trkpt><trkpt lat="53.32394000000005" lon="6.713070000000012"></trkpt><trkpt lat="53.32369000000005" lon="6.713150000000011"></trkpt><trkpt lat="53.32347000000005" lon="6.713320000000011"></trkpt><trkpt lat="53.32339000000005" lon="6.713410000000011"></trkpt><trkpt lat="53.32314000000005" lon="6.713910000000011"></trkpt><trkpt lat="53.32301000000005" lon="6.714300000000011"></trkpt><trkpt lat="53.322880000000055" lon="6.714530000000011"></trkpt><trkpt lat="53.32269000000005" lon="6.7146700000000115"></trkpt><trkpt lat="53.320820000000055" lon="6.715860000000012"></trkpt><trkpt lat="53.32050000000005" lon="6.716140000000012"></trkpt><trkpt lat="53.32031000000005" lon="6.716370000000012"></trkpt><trkpt lat="53.319740000000046" lon="6.717520000000012"></trkpt><trkpt lat="53.319560000000045" lon="6.7179300000000115"></trkpt><trkpt lat="53.31953000000004" lon="6.718060000000012"></trkpt><trkpt lat="53.31946000000004" lon="6.718240000000012"></trkpt><trkpt lat="53.31927000000004" lon="6.718520000000012"></trkpt><trkpt lat="53.31896000000004" lon="6.718750000000012"></trkpt><trkpt lat="53.318860000000036" lon="6.7188200000000124"></trkpt><trkpt lat="53.318790000000035" lon="6.718940000000012"></trkpt><trkpt lat="53.31858000000003" lon="6.719420000000012"></trkpt><trkpt lat="53.318430000000035" lon="6.719670000000012"></trkpt><trkpt lat="53.318300000000036" lon="6.7197800000000125"></trkpt><trkpt lat="53.31809000000003" lon="6.719890000000013"></trkpt><trkpt lat="53.317760000000035" lon="6.7201100000000125"></trkpt><trkpt lat="53.31744000000003" lon="6.720480000000013"></trkpt><trkpt lat="53.316950000000034" lon="6.721120000000012"></trkpt><trkpt lat="53.316730000000035" lon="6.721550000000012"></trkpt><trkpt lat="53.31669000000004" lon="6.721830000000012"></trkpt><trkpt lat="53.31669000000004" lon="6.722260000000012"></trkpt><trkpt lat="53.31690000000004" lon="6.723910000000012"></trkpt><trkpt lat="53.31691000000004" lon="6.7242400000000115"></trkpt><trkpt lat="53.31690000000004" lon="6.724370000000012"></trkpt><trkpt lat="53.31672000000004" lon="6.724910000000012"></trkpt><trkpt lat="53.31659000000004" lon="6.725380000000012"></trkpt><trkpt lat="53.31609000000004" lon="6.7277600000000115"></trkpt><trkpt lat="53.31605000000004" lon="6.727870000000012"></trkpt><trkpt lat="53.31594000000004" lon="6.728360000000012"></trkpt><trkpt lat="53.31583000000004" lon="6.728720000000012"></trkpt><trkpt lat="53.31542000000004" lon="6.729350000000012"></trkpt><trkpt lat="53.315230000000035" lon="6.729750000000012"></trkpt><trkpt lat="53.315160000000034" lon="6.7299200000000114"></trkpt><trkpt lat="53.31504000000003" lon="6.730320000000011"></trkpt><trkpt lat="53.31484000000003" lon="6.731870000000011"></trkpt><trkpt lat="53.31323000000003" lon="6.736850000000011"></trkpt><trkpt lat="53.31303000000003" lon="6.7374500000000115"></trkpt><trkpt lat="53.312950000000036" lon="6.7376600000000115"></trkpt><trkpt lat="53.31287000000004" lon="6.737850000000011"></trkpt><trkpt lat="53.31259000000004" lon="6.7385300000000115"></trkpt><trkpt lat="53.31250000000004" lon="6.738830000000012"></trkpt><trkpt lat="53.312370000000044" lon="6.739390000000012"></trkpt><trkpt lat="53.312220000000046" lon="6.7401700000000115"></trkpt><trkpt lat="53.312130000000046" lon="6.740460000000011"></trkpt><trkpt lat="53.31198000000005" lon="6.740810000000011"></trkpt><trkpt lat="53.311790000000045" lon="6.7411800000000115"></trkpt><trkpt lat="53.311630000000044" lon="6.741450000000012"></trkpt><trkpt lat="53.31140000000004" lon="6.741770000000012"></trkpt><trkpt lat="53.31113000000004" lon="6.742320000000012"></trkpt><trkpt lat="53.31102000000004" lon="6.742450000000012"></trkpt><trkpt lat="53.310940000000045" lon="6.742480000000012"></trkpt><trkpt lat="53.31097000000005" lon="6.743830000000012"></trkpt><trkpt lat="53.31100000000005" lon="6.744330000000012"></trkpt><trkpt lat="53.31096000000005" lon="6.744330000000012"></trkpt><trkpt lat="53.31078000000005" lon="6.744380000000012"></trkpt><trkpt lat="53.31072000000005" lon="6.744430000000012"></trkpt><trkpt lat="53.310640000000056" lon="6.744870000000012"></trkpt><trkpt lat="53.310370000000056" lon="6.746600000000012"></trkpt><trkpt lat="53.310280000000056" lon="6.7470200000000125"></trkpt><trkpt lat="53.31020000000006" lon="6.747250000000013"></trkpt><trkpt lat="53.30978000000006" lon="6.748480000000012"></trkpt><trkpt lat="53.30974000000006" lon="6.748710000000012"></trkpt><trkpt lat="53.30971000000006" lon="6.748970000000012"></trkpt><trkpt lat="53.309700000000056" lon="6.7490600000000125"></trkpt><trkpt lat="53.30968000000006" lon="6.749140000000012"></trkpt><trkpt lat="53.309670000000054" lon="6.749190000000012"></trkpt><trkpt lat="53.309580000000054" lon="6.749280000000012"></trkpt><trkpt lat="53.309520000000056" lon="6.749310000000012"></trkpt><trkpt lat="53.309470000000054" lon="6.749360000000012"></trkpt><trkpt lat="53.309430000000056" lon="6.749430000000012"></trkpt><trkpt lat="53.30939000000006" lon="6.7495100000000114"></trkpt><trkpt lat="53.30933000000006" lon="6.749690000000012"></trkpt><trkpt lat="53.30928000000006" lon="6.749870000000012"></trkpt><trkpt lat="53.30922000000006" lon="6.750360000000012"></trkpt><trkpt lat="53.30925000000006" lon="6.751050000000012"></trkpt><trkpt lat="53.309390000000064" lon="6.753160000000012"></trkpt><trkpt lat="53.30956000000006" lon="6.755040000000012"></trkpt><trkpt lat="53.30978000000006" lon="6.756530000000012"></trkpt><trkpt lat="53.31011000000006" lon="6.758300000000012"></trkpt><trkpt lat="53.31018000000006" lon="6.758670000000012"></trkpt><trkpt lat="53.31022000000006" lon="6.758930000000012"></trkpt><trkpt lat="53.31034000000006" lon="6.759820000000012"></trkpt><trkpt lat="53.31037000000006" lon="6.759990000000012"></trkpt><trkpt lat="53.31043000000006" lon="6.760320000000012"></trkpt><trkpt lat="53.31050000000006" lon="6.760820000000011"></trkpt><trkpt lat="53.31057000000006" lon="6.761640000000011"></trkpt><trkpt lat="53.310620000000064" lon="6.7632800000000115"></trkpt><trkpt lat="53.31061000000006" lon="6.763800000000011"></trkpt><trkpt lat="53.31054000000006" lon="6.764790000000011"></trkpt><trkpt lat="53.31052000000006" lon="6.765750000000011"></trkpt><trkpt lat="53.31051000000006" lon="6.765870000000011"></trkpt><trkpt lat="53.31053000000006" lon="6.766220000000011"></trkpt><trkpt lat="53.310590000000055" lon="6.766530000000011"></trkpt><trkpt lat="53.310660000000055" lon="6.766740000000011"></trkpt><trkpt lat="53.31071000000006" lon="6.7668700000000115"></trkpt><trkpt lat="53.310880000000054" lon="6.767180000000011"></trkpt><trkpt lat="53.311080000000054" lon="6.767500000000012"></trkpt><trkpt lat="53.311170000000054" lon="6.767710000000012"></trkpt><trkpt lat="53.311240000000055" lon="6.768110000000012"></trkpt><trkpt lat="53.311310000000056" lon="6.7688400000000115"></trkpt><trkpt lat="53.31132000000006" lon="6.769120000000012"></trkpt><trkpt lat="53.311310000000056" lon="6.769340000000011"></trkpt><trkpt lat="53.31128000000005" lon="6.769690000000011"></trkpt><trkpt lat="53.31127000000005" lon="6.770070000000011"></trkpt><trkpt lat="53.31122000000005" lon="6.770230000000011"></trkpt><trkpt lat="53.311190000000046" lon="6.770350000000011"></trkpt><trkpt lat="53.31113000000005" lon="6.770660000000011"></trkpt><trkpt lat="53.311120000000045" lon="6.770770000000011"></trkpt><trkpt lat="53.311120000000045" lon="6.770900000000012"></trkpt><trkpt lat="53.31113000000005" lon="6.771150000000012"></trkpt><trkpt lat="53.311030000000045" lon="6.771220000000012"></trkpt><trkpt lat="53.309980000000046" lon="6.772330000000012"></trkpt><trkpt lat="53.309890000000046" lon="6.7724300000000115"></trkpt><trkpt lat="53.30912000000004" lon="6.773050000000011"></trkpt><trkpt lat="53.30887000000004" lon="6.773280000000011"></trkpt><trkpt lat="53.30824000000004" lon="6.773960000000011"></trkpt><trkpt lat="53.30721000000004" lon="6.7750100000000115"></trkpt><trkpt lat="53.30254000000004" lon="6.779460000000012"></trkpt><trkpt lat="53.301560000000045" lon="6.780530000000012"></trkpt><trkpt lat="53.30054000000005" lon="6.781450000000012"></trkpt><trkpt lat="53.29851000000005" lon="6.783380000000012"></trkpt><trkpt lat="53.29835000000005" lon="6.7835500000000115"></trkpt><trkpt lat="53.29821000000005" lon="6.783740000000011"></trkpt><trkpt lat="53.29803000000005" lon="6.784060000000012"></trkpt><trkpt lat="53.29794000000005" lon="6.783870000000012"></trkpt><trkpt lat="53.297820000000044" lon="6.783540000000012"></trkpt><trkpt lat="53.29777000000004" lon="6.783250000000012"></trkpt><trkpt lat="53.29775000000004" lon="6.782760000000012"></trkpt><trkpt lat="53.297730000000044" lon="6.782530000000012"></trkpt><trkpt lat="53.29754000000004" lon="6.7811100000000115"></trkpt><trkpt lat="53.29749000000004" lon="6.780920000000012"></trkpt><trkpt lat="53.29711000000004" lon="6.780120000000012"></trkpt><trkpt lat="53.29644000000004" lon="6.778280000000012"></trkpt><trkpt lat="53.29496000000004" lon="6.773000000000012"></trkpt><trkpt lat="53.29423000000004" lon="6.770440000000012"></trkpt><trkpt lat="53.29399000000004" lon="6.769640000000012"></trkpt><trkpt lat="53.293820000000046" lon="6.7691900000000125"></trkpt><trkpt lat="53.292430000000046" lon="6.766160000000013"></trkpt><trkpt lat="53.29145000000005" lon="6.764010000000012"></trkpt><trkpt lat="53.291420000000045" lon="6.763860000000013"></trkpt><trkpt lat="53.291420000000045" lon="6.763730000000012"></trkpt><trkpt lat="53.29145000000005" lon="6.763600000000012"></trkpt><trkpt lat="53.291510000000045" lon="6.763500000000012"></trkpt><trkpt lat="53.292160000000045" lon="6.762820000000012"></trkpt><trkpt lat="53.29268000000005" lon="6.762190000000012"></trkpt><trkpt lat="53.292740000000045" lon="6.762080000000012"></trkpt><trkpt lat="53.29278000000004" lon="6.761930000000012"></trkpt><trkpt lat="53.292790000000046" lon="6.761780000000012"></trkpt><trkpt lat="53.29275000000005" lon="6.7615400000000125"></trkpt><trkpt lat="53.29237000000005" lon="6.760440000000012"></trkpt><trkpt lat="53.29175000000005" lon="6.758870000000012"></trkpt><trkpt lat="53.29150000000005" lon="6.758150000000012"></trkpt><trkpt lat="53.29137000000005" lon="6.757840000000012"></trkpt><trkpt lat="53.29043000000005" lon="6.7557000000000125"></trkpt><trkpt lat="53.29025000000005" lon="6.755170000000012"></trkpt><trkpt lat="53.28983000000005" lon="6.753150000000012"></trkpt><trkpt lat="53.289750000000055" lon="6.752870000000012"></trkpt><trkpt lat="53.289680000000054" lon="6.752710000000012"></trkpt><trkpt lat="53.289260000000056" lon="6.751890000000012"></trkpt><trkpt lat="53.28891000000006" lon="6.751140000000012"></trkpt><trkpt lat="53.288590000000056" lon="6.7503300000000115"></trkpt><trkpt lat="53.28853000000006" lon="6.750080000000011"></trkpt><trkpt lat="53.288410000000056" lon="6.749130000000012"></trkpt><trkpt lat="53.288250000000055" lon="6.7479600000000115"></trkpt><trkpt lat="53.288230000000055" lon="6.747770000000012"></trkpt><trkpt lat="53.288070000000054" lon="6.747650000000012"></trkpt><trkpt lat="53.287980000000054" lon="6.747530000000012"></trkpt><trkpt lat="53.28786000000005" lon="6.747300000000012"></trkpt><trkpt lat="53.28763000000005" lon="6.746680000000012"></trkpt><trkpt lat="53.28726000000005" lon="6.745680000000012"></trkpt><trkpt lat="53.28723000000005" lon="6.745700000000012"></trkpt><trkpt lat="53.28720000000005" lon="6.745650000000012"></trkpt><trkpt lat="53.28718000000005" lon="6.745620000000012"></trkpt><trkpt lat="53.28714000000005" lon="6.745600000000012"></trkpt><trkpt lat="53.28711000000005" lon="6.745590000000012"></trkpt><trkpt lat="53.287080000000046" lon="6.745620000000012"></trkpt><trkpt lat="53.28657000000005" lon="6.746230000000012"></trkpt><trkpt lat="53.28651000000005" lon="6.746320000000012"></trkpt><trkpt lat="53.28637000000005" lon="6.746490000000012"></trkpt><trkpt lat="53.285850000000046" lon="6.747320000000012"></trkpt><trkpt lat="53.285820000000044" lon="6.747360000000012"></trkpt><trkpt lat="53.285800000000044" lon="6.747360000000012"></trkpt><trkpt lat="53.285780000000045" lon="6.747330000000012"></trkpt><trkpt lat="53.284500000000044" lon="6.749350000000012"></trkpt><trkpt lat="53.284190000000045" lon="6.749760000000012"></trkpt><trkpt lat="53.282600000000045" lon="6.751910000000012"></trkpt><trkpt lat="53.282330000000044" lon="6.752260000000012"></trkpt><trkpt lat="53.281570000000045" lon="6.753300000000012"></trkpt><trkpt lat="53.281440000000046" lon="6.7534500000000115"></trkpt><trkpt lat="53.28120000000005" lon="6.7535900000000115"></trkpt><trkpt lat="53.28107000000005" lon="6.753630000000012"></trkpt><trkpt lat="53.28081000000005" lon="6.753640000000011"></trkpt><trkpt lat="53.27995000000005" lon="6.753650000000011"></trkpt><trkpt lat="53.27966000000005" lon="6.753750000000011"></trkpt><trkpt lat="53.27946000000005" lon="6.753950000000011"></trkpt><trkpt lat="53.27926000000005" lon="6.754220000000012"></trkpt><trkpt lat="53.27876000000005" lon="6.754970000000012"></trkpt><trkpt lat="53.27860000000005" lon="6.755310000000011"></trkpt><trkpt lat="53.27833000000005" lon="6.755870000000011"></trkpt><trkpt lat="53.27804000000005" lon="6.756300000000011"></trkpt><trkpt lat="53.27787000000005" lon="6.7565000000000115"></trkpt><trkpt lat="53.27755000000005" lon="6.756850000000012"></trkpt><trkpt lat="53.27748000000005" lon="6.7569000000000115"></trkpt><trkpt lat="53.27697000000005" lon="6.757420000000011"></trkpt><trkpt lat="53.276940000000046" lon="6.757450000000011"></trkpt><trkpt lat="53.27684000000004" lon="6.757530000000011"></trkpt><trkpt lat="53.27673000000004" lon="6.757640000000011"></trkpt><trkpt lat="53.27684000000004" lon="6.757530000000011"></trkpt><trkpt lat="53.27681000000004" lon="6.757310000000011"></trkpt><trkpt lat="53.27654000000004" lon="6.756540000000011"></trkpt><trkpt lat="53.27618000000004" lon="6.755510000000011"></trkpt><trkpt lat="53.27602000000004" lon="6.755060000000011"></trkpt><trkpt lat="53.275880000000036" lon="6.754650000000011"></trkpt><trkpt lat="53.27492000000004" lon="6.751930000000011"></trkpt><trkpt lat="53.273480000000035" lon="6.747980000000012"></trkpt><trkpt lat="53.272760000000034" lon="6.746040000000011"></trkpt><trkpt lat="53.27249000000003" lon="6.745260000000012"></trkpt><trkpt lat="53.271510000000035" lon="6.742140000000012"></trkpt><trkpt lat="53.270880000000034" lon="6.740210000000012"></trkpt><trkpt lat="53.26996000000003" lon="6.737080000000012"></trkpt><trkpt lat="53.26967000000003" lon="6.736190000000012"></trkpt><trkpt lat="53.26958000000003" lon="6.735980000000012"></trkpt><trkpt lat="53.269250000000035" lon="6.734990000000012"></trkpt><trkpt lat="53.269000000000034" lon="6.734120000000012"></trkpt><trkpt lat="53.26865000000004" lon="6.732960000000013"></trkpt><trkpt lat="53.26662000000004" lon="6.727950000000012"></trkpt><trkpt lat="53.26510000000004" lon="6.724280000000013"></trkpt><trkpt lat="53.26192000000004" lon="6.716620000000013"></trkpt><trkpt lat="53.26160000000004" lon="6.7157900000000135"></trkpt><trkpt lat="53.256890000000034" lon="6.702600000000014"></trkpt><trkpt lat="53.25581000000003" lon="6.6996000000000135"></trkpt><trkpt lat="53.25547000000003" lon="6.698700000000014"></trkpt><trkpt lat="53.25438000000003" lon="6.695600000000014"></trkpt><trkpt lat="53.25204000000004" lon="6.689030000000014"></trkpt><trkpt lat="53.251050000000035" lon="6.686290000000014"></trkpt><trkpt lat="53.24974000000004" lon="6.682610000000014"></trkpt><trkpt lat="53.24721000000004" lon="6.675580000000013"></trkpt><trkpt lat="53.24659000000004" lon="6.673820000000013"></trkpt><trkpt lat="53.24590000000004" lon="6.671880000000013"></trkpt><trkpt lat="53.24572000000004" lon="6.671390000000013"></trkpt><trkpt lat="53.24507000000004" lon="6.669630000000013"></trkpt><trkpt lat="53.24453000000004" lon="6.668150000000013"></trkpt><trkpt lat="53.24383000000004" lon="6.666510000000013"></trkpt><trkpt lat="53.242320000000035" lon="6.663150000000013"></trkpt><trkpt lat="53.240890000000036" lon="6.660100000000013"></trkpt><trkpt lat="53.23756000000004" lon="6.6528200000000135"></trkpt><trkpt lat="53.23700000000004" lon="6.651640000000014"></trkpt><trkpt lat="53.23693000000004" lon="6.651520000000014"></trkpt><trkpt lat="53.236840000000036" lon="6.651400000000014"></trkpt><trkpt lat="53.236680000000035" lon="6.651290000000014"></trkpt><trkpt lat="53.23649000000003" lon="6.651250000000013"></trkpt><trkpt lat="53.23649000000003" lon="6.651170000000014"></trkpt><trkpt lat="53.23648000000003" lon="6.651120000000014"></trkpt><trkpt lat="53.23632000000003" lon="6.650690000000014"></trkpt><trkpt lat="53.23626000000003" lon="6.650620000000014"></trkpt><trkpt lat="53.23624000000003" lon="6.650570000000014"></trkpt><trkpt lat="53.23619000000003" lon="6.650450000000014"></trkpt><trkpt lat="53.23613000000003" lon="6.650230000000015"></trkpt><trkpt lat="53.236050000000034" lon="6.650020000000015"></trkpt><trkpt lat="53.23602000000003" lon="6.6499300000000146"></trkpt><trkpt lat="53.23590000000003" lon="6.649640000000015"></trkpt><trkpt lat="53.23567000000003" lon="6.649010000000015"></trkpt><trkpt lat="53.23561000000003" lon="6.648780000000015"></trkpt><trkpt lat="53.23426000000003" lon="6.6453100000000145"></trkpt><trkpt lat="53.233760000000025" lon="6.643940000000015"></trkpt><trkpt lat="53.23366000000002" lon="6.643830000000015"></trkpt><trkpt lat="53.23363000000002" lon="6.643720000000014"></trkpt><trkpt lat="53.23210000000002" lon="6.638250000000014"></trkpt><trkpt lat="53.23179000000002" lon="6.637110000000014"></trkpt><trkpt lat="53.23161000000002" lon="6.636460000000014"></trkpt><trkpt lat="53.23137000000002" lon="6.635610000000014"></trkpt><trkpt lat="53.23132000000002" lon="6.635660000000014"></trkpt><trkpt lat="53.23119000000002" lon="6.635780000000014"></trkpt><trkpt lat="53.23103000000002" lon="6.635940000000014"></trkpt><trkpt lat="53.231000000000016" lon="6.635840000000014"></trkpt><trkpt lat="53.23096000000002" lon="6.635710000000014"></trkpt><trkpt lat="53.23089000000002" lon="6.635440000000013"></trkpt><trkpt lat="53.23069000000002" lon="6.634870000000014"></trkpt><trkpt lat="53.23051000000002" lon="6.634330000000014"></trkpt><trkpt lat="53.230280000000015" lon="6.633520000000013"></trkpt><trkpt lat="53.230170000000015" lon="6.633130000000013"></trkpt><trkpt lat="53.230080000000015" lon="6.632760000000013"></trkpt><trkpt lat="53.22993000000002" lon="6.632210000000013"></trkpt><trkpt lat="53.229790000000015" lon="6.631770000000013"></trkpt><trkpt lat="53.22910000000002" lon="6.629310000000013"></trkpt><trkpt lat="53.22799000000002" lon="6.625400000000012"></trkpt><trkpt lat="53.22671000000002" lon="6.6209400000000125"></trkpt><trkpt lat="53.22557000000002" lon="6.616980000000012"></trkpt><trkpt lat="53.22549000000002" lon="6.616660000000012"></trkpt><trkpt lat="53.22548000000002" lon="6.616470000000012"></trkpt><trkpt lat="53.22546000000002" lon="6.616360000000012"></trkpt><trkpt lat="53.22529000000002" lon="6.615760000000011"></trkpt><trkpt lat="53.225030000000025" lon="6.614830000000011"></trkpt><trkpt lat="53.22499000000003" lon="6.614740000000011"></trkpt><trkpt lat="53.22488000000003" lon="6.614550000000011"></trkpt><trkpt lat="53.224780000000024" lon="6.614420000000011"></trkpt><trkpt lat="53.224740000000025" lon="6.61436000000001"></trkpt><trkpt lat="53.22448000000003" lon="6.61409000000001"></trkpt><trkpt lat="53.22443000000003" lon="6.614030000000009"></trkpt><trkpt lat="53.224380000000025" lon="6.613940000000009"></trkpt><trkpt lat="53.22430000000003" lon="6.61379000000001"></trkpt><trkpt lat="53.22426000000003" lon="6.61367000000001"></trkpt><trkpt lat="53.22411000000003" lon="6.613140000000009"></trkpt><trkpt lat="53.22402000000003" lon="6.612810000000009"></trkpt><trkpt lat="53.22401000000003" lon="6.612750000000009"></trkpt><trkpt lat="53.22401000000003" lon="6.612710000000009"></trkpt><trkpt lat="53.22401000000003" lon="6.612660000000009"></trkpt><trkpt lat="53.22401000000003" lon="6.6126000000000085"></trkpt><trkpt lat="53.22402000000003" lon="6.6125300000000085"></trkpt><trkpt lat="53.224030000000035" lon="6.612440000000008"></trkpt><trkpt lat="53.22404000000004" lon="6.612350000000008"></trkpt><trkpt lat="53.22405000000004" lon="6.612280000000008"></trkpt><trkpt lat="53.224060000000044" lon="6.612170000000008"></trkpt><trkpt lat="53.22407000000005" lon="6.612080000000008"></trkpt><trkpt lat="53.224060000000044" lon="6.611950000000007"></trkpt><trkpt lat="53.224020000000046" lon="6.611800000000008"></trkpt><trkpt lat="53.223550000000046" lon="6.610180000000008"></trkpt><trkpt lat="53.223370000000045" lon="6.609550000000008"></trkpt><trkpt lat="53.22311000000005" lon="6.608610000000008"></trkpt><trkpt lat="53.222630000000045" lon="6.606920000000008"></trkpt><trkpt lat="53.22248000000005" lon="6.606440000000008"></trkpt><trkpt lat="53.221940000000046" lon="6.604580000000008"></trkpt><trkpt lat="53.221760000000046" lon="6.603950000000008"></trkpt><trkpt lat="53.221600000000045" lon="6.603420000000008"></trkpt><trkpt lat="53.221440000000044" lon="6.603000000000008"></trkpt><trkpt lat="53.22116000000005" lon="6.601960000000008"></trkpt><trkpt lat="53.22110000000005" lon="6.601730000000008"></trkpt><trkpt lat="53.22092000000005" lon="6.601140000000008"></trkpt><trkpt lat="53.22071000000005" lon="6.600620000000008"></trkpt><trkpt lat="53.22060000000005" lon="6.6002600000000085"></trkpt><trkpt lat="53.22029000000005" lon="6.5991800000000085"></trkpt><trkpt lat="53.21989000000005" lon="6.597760000000008"></trkpt><trkpt lat="53.218760000000046" lon="6.593770000000008"></trkpt><trkpt lat="53.21855000000004" lon="6.593030000000008"></trkpt><trkpt lat="53.21852000000004" lon="6.592920000000007"></trkpt><trkpt lat="53.21852000000004" lon="6.5928000000000075"></trkpt><trkpt lat="53.21852000000004" lon="6.592710000000007"></trkpt><trkpt lat="53.218530000000044" lon="6.592620000000007"></trkpt><trkpt lat="53.218580000000046" lon="6.592490000000007"></trkpt><trkpt lat="53.21877000000005" lon="6.592070000000007"></trkpt><trkpt lat="53.21901000000005" lon="6.591600000000007"></trkpt><trkpt lat="53.21910000000005" lon="6.591410000000007"></trkpt><trkpt lat="53.21913000000005" lon="6.591360000000007"></trkpt><trkpt lat="53.21916000000005" lon="6.591310000000007"></trkpt><trkpt lat="53.21923000000005" lon="6.591220000000007"></trkpt><trkpt lat="53.219280000000055" lon="6.591180000000007"></trkpt><trkpt lat="53.219370000000055" lon="6.591080000000007"></trkpt><trkpt lat="53.219440000000056" lon="6.591030000000007"></trkpt><trkpt lat="53.219840000000055" lon="6.590720000000007"></trkpt><trkpt lat="53.220450000000056" lon="6.5902900000000075"></trkpt><trkpt lat="53.22053000000005" lon="6.590230000000007"></trkpt><trkpt lat="53.220780000000055" lon="6.590050000000007"></trkpt><trkpt lat="53.22131000000005" lon="6.589770000000007"></trkpt><trkpt lat="53.22160000000005" lon="6.589610000000007"></trkpt><trkpt lat="53.22205000000005" lon="6.589390000000007"></trkpt><trkpt lat="53.22227000000005" lon="6.589330000000007"></trkpt><trkpt lat="53.222280000000055" lon="6.589330000000007"></trkpt><trkpt lat="53.222350000000056" lon="6.589320000000007"></trkpt><trkpt lat="53.22240000000006" lon="6.589250000000007"></trkpt><trkpt lat="53.222370000000055" lon="6.589140000000007"></trkpt><trkpt lat="53.22232000000005" lon="6.589010000000006"></trkpt><trkpt lat="53.22231000000005" lon="6.589010000000006"></trkpt><trkpt lat="53.22225000000005" lon="6.589010000000006"></trkpt><trkpt lat="53.22216000000005" lon="6.588990000000006"></trkpt></trkseg></trk></gpx>