<?xml version="1.0" encoding="UTF-8"?>
<gpx creator="StravaGPX" xmlns:xsi="http://www.w3.org/2001/XMLSchema-instance" xsi:schemaLocation="http://www.topografix.com/GPX/1/1 http://www.topografix.com/GPX/1/1/gpx.xsd" version="1.1" xmlns="http://www.topografix.com/GPX/1/1">
 <metadata>
  <name>Morning Ride</name>
  <author>
   <name>Martijn Haring</name>
   <link href="https://www.strava.com/athletes/27503866"/>
  </author>
  <copyright author="OpenStreetMap contributors">
   <year>2020</year>
   <license>https://www.openstreetmap.org/copyright</license>
  </copyright>
  <link href="https://www.strava.com/routes/2798908050535121530"/>
 </metadata>
 <trk>
  <name>Morning Ride</name>
  <link href="https://www.strava.com/routes/2798908050535121530"/>
  <type>Fietsrit</type>
  <trkseg>
   <trkpt lat="53.212230000000005" lon="6.55555">
    <ele>0.41000000000000003</ele>
   </trkpt>
   <trkpt lat="53.212070000000004" lon="6.555580000000001">
    <ele>0.5</ele>
   </trkpt>
   <trkpt lat="53.211940000000006" lon="6.55564">
    <ele>0.5</ele>
   </trkpt>
   <trkpt lat="53.21132000000001" lon="6.556170000000001">
    <ele>0.64</ele>
   </trkpt>
   <trkpt lat="53.211040000000004" lon="6.5563400000000005">
    <ele>0.46</ele>
   </trkpt>
   <trkpt lat="53.21099" lon="6.5563400000000005">
    <ele>0.33000000000000007</ele>
   </trkpt>
   <trkpt lat="53.21060000000001" lon="6.55651">
    <ele>-0.55</ele>
   </trkpt>
   <trkpt lat="53.20985" lon="6.556750000000001">
    <ele>0.14</ele>
   </trkpt>
   <trkpt lat="53.20982000000001" lon="6.55679">
    <ele>0.14</ele>
   </trkpt>
   <trkpt lat="53.209740000000004" lon="6.5568100000000005">
    <ele>0.4</ele>
   </trkpt>
   <trkpt lat="53.209410000000005" lon="6.55696">
    <ele>0.6600000000000001</ele>
   </trkpt>
   <trkpt lat="53.20897000000001" lon="6.557250000000001">
    <ele>0.8600000000000001</ele>
   </trkpt>
   <trkpt lat="53.20844" lon="6.5575600000000005">
    <ele>0.99</ele>
   </trkpt>
   <trkpt lat="53.20808" lon="6.557720000000001">
    <ele>1.04</ele>
   </trkpt>
   <trkpt lat="53.208000000000006" lon="6.557740000000001">
    <ele>1.04</ele>
   </trkpt>
   <trkpt lat="53.207950000000004" lon="6.55773">
    <ele>1.04</ele>
   </trkpt>
   <trkpt lat="53.20776000000001" lon="6.557760000000001">
    <ele>1.0</ele>
   </trkpt>
   <trkpt lat="53.207240000000006" lon="6.557910000000001">
    <ele>0.77</ele>
   </trkpt>
   <trkpt lat="53.206630000000004" lon="6.5580300000000005">
    <ele>0.93</ele>
   </trkpt>
   <trkpt lat="53.205919999929776" lon="6.558085000917667">
    <ele>0.88</ele>
   </trkpt>
   <trkpt lat="53.20521" lon="6.558140000000001">
    <ele>0.62</ele>
   </trkpt>
   <trkpt lat="53.20471000009344" lon="6.5581750004021675">
    <ele>0.6000000000000001</ele>
   </trkpt>
   <trkpt lat="53.20421" lon="6.558210000000001">
    <ele>0.71</ele>
   </trkpt>
   <trkpt lat="53.20402000000001" lon="6.55825">
    <ele>0.6600000000000001</ele>
   </trkpt>
   <trkpt lat="53.20382000000001" lon="6.558330000000001">
    <ele>0.52</ele>
   </trkpt>
   <trkpt lat="53.203680000000006" lon="6.55843">
    <ele>0.52</ele>
   </trkpt>
   <trkpt lat="53.203520000000005" lon="6.558590000000001">
    <ele>0.4900000000000001</ele>
   </trkpt>
   <trkpt lat="53.20302" lon="6.5589">
    <ele>0.55</ele>
   </trkpt>
   <trkpt lat="53.20270000000001" lon="6.559060000000001">
    <ele>0.6100000000000001</ele>
   </trkpt>
   <trkpt lat="53.202420000000004" lon="6.559220000000001">
    <ele>0.56</ele>
   </trkpt>
   <trkpt lat="53.201710000000006" lon="6.55956">
    <ele>0.56</ele>
   </trkpt>
   <trkpt lat="53.20174" lon="6.559830000000001">
    <ele>0.59</ele>
   </trkpt>
   <trkpt lat="53.20185000000001" lon="6.560250000000001">
    <ele>0.62</ele>
   </trkpt>
   <trkpt lat="53.20197" lon="6.56062">
    <ele>0.58</ele>
   </trkpt>
   <trkpt lat="53.20205000000001" lon="6.56106">
    <ele>0.58</ele>
   </trkpt>
   <trkpt lat="53.202245003072186" lon="6.56191499616401">
    <ele>0.79</ele>
   </trkpt>
   <trkpt lat="53.20244" lon="6.56277">
    <ele>1.81</ele>
   </trkpt>
   <trkpt lat="53.201620000000005" lon="6.563140000000001">
    <ele>1.9400000000000002</ele>
   </trkpt>
   <trkpt lat="53.201460000000004" lon="6.5634500000000005">
    <ele>1.9200000000000002</ele>
   </trkpt>
   <trkpt lat="53.20138000000001" lon="6.563510000000001">
    <ele>1.85</ele>
   </trkpt>
   <trkpt lat="53.20107" lon="6.5635200000000005">
    <ele>1.8200000000000003</ele>
   </trkpt>
   <trkpt lat="53.200700000000005" lon="6.56348">
    <ele>1.7300000000000002</ele>
   </trkpt>
   <trkpt lat="53.200410000000005" lon="6.56343">
    <ele>1.68</ele>
   </trkpt>
   <trkpt lat="53.20011" lon="6.563320000000001">
    <ele>1.7000000000000002</ele>
   </trkpt>
   <trkpt lat="53.199870000000004" lon="6.5632">
    <ele>1.84</ele>
   </trkpt>
   <trkpt lat="53.19915000079251" lon="6.562779992976709">
    <ele>1.8300000000000003</ele>
   </trkpt>
   <trkpt lat="53.19843" lon="6.562360000000001">
    <ele>1.86</ele>
   </trkpt>
   <trkpt lat="53.19789000036648" lon="6.562119997032345">
    <ele>1.98</ele>
   </trkpt>
   <trkpt lat="53.19735000000001" lon="6.56188">
    <ele>1.8200000000000003</ele>
   </trkpt>
   <trkpt lat="53.197280000000006" lon="6.561920000000001">
    <ele>1.68</ele>
   </trkpt>
   <trkpt lat="53.19684" lon="6.56181">
    <ele>1.59</ele>
   </trkpt>
   <trkpt lat="53.19597" lon="6.561710000000001">
    <ele>1.98</ele>
   </trkpt>
   <trkpt lat="53.19541" lon="6.561730000000001">
    <ele>1.8900000000000001</ele>
   </trkpt>
   <trkpt lat="53.194970000000005" lon="6.56177">
    <ele>1.9500000000000002</ele>
   </trkpt>
   <trkpt lat="53.19464000000001" lon="6.5618300000000005">
    <ele>2.0300000000000002</ele>
   </trkpt>
   <trkpt lat="53.194570000000006" lon="6.561820000000001">
    <ele>2.0300000000000002</ele>
   </trkpt>
   <trkpt lat="53.19449" lon="6.56177">
    <ele>1.9500000000000002</ele>
   </trkpt>
   <trkpt lat="53.19433000000001" lon="6.561870000000001">
    <ele>1.8</ele>
   </trkpt>
   <trkpt lat="53.19362" lon="6.562100000000001">
    <ele>1.62</ele>
   </trkpt>
   <trkpt lat="53.19333" lon="6.5622300000000005">
    <ele>1.6400000000000001</ele>
   </trkpt>
   <trkpt lat="53.19276000000001" lon="6.56252">
    <ele>2.17</ele>
   </trkpt>
   <trkpt lat="53.19203000289251" lon="6.5630025246658805">
    <ele>1.9400000000000002</ele>
   </trkpt>
   <trkpt lat="53.19130000383576" lon="6.56348503290098">
    <ele>1.87</ele>
   </trkpt>
   <trkpt lat="53.19057000282987" lon="6.563967524706252">
    <ele>1.77</ele>
   </trkpt>
   <trkpt lat="53.189840000000004" lon="6.564450000000001">
    <ele>1.93</ele>
   </trkpt>
   <trkpt lat="53.189220000000006" lon="6.56479">
    <ele>1.8800000000000001</ele>
   </trkpt>
   <trkpt lat="53.188970000000005" lon="6.56486">
    <ele>1.77</ele>
   </trkpt>
   <trkpt lat="53.188750000000006" lon="6.56489">
    <ele>1.77</ele>
   </trkpt>
   <trkpt lat="53.18851" lon="6.564850000000001">
    <ele>1.6900000000000002</ele>
   </trkpt>
   <trkpt lat="53.188340000000004" lon="6.56479">
    <ele>1.53</ele>
   </trkpt>
   <trkpt lat="53.18802" lon="6.564620000000001">
    <ele>1.29</ele>
   </trkpt>
   <trkpt lat="53.187900000000006" lon="6.56458">
    <ele>1.29</ele>
   </trkpt>
   <trkpt lat="53.18782" lon="6.564570000000001">
    <ele>1.25</ele>
   </trkpt>
   <trkpt lat="53.187740000000005" lon="6.564590000000001">
    <ele>1.25</ele>
   </trkpt>
   <trkpt lat="53.18761000000001" lon="6.564660000000001">
    <ele>1.25</ele>
   </trkpt>
   <trkpt lat="53.187520000000006" lon="6.564730000000001">
    <ele>1.25</ele>
   </trkpt>
   <trkpt lat="53.18697" lon="6.56554">
    <ele>1.26</ele>
   </trkpt>
   <trkpt lat="53.18675" lon="6.565790000000001">
    <ele>1.26</ele>
   </trkpt>
   <trkpt lat="53.18656000000001" lon="6.565930000000001">
    <ele>1.26</ele>
   </trkpt>
   <trkpt lat="53.186350000000004" lon="6.566000000000001">
    <ele>1.27</ele>
   </trkpt>
   <trkpt lat="53.18625" lon="6.56601">
    <ele>1.27</ele>
   </trkpt>
   <trkpt lat="53.18601" lon="6.565980000000001">
    <ele>1.16</ele>
   </trkpt>
   <trkpt lat="53.185460000000006" lon="6.565810000000001">
    <ele>1.2200000000000002</ele>
   </trkpt>
   <trkpt lat="53.18535000000001" lon="6.565790000000001">
    <ele>1.2200000000000002</ele>
   </trkpt>
   <trkpt lat="53.1852" lon="6.56585">
    <ele>1.2200000000000002</ele>
   </trkpt>
   <trkpt lat="53.185050000000004" lon="6.565980000000001">
    <ele>1.2300000000000002</ele>
   </trkpt>
   <trkpt lat="53.18451" lon="6.56662">
    <ele>1.3</ele>
   </trkpt>
   <trkpt lat="53.1841" lon="6.56716">
    <ele>1.29</ele>
   </trkpt>
   <trkpt lat="53.18403000000001" lon="6.567290000000001">
    <ele>1.29</ele>
   </trkpt>
   <trkpt lat="53.18368" lon="6.568040000000001">
    <ele>1.34</ele>
   </trkpt>
   <trkpt lat="53.18344000235278" lon="6.568795004330677">
    <ele>1.37</ele>
   </trkpt>
   <trkpt lat="53.18320000000001" lon="6.5695500000000004">
    <ele>1.3</ele>
   </trkpt>
   <trkpt lat="53.18280000000001" lon="6.570530000000001">
    <ele>1.31</ele>
   </trkpt>
   <trkpt lat="53.18245" lon="6.5709800000000005">
    <ele>1.2300000000000002</ele>
   </trkpt>
   <trkpt lat="53.18231" lon="6.571300000000001">
    <ele>1.34</ele>
   </trkpt>
   <trkpt lat="53.18222" lon="6.57171">
    <ele>1.36</ele>
   </trkpt>
   <trkpt lat="53.18222" lon="6.57246">
    <ele>1.33</ele>
   </trkpt>
   <trkpt lat="53.182280000000006" lon="6.57305">
    <ele>1.2300000000000002</ele>
   </trkpt>
   <trkpt lat="53.182370000000006" lon="6.573370000000001">
    <ele>1.3200000000000003</ele>
   </trkpt>
   <trkpt lat="53.18272" lon="6.574260000000001">
    <ele>1.41</ele>
   </trkpt>
   <trkpt lat="53.182680000000005" lon="6.574470000000001">
    <ele>1.3800000000000001</ele>
   </trkpt>
   <trkpt lat="53.18247" lon="6.574870000000001">
    <ele>1.1</ele>
   </trkpt>
   <trkpt lat="53.18214000110192" lon="6.575380003903863">
    <ele>1.18</ele>
   </trkpt>
   <trkpt lat="53.181810000000006" lon="6.57589">
    <ele>1.1</ele>
   </trkpt>
   <trkpt lat="53.181470000000004" lon="6.576320000000001">
    <ele>1.27</ele>
   </trkpt>
   <trkpt lat="53.181360000000005" lon="6.5763300000000005">
    <ele>1.27</ele>
   </trkpt>
   <trkpt lat="53.18072" lon="6.57608">
    <ele>1.12</ele>
   </trkpt>
   <trkpt lat="53.18007000000001" lon="6.57598">
    <ele>1.3</ele>
   </trkpt>
   <trkpt lat="53.17992" lon="6.57591">
    <ele>1.1900000000000002</ele>
   </trkpt>
   <trkpt lat="53.179550000000006" lon="6.5756000000000006">
    <ele>1.28</ele>
   </trkpt>
   <trkpt lat="53.17935000000001" lon="6.575480000000001">
    <ele>1.26</ele>
   </trkpt>
   <trkpt lat="53.17918" lon="6.575430000000001">
    <ele>1.16</ele>
   </trkpt>
   <trkpt lat="53.17907" lon="6.5754600000000005">
    <ele>1.04</ele>
   </trkpt>
   <trkpt lat="53.17898" lon="6.5755300000000005">
    <ele>1.04</ele>
   </trkpt>
   <trkpt lat="53.17893" lon="6.57563">
    <ele>1.04</ele>
   </trkpt>
   <trkpt lat="53.178850000000004" lon="6.57584">
    <ele>0.9700000000000001</ele>
   </trkpt>
   <trkpt lat="53.17875" lon="6.576250000000001">
    <ele>0.9700000000000001</ele>
   </trkpt>
   <trkpt lat="53.178700000000006" lon="6.576340000000001">
    <ele>0.9700000000000001</ele>
   </trkpt>
   <trkpt lat="53.178520000000006" lon="6.5765400000000005">
    <ele>0.88</ele>
   </trkpt>
   <trkpt lat="53.17833" lon="6.57666">
    <ele>0.88</ele>
   </trkpt>
   <trkpt lat="53.17813" lon="6.576740000000001">
    <ele>0.8300000000000001</ele>
   </trkpt>
   <trkpt lat="53.17803000000001" lon="6.5767500000000005">
    <ele>0.8300000000000001</ele>
   </trkpt>
   <trkpt lat="53.17794000000001" lon="6.576720000000001">
    <ele>0.8300000000000001</ele>
   </trkpt>
   <trkpt lat="53.17766" lon="6.576530000000001">
    <ele>0.8700000000000001</ele>
   </trkpt>
   <trkpt lat="53.17754000000001" lon="6.5765">
    <ele>0.9100000000000001</ele>
   </trkpt>
   <trkpt lat="53.17737" lon="6.5765400000000005">
    <ele>1.04</ele>
   </trkpt>
   <trkpt lat="53.17723" lon="6.5766800000000005">
    <ele>1.04</ele>
   </trkpt>
   <trkpt lat="53.1771" lon="6.5769">
    <ele>1.11</ele>
   </trkpt>
   <trkpt lat="53.177080000000004" lon="6.577000000000001">
    <ele>1.11</ele>
   </trkpt>
   <trkpt lat="53.17714" lon="6.5774300000000006">
    <ele>1.02</ele>
   </trkpt>
   <trkpt lat="53.17716000000001" lon="6.5777">
    <ele>1.02</ele>
   </trkpt>
   <trkpt lat="53.17709000000001" lon="6.57809">
    <ele>1.04</ele>
   </trkpt>
   <trkpt lat="53.17700000000001" lon="6.578320000000001">
    <ele>1.1</ele>
   </trkpt>
   <trkpt lat="53.176880000000004" lon="6.57847">
    <ele>1.1</ele>
   </trkpt>
   <trkpt lat="53.176730000000006" lon="6.57859">
    <ele>1.0</ele>
   </trkpt>
   <trkpt lat="53.17654" lon="6.578640000000001">
    <ele>1.0</ele>
   </trkpt>
   <trkpt lat="53.176190000000005" lon="6.5786500000000006">
    <ele>1.1500000000000001</ele>
   </trkpt>
   <trkpt lat="53.17607" lon="6.57863">
    <ele>1.1500000000000001</ele>
   </trkpt>
   <trkpt lat="53.175900000000006" lon="6.578550000000001">
    <ele>1.04</ele>
   </trkpt>
   <trkpt lat="53.175610000000006" lon="6.5783700000000005">
    <ele>1.03</ele>
   </trkpt>
   <trkpt lat="53.175450000000005" lon="6.5783700000000005">
    <ele>1.17</ele>
   </trkpt>
   <trkpt lat="53.175340000000006" lon="6.57842">
    <ele>1.17</ele>
   </trkpt>
   <trkpt lat="53.17524" lon="6.578500000000001">
    <ele>1.2100000000000002</ele>
   </trkpt>
   <trkpt lat="53.175140000000006" lon="6.578740000000001">
    <ele>1.18</ele>
   </trkpt>
   <trkpt lat="53.17513" lon="6.5790500000000005">
    <ele>1.02</ele>
   </trkpt>
   <trkpt lat="53.175360000000005" lon="6.58023">
    <ele>1.08</ele>
   </trkpt>
   <trkpt lat="53.175360000000005" lon="6.5804100000000005">
    <ele>1.18</ele>
   </trkpt>
   <trkpt lat="53.17524" lon="6.580850000000001">
    <ele>1.18</ele>
   </trkpt>
   <trkpt lat="53.17515" lon="6.580940000000001">
    <ele>1.18</ele>
   </trkpt>
   <trkpt lat="53.174820000000004" lon="6.58112">
    <ele>1.03</ele>
   </trkpt>
   <trkpt lat="53.174580000000006" lon="6.58117">
    <ele>1.03</ele>
   </trkpt>
   <trkpt lat="53.17436000000001" lon="6.581160000000001">
    <ele>1.03</ele>
   </trkpt>
   <trkpt lat="53.17374" lon="6.58082">
    <ele>0.8500000000000001</ele>
   </trkpt>
   <trkpt lat="53.173590000000004" lon="6.58079">
    <ele>0.8500000000000001</ele>
   </trkpt>
   <trkpt lat="53.17344000000001" lon="6.58079">
    <ele>0.9</ele>
   </trkpt>
   <trkpt lat="53.173350000000006" lon="6.58082">
    <ele>0.9</ele>
   </trkpt>
   <trkpt lat="53.1732" lon="6.580970000000001">
    <ele>0.88</ele>
   </trkpt>
   <trkpt lat="53.173100000000005" lon="6.581130000000001">
    <ele>0.88</ele>
   </trkpt>
   <trkpt lat="53.17304000000001" lon="6.581320000000001">
    <ele>0.9400000000000001</ele>
   </trkpt>
   <trkpt lat="53.17302" lon="6.581510000000001">
    <ele>0.9400000000000001</ele>
   </trkpt>
   <trkpt lat="53.173" lon="6.58258">
    <ele>1.05</ele>
   </trkpt>
   <trkpt lat="53.17298" lon="6.5828500000000005">
    <ele>1.1</ele>
   </trkpt>
   <trkpt lat="53.172830000000005" lon="6.58319">
    <ele>1.08</ele>
   </trkpt>
   <trkpt lat="53.17239000000001" lon="6.5837900000000005">
    <ele>0.9100000000000001</ele>
   </trkpt>
   <trkpt lat="53.172250000000005" lon="6.58419">
    <ele>1.0</ele>
   </trkpt>
   <trkpt lat="53.17217" lon="6.58464">
    <ele>1.03</ele>
   </trkpt>
   <trkpt lat="53.17219000000001" lon="6.58518">
    <ele>1.06</ele>
   </trkpt>
   <trkpt lat="53.172270000000005" lon="6.58595">
    <ele>1.0</ele>
   </trkpt>
   <trkpt lat="53.17226" lon="6.586320000000001">
    <ele>1.11</ele>
   </trkpt>
   <trkpt lat="53.172200000000004" lon="6.58652">
    <ele>1.12</ele>
   </trkpt>
   <trkpt lat="53.17210000000001" lon="6.586670000000001">
    <ele>1.1</ele>
   </trkpt>
   <trkpt lat="53.17184" lon="6.5869800000000005">
    <ele>0.99</ele>
   </trkpt>
   <trkpt lat="53.17172000000001" lon="6.5871900000000005">
    <ele>1.02</ele>
   </trkpt>
   <trkpt lat="53.17159" lon="6.587460000000001">
    <ele>1.02</ele>
   </trkpt>
   <trkpt lat="53.17145000000001" lon="6.587870000000001">
    <ele>1.08</ele>
   </trkpt>
   <trkpt lat="53.171330000000005" lon="6.5879900000000005">
    <ele>1.08</ele>
   </trkpt>
   <trkpt lat="53.170820000000006" lon="6.58828">
    <ele>0.93</ele>
   </trkpt>
   <trkpt lat="53.170550000000006" lon="6.5884100000000005">
    <ele>0.7200000000000001</ele>
   </trkpt>
   <trkpt lat="53.170280000000005" lon="6.588500000000001">
    <ele>0.7200000000000001</ele>
   </trkpt>
   <trkpt lat="53.16958499998744" lon="6.588615001873855">
    <ele>0.68</ele>
   </trkpt>
   <trkpt lat="53.168890000000005" lon="6.588730000000001">
    <ele>0.8200000000000001</ele>
   </trkpt>
   <trkpt lat="53.16852" lon="6.58882">
    <ele>0.76</ele>
   </trkpt>
   <trkpt lat="53.167930000000005" lon="6.589010000000001">
    <ele>0.9100000000000001</ele>
   </trkpt>
   <trkpt lat="53.167640000000006" lon="6.589160000000001">
    <ele>1.07</ele>
   </trkpt>
   <trkpt lat="53.16780000000001" lon="6.5901700000000005">
    <ele>1.16</ele>
   </trkpt>
   <trkpt lat="53.167840000000005" lon="6.590660000000001">
    <ele>1.2200000000000002</ele>
   </trkpt>
   <trkpt lat="53.16781" lon="6.59081">
    <ele>1.2200000000000002</ele>
   </trkpt>
   <trkpt lat="53.167730000000006" lon="6.591">
    <ele>1.2200000000000002</ele>
   </trkpt>
   <trkpt lat="53.16767" lon="6.5910400000000005">
    <ele>1.2200000000000002</ele>
   </trkpt>
   <trkpt lat="53.167320000000004" lon="6.591130000000001">
    <ele>1.01</ele>
   </trkpt>
   <trkpt lat="53.16723" lon="6.591130000000001">
    <ele>0.9600000000000001</ele>
   </trkpt>
   <trkpt lat="53.16702" lon="6.591050000000001">
    <ele>0.9500000000000001</ele>
   </trkpt>
   <trkpt lat="53.16684000000001" lon="6.590920000000001">
    <ele>0.99</ele>
   </trkpt>
   <trkpt lat="53.166740000000004" lon="6.5909">
    <ele>1.08</ele>
   </trkpt>
   <trkpt lat="53.166650000000004" lon="6.590920000000001">
    <ele>1.18</ele>
   </trkpt>
   <trkpt lat="53.166560000000004" lon="6.590980000000001">
    <ele>1.18</ele>
   </trkpt>
   <trkpt lat="53.16648000000001" lon="6.591060000000001">
    <ele>1.33</ele>
   </trkpt>
   <trkpt lat="53.16644" lon="6.59116">
    <ele>1.33</ele>
   </trkpt>
   <trkpt lat="53.16646000000001" lon="6.59135">
    <ele>1.3800000000000001</ele>
   </trkpt>
   <trkpt lat="53.16633" lon="6.591640000000001">
    <ele>1.28</ele>
   </trkpt>
   <trkpt lat="53.16633" lon="6.591710000000001">
    <ele>1.28</ele>
   </trkpt>
   <trkpt lat="53.16651" lon="6.592350000000001">
    <ele>0.8300000000000001</ele>
   </trkpt>
   <trkpt lat="53.166830000000004" lon="6.59292">
    <ele>1.3</ele>
   </trkpt>
   <trkpt lat="53.1668" lon="6.59318">
    <ele>1.18</ele>
   </trkpt>
   <trkpt lat="53.16682" lon="6.593380000000001">
    <ele>1.16</ele>
   </trkpt>
   <trkpt lat="53.16684000000001" lon="6.59346">
    <ele>1.16</ele>
   </trkpt>
   <trkpt lat="53.166610000000006" lon="6.593710000000001">
    <ele>1.07</ele>
   </trkpt>
   <trkpt lat="53.16657000000001" lon="6.593680000000001">
    <ele>1.07</ele>
   </trkpt>
   <trkpt lat="53.16653" lon="6.593680000000001">
    <ele>0.6900000000000001</ele>
   </trkpt>
   <trkpt lat="53.166290000000004" lon="6.59386">
    <ele>0.060000000000000005</ele>
   </trkpt>
   <trkpt lat="53.16615" lon="6.593920000000001">
    <ele>-0.16</ele>
   </trkpt>
   <trkpt lat="53.165850000000006" lon="6.594">
    <ele>-0.29</ele>
   </trkpt>
   <trkpt lat="53.16554000000001" lon="6.593960000000001">
    <ele>-0.4900000000000001</ele>
   </trkpt>
   <trkpt lat="53.1651" lon="6.59379">
    <ele>-0.5</ele>
   </trkpt>
   <trkpt lat="53.16483" lon="6.593710000000001">
    <ele>-0.44</ele>
   </trkpt>
   <trkpt lat="53.16454" lon="6.593660000000001">
    <ele>-0.44</ele>
   </trkpt>
   <trkpt lat="53.16398" lon="6.5936">
    <ele>-0.5</ele>
   </trkpt>
   <trkpt lat="53.16344" lon="6.59365">
    <ele>-0.23</ele>
   </trkpt>
   <trkpt lat="53.16324" lon="6.593680000000001">
    <ele>-0.23</ele>
   </trkpt>
   <trkpt lat="53.16273" lon="6.593820000000001">
    <ele>-0.08</ele>
   </trkpt>
   <trkpt lat="53.16198000000001" lon="6.59412">
    <ele>0.17</ele>
   </trkpt>
   <trkpt lat="53.16125" lon="6.594500000000001">
    <ele>0.35000000000000003</ele>
   </trkpt>
   <trkpt lat="53.16082500023023" lon="6.594750002493838">
    <ele>0.35000000000000003</ele>
   </trkpt>
   <trkpt lat="53.1604" lon="6.595000000000001">
    <ele>0.29</ele>
   </trkpt>
   <trkpt lat="53.159740000000006" lon="6.595440000000001">
    <ele>0.31</ele>
   </trkpt>
   <trkpt lat="53.1591" lon="6.5959200000000004">
    <ele>0.33000000000000007</ele>
   </trkpt>
   <trkpt lat="53.158480000000004" lon="6.596430000000001">
    <ele>0.31</ele>
   </trkpt>
   <trkpt lat="53.15771184033322" lon="6.597157402863833">
    <ele>0.53</ele>
   </trkpt>
   <trkpt lat="53.15694367623512" lon="6.597884779695989">
    <ele>0.55</ele>
   </trkpt>
   <trkpt lat="53.15617550770603" lon="6.598612130497976">
    <ele>0.58</ele>
   </trkpt>
   <trkpt lat="53.155407334746215" lon="6.599339455271305">
    <ele>0.65</ele>
   </trkpt>
   <trkpt lat="53.15463915735592" lon="6.600066754017483">
    <ele>0.63</ele>
   </trkpt>
   <trkpt lat="53.15387097553548" lon="6.600794026738017">
    <ele>0.68</ele>
   </trkpt>
   <trkpt lat="53.15310278928516" lon="6.601521273434418">
    <ele>0.55</ele>
   </trkpt>
   <trkpt lat="53.15233459860523" lon="6.602248494108193">
    <ele>0.65</ele>
   </trkpt>
   <trkpt lat="53.151566403495984" lon="6.602975688760849">
    <ele>0.59</ele>
   </trkpt>
   <trkpt lat="53.150798203957706" lon="6.6037028573938965">
    <ele>0.7000000000000001</ele>
   </trkpt>
   <trkpt lat="53.15003" lon="6.604430000000001">
    <ele>0.58</ele>
   </trkpt>
   <trkpt lat="53.149355001194344" lon="6.6049500081261625">
    <ele>0.58</ele>
   </trkpt>
   <trkpt lat="53.148680000000006" lon="6.60547">
    <ele>0.65</ele>
   </trkpt>
   <trkpt lat="53.14822000053331" lon="6.605775003171796">
    <ele>0.33000000000000007</ele>
   </trkpt>
   <trkpt lat="53.147760000000005" lon="6.60608">
    <ele>0.29</ele>
   </trkpt>
   <trkpt lat="53.147190000359046" lon="6.6064300047400195">
    <ele>0.51</ele>
   </trkpt>
   <trkpt lat="53.146620000000006" lon="6.6067800000000005">
    <ele>1.31</ele>
   </trkpt>
   <trkpt lat="53.14645" lon="6.606870000000001">
    <ele>1.3</ele>
   </trkpt>
   <trkpt lat="53.145840000546734" lon="6.607123340525939">
    <ele>0.39</ele>
   </trkpt>
   <trkpt lat="53.14523000055587" lon="6.607376673855352">
    <ele>-0.01</ele>
   </trkpt>
   <trkpt lat="53.14462" lon="6.60763">
    <ele>-0.1</ele>
   </trkpt>
   <trkpt lat="53.143860000000004" lon="6.6078600000000005">
    <ele>-0.08</ele>
   </trkpt>
   <trkpt lat="53.14315000006432" lon="6.608035002908565">
    <ele>-0.22</ele>
   </trkpt>
   <trkpt lat="53.14244000000001" lon="6.608210000000001">
    <ele>-0.31</ele>
   </trkpt>
   <trkpt lat="53.141944999959655" lon="6.608285000873995">
    <ele>-0.4</ele>
   </trkpt>
   <trkpt lat="53.141450000000006" lon="6.60836">
    <ele>-0.31</ele>
   </trkpt>
   <trkpt lat="53.140600000000006" lon="6.60845">
    <ele>-0.04</ele>
   </trkpt>
   <trkpt lat="53.14054" lon="6.6084700000000005">
    <ele>0.12000000000000001</ele>
   </trkpt>
   <trkpt lat="53.14041" lon="6.608560000000001">
    <ele>0.12000000000000001</ele>
   </trkpt>
   <trkpt lat="53.14041" lon="6.60857">
    <ele>0.12000000000000001</ele>
   </trkpt>
   <trkpt lat="53.140280000000004" lon="6.60873">
    <ele>0.24000000000000002</ele>
   </trkpt>
   <trkpt lat="53.14020000000001" lon="6.608890000000001">
    <ele>0.31</ele>
   </trkpt>
   <trkpt lat="53.140100000000004" lon="6.609190000000001">
    <ele>0.7300000000000001</ele>
   </trkpt>
   <trkpt lat="53.14007" lon="6.609190000000001">
    <ele>0.7300000000000001</ele>
   </trkpt>
   <trkpt lat="53.14015000562738" lon="6.610349997716621">
    <ele>1.02</ele>
   </trkpt>
   <trkpt lat="53.14023" lon="6.611510000000001">
    <ele>1.77</ele>
   </trkpt>
   <trkpt lat="53.140330000000006" lon="6.612150000000001">
    <ele>2.0900000000000003</ele>
   </trkpt>
   <trkpt lat="53.14062001542086" lon="6.61350664836356">
    <ele>1.56</ele>
   </trkpt>
   <trkpt lat="53.14091001542425" lon="6.614863315045707">
    <ele>1.4400000000000002</ele>
   </trkpt>
   <trkpt lat="53.141200000000005" lon="6.61622">
    <ele>2.14</ele>
   </trkpt>
   <trkpt lat="53.14083" lon="6.616510000000001">
    <ele>2.2700000000000005</ele>
   </trkpt>
   <trkpt lat="53.14049000137559" lon="6.61709500472975">
    <ele>2.45</ele>
   </trkpt>
   <trkpt lat="53.140150000000006" lon="6.617680000000001">
    <ele>2.45</ele>
   </trkpt>
   <trkpt lat="53.139900000000004" lon="6.618220000000001">
    <ele>2.32</ele>
   </trkpt>
   <trkpt lat="53.139680000000006" lon="6.61861">
    <ele>2.43</ele>
   </trkpt>
   <trkpt lat="53.139630000000004" lon="6.618640000000001">
    <ele>2.43</ele>
   </trkpt>
   <trkpt lat="53.13956" lon="6.6186300000000005">
    <ele>2.43</ele>
   </trkpt>
   <trkpt lat="53.13927" lon="6.618340000000001">
    <ele>2.6400000000000006</ele>
   </trkpt>
   <trkpt lat="53.13917000000001" lon="6.61831">
    <ele>2.66</ele>
   </trkpt>
   <trkpt lat="53.13909" lon="6.61833">
    <ele>2.5900000000000003</ele>
   </trkpt>
   <trkpt lat="53.13897000000001" lon="6.618530000000001">
    <ele>2.5900000000000003</ele>
   </trkpt>
   <trkpt lat="53.138760000000005" lon="6.61896">
    <ele>2.3800000000000003</ele>
   </trkpt>
   <trkpt lat="53.138600000000004" lon="6.6196">
    <ele>2.39</ele>
   </trkpt>
   <trkpt lat="53.138400000000004" lon="6.6206000000000005">
    <ele>2.3800000000000003</ele>
   </trkpt>
   <trkpt lat="53.138290000000005" lon="6.620990000000001">
    <ele>2.25</ele>
   </trkpt>
   <trkpt lat="53.13806" lon="6.621630000000001">
    <ele>2.2600000000000002</ele>
   </trkpt>
   <trkpt lat="53.13792" lon="6.6223600000000005">
    <ele>2.4600000000000004</ele>
   </trkpt>
   <trkpt lat="53.137600000000006" lon="6.623170000000001">
    <ele>2.24</ele>
   </trkpt>
   <trkpt lat="53.13702000000001" lon="6.6240000000000006">
    <ele>2.5100000000000002</ele>
   </trkpt>
   <trkpt lat="53.13694" lon="6.624060000000001">
    <ele>2.52</ele>
   </trkpt>
   <trkpt lat="53.13687" lon="6.62417">
    <ele>2.52</ele>
   </trkpt>
   <trkpt lat="53.136720000000004" lon="6.6248700000000005">
    <ele>2.56</ele>
   </trkpt>
   <trkpt lat="53.136590000000005" lon="6.625260000000001">
    <ele>2.74</ele>
   </trkpt>
   <trkpt lat="53.136250000000004" lon="6.62591">
    <ele>2.84</ele>
   </trkpt>
   <trkpt lat="53.136160000000004" lon="6.626200000000001">
    <ele>2.84</ele>
   </trkpt>
   <trkpt lat="53.136140000000005" lon="6.626600000000001">
    <ele>3.04</ele>
   </trkpt>
   <trkpt lat="53.13611" lon="6.6267000000000005">
    <ele>3.04</ele>
   </trkpt>
   <trkpt lat="53.13615000000001" lon="6.6267700000000005">
    <ele>3.04</ele>
   </trkpt>
   <trkpt lat="53.1362" lon="6.62708">
    <ele>2.9600000000000004</ele>
   </trkpt>
   <trkpt lat="53.136250000000004" lon="6.6275">
    <ele>2.75</ele>
   </trkpt>
   <trkpt lat="53.13628500237002" lon="6.62824999968842">
    <ele>2.85</ele>
   </trkpt>
   <trkpt lat="53.136320000000005" lon="6.6290000000000004">
    <ele>3.3200000000000003</ele>
   </trkpt>
   <trkpt lat="53.13553" lon="6.629110000000001">
    <ele>3.25</ele>
   </trkpt>
   <trkpt lat="53.13519" lon="6.6291">
    <ele>3.5100000000000002</ele>
   </trkpt>
   <trkpt lat="53.134530000000005" lon="6.628900000000001">
    <ele>3.4400000000000004</ele>
   </trkpt>
   <trkpt lat="53.13387" lon="6.628590000000001">
    <ele>3.49</ele>
   </trkpt>
   <trkpt lat="53.133520000000004" lon="6.628360000000001">
    <ele>3.39</ele>
   </trkpt>
   <trkpt lat="53.133190000000006" lon="6.628050000000001">
    <ele>3.23</ele>
   </trkpt>
   <trkpt lat="53.132760000000005" lon="6.6274500000000005">
    <ele>3.02</ele>
   </trkpt>
   <trkpt lat="53.13252000000001" lon="6.627070000000001">
    <ele>2.7</ele>
   </trkpt>
   <trkpt lat="53.132290000000005" lon="6.626640000000001">
    <ele>2.75</ele>
   </trkpt>
   <trkpt lat="53.13179" lon="6.6256">
    <ele>2.95</ele>
   </trkpt>
   <trkpt lat="53.131400000000006" lon="6.624560000000001">
    <ele>2.74</ele>
   </trkpt>
   <trkpt lat="53.13109000623909" lon="6.6236966541959585">
    <ele>2.6100000000000003</ele>
   </trkpt>
   <trkpt lat="53.13078000623398" lon="6.6228333208485495">
    <ele>2.4600000000000004</ele>
   </trkpt>
   <trkpt lat="53.13047" lon="6.62197">
    <ele>2.47</ele>
   </trkpt>
   <trkpt lat="53.13024000000001" lon="6.621180000000001">
    <ele>2.2600000000000002</ele>
   </trkpt>
   <trkpt lat="53.13000500391998" lon="6.620214994801835">
    <ele>2.06</ele>
   </trkpt>
   <trkpt lat="53.12977000000001" lon="6.619250000000001">
    <ele>2.45</ele>
   </trkpt>
   <trkpt lat="53.1296" lon="6.6184400000000005">
    <ele>2.0500000000000003</ele>
   </trkpt>
   <trkpt lat="53.12930000635662" lon="6.617204991245463">
    <ele>2.21</ele>
   </trkpt>
   <trkpt lat="53.129000000000005" lon="6.615970000000001">
    <ele>2.1100000000000003</ele>
   </trkpt>
   <trkpt lat="53.12879" lon="6.615200000000001">
    <ele>2.08</ele>
   </trkpt>
   <trkpt lat="53.12836000000001" lon="6.6139">
    <ele>2.2600000000000002</ele>
   </trkpt>
   <trkpt lat="53.12812" lon="6.61331">
    <ele>2.0100000000000002</ele>
   </trkpt>
   <trkpt lat="53.12772000336889" lon="6.612414991699823">
    <ele>2.08</ele>
   </trkpt>
   <trkpt lat="53.127320000000005" lon="6.6115200000000005">
    <ele>2.0100000000000002</ele>
   </trkpt>
   <trkpt lat="53.12722" lon="6.6111">
    <ele>1.9200000000000002</ele>
   </trkpt>
   <trkpt lat="53.127140000000004" lon="6.61096">
    <ele>1.9200000000000002</ele>
   </trkpt>
   <trkpt lat="53.12702" lon="6.61082">
    <ele>1.9200000000000002</ele>
   </trkpt>
   <trkpt lat="53.126850000000005" lon="6.61042">
    <ele>1.86</ele>
   </trkpt>
   <trkpt lat="53.12642334049508" lon="6.6094966483751545">
    <ele>1.56</ele>
   </trkpt>
   <trkpt lat="53.125996673847496" lon="6.608573315083407">
    <ele>1.67</ele>
   </trkpt>
   <trkpt lat="53.12557" lon="6.6076500000000005">
    <ele>1.7000000000000002</ele>
   </trkpt>
   <trkpt lat="53.125150000000005" lon="6.606700000000001">
    <ele>1.68</ele>
   </trkpt>
   <trkpt lat="53.12498000000001" lon="6.60641">
    <ele>1.79</ele>
   </trkpt>
   <trkpt lat="53.124590003401984" lon="6.605509991853986">
    <ele>2.08</ele>
   </trkpt>
   <trkpt lat="53.1242" lon="6.604610000000001">
    <ele>2.18</ele>
   </trkpt>
   <trkpt lat="53.12416" lon="6.604400000000001">
    <ele>2.08</ele>
   </trkpt>
   <trkpt lat="53.12409" lon="6.60425">
    <ele>2.08</ele>
   </trkpt>
   <trkpt lat="53.12402" lon="6.60411">
    <ele>2.0500000000000003</ele>
   </trkpt>
   <trkpt lat="53.12389" lon="6.60395">
    <ele>2.0500000000000003</ele>
   </trkpt>
   <trkpt lat="53.12368000000001" lon="6.603420000000001">
    <ele>2.23</ele>
   </trkpt>
   <trkpt lat="53.12357" lon="6.60301">
    <ele>2.5</ele>
   </trkpt>
   <trkpt lat="53.12337" lon="6.601960000000001">
    <ele>2.39</ele>
   </trkpt>
   <trkpt lat="53.12339000000001" lon="6.6014800000000005">
    <ele>2.6</ele>
   </trkpt>
   <trkpt lat="53.12350000453116" lon="6.60044000265917">
    <ele>2.4400000000000004</ele>
   </trkpt>
   <trkpt lat="53.123610000000006" lon="6.5994">
    <ele>2.7600000000000002</ele>
   </trkpt>
   <trkpt lat="53.12371" lon="6.59888">
    <ele>2.7600000000000002</ele>
   </trkpt>
   <trkpt lat="53.12391" lon="6.5981700000000005">
    <ele>2.85</ele>
   </trkpt>
   <trkpt lat="53.12416" lon="6.597480000000001">
    <ele>3.0100000000000002</ele>
   </trkpt>
   <trkpt lat="53.124320000000004" lon="6.59724">
    <ele>3.0900000000000003</ele>
   </trkpt>
   <trkpt lat="53.124370000000006" lon="6.597150000000001">
    <ele>3.0900000000000003</ele>
   </trkpt>
   <trkpt lat="53.124390000000005" lon="6.59698">
    <ele>3.0900000000000003</ele>
   </trkpt>
   <trkpt lat="53.12447" lon="6.59682">
    <ele>3.16</ele>
   </trkpt>
   <trkpt lat="53.12472" lon="6.5964100000000006">
    <ele>3.16</ele>
   </trkpt>
   <trkpt lat="53.125040000000006" lon="6.5959900000000005">
    <ele>3.16</ele>
   </trkpt>
   <trkpt lat="53.125758767605284" lon="6.5952150907326885">
    <ele>3.3100000000000005</ele>
   </trkpt>
   <trkpt lat="53.12647753017955" lon="6.594440155546116">
    <ele>3.5100000000000002</ele>
   </trkpt>
   <trkpt lat="53.127196287722526" lon="6.59366519443892">
    <ele>3.6600000000000006</ele>
   </trkpt>
   <trkpt lat="53.12791504023391" lon="6.592890207409737">
    <ele>3.54</ele>
   </trkpt>
   <trkpt lat="53.128633787713376" lon="6.592115194457206">
    <ele>3.8000000000000003</ele>
   </trkpt>
   <trkpt lat="53.12935253016067" lon="6.59134015557996">
    <ele>3.6500000000000004</ele>
   </trkpt>
   <trkpt lat="53.13007126757546" lon="6.590565090776641">
    <ele>3.7900000000000005</ele>
   </trkpt>
   <trkpt lat="53.130790000000005" lon="6.589790000000001">
    <ele>3.91</ele>
   </trkpt>
   <trkpt lat="53.1313733367021" lon="6.589156683853016">
    <ele>4.08</ele>
   </trkpt>
   <trkpt lat="53.131956670043984" lon="6.588523350510696">
    <ele>4.2700000000000005</ele>
   </trkpt>
   <trkpt lat="53.132540000000006" lon="6.587890000000001">
    <ele>4.61</ele>
   </trkpt>
   <trkpt lat="53.1328" lon="6.587510000000001">
    <ele>4.57</ele>
   </trkpt>
   <trkpt lat="53.13297000000001" lon="6.587230000000001">
    <ele>4.540000000000001</ele>
   </trkpt>
   <trkpt lat="53.133160000000004" lon="6.5868">
    <ele>4.580000000000001</ele>
   </trkpt>
   <trkpt lat="53.13338" lon="6.58609">
    <ele>4.3100000000000005</ele>
   </trkpt>
   <trkpt lat="53.13366501727092" lon="6.584917523348611">
    <ele>3.89</ele>
   </trkpt>
   <trkpt lat="53.13395002302545" lon="6.583745031142157">
    <ele>3.8200000000000003</ele>
   </trkpt>
   <trkpt lat="53.13423501726329" lon="6.582572523380898">
    <ele>3.69</ele>
   </trkpt>
   <trkpt lat="53.13452" lon="6.5814">
    <ele>3.49</ele>
   </trkpt>
   <trkpt lat="53.13487000000001" lon="6.580470000000001">
    <ele>3.5300000000000002</ele>
   </trkpt>
   <trkpt lat="53.134750000000004" lon="6.5803400000000005">
    <ele>3.52</ele>
   </trkpt>
   <trkpt lat="53.134640000000005" lon="6.5802700000000005">
    <ele>3.52</ele>
   </trkpt>
   <trkpt lat="53.134570000000004" lon="6.580170000000001">
    <ele>3.6</ele>
   </trkpt>
   <trkpt lat="53.13454" lon="6.580150000000001">
    <ele>3.6</ele>
   </trkpt>
   <trkpt lat="53.13455500366112" lon="6.579215000367684">
    <ele>3.36</ele>
   </trkpt>
   <trkpt lat="53.134570000000004" lon="6.57828">
    <ele>3.7</ele>
   </trkpt>
   <trkpt lat="53.13448000470921" lon="6.577219997813566">
    <ele>3.69</ele>
   </trkpt>
   <trkpt lat="53.13439" lon="6.576160000000001">
    <ele>4.0600000000000005</ele>
   </trkpt>
   <trkpt lat="53.134310000000006" lon="6.57565">
    <ele>4.0600000000000005</ele>
   </trkpt>
   <trkpt lat="53.13406667568884" lon="6.574613321673475">
    <ele>4.12</ele>
   </trkpt>
   <trkpt lat="53.133823342374775" lon="6.573576655088996">
    <ele>4.16</ele>
   </trkpt>
   <trkpt lat="53.13358" lon="6.572540000000001">
    <ele>4.3</ele>
   </trkpt>
   <trkpt lat="53.1334" lon="6.571980000000001">
    <ele>4.57</ele>
   </trkpt>
   <trkpt lat="53.13299000562768" lon="6.570824989091231">
    <ele>4.760000000000001</ele>
   </trkpt>
   <trkpt lat="53.132580000000004" lon="6.56967">
    <ele>4.81</ele>
   </trkpt>
   <trkpt lat="53.13251" lon="6.569420000000001">
    <ele>4.78</ele>
   </trkpt>
   <trkpt lat="53.13223001282031" lon="6.5681833172529">
    <ele>4.28</ele>
   </trkpt>
   <trkpt lat="53.131950012828504" lon="6.566946650622764">
    <ele>3.91</ele>
   </trkpt>
   <trkpt lat="53.13167000000001" lon="6.56571">
    <ele>3.58</ele>
   </trkpt>
   <trkpt lat="53.131660000000004" lon="6.56554">
    <ele>3.58</ele>
   </trkpt>
   <trkpt lat="53.13224" lon="6.564990000000001">
    <ele>3.6300000000000003</ele>
   </trkpt>
   <trkpt lat="53.132580000000004" lon="6.564620000000001">
    <ele>3.8100000000000005</ele>
   </trkpt>
   <trkpt lat="53.13271" lon="6.56446">
    <ele>5.03</ele>
   </trkpt>
   <trkpt lat="53.132580000000004" lon="6.564620000000001">
    <ele>3.8100000000000005</ele>
   </trkpt>
   <trkpt lat="53.13224" lon="6.564990000000001">
    <ele>3.6300000000000003</ele>
   </trkpt>
   <trkpt lat="53.13195" lon="6.563770000000001">
    <ele>2.7600000000000002</ele>
   </trkpt>
   <trkpt lat="53.131600000000006" lon="6.56247">
    <ele>1.85</ele>
   </trkpt>
   <trkpt lat="53.131510000000006" lon="6.562500000000001">
    <ele>1.85</ele>
   </trkpt>
   <trkpt lat="53.13116" lon="6.5627200000000006">
    <ele>1.2100000000000002</ele>
   </trkpt>
   <trkpt lat="53.13109000000001" lon="6.562740000000001">
    <ele>1.2100000000000002</ele>
   </trkpt>
   <trkpt lat="53.13094" lon="6.56273">
    <ele>1.09</ele>
   </trkpt>
   <trkpt lat="53.13082000000001" lon="6.56268">
    <ele>1.06</ele>
   </trkpt>
   <trkpt lat="53.13076" lon="6.562620000000001">
    <ele>1.06</ele>
   </trkpt>
   <trkpt lat="53.13058" lon="6.56228">
    <ele>1.07</ele>
   </trkpt>
   <trkpt lat="53.130480000000006" lon="6.56226">
    <ele>1.07</ele>
   </trkpt>
   <trkpt lat="53.130140000000004" lon="6.562530000000001">
    <ele>1.29</ele>
   </trkpt>
   <trkpt lat="53.130050000000004" lon="6.56221">
    <ele>1.24</ele>
   </trkpt>
   <trkpt lat="53.12965116090051" lon="6.560991020603402">
    <ele>1.1</ele>
   </trkpt>
   <trkpt lat="53.12925230935282" lon="6.559772063834263">
    <ele>1.09</ele>
   </trkpt>
   <trkpt lat="53.1288534453574" lon="6.558553129692543">
    <ele>0.9500000000000001</ele>
   </trkpt>
   <trkpt lat="53.128454568914634" lon="6.557334218178198">
    <ele>0.93</ele>
   </trkpt>
   <trkpt lat="53.128055680024936" lon="6.556115329291189">
    <ele>1.1500000000000001</ele>
   </trkpt>
   <trkpt lat="53.12765677868874" lon="6.554896463031471">
    <ele>1.12</ele>
   </trkpt>
   <trkpt lat="53.127257864906426" lon="6.553677619399004">
    <ele>1.3800000000000001</ele>
   </trkpt>
   <trkpt lat="53.12685893867842" lon="6.552458798393742">
    <ele>1.8900000000000001</ele>
   </trkpt>
   <trkpt lat="53.12646" lon="6.551240000000001">
    <ele>2.8000000000000003</ele>
   </trkpt>
   <trkpt lat="53.126270000000005" lon="6.55135">
    <ele>2.82</ele>
   </trkpt>
   <trkpt lat="53.12593603191518" lon="6.549969957122679">
    <ele>1.78</ele>
   </trkpt>
   <trkpt lat="53.12560204787466" lon="6.548589935693263">
    <ele>1.6400000000000001</ele>
   </trkpt>
   <trkpt lat="53.125268047878905" lon="6.547209935712181">
    <ele>1.76</ele>
   </trkpt>
   <trkpt lat="53.12493403192833" lon="6.5458299571798655">
    <ele>1.9200000000000002</ele>
   </trkpt>
   <trkpt lat="53.1246" lon="6.54445">
    <ele>2.16</ele>
   </trkpt>
   <trkpt lat="53.12485" lon="6.5442100000000005">
    <ele>1.8</ele>
   </trkpt>
   <trkpt lat="53.12453000791029" lon="6.542839990005077">
    <ele>0.9400000000000001</ele>
   </trkpt>
   <trkpt lat="53.124210000000005" lon="6.54147">
    <ele>1.26</ele>
   </trkpt>
   <trkpt lat="53.124140000000004" lon="6.541300000000001">
    <ele>1.25</ele>
   </trkpt>
   <trkpt lat="53.12456" lon="6.540870000000001">
    <ele>0.21</ele>
   </trkpt>
   <trkpt lat="53.12474" lon="6.540730000000001">
    <ele>0.24000000000000002</ele>
   </trkpt>
   <trkpt lat="53.124950000000005" lon="6.5406">
    <ele>0.51</ele>
   </trkpt>
   <trkpt lat="53.125260000000004" lon="6.54046">
    <ele>1.3200000000000003</ele>
   </trkpt>
   <trkpt lat="53.125065761460974" lon="6.539089962847294">
    <ele>0.33000000000000007</ele>
   </trkpt>
   <trkpt lat="53.124871507196566" lon="6.537719938078275">
    <ele>0.21</ele>
   </trkpt>
   <trkpt lat="53.12467723720699" lon="6.536349925693744">
    <ele>0.15000000000000002</ele>
   </trkpt>
   <trkpt lat="53.124482951492524" lon="6.534979925694507">
    <ele>0.18000000000000002</ele>
   </trkpt>
   <trkpt lat="53.12428865005344" lon="6.533609938081364">
    <ele>0.27</ele>
   </trkpt>
   <trkpt lat="53.12409433288996" lon="6.532239962855119">
    <ele>0.38</ele>
   </trkpt>
   <trkpt lat="53.123900000000006" lon="6.53087">
    <ele>0.75</ele>
   </trkpt>
   <trkpt lat="53.12382" lon="6.5306500000000005">
    <ele>0.8200000000000001</ele>
   </trkpt>
   <trkpt lat="53.123740000000005" lon="6.53054">
    <ele>0.89</ele>
   </trkpt>
   <trkpt lat="53.12330000000001" lon="6.53026">
    <ele>2.0</ele>
   </trkpt>
   <trkpt lat="53.123470000000005" lon="6.52974">
    <ele>2.0</ele>
   </trkpt>
   <trkpt lat="53.12362" lon="6.529520000000001">
    <ele>2.0</ele>
   </trkpt>
   <trkpt lat="53.12371" lon="6.52946">
    <ele>2.0</ele>
   </trkpt>
   <trkpt lat="53.124586667199345" lon="6.529210010195896">
    <ele>2.19</ele>
   </trkpt>
   <trkpt lat="53.12546333387506" lon="6.52896001019356">
    <ele>2.1100000000000003</ele>
   </trkpt>
   <trkpt lat="53.126340000000006" lon="6.52871">
    <ele>2.3800000000000003</ele>
   </trkpt>
   <trkpt lat="53.12648" lon="6.52864">
    <ele>2.3800000000000003</ele>
   </trkpt>
   <trkpt lat="53.12657" lon="6.52852">
    <ele>2.3800000000000003</ele>
   </trkpt>
   <trkpt lat="53.12703835928982" lon="6.527406727338952">
    <ele>2.5900000000000003</ele>
   </trkpt>
   <trkpt lat="53.12750670819611" lon="6.526293430413013">
    <ele>2.5900000000000003</ele>
   </trkpt>
   <trkpt lat="53.127975046718475" lon="6.525180109221782">
    <ele>2.83</ele>
   </trkpt>
   <trkpt lat="53.12844337485651" lon="6.5240667637648535">
    <ele>3.0300000000000002</ele>
   </trkpt>
   <trkpt lat="53.128911692609826" lon="6.522953394041821">
    <ele>2.9400000000000004</ele>
   </trkpt>
   <trkpt lat="53.129380000000005" lon="6.521840000000001">
    <ele>3.0700000000000003</ele>
   </trkpt>
   <trkpt lat="53.1297500070811" lon="6.52092001586683">
    <ele>3.0900000000000003</ele>
   </trkpt>
   <trkpt lat="53.13012000707151" lon="6.520000015890912">
    <ele>3.1500000000000004</ele>
   </trkpt>
   <trkpt lat="53.13049" lon="6.519080000000001">
    <ele>3.0900000000000003</ele>
   </trkpt>
   <trkpt lat="53.13078" lon="6.518090000000001">
    <ele>3.06</ele>
   </trkpt>
   <trkpt lat="53.130840000000006" lon="6.51794">
    <ele>3.1100000000000003</ele>
   </trkpt>
   <trkpt lat="53.13103" lon="6.517670000000001">
    <ele>3.1100000000000003</ele>
   </trkpt>
   <trkpt lat="53.13147000000001" lon="6.51726">
    <ele>3.1100000000000003</ele>
   </trkpt>
   <trkpt lat="53.13218800615113" lon="6.516654040506585">
    <ele>3.04</ele>
   </trkpt>
   <trkpt lat="53.13290600922606" lon="6.516048060761671">
    <ele>3.06</ele>
   </trkpt>
   <trkpt lat="53.13362400922463" lon="6.515442060764143">
    <ele>3.23</ele>
   </trkpt>
   <trkpt lat="53.13434200614669" lon="6.514836040512882">
    <ele>3.22</ele>
   </trkpt>
   <trkpt lat="53.13506" lon="6.51423">
    <ele>3.08</ele>
   </trkpt>
   <trkpt lat="53.13541000000001" lon="6.514030000000001">
    <ele>3.1</ele>
   </trkpt>
   <trkpt lat="53.13617000000001" lon="6.513680000000001">
    <ele>3.0300000000000002</ele>
   </trkpt>
   <trkpt lat="53.13687" lon="6.513090000000001">
    <ele>2.83</ele>
   </trkpt>
   <trkpt lat="53.137660000000004" lon="6.512560000000001">
    <ele>2.5700000000000003</ele>
   </trkpt>
   <trkpt lat="53.13815000078511" lon="6.5121200050418455">
    <ele>2.4000000000000004</ele>
   </trkpt>
   <trkpt lat="53.13864" lon="6.51168">
    <ele>2.1</ele>
   </trkpt>
   <trkpt lat="53.13890000000001" lon="6.511400000000001">
    <ele>2.16</ele>
   </trkpt>
   <trkpt lat="53.139430002913" lon="6.510570010197155">
    <ele>2.14</ele>
   </trkpt>
   <trkpt lat="53.13996" lon="6.509740000000001">
    <ele>2.22</ele>
   </trkpt>
   <trkpt lat="53.140040000000006" lon="6.50961">
    <ele>2.19</ele>
   </trkpt>
   <trkpt lat="53.14007" lon="6.509410000000001">
    <ele>2.19</ele>
   </trkpt>
   <trkpt lat="53.14018" lon="6.50933">
    <ele>2.02</ele>
   </trkpt>
   <trkpt lat="53.14052" lon="6.5086900000000005">
    <ele>1.98</ele>
   </trkpt>
   <trkpt lat="53.14105000000001" lon="6.508050000000001">
    <ele>2.04</ele>
   </trkpt>
   <trkpt lat="53.14123000000001" lon="6.5079">
    <ele>2.04</ele>
   </trkpt>
   <trkpt lat="53.14143000000001" lon="6.507770000000001">
    <ele>2.0300000000000002</ele>
   </trkpt>
   <trkpt lat="53.14193" lon="6.5075">
    <ele>2.1</ele>
   </trkpt>
   <trkpt lat="53.142210000000006" lon="6.50727">
    <ele>2.21</ele>
   </trkpt>
   <trkpt lat="53.14253500140401" lon="6.506700004237076">
    <ele>2.3000000000000003</ele>
   </trkpt>
   <trkpt lat="53.142860000000006" lon="6.506130000000001">
    <ele>2.18</ele>
   </trkpt>
   <trkpt lat="53.143040000000006" lon="6.50593">
    <ele>2.22</ele>
   </trkpt>
   <trkpt lat="53.14374" lon="6.505300000000001">
    <ele>2.5</ele>
   </trkpt>
   <trkpt lat="53.144090000000006" lon="6.50494">
    <ele>2.39</ele>
   </trkpt>
   <trkpt lat="53.14466" lon="6.504110000000001">
    <ele>2.75</ele>
   </trkpt>
   <trkpt lat="53.145030000000006" lon="6.5032000000000005">
    <ele>2.9200000000000004</ele>
   </trkpt>
   <trkpt lat="53.14546000000001" lon="6.502490000000001">
    <ele>2.9400000000000004</ele>
   </trkpt>
   <trkpt lat="53.14576" lon="6.501900000000001">
    <ele>3.0</ele>
   </trkpt>
   <trkpt lat="53.145880000000005" lon="6.501510000000001">
    <ele>2.95</ele>
   </trkpt>
   <trkpt lat="53.146100000000004" lon="6.500660000000001">
    <ele>2.73</ele>
   </trkpt>
   <trkpt lat="53.146510000000006" lon="6.499460000000001">
    <ele>2.41</ele>
   </trkpt>
   <trkpt lat="53.14663" lon="6.498950000000001">
    <ele>2.08</ele>
   </trkpt>
   <trkpt lat="53.14673000230947" lon="6.49820500184659">
    <ele>2.0100000000000002</ele>
   </trkpt>
   <trkpt lat="53.14683" lon="6.49746">
    <ele>2.0100000000000002</ele>
   </trkpt>
   <trkpt lat="53.14696000000001" lon="6.496720000000001">
    <ele>1.7400000000000002</ele>
   </trkpt>
   <trkpt lat="53.14705000000001" lon="6.4964200000000005">
    <ele>1.7400000000000002</ele>
   </trkpt>
   <trkpt lat="53.147400000000005" lon="6.49568">
    <ele>1.7100000000000002</ele>
   </trkpt>
   <trkpt lat="53.14755" lon="6.49556">
    <ele>1.62</ele>
   </trkpt>
   <trkpt lat="53.147780000000004" lon="6.49544">
    <ele>1.53</ele>
   </trkpt>
   <trkpt lat="53.148120000000006" lon="6.495330000000001">
    <ele>1.42</ele>
   </trkpt>
   <trkpt lat="53.148610000000005" lon="6.49509">
    <ele>1.34</ele>
   </trkpt>
   <trkpt lat="53.14864000000001" lon="6.49504">
    <ele>1.34</ele>
   </trkpt>
   <trkpt lat="53.14864000000001" lon="6.495030000000001">
    <ele>1.35</ele>
   </trkpt>
   <trkpt lat="53.148720000000004" lon="6.49471">
    <ele>1.25</ele>
   </trkpt>
   <trkpt lat="53.14875000000001" lon="6.4945">
    <ele>1.2200000000000002</ele>
   </trkpt>
   <trkpt lat="53.14882000000001" lon="6.493410000000001">
    <ele>1.4000000000000001</ele>
   </trkpt>
   <trkpt lat="53.148900000000005" lon="6.493200000000001">
    <ele>1.4400000000000002</ele>
   </trkpt>
   <trkpt lat="53.14893000000001" lon="6.49272">
    <ele>1.4400000000000002</ele>
   </trkpt>
   <trkpt lat="53.148860000000006" lon="6.492500000000001">
    <ele>1.42</ele>
   </trkpt>
   <trkpt lat="53.148880000000005" lon="6.492170000000001">
    <ele>1.42</ele>
   </trkpt>
   <trkpt lat="53.14893000000001" lon="6.49188">
    <ele>1.4400000000000002</ele>
   </trkpt>
   <trkpt lat="53.149100000000004" lon="6.491560000000001">
    <ele>1.41</ele>
   </trkpt>
   <trkpt lat="53.148990000000005" lon="6.4914000000000005">
    <ele>1.18</ele>
   </trkpt>
   <trkpt lat="53.148880000000005" lon="6.491130000000001">
    <ele>1.11</ele>
   </trkpt>
   <trkpt lat="53.14884000000001" lon="6.4908600000000005">
    <ele>1.0</ele>
   </trkpt>
   <trkpt lat="53.14875667729951" lon="6.489733328967903">
    <ele>0.7000000000000001</ele>
   </trkpt>
   <trkpt lat="53.14867334396669" lon="6.488606662308289">
    <ele>0.28</ele>
   </trkpt>
   <trkpt lat="53.148590000000006" lon="6.487480000000001">
    <ele>0.79</ele>
   </trkpt>
   <trkpt lat="53.14862" lon="6.487480000000001">
    <ele>0.7200000000000001</ele>
   </trkpt>
   <trkpt lat="53.1486" lon="6.48723">
    <ele>0.65</ele>
   </trkpt>
   <trkpt lat="53.14857000000001" lon="6.486960000000001">
    <ele>0.64</ele>
   </trkpt>
   <trkpt lat="53.14853" lon="6.486800000000001">
    <ele>0.56</ele>
   </trkpt>
   <trkpt lat="53.148480000000006" lon="6.486230000000001">
    <ele>0.54</ele>
   </trkpt>
   <trkpt lat="53.148500000000006" lon="6.485950000000001">
    <ele>0.63</ele>
   </trkpt>
   <trkpt lat="53.148450000000004" lon="6.4851">
    <ele>0.9600000000000001</ele>
   </trkpt>
   <trkpt lat="53.148520000000005" lon="6.48491">
    <ele>1.02</ele>
   </trkpt>
   <trkpt lat="53.148680000000006" lon="6.4846900000000005">
    <ele>1.3800000000000001</ele>
   </trkpt>
   <trkpt lat="53.14878" lon="6.484420000000001">
    <ele>1.24</ele>
   </trkpt>
   <trkpt lat="53.148770000000006" lon="6.484360000000001">
    <ele>1.24</ele>
   </trkpt>
   <trkpt lat="53.14856" lon="6.484030000000001">
    <ele>0.58</ele>
   </trkpt>
   <trkpt lat="53.148300000000006" lon="6.48336">
    <ele>0.47000000000000003</ele>
   </trkpt>
   <trkpt lat="53.148230000000005" lon="6.4830000000000005">
    <ele>0.7200000000000001</ele>
   </trkpt>
   <trkpt lat="53.14814500423075" lon="6.481994998019499">
    <ele>0.65</ele>
   </trkpt>
   <trkpt lat="53.14806" lon="6.48099">
    <ele>0.8500000000000001</ele>
   </trkpt>
   <trkpt lat="53.148050000000005" lon="6.480530000000001">
    <ele>0.8500000000000001</ele>
   </trkpt>
   <trkpt lat="53.14798000318264" lon="6.479659998739923">
    <ele>0.89</ele>
   </trkpt>
   <trkpt lat="53.14791" lon="6.478790000000001">
    <ele>1.03</ele>
   </trkpt>
   <trkpt lat="53.14790000000001" lon="6.47848">
    <ele>1.03</ele>
   </trkpt>
   <trkpt lat="53.14779667781039" lon="6.477326661139112">
    <ele>1.0</ele>
   </trkpt>
   <trkpt lat="53.147693344479045" lon="6.476173327828294">
    <ele>1.17</ele>
   </trkpt>
   <trkpt lat="53.14759" lon="6.475020000000001">
    <ele>1.1900000000000002</ele>
   </trkpt>
   <trkpt lat="53.147600000000004" lon="6.4743900000000005">
    <ele>1.09</ele>
   </trkpt>
   <trkpt lat="53.147530003318685" lon="6.4734999985660995">
    <ele>1.06</ele>
   </trkpt>
   <trkpt lat="53.14746" lon="6.47261">
    <ele>0.9800000000000002</ele>
   </trkpt>
   <trkpt lat="53.14752000000001" lon="6.47254">
    <ele>0.9800000000000002</ele>
   </trkpt>
   <trkpt lat="53.14795" lon="6.471540000000001">
    <ele>0.2</ele>
   </trkpt>
   <trkpt lat="53.14825000154043" lon="6.470925004385671">
    <ele>-0.2</ele>
   </trkpt>
   <trkpt lat="53.14855000000001" lon="6.4703100000000004">
    <ele>-0.22</ele>
   </trkpt>
   <trkpt lat="53.149060000000006" lon="6.469150000000001">
    <ele>-0.31</ele>
   </trkpt>
   <trkpt lat="53.14940000000001" lon="6.46832">
    <ele>-0.36000000000000004</ele>
   </trkpt>
   <trkpt lat="53.14947" lon="6.4680800000000005">
    <ele>-0.36000000000000004</ele>
   </trkpt>
   <trkpt lat="53.14968000512315" lon="6.466975005353574">
    <ele>-0.31</ele>
   </trkpt>
   <trkpt lat="53.149890000000006" lon="6.465870000000001">
    <ele>0.18000000000000002</ele>
   </trkpt>
   <trkpt lat="53.14997" lon="6.46541">
    <ele>0.16</ele>
   </trkpt>
   <trkpt lat="53.15005500301074" lon="6.464560001833089">
    <ele>-0.1</ele>
   </trkpt>
   <trkpt lat="53.15014000000001" lon="6.463710000000001">
    <ele>-0.09000000000000001</ele>
   </trkpt>
   <trkpt lat="53.150220000000004" lon="6.46224">
    <ele>-0.27</ele>
   </trkpt>
   <trkpt lat="53.15025000000001" lon="6.46203">
    <ele>-0.27</ele>
   </trkpt>
   <trkpt lat="53.1505600068208" lon="6.461126679750438">
    <ele>-0.22</ele>
   </trkpt>
   <trkpt lat="53.15087000680688" lon="6.460223346457785">
    <ele>-0.17</ele>
   </trkpt>
   <trkpt lat="53.151180000000004" lon="6.459320000000001">
    <ele>0.26</ele>
   </trkpt>
   <trkpt lat="53.15129" lon="6.45891">
    <ele>-0.16</ele>
   </trkpt>
   <trkpt lat="53.15129" lon="6.4583900000000005">
    <ele>-0.36000000000000004</ele>
   </trkpt>
   <trkpt lat="53.15142251816818" lon="6.457187511121797">
    <ele>-0.62</ele>
   </trkpt>
   <trkpt lat="53.151555024225104" lon="6.455985014821593">
    <ele>-0.4900000000000001</ele>
   </trkpt>
   <trkpt lat="53.15168751817065" lon="6.45478251109999">
    <ele>-0.34</ele>
   </trkpt>
   <trkpt lat="53.15182000000001" lon="6.4535800000000005">
    <ele>-0.17</ele>
   </trkpt>
   <trkpt lat="53.15194001139956" lon="6.452413339861246">
    <ele>-0.29</ele>
   </trkpt>
   <trkpt lat="53.1520600113989" lon="6.451246673201126">
    <ele>-0.4900000000000001</ele>
   </trkpt>
   <trkpt lat="53.15218" lon="6.450080000000001">
    <ele>-0.27</ele>
   </trkpt>
   <trkpt lat="53.152280000000005" lon="6.450120000000001">
    <ele>-0.27</ele>
   </trkpt>
   <trkpt lat="53.15238" lon="6.45019">
    <ele>-0.27</ele>
   </trkpt>
   <trkpt lat="53.15293000180741" lon="6.450814992188874">
    <ele>-0.27</ele>
   </trkpt>
   <trkpt lat="53.15348" lon="6.451440000000001">
    <ele>-0.27</ele>
   </trkpt>
   <trkpt lat="53.15407500209108" lon="6.452134990448208">
    <ele>-0.34</ele>
   </trkpt>
   <trkpt lat="53.15467" lon="6.4528300000000005">
    <ele>-0.29</ele>
   </trkpt>
   <trkpt lat="53.15482" lon="6.453150000000001">
    <ele>-0.29</ele>
   </trkpt>
   <trkpt lat="53.155" lon="6.45373">
    <ele>-0.01</ele>
   </trkpt>
   <trkpt lat="53.15527" lon="6.454680000000001">
    <ele>0.0</ele>
   </trkpt>
   <trkpt lat="53.155330000000006" lon="6.454820000000001">
    <ele>-0.08</ele>
   </trkpt>
   <trkpt lat="53.15541" lon="6.45495">
    <ele>-0.09000000000000001</ele>
   </trkpt>
   <trkpt lat="53.15588000358237" lon="6.455603319038649">
    <ele>0.07</ele>
   </trkpt>
   <trkpt lat="53.15635000358983" lon="6.456256652382129">
    <ele>-0.4</ele>
   </trkpt>
   <trkpt lat="53.15682" lon="6.456910000000001">
    <ele>-0.79</ele>
   </trkpt>
   <trkpt lat="53.15644" lon="6.457840000000001">
    <ele>-1.04</ele>
   </trkpt>
   <trkpt lat="53.15643000000001" lon="6.457940000000001">
    <ele>-1.04</ele>
   </trkpt>
   <trkpt lat="53.15645000000001" lon="6.458030000000001">
    <ele>-1.04</ele>
   </trkpt>
   <trkpt lat="53.157000001091774" lon="6.4585399934684515">
    <ele>-0.9600000000000001</ele>
   </trkpt>
   <trkpt lat="53.15755000000001" lon="6.45905">
    <ele>-0.54</ele>
   </trkpt>
   <trkpt lat="53.15818000034585" lon="6.459339995741123">
    <ele>-0.62</ele>
   </trkpt>
   <trkpt lat="53.15881" lon="6.459630000000001">
    <ele>-0.9600000000000001</ele>
   </trkpt>
   <trkpt lat="53.159000000000006" lon="6.459700000000001">
    <ele>-1.04</ele>
   </trkpt>
   <trkpt lat="53.1591" lon="6.45971">
    <ele>-1.04</ele>
   </trkpt>
   <trkpt lat="53.15997" lon="6.4596800000000005">
    <ele>-0.81</ele>
   </trkpt>
   <trkpt lat="53.160070000000005" lon="6.459700000000001">
    <ele>-0.81</ele>
   </trkpt>
   <trkpt lat="53.160230000000006" lon="6.45976">
    <ele>-0.81</ele>
   </trkpt>
   <trkpt lat="53.160880000000006" lon="6.460070000000001">
    <ele>-0.71</ele>
   </trkpt>
   <trkpt lat="53.16136" lon="6.46034">
    <ele>-0.58</ele>
   </trkpt>
   <trkpt lat="53.16161" lon="6.46053">
    <ele>-0.54</ele>
   </trkpt>
   <trkpt lat="53.16180000000001" lon="6.460710000000001">
    <ele>-0.46</ele>
   </trkpt>
   <trkpt lat="53.162290000000006" lon="6.461320000000001">
    <ele>-0.5</ele>
   </trkpt>
   <trkpt lat="53.16285000467784" lon="6.462063314003216">
    <ele>-0.31</ele>
   </trkpt>
   <trkpt lat="53.16341000472838" lon="6.462806647403278">
    <ele>-0.31</ele>
   </trkpt>
   <trkpt lat="53.163970000000006" lon="6.463550000000001">
    <ele>-0.16</ele>
   </trkpt>
   <trkpt lat="53.16465" lon="6.464300000000001">
    <ele>-0.25</ele>
   </trkpt>
   <trkpt lat="53.164840000000005" lon="6.464600000000001">
    <ele>-0.29</ele>
   </trkpt>
   <trkpt lat="53.16519" lon="6.465380000000001">
    <ele>-0.46</ele>
   </trkpt>
   <trkpt lat="53.165310000000005" lon="6.46553">
    <ele>-0.42</ele>
   </trkpt>
   <trkpt lat="53.165530000000004" lon="6.465750000000001">
    <ele>-0.42</ele>
   </trkpt>
   <trkpt lat="53.16561" lon="6.465800000000001">
    <ele>-0.42</ele>
   </trkpt>
   <trkpt lat="53.16617" lon="6.46602">
    <ele>-0.34</ele>
   </trkpt>
   <trkpt lat="53.166320000000006" lon="6.46614">
    <ele>-0.32</ele>
   </trkpt>
   <trkpt lat="53.16644" lon="6.4663">
    <ele>-0.36000000000000004</ele>
   </trkpt>
   <trkpt lat="53.166760000000004" lon="6.4670000000000005">
    <ele>-0.22</ele>
   </trkpt>
   <trkpt lat="53.16719000214511" lon="6.467739992330789">
    <ele>-0.31</ele>
   </trkpt>
   <trkpt lat="53.16762000000001" lon="6.4684800000000005">
    <ele>-0.42</ele>
   </trkpt>
   <trkpt lat="53.16816000000001" lon="6.46954">
    <ele>-0.4</ele>
   </trkpt>
   <trkpt lat="53.16828" lon="6.47001">
    <ele>-0.46</ele>
   </trkpt>
   <trkpt lat="53.168350009469755" lon="6.47107332988097">
    <ele>-0.5</ele>
   </trkpt>
   <trkpt lat="53.168420009470864" lon="6.472136663231275">
    <ele>-0.5</ele>
   </trkpt>
   <trkpt lat="53.168490000000006" lon="6.4732">
    <ele>-0.42</ele>
   </trkpt>
   <trkpt lat="53.16861" lon="6.47437">
    <ele>-0.05</ele>
   </trkpt>
   <trkpt lat="53.168730000000004" lon="6.475770000000001">
    <ele>-0.05</ele>
   </trkpt>
   <trkpt lat="53.16877000294585" lon="6.476609999036407">
    <ele>-0.36000000000000004</ele>
   </trkpt>
   <trkpt lat="53.16881000000001" lon="6.47745">
    <ele>-0.62</ele>
   </trkpt>
   <trkpt lat="53.168890000000005" lon="6.477710000000001">
    <ele>-0.62</ele>
   </trkpt>
   <trkpt lat="53.16884" lon="6.4778">
    <ele>-0.62</ele>
   </trkpt>
   <trkpt lat="53.168820000000004" lon="6.477950000000001">
    <ele>-0.62</ele>
   </trkpt>
   <trkpt lat="53.16889500305839" lon="6.478804998476966">
    <ele>-0.68</ele>
   </trkpt>
   <trkpt lat="53.16897" lon="6.479660000000001">
    <ele>-0.84</ele>
   </trkpt>
   <trkpt lat="53.16904667578242" lon="6.48070332960535">
    <ele>-0.67</ele>
   </trkpt>
   <trkpt lat="53.16912334244911" lon="6.481746662939043">
    <ele>-0.75</ele>
   </trkpt>
   <trkpt lat="53.169200000000004" lon="6.4827900000000005">
    <ele>-0.55</ele>
   </trkpt>
   <trkpt lat="53.169250000000005" lon="6.48303">
    <ele>-0.55</ele>
   </trkpt>
   <trkpt lat="53.16937000000001" lon="6.483250000000001">
    <ele>-0.55</ele>
   </trkpt>
   <trkpt lat="53.16955" lon="6.48345">
    <ele>-0.36000000000000004</ele>
   </trkpt>
   <trkpt lat="53.17000500042424" lon="6.483789996350059">
    <ele>-0.46</ele>
   </trkpt>
   <trkpt lat="53.170460000000006" lon="6.48413">
    <ele>-1.08</ele>
   </trkpt>
   <trkpt lat="53.17090500041213" lon="6.48448999616085">
    <ele>-1.08</ele>
   </trkpt>
   <trkpt lat="53.171350000000004" lon="6.484850000000001">
    <ele>-0.64</ele>
   </trkpt>
   <trkpt lat="53.17172000000001" lon="6.4851">
    <ele>-0.67</ele>
   </trkpt>
   <trkpt lat="53.172050000000006" lon="6.485290000000001">
    <ele>-0.7200000000000001</ele>
   </trkpt>
   <trkpt lat="53.17221000000001" lon="6.48535">
    <ele>-0.71</ele>
   </trkpt>
   <trkpt lat="53.17309" lon="6.48559">
    <ele>-0.67</ele>
   </trkpt>
   <trkpt lat="53.173140000000004" lon="6.485650000000001">
    <ele>-0.67</ele>
   </trkpt>
   <trkpt lat="53.17329" lon="6.4859100000000005">
    <ele>-0.64</ele>
   </trkpt>
   <trkpt lat="53.17371000398493" lon="6.486894990176089">
    <ele>-0.71</ele>
   </trkpt>
   <trkpt lat="53.174130000000005" lon="6.4878800000000005">
    <ele>-0.71</ele>
   </trkpt>
   <trkpt lat="53.174475001850915" lon="6.48853499483656">
    <ele>-0.7200000000000001</ele>
   </trkpt>
   <trkpt lat="53.174820000000004" lon="6.489190000000001">
    <ele>-0.68</ele>
   </trkpt>
   <trkpt lat="53.174870000000006" lon="6.489230000000001">
    <ele>-0.68</ele>
   </trkpt>
   <trkpt lat="53.17526" lon="6.489630000000001">
    <ele>-0.71</ele>
   </trkpt>
   <trkpt lat="53.17566000000001" lon="6.489920000000001">
    <ele>-0.71</ele>
   </trkpt>
   <trkpt lat="53.17589" lon="6.49012">
    <ele>-0.75</ele>
   </trkpt>
   <trkpt lat="53.176610000000004" lon="6.490830000000001">
    <ele>-1.26</ele>
   </trkpt>
   <trkpt lat="53.176860000000005" lon="6.4911">
    <ele>-1.54</ele>
   </trkpt>
   <trkpt lat="53.1771" lon="6.4913300000000005">
    <ele>-1.68</ele>
   </trkpt>
   <trkpt lat="53.177240000000005" lon="6.491370000000001">
    <ele>-1.68</ele>
   </trkpt>
   <trkpt lat="53.177310000000006" lon="6.49143">
    <ele>-1.68</ele>
   </trkpt>
   <trkpt lat="53.1775" lon="6.49166">
    <ele>-1.6900000000000002</ele>
   </trkpt>
   <trkpt lat="53.17792500043459" lon="6.492039996083209">
    <ele>-1.7300000000000002</ele>
   </trkpt>
   <trkpt lat="53.17835" lon="6.492420000000001">
    <ele>-1.7300000000000002</ele>
   </trkpt>
   <trkpt lat="53.17868000000001" lon="6.49284">
    <ele>-1.36</ele>
   </trkpt>
   <trkpt lat="53.17882" lon="6.492970000000001">
    <ele>-1.36</ele>
   </trkpt>
   <trkpt lat="53.179480000000005" lon="6.493360000000001">
    <ele>-0.76</ele>
   </trkpt>
   <trkpt lat="53.18009000121079" lon="6.49386999284907">
    <ele>-0.68</ele>
   </trkpt>
   <trkpt lat="53.1807" lon="6.4943800000000005">
    <ele>-0.71</ele>
   </trkpt>
   <trkpt lat="53.180870000000006" lon="6.49455">
    <ele>-0.71</ele>
   </trkpt>
   <trkpt lat="53.18108" lon="6.49483">
    <ele>-0.62</ele>
   </trkpt>
   <trkpt lat="53.18166" lon="6.49518">
    <ele>-0.67</ele>
   </trkpt>
   <trkpt lat="53.18178" lon="6.495290000000001">
    <ele>-0.71</ele>
   </trkpt>
   <trkpt lat="53.182080000000006" lon="6.49544">
    <ele>-0.62</ele>
   </trkpt>
   <trkpt lat="53.1822" lon="6.49544">
    <ele>-0.62</ele>
   </trkpt>
   <trkpt lat="53.182570000000005" lon="6.49537">
    <ele>-0.63</ele>
   </trkpt>
   <trkpt lat="53.18305" lon="6.495380000000001">
    <ele>-0.67</ele>
   </trkpt>
   <trkpt lat="53.183704999940595" lon="6.495345000537979">
    <ele>-0.71</ele>
   </trkpt>
   <trkpt lat="53.184360000000005" lon="6.495310000000001">
    <ele>-0.67</ele>
   </trkpt>
   <trkpt lat="53.184540000000005" lon="6.495260000000001">
    <ele>-0.71</ele>
   </trkpt>
   <trkpt lat="53.18471" lon="6.49518">
    <ele>-0.71</ele>
   </trkpt>
   <trkpt lat="53.18493" lon="6.495">
    <ele>-0.64</ele>
   </trkpt>
   <trkpt lat="53.185680000000005" lon="6.49467">
    <ele>-0.67</ele>
   </trkpt>
   <trkpt lat="53.185810000000004" lon="6.494650000000001">
    <ele>-0.63</ele>
   </trkpt>
   <trkpt lat="53.186220000000006" lon="6.494790000000001">
    <ele>-0.67</ele>
   </trkpt>
   <trkpt lat="53.186710000000005" lon="6.4949200000000005">
    <ele>-0.75</ele>
   </trkpt>
   <trkpt lat="53.187180000000005" lon="6.49514">
    <ele>-0.71</ele>
   </trkpt>
   <trkpt lat="53.187970000006985" lon="6.495239998153298">
    <ele>-0.76</ele>
   </trkpt>
   <trkpt lat="53.18876" lon="6.495340000000001">
    <ele>-0.84</ele>
   </trkpt>
   <trkpt lat="53.18885" lon="6.49537">
    <ele>-0.84</ele>
   </trkpt>
   <trkpt lat="53.188990000000004" lon="6.495470000000001">
    <ele>-0.92</ele>
   </trkpt>
   <trkpt lat="53.189530000000005" lon="6.4957">
    <ele>-0.92</ele>
   </trkpt>
   <trkpt lat="53.18972" lon="6.495730000000001">
    <ele>-0.9600000000000001</ele>
   </trkpt>
   <trkpt lat="53.1906" lon="6.49575">
    <ele>-0.71</ele>
   </trkpt>
   <trkpt lat="53.191010000000006" lon="6.495690000000001">
    <ele>-0.75</ele>
   </trkpt>
   <trkpt lat="53.19106000000001" lon="6.4957">
    <ele>-0.75</ele>
   </trkpt>
   <trkpt lat="53.191120000000005" lon="6.4957400000000005">
    <ele>-0.75</ele>
   </trkpt>
   <trkpt lat="53.19113" lon="6.49575">
    <ele>-0.79</ele>
   </trkpt>
   <trkpt lat="53.191190000000006" lon="6.495850000000001">
    <ele>-0.79</ele>
   </trkpt>
   <trkpt lat="53.191230000000004" lon="6.4960700000000005">
    <ele>-0.79</ele>
   </trkpt>
   <trkpt lat="53.191300010253826" lon="6.49717666305527">
    <ele>-1.08</ele>
   </trkpt>
   <trkpt lat="53.191370010254" lon="6.498283329724295">
    <ele>-1.07</ele>
   </trkpt>
   <trkpt lat="53.19144000000001" lon="6.499390000000001">
    <ele>-1.05</ele>
   </trkpt>
   <trkpt lat="53.191480000000006" lon="6.49964">
    <ele>-0.99</ele>
   </trkpt>
   <trkpt lat="53.19153000000001" lon="6.4998000000000005">
    <ele>-0.89</ele>
   </trkpt>
   <trkpt lat="53.191660000000006" lon="6.499980000000001">
    <ele>-0.7200000000000001</ele>
   </trkpt>
   <trkpt lat="53.19153000000001" lon="6.50072">
    <ele>-0.8</ele>
   </trkpt>
   <trkpt lat="53.191405003450605" lon="6.501630002769223">
    <ele>-2.06</ele>
   </trkpt>
   <trkpt lat="53.191280000000006" lon="6.502540000000001">
    <ele>-1.33</ele>
   </trkpt>
   <trkpt lat="53.19115000000001" lon="6.5025">
    <ele>-1.33</ele>
   </trkpt>
   <trkpt lat="53.19104" lon="6.503380000000001">
    <ele>-1.6500000000000001</ele>
   </trkpt>
   <trkpt lat="53.19104" lon="6.503900000000001">
    <ele>-1.76</ele>
   </trkpt>
   <trkpt lat="53.191183344925726" lon="6.505076658803896">
    <ele>-1.7000000000000002</ele>
   </trkpt>
   <trkpt lat="53.19132667825964" lon="6.506253325475125">
    <ele>-1.6600000000000001</ele>
   </trkpt>
   <trkpt lat="53.19147" lon="6.50743">
    <ele>-1.61</ele>
   </trkpt>
   <trkpt lat="53.191520000000004" lon="6.50776">
    <ele>-1.4000000000000001</ele>
   </trkpt>
   <trkpt lat="53.191570000000006" lon="6.50788">
    <ele>-1.4000000000000001</ele>
   </trkpt>
   <trkpt lat="53.191610000000004" lon="6.507930000000001">
    <ele>-1.24</ele>
   </trkpt>
   <trkpt lat="53.191590000000005" lon="6.508030000000001">
    <ele>-1.24</ele>
   </trkpt>
   <trkpt lat="53.1916" lon="6.50827">
    <ele>-1.16</ele>
   </trkpt>
   <trkpt lat="53.191710003482896" lon="6.509184997470671">
    <ele>-1.2300000000000002</ele>
   </trkpt>
   <trkpt lat="53.19182000000001" lon="6.5101">
    <ele>-1.1300000000000001</ele>
   </trkpt>
   <trkpt lat="53.19185" lon="6.510400000000001">
    <ele>-1.17</ele>
   </trkpt>
   <trkpt lat="53.191790000000005" lon="6.511480000000001">
    <ele>-0.88</ele>
   </trkpt>
   <trkpt lat="53.19228000001927" lon="6.511475000056948">
    <ele>-1.05</ele>
   </trkpt>
   <trkpt lat="53.19277" lon="6.51147">
    <ele>-0.9700000000000001</ele>
   </trkpt>
   <trkpt lat="53.19333" lon="6.511480000000001">
    <ele>-0.9700000000000001</ele>
   </trkpt>
   <trkpt lat="53.19403000005139" lon="6.511466667101123">
    <ele>-0.9700000000000001</ele>
   </trkpt>
   <trkpt lat="53.194730000101295" lon="6.511453333766847">
    <ele>-0.9600000000000001</ele>
   </trkpt>
   <trkpt lat="53.19543" lon="6.51144">
    <ele>-0.88</ele>
   </trkpt>
   <trkpt lat="53.196000000000005" lon="6.511590000000001">
    <ele>-0.5</ele>
   </trkpt>
   <trkpt lat="53.196110000000004" lon="6.511640000000001">
    <ele>-0.44</ele>
   </trkpt>
   <trkpt lat="53.1963" lon="6.511830000000001">
    <ele>-0.46</ele>
   </trkpt>
   <trkpt lat="53.19644" lon="6.512010000000001">
    <ele>-0.42</ele>
   </trkpt>
   <trkpt lat="53.19655" lon="6.512180000000001">
    <ele>-0.42</ele>
   </trkpt>
   <trkpt lat="53.19671" lon="6.512530000000001">
    <ele>-0.4</ele>
   </trkpt>
   <trkpt lat="53.196810000000006" lon="6.513090000000001">
    <ele>-0.16</ele>
   </trkpt>
   <trkpt lat="53.19684" lon="6.513160000000001">
    <ele>-0.16</ele>
   </trkpt>
   <trkpt lat="53.19695" lon="6.513330000000001">
    <ele>-0.11</ele>
   </trkpt>
   <trkpt lat="53.197010000000006" lon="6.513380000000001">
    <ele>-0.11</ele>
   </trkpt>
   <trkpt lat="53.197120000000005" lon="6.513400000000001">
    <ele>-0.11</ele>
   </trkpt>
   <trkpt lat="53.19715000000001" lon="6.51344">
    <ele>-0.11</ele>
   </trkpt>
   <trkpt lat="53.19764000000001" lon="6.5144400000000005">
    <ele>-0.01</ele>
   </trkpt>
   <trkpt lat="53.19778" lon="6.514450000000001">
    <ele>0.030000000000000002</ele>
   </trkpt>
   <trkpt lat="53.197810000000004" lon="6.51447">
    <ele>0.030000000000000002</ele>
   </trkpt>
   <trkpt lat="53.197860000000006" lon="6.514740000000001">
    <ele>-0.16</ele>
   </trkpt>
   <trkpt lat="53.198080000000004" lon="6.5152">
    <ele>-0.4</ele>
   </trkpt>
   <trkpt lat="53.198220000000006" lon="6.51541">
    <ele>-0.8500000000000001</ele>
   </trkpt>
   <trkpt lat="53.198750000000004" lon="6.515930000000001">
    <ele>-0.62</ele>
   </trkpt>
   <trkpt lat="53.19895" lon="6.51609">
    <ele>-0.27</ele>
   </trkpt>
   <trkpt lat="53.199630002386755" lon="6.516626649619626">
    <ele>-1.33</ele>
   </trkpt>
   <trkpt lat="53.20031000236247" lon="6.517163316266787">
    <ele>-1.28</ele>
   </trkpt>
   <trkpt lat="53.200990000000004" lon="6.5177000000000005">
    <ele>-1.1400000000000001</ele>
   </trkpt>
   <trkpt lat="53.20120000000001" lon="6.5175600000000005">
    <ele>-1.07</ele>
   </trkpt>
   <trkpt lat="53.201820000927206" lon="6.51708000697235">
    <ele>-1.2200000000000002</ele>
   </trkpt>
   <trkpt lat="53.20244" lon="6.5166">
    <ele>-1.1400000000000001</ele>
   </trkpt>
   <trkpt lat="53.202540000000006" lon="6.516890000000001">
    <ele>-1.52</ele>
   </trkpt>
   <trkpt lat="53.20288000000001" lon="6.518140000000001">
    <ele>-1.6600000000000001</ele>
   </trkpt>
   <trkpt lat="53.202960000000004" lon="6.5185">
    <ele>-1.37</ele>
   </trkpt>
   <trkpt lat="53.203070000000004" lon="6.5187100000000004">
    <ele>-1.37</ele>
   </trkpt>
   <trkpt lat="53.203230000000005" lon="6.51881">
    <ele>-1.37</ele>
   </trkpt>
   <trkpt lat="53.20335000000001" lon="6.51881">
    <ele>-1.41</ele>
   </trkpt>
   <trkpt lat="53.203410000000005" lon="6.518790000000001">
    <ele>-1.41</ele>
   </trkpt>
   <trkpt lat="53.203570000000006" lon="6.518660000000001">
    <ele>-1.5700000000000003</ele>
   </trkpt>
   <trkpt lat="53.20400000037063" lon="6.518415002390186">
    <ele>-1.52</ele>
   </trkpt>
   <trkpt lat="53.20443" lon="6.5181700000000005">
    <ele>-1.52</ele>
   </trkpt>
   <trkpt lat="53.20506" lon="6.517760000000001">
    <ele>-1.33</ele>
   </trkpt>
   <trkpt lat="53.20546500075393" lon="6.517415003042631">
    <ele>-1.26</ele>
   </trkpt>
   <trkpt lat="53.205870000000004" lon="6.51707">
    <ele>-1.03</ele>
   </trkpt>
   <trkpt lat="53.205870000000004" lon="6.517060000000001">
    <ele>-1.03</ele>
   </trkpt>
   <trkpt lat="53.205890000000004" lon="6.51719">
    <ele>-1.2100000000000002</ele>
   </trkpt>
   <trkpt lat="53.20572000000001" lon="6.51782">
    <ele>-1.41</ele>
   </trkpt>
   <trkpt lat="53.205690000000004" lon="6.5181000000000004">
    <ele>-1.41</ele>
   </trkpt>
   <trkpt lat="53.205670000000005" lon="6.5193">
    <ele>-1.33</ele>
   </trkpt>
   <trkpt lat="53.20568500302221" lon="6.520149999597365">
    <ele>-1.33</ele>
   </trkpt>
   <trkpt lat="53.20570000000001" lon="6.521000000000001">
    <ele>-1.5</ele>
   </trkpt>
   <trkpt lat="53.20578667624567" lon="6.52206999560956">
    <ele>-1.97</ele>
   </trkpt>
   <trkpt lat="53.205873342907296" lon="6.523139995547252">
    <ele>-1.99</ele>
   </trkpt>
   <trkpt lat="53.205960000000005" lon="6.524210000000001">
    <ele>-1.84</ele>
   </trkpt>
   <trkpt lat="53.206" lon="6.5243400000000005">
    <ele>-1.8200000000000003</ele>
   </trkpt>
   <trkpt lat="53.20617000000001" lon="6.524660000000001">
    <ele>-1.75</ele>
   </trkpt>
   <trkpt lat="53.20622" lon="6.52486">
    <ele>-1.75</ele>
   </trkpt>
   <trkpt lat="53.20624" lon="6.5250900000000005">
    <ele>-1.67</ele>
   </trkpt>
   <trkpt lat="53.206230000000005" lon="6.525290000000001">
    <ele>-1.6500000000000001</ele>
   </trkpt>
   <trkpt lat="53.206120000000006" lon="6.5258">
    <ele>-1.54</ele>
   </trkpt>
   <trkpt lat="53.20621000356087" lon="6.5267249978479684">
    <ele>-1.67</ele>
   </trkpt>
   <trkpt lat="53.206300000000006" lon="6.52765">
    <ele>-1.52</ele>
   </trkpt>
   <trkpt lat="53.20633" lon="6.5281400000000005">
    <ele>-1.52</ele>
   </trkpt>
   <trkpt lat="53.20626000000001" lon="6.52869">
    <ele>-1.58</ele>
   </trkpt>
   <trkpt lat="53.206300000000006" lon="6.529240000000001">
    <ele>-1.62</ele>
   </trkpt>
   <trkpt lat="53.206400003228026" lon="6.530124997490635">
    <ele>-1.6</ele>
   </trkpt>
   <trkpt lat="53.206500000000005" lon="6.53101">
    <ele>-1.53</ele>
   </trkpt>
   <trkpt lat="53.20676500826352" lon="6.532414991317858">
    <ele>-1.09</ele>
   </trkpt>
   <trkpt lat="53.20703" lon="6.53382">
    <ele>-1.09</ele>
   </trkpt>
   <trkpt lat="53.20729802113998" lon="6.534943971834133">
    <ele>-1.1500000000000001</ele>
   </trkpt>
   <trkpt lat="53.20756603170465" lon="6.53606795772823">
    <ele>-1.18</ele>
   </trkpt>
   <trkpt lat="53.20783403169383" lon="6.53719195768205">
    <ele>-1.2100000000000002</ele>
   </trkpt>
   <trkpt lat="53.20810202110722" lon="6.5383159716953525">
    <ele>-1.16</ele>
   </trkpt>
   <trkpt lat="53.20837" lon="6.539440000000001">
    <ele>-1.16</ele>
   </trkpt>
   <trkpt lat="53.208630005503736" lon="6.540589992882708">
    <ele>-1.17</ele>
   </trkpt>
   <trkpt lat="53.208890000000004" lon="6.541740000000001">
    <ele>-1.1500000000000001</ele>
   </trkpt>
   <trkpt lat="53.209010000000006" lon="6.5421700000000005">
    <ele>-1.16</ele>
   </trkpt>
   <trkpt lat="53.2092350040745" lon="6.543154994887709">
    <ele>-1.1500000000000001</ele>
   </trkpt>
   <trkpt lat="53.20946000000001" lon="6.5441400000000005">
    <ele>-1.1</ele>
   </trkpt>
   <trkpt lat="53.20978" lon="6.5454300000000005">
    <ele>-1.08</ele>
   </trkpt>
   <trkpt lat="53.20993000000001" lon="6.54619">
    <ele>-0.9700000000000001</ele>
   </trkpt>
   <trkpt lat="53.21002000000001" lon="6.546850000000001">
    <ele>-0.9700000000000001</ele>
   </trkpt>
   <trkpt lat="53.21007" lon="6.548140000000001">
    <ele>-0.7400000000000001</ele>
   </trkpt>
  </trkseg>
 </trk>
</gpx>
