<?xml version="1.0" encoding="UTF-8" standalone="no" ?>
<gpx xmlns="http://www.topografix.com/GPX/1/1"
		xmlns:gpxx="http://www.garmin.com/xmlschemas/GpxExtensions/v3"
		xmlns:gpxtpx="http://www.garmin.com/xmlschemas/TrackPointExtension/v1"
		xmlns:xsi="http://www.w3.org/2001/XMLSchema-instance"
		xsi:schemaLocation="http://www.topografix.com/GPX/1/1 http://www.topografix.com/GPX/1/1/gpx.xsd http://www.garmin.com/xmlschemas/GpxExtensions/v3 http://www.garmin.com/xmlschemas/GpxExtensionsv3.xsd http://www.garmin.com/xmlschemas/TrackPointExtension/v1 http://www.garmin.com/xmlschemas/TrackPointExtensionv1.xsd"
		creator="Gravelmap.com"
		version="1.1">

	<metadata>
		<name><![CDATA[Gravel Route: Slaperdijkstraat]]></name>
		<desc><![CDATA[]]></desc>
		<link href="http://www.gravelmap.com/route/117859">
			<text><![CDATA[Gravel Route: Slaperdijkstraat]]></text>
		</link>
		<time>2022-01-20T13:26:47-05:00</time>
	</metadata>

	<trk>
		<name><![CDATA[Gravel Route: Slaperdijkstraat]]></name>
		<desc><![CDATA[]]></desc>
		<link href="http://www.gravelmap.com/route/117859">
			<text><![CDATA[Gravel Route: Slaperdijkstraat]]></text>
		</link>
		<trkseg>
			<trkpt lat="52.52741" lon="6.06047">
				<ele>1.95</ele>
			</trkpt>
			<trkpt lat="52.5274" lon="6.06049">
				<ele>1.95</ele>
			</trkpt>
			<trkpt lat="52.5286" lon="6.06362">
				<ele>2.56</ele>
			</trkpt>
			<trkpt lat="52.52652" lon="6.0669">
				<ele>2.56</ele>
			</trkpt>
			<trkpt lat="52.52711" lon="6.07323">
				<ele>1.35</ele>
			</trkpt>
			<trkpt lat="52.52813" lon="6.07278">
				<ele>0.5</ele>
			</trkpt>
			<trkpt lat="52.52985" lon="6.07387">
				<ele>0.5</ele>
			</trkpt>
			<trkpt lat="52.53019" lon="6.07491">
				<ele>2.93</ele>
			</trkpt>
			<trkpt lat="52.53127" lon="6.07573">
				<ele>2.93</ele>
			</trkpt>
			<trkpt lat="52.53283" lon="6.0759">
				<ele>3.73</ele>
			</trkpt>
			<trkpt lat="52.53351" lon="6.07645">
				<ele>2.39</ele>
			</trkpt>
			<trkpt lat="52.53437" lon="6.0764">
				<ele>2.39</ele>
			</trkpt>
			<trkpt lat="52.53528" lon="6.07769">
				<ele>2.74</ele>
			</trkpt>
			<trkpt lat="52.53664" lon="6.07842">
				<ele>2.74</ele>
			</trkpt>
			<trkpt lat="52.54154" lon="6.07946">
				<ele>1.75</ele>
			</trkpt>
			<trkpt lat="52.54194" lon="6.08007">
				<ele>2.09</ele>
			</trkpt>
			<trkpt lat="52.54272" lon="6.08008">
				<ele>2.09</ele>
			</trkpt>
			<trkpt lat="52.54408" lon="6.08104">
				<ele>2.53</ele>
			</trkpt>
			<trkpt lat="52.5452" lon="6.08243">
				<ele>2.53</ele>
			</trkpt>
			<trkpt lat="52.5452" lon="6.08243">
				<ele>2.6</ele>
			</trkpt>
			<trkpt lat="52.54568" lon="6.08344">
				<ele>3.37</ele>
			</trkpt>
			<trkpt lat="52.54575" lon="6.08387">
				<ele>3.37</ele>
			</trkpt>
			<trkpt lat="52.54509" lon="6.0877">
				<ele>2.97</ele>
			</trkpt>
			<trkpt lat="52.54472" lon="6.0887">
				<ele>2.97</ele>
			</trkpt>
			<trkpt lat="52.54312" lon="6.09086">
				<ele>2.18</ele>
			</trkpt>
			<trkpt lat="52.54239" lon="6.09143">
				<ele>1.66</ele>
			</trkpt>
			<trkpt lat="52.54191" lon="6.09312">
				<ele>1.66</ele>
			</trkpt>
			<trkpt lat="52.54199" lon="6.09628">
				<ele>1.43</ele>
			</trkpt>
			<trkpt lat="52.54169" lon="6.09771">
				<ele>1.43</ele>
			</trkpt>
			<trkpt lat="52.5424" lon="6.09783">
				<ele>2.02</ele>
			</trkpt>
			<trkpt lat="52.54297" lon="6.10167">
				<ele>0.81</ele>
			</trkpt>
			<trkpt lat="52.54319" lon="6.10206">
				<ele>0.81</ele>
			</trkpt>
			<trkpt lat="52.54361" lon="6.10231">
				<ele>1.36</ele>
			</trkpt>
			<trkpt lat="52.54394" lon="6.1029">
				<ele>1.36</ele>
			</trkpt>
			<trkpt lat="52.54408" lon="6.10341">
				<ele>1.74</ele>
			</trkpt>
			<trkpt lat="52.54411" lon="6.10424">
				<ele>2.58</ele>
			</trkpt>
			<trkpt lat="52.54367" lon="6.10495">
				<ele>2.58</ele>
			</trkpt>
			<trkpt lat="52.54183" lon="6.10648">
				<ele>2.92</ele>
			</trkpt>
			<trkpt lat="52.54183" lon="6.10648">
				<ele>2.92</ele>
			</trkpt>
			<trkpt lat="52.54129" lon="6.10699">
				<ele>3.76</ele>
			</trkpt>
			<trkpt lat="52.54108" lon="6.10707">
				<ele>2.88</ele>
			</trkpt>
			<trkpt lat="52.54074" lon="6.10713">
				<ele>2.88</ele>
			</trkpt>
			<trkpt lat="52.54074" lon="6.10713">
				<ele>3.27</ele>
			</trkpt>
			<trkpt lat="52.54061" lon="6.10704">
				<ele>3.46</ele>
			</trkpt>
			<trkpt lat="52.54064" lon="6.10688">
				<ele>3.46</ele>
			</trkpt>
			<trkpt lat="52.54063" lon="6.10674">
				<ele>4.14</ele>
			</trkpt>
			<trkpt lat="52.5403" lon="6.10591">
				<ele>4.14</ele>
			</trkpt>
			<trkpt lat="52.5403" lon="6.10591">
				<ele>1.96</ele>
			</trkpt>
			<trkpt lat="52.54018" lon="6.10568">
				<ele>3.74</ele>
			</trkpt>
			<trkpt lat="52.53997" lon="6.1055">
				<ele>3.74</ele>
			</trkpt>
			<trkpt lat="52.53948" lon="6.10555">
				<ele>4.4</ele>
			</trkpt>
			<trkpt lat="52.53936" lon="6.10551">
				<ele>4.4</ele>
			</trkpt>
			<trkpt lat="52.53919" lon="6.10531">
				<ele>4.34</ele>
			</trkpt>
			<trkpt lat="52.53912" lon="6.1053">
				<ele>21.78</ele>
			</trkpt>
			<trkpt lat="52.53912" lon="6.1053">
				<ele>21.78</ele>
			</trkpt>
			<trkpt lat="52.53879" lon="6.10533">
				<ele>5.21</ele>
			</trkpt>
			<trkpt lat="52.53849" lon="6.10528">
				<ele>5.21</ele>
			</trkpt>
			<trkpt lat="52.53828" lon="6.10532">
				<ele>5.48</ele>
			</trkpt>
			<trkpt lat="52.53816" lon="6.10537">
				<ele>3.44</ele>
			</trkpt>
			<trkpt lat="52.53803" lon="6.10564">
				<ele>3.44</ele>
			</trkpt>
			<trkpt lat="52.53803" lon="6.10564">
				<ele>3.78</ele>
			</trkpt>
			<trkpt lat="52.53799" lon="6.10573">
				<ele>3.78</ele>
			</trkpt>
			<trkpt lat="52.53773" lon="6.10583">
				<ele>7.01</ele>
			</trkpt>
			<trkpt lat="52.53715" lon="6.10519">
				<ele>4.76</ele>
			</trkpt>
			<trkpt lat="52.53708" lon="6.10515">
				<ele>4.76</ele>
			</trkpt>
			<trkpt lat="52.537" lon="6.10528">
				<ele>2.84</ele>
			</trkpt>
			<trkpt lat="52.537" lon="6.10528">
				<ele>2.84</ele>
			</trkpt>
			<trkpt lat="52.53692" lon="6.10538">
				<ele>4.35</ele>
			</trkpt>
			<trkpt lat="52.53666" lon="6.10545">
				<ele>3.19</ele>
			</trkpt>
			<trkpt lat="52.53637" lon="6.10578">
				<ele>3.19</ele>
			</trkpt>
			<trkpt lat="52.53614" lon="6.10583">
				<ele>3.89</ele>
			</trkpt>
			<trkpt lat="52.53614" lon="6.10583">
				<ele>3.89</ele>
			</trkpt>
			<trkpt lat="52.53598" lon="6.10586">
				<ele>3.06</ele>
			</trkpt>
			<trkpt lat="52.53584" lon="6.10598">
				<ele>2.61</ele>
			</trkpt>
			<trkpt lat="52.53542" lon="6.10669">
				<ele>2.61</ele>
			</trkpt>
			<trkpt lat="52.53506" lon="6.10677">
				<ele>1.98</ele>
			</trkpt>
			<trkpt lat="52.535" lon="6.10682">
				<ele>1.98</ele>
			</trkpt>
			<trkpt lat="52.535" lon="6.10682">
				<ele>1.85</ele>
			</trkpt>
			<trkpt lat="52.53488" lon="6.10698">
				<ele>2.2</ele>
			</trkpt>
			<trkpt lat="52.53478" lon="6.10718">
				<ele>2.2</ele>
			</trkpt>
			<trkpt lat="52.53461" lon="6.10739">
				<ele>2.19</ele>
			</trkpt>
			<trkpt lat="52.53447" lon="6.10776">
				<ele>0.97</ele>
			</trkpt>
			<trkpt lat="52.53425" lon="6.10757">
				<ele>0.97</ele>
			</trkpt>
			<trkpt lat="52.53415" lon="6.1076">
				<ele>1.14</ele>
			</trkpt>
			<trkpt lat="52.53399" lon="6.10799">
				<ele>1.14</ele>
			</trkpt>
			<trkpt lat="52.53399" lon="6.10799">
				<ele>2.35</ele>
			</trkpt>
			<trkpt lat="52.53386" lon="6.10839">
				<ele>1.14</ele>
			</trkpt>
			<trkpt lat="52.53377" lon="6.10855">
				<ele>1.14</ele>
			</trkpt>
			<trkpt lat="52.53369" lon="6.10859">
				<ele>1.06</ele>
			</trkpt>
			<trkpt lat="52.5336" lon="6.10858">
				<ele>1.06</ele>
			</trkpt>
			<trkpt lat="52.53323" lon="6.10803">
				<ele>0.95</ele>
			</trkpt>
			<trkpt lat="52.53308" lon="6.10799">
				<ele>0.32</ele>
			</trkpt>
			<trkpt lat="52.53302" lon="6.10802">
				<ele>0.32</ele>
			</trkpt>
			<trkpt lat="52.53286" lon="6.10842">
				<ele>0.41</ele>
			</trkpt>
			<trkpt lat="52.53282" lon="6.10845">
				<ele>0.41</ele>
			</trkpt>
			<trkpt lat="52.5327" lon="6.10844">
				<ele>0.27</ele>
			</trkpt>
			<trkpt lat="52.53237" lon="6.10827">
				<ele>0.33</ele>
			</trkpt>
			<trkpt lat="52.53231" lon="6.10828">
				<ele>0.33</ele>
			</trkpt>
			<trkpt lat="52.53225" lon="6.10835">
				<ele>-0.06</ele>
			</trkpt>
			<trkpt lat="52.53213" lon="6.1087">
				<ele>-0.06</ele>
			</trkpt>
			<trkpt lat="52.53183" lon="6.10874">
				<ele>-0.09</ele>
			</trkpt>
			<trkpt lat="52.53164" lon="6.10884">
				<ele>-0.05</ele>
			</trkpt>
			<trkpt lat="52.53164" lon="6.10884">
				<ele>-0.05</ele>
			</trkpt>
			<trkpt lat="52.53146" lon="6.10889">
				<ele>-0.19</ele>
			</trkpt>
			<trkpt lat="52.5314" lon="6.10885">
				<ele>-0.19</ele>
			</trkpt>
			<trkpt lat="52.53136" lon="6.10875">
				<ele>0.02</ele>
			</trkpt>
			<trkpt lat="52.53132" lon="6.10871">
				<ele>0.18</ele>
			</trkpt>
			<trkpt lat="52.53122" lon="6.10871">
				<ele>0.18</ele>
			</trkpt>
			<trkpt lat="52.53122" lon="6.10952">
				<ele>0.82</ele>
			</trkpt>
			<trkpt lat="52.5314" lon="6.11064">
				<ele>0.82</ele>
			</trkpt>
			<trkpt lat="52.53146" lon="6.11083">
				<ele>1.69</ele>
			</trkpt>
			<trkpt lat="52.53094" lon="6.11125">
				<ele>1.04</ele>
			</trkpt>
			<trkpt lat="52.53089" lon="6.11198">
				<ele>1.04</ele>
			</trkpt>
			<trkpt lat="52.53089" lon="6.11198">
				<ele>0.53</ele>
			</trkpt>
			<trkpt lat="52.53091" lon="6.11228">
				<ele>0.53</ele>
			</trkpt>
			<trkpt lat="52.53088" lon="6.11238">
				<ele>0.45</ele>
			</trkpt>
			<trkpt lat="52.53086" lon="6.11299">
				<ele>0.09</ele>
			</trkpt>
			<trkpt lat="52.53091" lon="6.11349">
				<ele>0.09</ele>
			</trkpt>
			<trkpt lat="52.53082" lon="6.11382">
				<ele>0.19</ele>
			</trkpt>
			<trkpt lat="52.5308" lon="6.11439">
				<ele>0.91</ele>
			</trkpt>
			<trkpt lat="52.52995" lon="6.11726">
				<ele>0.91</ele>
			</trkpt>
			<trkpt lat="52.5299" lon="6.11754">
				<ele>0.51</ele>
			</trkpt>
			<trkpt lat="52.52991" lon="6.11787">
				<ele>0.51</ele>
			</trkpt>
			<trkpt lat="52.5301" lon="6.11949">
				<ele>1.17</ele>
			</trkpt>
			<trkpt lat="52.5301" lon="6.11949">
				<ele>0.99</ele>
			</trkpt>
			<trkpt lat="52.53014" lon="6.1197">
				<ele>0.99</ele>
			</trkpt>
			<trkpt lat="52.53027" lon="6.12006">
				<ele>1.91</ele>
			</trkpt>
			<trkpt lat="52.53018" lon="6.12026">
				<ele>1.91</ele>
			</trkpt>
			<trkpt lat="52.53004" lon="6.12075">
				<ele>3.06</ele>
			</trkpt>
			<trkpt lat="52.52989" lon="6.12129">
				<ele>2.07</ele>
			</trkpt>
			<trkpt lat="52.52986" lon="6.12153">
				<ele>2.07</ele>
			</trkpt>
			<trkpt lat="52.52987" lon="6.12171">
				<ele>1.32</ele>
			</trkpt>
			<trkpt lat="52.53005" lon="6.12276">
				<ele>1.32</ele>
			</trkpt>
			<trkpt lat="52.53032" lon="6.12273">
				<ele>3.11</ele>
			</trkpt>
			<trkpt lat="52.53078" lon="6.12285">
				<ele>2.83</ele>
			</trkpt>
			<trkpt lat="52.53102" lon="6.12301">
				<ele>2.83</ele>
			</trkpt>
			<trkpt lat="52.53132" lon="6.12342">
				<ele>0.36</ele>
			</trkpt>
			<trkpt lat="52.53132" lon="6.12342">
				<ele>0.36</ele>
			</trkpt>
			<trkpt lat="52.53102" lon="6.12301">
				<ele>0.36</ele>
			</trkpt>
			<trkpt lat="52.53078" lon="6.12285">
				<ele>0.22</ele>
			</trkpt>
			<trkpt lat="52.53032" lon="6.12273">
				<ele>0.22</ele>
			</trkpt>
			<trkpt lat="52.53032" lon="6.12305">
				<ele>0.35</ele>
			</trkpt>
			<trkpt lat="52.53044" lon="6.12311">
				<ele>0.35</ele>
			</trkpt>
			<trkpt lat="52.53059" lon="6.12331">
				<ele>0.57</ele>
			</trkpt>
			<trkpt lat="52.531" lon="6.12407">
				<ele>1.1</ele>
			</trkpt>
			<trkpt lat="52.5312" lon="6.12453">
				<ele>1.1</ele>
			</trkpt>
			<trkpt lat="52.53136" lon="6.12455">
				<ele>1.51</ele>
			</trkpt>
			<trkpt lat="52.53145" lon="6.1247">
				<ele>1.51</ele>
			</trkpt>
			<trkpt lat="52.53155" lon="6.125">
				<ele>1.92</ele>
			</trkpt>
			<trkpt lat="52.53174" lon="6.1263">
				<ele>2.29</ele>
			</trkpt>
			<trkpt lat="52.53181" lon="6.1266">
				<ele>2.29</ele>
			</trkpt>
			<trkpt lat="52.53192" lon="6.12663">
				<ele>2.06</ele>
			</trkpt>
			<trkpt lat="52.53236" lon="6.12648">
				<ele>2.06</ele>
			</trkpt>
			<trkpt lat="52.53256" lon="6.1266">
				<ele>2.39</ele>
			</trkpt>
			<trkpt lat="52.53268" lon="6.12713">
				<ele>2.97</ele>
			</trkpt>
			<trkpt lat="52.53265" lon="6.12749">
				<ele>2.97</ele>
			</trkpt>
			<trkpt lat="52.5326" lon="6.1277">
				<ele>4.48</ele>
			</trkpt>
			<trkpt lat="52.5326" lon="6.1277">
				<ele>3.46</ele>
			</trkpt>
			<trkpt lat="52.53248" lon="6.12797">
				<ele>3.46</ele>
			</trkpt>
			<trkpt lat="52.53268" lon="6.12843">
				<ele>0.26</ele>
			</trkpt>
			<trkpt lat="52.53274" lon="6.1287">
				<ele>0.26</ele>
			</trkpt>
			<trkpt lat="52.53279" lon="6.12922">
				<ele>0.32</ele>
			</trkpt>
			<trkpt lat="52.53278" lon="6.12934">
				<ele>-2</ele>
			</trkpt>
			<trkpt lat="52.53274" lon="6.12939">
				<ele>-2</ele>
			</trkpt>
			<trkpt lat="52.5325" lon="6.12955">
				<ele>-1</ele>
			</trkpt>
			<trkpt lat="52.53235" lon="6.12976">
				<ele>-1</ele>
			</trkpt>
			<trkpt lat="52.53217" lon="6.12991">
				<ele>-1.09</ele>
			</trkpt>
			<trkpt lat="52.53206" lon="6.12992">
				<ele>0</ele>
			</trkpt>
			<trkpt lat="52.53189" lon="6.12981">
				<ele>0</ele>
			</trkpt>
			<trkpt lat="52.53178" lon="6.12969">
				<ele>1.91</ele>
			</trkpt>
			<trkpt lat="52.53162" lon="6.12936">
				<ele>1.91</ele>
			</trkpt>
			<trkpt lat="52.53144" lon="6.12947">
				<ele>1.95</ele>
			</trkpt>
			<trkpt lat="52.53138" lon="6.12937">
				<ele>-0.79</ele>
			</trkpt>
			<trkpt lat="52.53132" lon="6.12933">
				<ele>-0.79</ele>
			</trkpt>
			<trkpt lat="52.53125" lon="6.12934">
				<ele>-1.12</ele>
			</trkpt>
			<trkpt lat="52.53116" lon="6.12949">
				<ele>-1.12</ele>
			</trkpt>
			<trkpt lat="52.53107" lon="6.12952">
				<ele>-0.44</ele>
			</trkpt>
			<trkpt lat="52.53061" lon="6.12985">
				<ele>-0.39</ele>
			</trkpt>
			<trkpt lat="52.53061" lon="6.12985">
				<ele>-0.39</ele>
			</trkpt>
			<trkpt lat="52.53057" lon="6.12996">
				<ele>0</ele>
			</trkpt>
			<trkpt lat="52.53057" lon="6.13006">
				<ele>0</ele>
			</trkpt>
			<trkpt lat="52.52997" lon="6.13046">
				<ele>0.08</ele>
			</trkpt>
			<trkpt lat="52.52992" lon="6.13027">
				<ele>0</ele>
			</trkpt>
			<trkpt lat="52.52873" lon="6.13106">
				<ele>0</ele>
			</trkpt>
			<trkpt lat="52.52873" lon="6.13106">
				<ele>1</ele>
			</trkpt>
			<trkpt lat="52.52853" lon="6.1312">
				<ele>1</ele>
			</trkpt>
			<trkpt lat="52.52852" lon="6.13144">
				<ele>0.22</ele>
			</trkpt>
			<trkpt lat="52.52807" lon="6.13174">
				<ele>1</ele>
			</trkpt>
			<trkpt lat="52.52851" lon="6.13541">
				<ele>1</ele>
			</trkpt>
			<trkpt lat="52.52851" lon="6.13541">
				<ele>1.32</ele>
			</trkpt>
			<trkpt lat="52.52883" lon="6.13805">
				<ele>1.32</ele>
			</trkpt>
			<trkpt lat="52.52924" lon="6.14103">
				<ele>1.89</ele>
			</trkpt>
			<trkpt lat="52.52943" lon="6.14229">
				<ele>1.03</ele>
			</trkpt>
			<trkpt lat="52.52961" lon="6.14315">
				<ele>1.03</ele>
			</trkpt>
			<trkpt lat="52.52958" lon="6.14329">
				<ele>0.85</ele>
			</trkpt>
			<trkpt lat="52.52954" lon="6.14333">
				<ele>2</ele>
			</trkpt>
			<trkpt lat="52.52954" lon="6.14333">
				<ele>2</ele>
			</trkpt>
			<trkpt lat="52.52908" lon="6.14334">
				<ele>1</ele>
			</trkpt>
			<trkpt lat="52.52879" lon="6.14359">
				<ele>1</ele>
			</trkpt>
			<trkpt lat="52.52848" lon="6.1437">
				<ele>2.51</ele>
			</trkpt>
			<trkpt lat="52.5284" lon="6.14367">
				<ele>1.27</ele>
			</trkpt>
			<trkpt lat="52.52835" lon="6.14358">
				<ele>1.27</ele>
			</trkpt>
			<trkpt lat="52.52828" lon="6.14283">
				<ele>2.96</ele>
			</trkpt>
			<trkpt lat="52.52799" lon="6.14076">
				<ele>2.96</ele>
			</trkpt>
			<trkpt lat="52.52802" lon="6.14054">
				<ele>7.53</ele>
			</trkpt>
			<trkpt lat="52.52801" lon="6.14021">
				<ele>6.19</ele>
			</trkpt>
			<trkpt lat="52.52809" lon="6.14018">
				<ele>6.19</ele>
			</trkpt>
			<trkpt lat="52.52832" lon="6.1418">
				<ele>6.39</ele>
			</trkpt>
			<trkpt lat="52.52891" lon="6.14663">
				<ele>6.39</ele>
			</trkpt>
			<trkpt lat="52.52887" lon="6.14662">
				<ele>6.55</ele>
			</trkpt>
			<trkpt lat="52.5288" lon="6.14647">
				<ele>5.16</ele>
			</trkpt>
			<trkpt lat="52.52873" lon="6.14617">
				<ele>5.16</ele>
			</trkpt>
			<trkpt lat="52.52862" lon="6.14554">
				<ele>7.89</ele>
			</trkpt>
			<trkpt lat="52.52861" lon="6.14532">
				<ele>7.89</ele>
			</trkpt>
			<trkpt lat="52.52866" lon="6.14524">
				<ele>7.58</ele>
			</trkpt>
			<trkpt lat="52.52887" lon="6.14516">
				<ele>5.12</ele>
			</trkpt>
			<trkpt lat="52.52895" lon="6.14516">
				<ele>5.12</ele>
			</trkpt>
			<trkpt lat="52.529" lon="6.14523">
				<ele>6.74</ele>
			</trkpt>
			<trkpt lat="52.52905" lon="6.1455">
				<ele>6.74</ele>
			</trkpt>
			<trkpt lat="52.52922" lon="6.14503">
				<ele>5.32</ele>
			</trkpt>
			<trkpt lat="52.5293" lon="6.14496">
				<ele>3.55</ele>
			</trkpt>
			<trkpt lat="52.52947" lon="6.14491">
				<ele>3.55</ele>
			</trkpt>
			<trkpt lat="52.52947" lon="6.14491">
				<ele>6.38</ele>
			</trkpt>
			<trkpt lat="52.52905" lon="6.1455">
				<ele>6.38</ele>
			</trkpt>
			<trkpt lat="52.52962" lon="6.14814">
				<ele>4.21</ele>
			</trkpt>
			<trkpt lat="52.53154" lon="6.1472">
				<ele>3.98</ele>
			</trkpt>
			<trkpt lat="52.53445" lon="6.15054">
				<ele>3.98</ele>
			</trkpt>
			<trkpt lat="52.53359" lon="6.15467">
				<ele>2.15</ele>
			</trkpt>
			<trkpt lat="52.53565" lon="6.15873">
				<ele>2.15</ele>
			</trkpt>
			<trkpt lat="52.53902" lon="6.163">
				<ele>1.17</ele>
			</trkpt>
			<trkpt lat="52.54296" lon="6.16628">
				<ele>0</ele>
			</trkpt>
			<trkpt lat="52.54459" lon="6.16539">
				<ele>0</ele>
			</trkpt>
			<trkpt lat="52.54561" lon="6.16582">
				<ele>0.36</ele>
			</trkpt>
			<trkpt lat="52.54836" lon="6.16984">
				<ele>0.85</ele>
			</trkpt>
			<trkpt lat="52.55566" lon="6.17472">
				<ele>0.85</ele>
			</trkpt>
			<trkpt lat="52.57541" lon="6.15904">
				<ele>0</ele>
			</trkpt>
			<trkpt lat="52.57819" lon="6.15843">
				<ele>0</ele>
			</trkpt>
			<trkpt lat="52.57887" lon="6.1634">
				<ele>0.6</ele>
			</trkpt>
			<trkpt lat="52.57887" lon="6.1634">
				<ele>0.58</ele>
			</trkpt>
			<trkpt lat="52.58231" lon="6.18696">
				<ele>0.58</ele>
			</trkpt>
			<trkpt lat="52.58322" lon="6.19158">
				<ele>0.37</ele>
			</trkpt>
			<trkpt lat="52.58378" lon="6.19153">
				<ele>0.37</ele>
			</trkpt>
			<trkpt lat="52.58418" lon="6.19205">
				<ele>0.93</ele>
			</trkpt>
			<trkpt lat="52.58459" lon="6.19211">
				<ele>1.19</ele>
			</trkpt>
			<trkpt lat="52.58707" lon="6.19426">
				<ele>1.19</ele>
			</trkpt>
			<trkpt lat="52.58877" lon="6.19444">
				<ele>1.09</ele>
			</trkpt>
			<trkpt lat="52.58871" lon="6.19528">
				<ele>1.09</ele>
			</trkpt>
			<trkpt lat="52.58871" lon="6.19528">
				<ele>0.96</ele>
			</trkpt>
			<trkpt lat="52.58877" lon="6.19444">
				<ele>-0.84</ele>
			</trkpt>
			<trkpt lat="52.59024" lon="6.19448">
				<ele>-0.84</ele>
			</trkpt>
			<trkpt lat="52.59054" lon="6.19457">
				<ele>0</ele>
			</trkpt>
			<trkpt lat="52.59239" lon="6.19439">
				<ele>0</ele>
			</trkpt>
			<trkpt lat="52.59249" lon="6.19352">
				<ele>0.09</ele>
			</trkpt>
			<trkpt lat="52.5928" lon="6.19205">
				<ele>-0.36</ele>
			</trkpt>
			<trkpt lat="52.59301" lon="6.19">
				<ele>-0.36</ele>
			</trkpt>
			<trkpt lat="52.5932" lon="6.18663">
				<ele>0</ele>
			</trkpt>
			<trkpt lat="52.59322" lon="6.18511">
				<ele>0</ele>
			</trkpt>
			<trkpt lat="52.59322" lon="6.18511">
				<ele>0.3</ele>
			</trkpt>
			<trkpt lat="52.59322" lon="6.18373">
				<ele>1.65</ele>
			</trkpt>
			<trkpt lat="52.60887" lon="6.18635">
				<ele>1.65</ele>
			</trkpt>
			<trkpt lat="52.60887" lon="6.18635">
				<ele>2.81</ele>
			</trkpt>
			<trkpt lat="52.60972" lon="6.18649">
				<ele>2.81</ele>
			</trkpt>
			<trkpt lat="52.60952" lon="6.18734">
				<ele>3.43</ele>
			</trkpt>
			<trkpt lat="52.60763" lon="6.19395">
				<ele>2.91</ele>
			</trkpt>
			<trkpt lat="52.6076" lon="6.19419">
				<ele>2.91</ele>
			</trkpt>
			<trkpt lat="52.60761" lon="6.1945">
				<ele>2.21</ele>
			</trkpt>
			<trkpt lat="52.60763" lon="6.19459">
				<ele>2.21</ele>
			</trkpt>
			<trkpt lat="52.60813" lon="6.19427">
				<ele>1.26</ele>
			</trkpt>
			<trkpt lat="52.60851" lon="6.19401">
				<ele>2.8</ele>
			</trkpt>
			<trkpt lat="52.60925" lon="6.19339">
				<ele>2.8</ele>
			</trkpt>
			<trkpt lat="52.60932" lon="6.19381">
				<ele>3.26</ele>
			</trkpt>
			<trkpt lat="52.60924" lon="6.19422">
				<ele>1.96</ele>
			</trkpt>
			<trkpt lat="52.60922" lon="6.19455">
				<ele>1.96</ele>
			</trkpt>
			<trkpt lat="52.60927" lon="6.19497">
				<ele>2.41</ele>
			</trkpt>
			<trkpt lat="52.60932" lon="6.19509">
				<ele>2.41</ele>
			</trkpt>
			<trkpt lat="52.61064" lon="6.19731">
				<ele>3.29</ele>
			</trkpt>
			<trkpt lat="52.61064" lon="6.19731">
				<ele>1.65</ele>
			</trkpt>
			<trkpt lat="52.61556" lon="6.20479">
				<ele>1.65</ele>
			</trkpt>
			<trkpt lat="52.61658" lon="6.20696">
				<ele>1.29</ele>
			</trkpt>
			<trkpt lat="52.61756" lon="6.20699">
				<ele>1.29</ele>
			</trkpt>
			<trkpt lat="52.62031" lon="6.20293">
				<ele>0.71</ele>
			</trkpt>
			<trkpt lat="52.62169" lon="6.20457">
				<ele>1.05</ele>
			</trkpt>
			<trkpt lat="52.62203" lon="6.20548">
				<ele>1.05</ele>
			</trkpt>
			<trkpt lat="52.62169" lon="6.20584">
				<ele>0.99</ele>
			</trkpt>
			<trkpt lat="52.6215" lon="6.20632">
				<ele>0.99</ele>
			</trkpt>
			<trkpt lat="52.62147" lon="6.20991">
				<ele>0.21</ele>
			</trkpt>
			<trkpt lat="52.62123" lon="6.21038">
				<ele>0.41</ele>
			</trkpt>
			<trkpt lat="52.61956" lon="6.21227">
				<ele>0.41</ele>
			</trkpt>
			<trkpt lat="52.62492" lon="6.22311">
				<ele>0.36</ele>
			</trkpt>
			<trkpt lat="52.62492" lon="6.22311">
				<ele>0.36</ele>
			</trkpt>
			<trkpt lat="52.62557" lon="6.22438">
				<ele>0.24</ele>
			</trkpt>
			<trkpt lat="52.627" lon="6.22239">
				<ele>0.04</ele>
			</trkpt>
			<trkpt lat="52.62746" lon="6.22464">
				<ele>0.04</ele>
			</trkpt>
			<trkpt lat="52.63194" lon="6.23446">
				<ele>0.1</ele>
			</trkpt>
			<trkpt lat="52.63551" lon="6.24889">
				<ele>0.1</ele>
			</trkpt>
			<trkpt lat="52.63671" lon="6.25162">
				<ele>0.19</ele>
			</trkpt>
			<trkpt lat="52.63716" lon="6.25749">
				<ele>0.41</ele>
			</trkpt>
			<trkpt lat="52.63629" lon="6.25832">
				<ele>0.41</ele>
			</trkpt>
			<trkpt lat="52.63629" lon="6.25832">
				<ele>2.3</ele>
			</trkpt>
			<trkpt lat="52.63716" lon="6.25749">
				<ele>2.3</ele>
			</trkpt>
			<trkpt lat="52.63733" lon="6.26265">
				<ele>0.08</ele>
			</trkpt>
			<trkpt lat="52.63887" lon="6.26889">
				<ele>0.46</ele>
			</trkpt>
			<trkpt lat="52.6392" lon="6.26867">
				<ele>0.46</ele>
			</trkpt>
			<trkpt lat="52.63948" lon="6.26969">
				<ele>0.6</ele>
			</trkpt>
			<trkpt lat="52.64213" lon="6.26792">
				<ele>0.6</ele>
			</trkpt>
			<trkpt lat="52.64362" lon="6.26658">
				<ele>0.83</ele>
			</trkpt>
			<trkpt lat="52.6443" lon="6.26624">
				<ele>0.21</ele>
			</trkpt>
			<trkpt lat="52.64491" lon="6.2662">
				<ele>0.21</ele>
			</trkpt>
			<trkpt lat="52.64649" lon="6.26668">
				<ele>0.61</ele>
			</trkpt>
			<trkpt lat="52.64792" lon="6.26596">
				<ele>0.13</ele>
			</trkpt>
			<trkpt lat="52.64783" lon="6.26757">
				<ele>0.13</ele>
			</trkpt>
			<trkpt lat="52.64807" lon="6.26746">
				<ele>0.3</ele>
			</trkpt>
			<trkpt lat="52.64807" lon="6.26746">
				<ele>0.3</ele>
			</trkpt>
			<trkpt lat="52.64783" lon="6.26757">
				<ele>0.15</ele>
			</trkpt>
			<trkpt lat="52.64792" lon="6.26596">
				<ele>0.05</ele>
			</trkpt>
			<trkpt lat="52.64929" lon="6.26487">
				<ele>0.05</ele>
			</trkpt>
			<trkpt lat="52.64952" lon="6.26444">
				<ele>0.39</ele>
			</trkpt>
			<trkpt lat="52.65153" lon="6.26268">
				<ele>0.39</ele>
			</trkpt>
			<trkpt lat="52.65202" lon="6.26244">
				<ele>1.34</ele>
			</trkpt>
			<trkpt lat="52.65401" lon="6.26271">
				<ele>0.26</ele>
			</trkpt>
			<trkpt lat="52.65535" lon="6.26364">
				<ele>0.26</ele>
			</trkpt>
			<trkpt lat="52.65589" lon="6.26364">
				<ele>0.43</ele>
			</trkpt>
			<trkpt lat="52.65846" lon="6.26261">
				<ele>0.43</ele>
			</trkpt>
			<trkpt lat="52.66063" lon="6.26434">
				<ele>0.48</ele>
			</trkpt>
			<trkpt lat="52.66307" lon="6.26398">
				<ele>0.36</ele>
			</trkpt>
			<trkpt lat="52.66307" lon="6.26398">
				<ele>0.36</ele>
			</trkpt>
			<trkpt lat="52.66388" lon="6.26388">
				<ele>0.57</ele>
			</trkpt>
			<trkpt lat="52.6643" lon="6.26437">
				<ele>0.57</ele>
			</trkpt>
			<trkpt lat="52.66482" lon="6.26348">
				<ele>-0.09</ele>
			</trkpt>
			<trkpt lat="52.66647" lon="6.26193">
				<ele>1.03</ele>
			</trkpt>
			<trkpt lat="52.66647" lon="6.26169">
				<ele>1.03</ele>
			</trkpt>
			<trkpt lat="52.66303" lon="6.25315">
				<ele>1.04</ele>
			</trkpt>
			<trkpt lat="52.65836" lon="6.2424">
				<ele>1.04</ele>
			</trkpt>
			<trkpt lat="52.66252" lon="6.23826">
				<ele>1.01</ele>
			</trkpt>
			<trkpt lat="52.66252" lon="6.23826">
				<ele>0.72</ele>
			</trkpt>
			<trkpt lat="52.66297" lon="6.23785">
				<ele>0.72</ele>
			</trkpt>
			<trkpt lat="52.66332" lon="6.2257">
				<ele>0.43</ele>
			</trkpt>
			<trkpt lat="52.66274" lon="6.21906">
				<ele>0.43</ele>
			</trkpt>
			<trkpt lat="52.66131" lon="6.21182">
				<ele>0.4</ele>
			</trkpt>
			<trkpt lat="52.66045" lon="6.2126">
				<ele>-0.04</ele>
			</trkpt>
			<trkpt lat="52.66045" lon="6.2126">
				<ele>-0.04</ele>
			</trkpt>
			<trkpt lat="52.66131" lon="6.21182">
				<ele>0.23</ele>
			</trkpt>
			<trkpt lat="52.65893" lon="6.2046">
				<ele>0.23</ele>
			</trkpt>
			<trkpt lat="52.65841" lon="6.2026">
				<ele>-0.05</ele>
			</trkpt>
			<trkpt lat="52.65826" lon="6.20124">
				<ele>0.76</ele>
			</trkpt>
			<trkpt lat="52.65561" lon="6.20177">
				<ele>0.76</ele>
			</trkpt>
			<trkpt lat="52.6553" lon="6.19827">
				<ele>0.6</ele>
			</trkpt>
			<trkpt lat="52.65535" lon="6.1977">
				<ele>0.53</ele>
			</trkpt>
			<trkpt lat="52.65562" lon="6.19718">
				<ele>0.53</ele>
			</trkpt>
			<trkpt lat="52.65603" lon="6.19701">
				<ele>1.88</ele>
			</trkpt>
			<trkpt lat="52.65836" lon="6.19709">
				<ele>1.88</ele>
			</trkpt>
			<trkpt lat="52.65896" lon="6.19756">
				<ele>1.45</ele>
			</trkpt>
			<trkpt lat="52.65918" lon="6.19738">
				<ele>2.8</ele>
			</trkpt>
			<trkpt lat="52.65965" lon="6.19746">
				<ele>2.8</ele>
			</trkpt>
			<trkpt lat="52.66328" lon="6.19686">
				<ele>3.09</ele>
			</trkpt>
			<trkpt lat="52.66692" lon="6.19594">
				<ele>3.09</ele>
			</trkpt>
			<trkpt lat="52.66666" lon="6.19312">
				<ele>3.13</ele>
			</trkpt>
			<trkpt lat="52.66666" lon="6.19312">
				<ele>2.49</ele>
			</trkpt>
			<trkpt lat="52.66589" lon="6.18476">
				<ele>2.49</ele>
			</trkpt>
			<trkpt lat="52.66103" lon="6.16959">
				<ele>3.13</ele>
			</trkpt>
			<trkpt lat="52.65281" lon="6.1523">
				<ele>3.13</ele>
			</trkpt>
			<trkpt lat="52.65064" lon="6.15096">
				<ele>2.5</ele>
			</trkpt>
			<trkpt lat="52.65064" lon="6.15096">
				<ele>3.92</ele>
			</trkpt>
			<trkpt lat="52.64316" lon="6.14661">
				<ele>3.92</ele>
			</trkpt>
			<trkpt lat="52.64011" lon="6.14705">
				<ele>4.28</ele>
			</trkpt>
			<trkpt lat="52.63975" lon="6.14123">
				<ele>4.28</ele>
			</trkpt>
			<trkpt lat="52.63551" lon="6.14182">
				<ele>4.94</ele>
			</trkpt>
			<trkpt lat="52.63551" lon="6.14182">
				<ele>4.96</ele>
			</trkpt>
			<trkpt lat="52.62242" lon="6.14362">
				<ele>4.96</ele>
			</trkpt>
			<trkpt lat="52.6215" lon="6.13649">
				<ele>5.02</ele>
			</trkpt>
			<trkpt lat="52.60995" lon="6.13808">
				<ele>5.02</ele>
			</trkpt>
			<trkpt lat="52.60673" lon="6.13968">
				<ele>3.01</ele>
			</trkpt>
			<trkpt lat="52.59613" lon="6.14501">
				<ele>5.6</ele>
			</trkpt>
			<trkpt lat="52.59562" lon="6.13668">
				<ele>5.6</ele>
			</trkpt>
			<trkpt lat="52.58948" lon="6.13998">
				<ele>4.67</ele>
			</trkpt>
			<trkpt lat="52.58913" lon="6.13549">
				<ele>4.67</ele>
			</trkpt>
			<trkpt lat="52.58753" lon="6.12747">
				<ele>0.87</ele>
			</trkpt>
			<trkpt lat="52.58722" lon="6.12764">
				<ele>2.03</ele>
			</trkpt>
			<trkpt lat="52.58663" lon="6.12714">
				<ele>2.03</ele>
			</trkpt>
			<trkpt lat="52.58622" lon="6.12773">
				<ele>1.17</ele>
			</trkpt>
			<trkpt lat="52.5833" lon="6.1297">
				<ele>1.17</ele>
			</trkpt>
			<trkpt lat="52.58252" lon="6.12566">
				<ele>1.53</ele>
			</trkpt>
			<trkpt lat="52.58252" lon="6.12566">
				<ele>2.71</ele>
			</trkpt>
			<trkpt lat="52.5824" lon="6.12364">
				<ele>2.71</ele>
			</trkpt>
			<trkpt lat="52.58276" lon="6.12104">
				<ele>0.91</ele>
			</trkpt>
			<trkpt lat="52.58301" lon="6.12107">
				<ele>0.19</ele>
			</trkpt>
			<trkpt lat="52.58319" lon="6.11831">
				<ele>0.19</ele>
			</trkpt>
			<trkpt lat="52.58304" lon="6.11692">
				<ele>0.57</ele>
			</trkpt>
			<trkpt lat="52.58232" lon="6.1142">
				<ele>0.57</ele>
			</trkpt>
			<trkpt lat="52.58226" lon="6.11247">
				<ele>0.69</ele>
			</trkpt>
			<trkpt lat="52.58262" lon="6.11109">
				<ele>1.04</ele>
			</trkpt>
			<trkpt lat="52.58237" lon="6.10993">
				<ele>1.04</ele>
			</trkpt>
			<trkpt lat="52.58262" lon="6.10887">
				<ele>1.3</ele>
			</trkpt>
			<trkpt lat="52.58594" lon="6.1008">
				<ele>1.3</ele>
			</trkpt>
			<trkpt lat="52.58672" lon="6.09869">
				<ele>0.6</ele>
			</trkpt>
			<trkpt lat="52.58687" lon="6.09763">
				<ele>0.27</ele>
			</trkpt>
			<trkpt lat="52.58779" lon="6.09675">
				<ele>0.27</ele>
			</trkpt>
			<trkpt lat="52.58884" lon="6.09487">
				<ele>-0.3</ele>
			</trkpt>
			<trkpt lat="52.58889" lon="6.09335">
				<ele>-0.3</ele>
			</trkpt>
			<trkpt lat="52.59034" lon="6.08848">
				<ele>2.09</ele>
			</trkpt>
			<trkpt lat="52.59089" lon="6.088">
				<ele>0.95</ele>
			</trkpt>
			<trkpt lat="52.59265" lon="6.08777">
				<ele>0.95</ele>
			</trkpt>
			<trkpt lat="52.59106" lon="6.08393">
				<ele>1.01</ele>
			</trkpt>
			<trkpt lat="52.59046" lon="6.08359">
				<ele>1.01</ele>
			</trkpt>
			<trkpt lat="52.58973" lon="6.08403">
				<ele>1.3</ele>
			</trkpt>
			<trkpt lat="52.5896" lon="6.08333">
				<ele>1.16</ele>
			</trkpt>
			<trkpt lat="52.58978" lon="6.08159">
				<ele>1.16</ele>
			</trkpt>
			<trkpt lat="52.58909" lon="6.08118">
				<ele>0.94</ele>
			</trkpt>
			<trkpt lat="52.58879" lon="6.08171">
				<ele>0.94</ele>
			</trkpt>
			<trkpt lat="52.58659" lon="6.08323">
				<ele>0.85</ele>
			</trkpt>
			<trkpt lat="52.58659" lon="6.08323">
				<ele>1.89</ele>
			</trkpt>
			<trkpt lat="52.58402" lon="6.08497">
				<ele>1.89</ele>
			</trkpt>
			<trkpt lat="52.58412" lon="6.08724">
				<ele>2.73</ele>
			</trkpt>
			<trkpt lat="52.57288" lon="6.08371">
				<ele>2.73</ele>
			</trkpt>
			<trkpt lat="52.55904" lon="6.07386">
				<ele>2.62</ele>
			</trkpt>
			<trkpt lat="52.55663" lon="6.07239">
				<ele>2.85</ele>
			</trkpt>
			<trkpt lat="52.55537" lon="6.07263">
				<ele>2.85</ele>
			</trkpt>
			<trkpt lat="52.5535" lon="6.06771">
				<ele>2.84</ele>
			</trkpt>
			<trkpt lat="52.53328" lon="6.05691">
				<ele>2.84</ele>
			</trkpt>
			<trkpt lat="52.53156" lon="6.05742">
				<ele>1.73</ele>
			</trkpt>
			<trkpt lat="52.53082" lon="6.06004">
				<ele>3.41</ele>
			</trkpt>
			<trkpt lat="52.5286" lon="6.06362">
				<ele>3.41</ele>
			</trkpt>
			<trkpt lat="52.52826" lon="6.06276">
				<ele>1.7</ele>
			</trkpt>
		</trkseg>
	</trk>
</gpx>