<?xml version="1.0" encoding="UTF-8"?>
<gpx version="1.1" creator="https://www.hammerhead.io" xmlns:xsi="http://www.w3.org/2001/XMLSchema-instance" xmlns="http://www.topografix.com/GPX/1/1" xsi:schemaLocation="http://www.topografix.com/GPX/1/1 http://www.topografix.com/GPX/1/1/gpx.xsd"><metadata><name>Zwolle West 35k</name><time>0001-01-01T00:00:00Z</time></metadata><trk><name>Zwolle West 35k</name><trkseg><trkpt lat="52.51343" lon="6.08938"></trkpt><trkpt lat="52.51354" lon="6.08946"></trkpt><trkpt lat="52.51364" lon="6.08908"></trkpt><trkpt lat="52.51366" lon="6.08902"></trkpt><trkpt lat="52.51369" lon="6.08888"></trkpt><trkpt lat="52.51373" lon="6.08876"></trkpt><trkpt lat="52.51376" lon="6.08867"></trkpt><trkpt lat="52.51379" lon="6.08859"></trkpt><trkpt lat="52.51381" lon="6.08856"></trkpt><trkpt lat="52.51382" lon="6.08853"></trkpt><trkpt lat="52.51385" lon="6.08848"></trkpt><trkpt lat="52.51392" lon="6.08833"></trkpt><trkpt lat="52.51397" lon="6.08821"></trkpt><trkpt lat="52.51401" lon="6.08807"></trkpt><trkpt lat="52.51403" lon="6.08799"></trkpt><trkpt lat="52.51404" lon="6.08792"></trkpt><trkpt lat="52.51405" lon="6.08782"></trkpt><trkpt lat="52.51406" lon="6.08774"></trkpt><trkpt lat="52.51408" lon="6.0877"></trkpt><trkpt lat="52.5141" lon="6.08766"></trkpt><trkpt lat="52.51415" lon="6.08758"></trkpt><trkpt lat="52.51422" lon="6.08748"></trkpt><trkpt lat="52.51423" lon="6.08745"></trkpt><trkpt lat="52.51425" lon="6.08742"></trkpt><trkpt lat="52.51432" lon="6.08729"></trkpt><trkpt lat="52.51435" lon="6.08723"></trkpt><trkpt lat="52.51437" lon="6.08713"></trkpt><trkpt lat="52.51442" lon="6.08719"></trkpt><trkpt lat="52.51445" lon="6.08724"></trkpt><trkpt lat="52.51449" lon="6.08731"></trkpt><trkpt lat="52.51452" lon="6.08736"></trkpt><trkpt lat="52.51478" lon="6.08761"></trkpt><trkpt lat="52.51514" lon="6.08792"></trkpt><trkpt lat="52.51524" lon="6.088"></trkpt><trkpt lat="52.51536" lon="6.08811"></trkpt><trkpt lat="52.51572" lon="6.08841"></trkpt><trkpt lat="52.51579" lon="6.08845"></trkpt><trkpt lat="52.51594" lon="6.08855"></trkpt><trkpt lat="52.51598" lon="6.08857"></trkpt><trkpt lat="52.51601" lon="6.08858"></trkpt><trkpt lat="52.51604" lon="6.08858"></trkpt><trkpt lat="52.51606" lon="6.08857"></trkpt><trkpt lat="52.51608" lon="6.08856"></trkpt><trkpt lat="52.51609" lon="6.08855"></trkpt><trkpt lat="52.51616" lon="6.08851"></trkpt><trkpt lat="52.51627" lon="6.08843"></trkpt><trkpt lat="52.5163" lon="6.08841"></trkpt><trkpt lat="52.51631" lon="6.08839"></trkpt><trkpt lat="52.51633" lon="6.08837"></trkpt><trkpt lat="52.51634" lon="6.08835"></trkpt><trkpt lat="52.51635" lon="6.08833"></trkpt><trkpt lat="52.51636" lon="6.08831"></trkpt><trkpt lat="52.51639" lon="6.08822"></trkpt><trkpt lat="52.51664" lon="6.08743"></trkpt><trkpt lat="52.5167" lon="6.08724"></trkpt><trkpt lat="52.51672" lon="6.0872"></trkpt><trkpt lat="52.51677" lon="6.08705"></trkpt><trkpt lat="52.51681" lon="6.08694"></trkpt><trkpt lat="52.51691" lon="6.08668"></trkpt><trkpt lat="52.517" lon="6.0865"></trkpt><trkpt lat="52.51726" lon="6.08597"></trkpt><trkpt lat="52.51739" lon="6.08577"></trkpt><trkpt lat="52.51753" lon="6.08553"></trkpt><trkpt lat="52.51781" lon="6.08499"></trkpt><trkpt lat="52.51798" lon="6.08466"></trkpt><trkpt lat="52.51816" lon="6.0843"></trkpt><trkpt lat="52.51829" lon="6.08409"></trkpt><trkpt lat="52.51832" lon="6.08405"></trkpt><trkpt lat="52.51836" lon="6.08399"></trkpt><trkpt lat="52.5188" lon="6.08317"></trkpt><trkpt lat="52.5191" lon="6.08262"></trkpt><trkpt lat="52.51934" lon="6.08217"></trkpt><trkpt lat="52.51937" lon="6.08211"></trkpt><trkpt lat="52.51942" lon="6.08204"></trkpt><trkpt lat="52.51964" lon="6.08162"></trkpt><trkpt lat="52.51967" lon="6.08157"></trkpt><trkpt lat="52.51976" lon="6.08152"></trkpt><trkpt lat="52.5198" lon="6.08149"></trkpt><trkpt lat="52.51983" lon="6.08146"></trkpt><trkpt lat="52.51991" lon="6.08135"></trkpt><trkpt lat="52.51995" lon="6.08128"></trkpt><trkpt lat="52.51997" lon="6.08124"></trkpt><trkpt lat="52.51999" lon="6.08119"></trkpt><trkpt lat="52.52001" lon="6.08105"></trkpt><trkpt lat="52.52003" lon="6.08098"></trkpt><trkpt lat="52.52006" lon="6.08093"></trkpt><trkpt lat="52.52018" lon="6.08077"></trkpt><trkpt lat="52.5203" lon="6.08063"></trkpt><trkpt lat="52.52034" lon="6.08059"></trkpt><trkpt lat="52.52043" lon="6.08049"></trkpt><trkpt lat="52.5205" lon="6.0804"></trkpt><trkpt lat="52.52054" lon="6.08027"></trkpt><trkpt lat="52.52075" lon="6.08008"></trkpt><trkpt lat="52.52096" lon="6.07991"></trkpt><trkpt lat="52.52095" lon="6.0798"></trkpt><trkpt lat="52.52091" lon="6.07949"></trkpt><trkpt lat="52.52092" lon="6.07931"></trkpt><trkpt lat="52.52095" lon="6.07922"></trkpt><trkpt lat="52.52099" lon="6.07918"></trkpt><trkpt lat="52.5213" lon="6.07893"></trkpt><trkpt lat="52.52138" lon="6.07886"></trkpt><trkpt lat="52.52142" lon="6.07883"></trkpt><trkpt lat="52.52143" lon="6.07882"></trkpt><trkpt lat="52.52168" lon="6.0786"></trkpt><trkpt lat="52.52181" lon="6.07849"></trkpt><trkpt lat="52.52188" lon="6.07842"></trkpt><trkpt lat="52.52196" lon="6.07835"></trkpt><trkpt lat="52.52209" lon="6.07825"></trkpt><trkpt lat="52.52234" lon="6.07804"></trkpt><trkpt lat="52.52248" lon="6.07793"></trkpt><trkpt lat="52.52253" lon="6.07789"></trkpt><trkpt lat="52.52268" lon="6.07777"></trkpt><trkpt lat="52.52278" lon="6.07771"></trkpt><trkpt lat="52.52305" lon="6.07755"></trkpt><trkpt lat="52.52323" lon="6.07745"></trkpt><trkpt lat="52.52335" lon="6.07737"></trkpt><trkpt lat="52.52338" lon="6.07736"></trkpt><trkpt lat="52.5234" lon="6.07736"></trkpt><trkpt lat="52.52347" lon="6.07733"></trkpt><trkpt lat="52.52351" lon="6.0773"></trkpt><trkpt lat="52.52369" lon="6.07721"></trkpt><trkpt lat="52.52371" lon="6.07719"></trkpt><trkpt lat="52.52375" lon="6.07715"></trkpt><trkpt lat="52.52377" lon="6.07713"></trkpt><trkpt lat="52.52381" lon="6.0771"></trkpt><trkpt lat="52.52421" lon="6.07688"></trkpt><trkpt lat="52.52438" lon="6.07679"></trkpt><trkpt lat="52.52454" lon="6.0767"></trkpt><trkpt lat="52.52478" lon="6.0766"></trkpt><trkpt lat="52.52523" lon="6.07643"></trkpt><trkpt lat="52.52565" lon="6.07628"></trkpt><trkpt lat="52.52583" lon="6.07622"></trkpt><trkpt lat="52.52609" lon="6.07615"></trkpt><trkpt lat="52.5264" lon="6.07608"></trkpt><trkpt lat="52.5264" lon="6.07578"></trkpt><trkpt lat="52.52641" lon="6.0753"></trkpt><trkpt lat="52.52641" lon="6.07512"></trkpt><trkpt lat="52.52641" lon="6.07482"></trkpt><trkpt lat="52.52641" lon="6.07449"></trkpt><trkpt lat="52.52642" lon="6.07429"></trkpt><trkpt lat="52.52645" lon="6.07414"></trkpt><trkpt lat="52.5265" lon="6.074"></trkpt><trkpt lat="52.52656" lon="6.07388"></trkpt><trkpt lat="52.52693" lon="6.07357"></trkpt><trkpt lat="52.52698" lon="6.07352"></trkpt><trkpt lat="52.52701" lon="6.07347"></trkpt><trkpt lat="52.52704" lon="6.07341"></trkpt><trkpt lat="52.52708" lon="6.07333"></trkpt><trkpt lat="52.5271" lon="6.07328"></trkpt><trkpt lat="52.52711" lon="6.07323"></trkpt><trkpt lat="52.52711" lon="6.07316"></trkpt><trkpt lat="52.52712" lon="6.0731"></trkpt><trkpt lat="52.52712" lon="6.07305"></trkpt><trkpt lat="52.52712" lon="6.07299"></trkpt><trkpt lat="52.5271" lon="6.07281"></trkpt><trkpt lat="52.52709" lon="6.07266"></trkpt><trkpt lat="52.52693" lon="6.07112"></trkpt><trkpt lat="52.52692" lon="6.071"></trkpt><trkpt lat="52.52689" lon="6.07068"></trkpt><trkpt lat="52.52687" lon="6.07045"></trkpt><trkpt lat="52.52684" lon="6.07014"></trkpt><trkpt lat="52.52679" lon="6.06967"></trkpt><trkpt lat="52.52674" lon="6.06919"></trkpt><trkpt lat="52.52671" lon="6.06879"></trkpt><trkpt lat="52.5267" lon="6.06877"></trkpt><trkpt lat="52.5267" lon="6.06871"></trkpt><trkpt lat="52.52666" lon="6.06836"></trkpt><trkpt lat="52.52659" lon="6.06763"></trkpt><trkpt lat="52.52652" lon="6.0669"></trkpt><trkpt lat="52.52658" lon="6.0668"></trkpt><trkpt lat="52.52705" lon="6.0661"></trkpt><trkpt lat="52.52707" lon="6.06607"></trkpt><trkpt lat="52.52731" lon="6.06567"></trkpt><trkpt lat="52.52748" lon="6.0654"></trkpt><trkpt lat="52.52794" lon="6.06465"></trkpt><trkpt lat="52.52799" lon="6.06457"></trkpt><trkpt lat="52.52829" lon="6.06411"></trkpt><trkpt lat="52.5286" lon="6.06362"></trkpt><trkpt lat="52.52899" lon="6.06298"></trkpt><trkpt lat="52.52911" lon="6.06278"></trkpt><trkpt lat="52.52949" lon="6.06218"></trkpt><trkpt lat="52.52976" lon="6.06175"></trkpt><trkpt lat="52.53014" lon="6.06113"></trkpt><trkpt lat="52.53024" lon="6.06098"></trkpt><trkpt lat="52.53064" lon="6.06035"></trkpt><trkpt lat="52.53065" lon="6.06032"></trkpt><trkpt lat="52.53074" lon="6.06018"></trkpt><trkpt lat="52.53082" lon="6.06006"></trkpt><trkpt lat="52.53082" lon="6.06004"></trkpt><trkpt lat="52.5311" lon="6.05908"></trkpt><trkpt lat="52.53135" lon="6.05819"></trkpt><trkpt lat="52.53147" lon="6.05775"></trkpt><trkpt lat="52.53156" lon="6.05742"></trkpt><trkpt lat="52.53182" lon="6.0565"></trkpt><trkpt lat="52.53196" lon="6.056"></trkpt><trkpt lat="52.53216" lon="6.0553"></trkpt><trkpt lat="52.53219" lon="6.05519"></trkpt><trkpt lat="52.5322" lon="6.05511"></trkpt><trkpt lat="52.5322" lon="6.05504"></trkpt><trkpt lat="52.53211" lon="6.05398"></trkpt><trkpt lat="52.5321" lon="6.05386"></trkpt><trkpt lat="52.53209" lon="6.05376"></trkpt><trkpt lat="52.53206" lon="6.05354"></trkpt><trkpt lat="52.53203" lon="6.05342"></trkpt><trkpt lat="52.53199" lon="6.05322"></trkpt><trkpt lat="52.53198" lon="6.05315"></trkpt><trkpt lat="52.53198" lon="6.05309"></trkpt><trkpt lat="52.532" lon="6.05302"></trkpt><trkpt lat="52.53202" lon="6.05298"></trkpt><trkpt lat="52.53209" lon="6.05287"></trkpt><trkpt lat="52.53217" lon="6.05278"></trkpt><trkpt lat="52.53225" lon="6.0527"></trkpt><trkpt lat="52.53236" lon="6.0526"></trkpt><trkpt lat="52.53246" lon="6.05253"></trkpt><trkpt lat="52.53257" lon="6.05246"></trkpt><trkpt lat="52.53269" lon="6.05239"></trkpt><trkpt lat="52.53295" lon="6.05222"></trkpt><trkpt lat="52.53299" lon="6.05219"></trkpt><trkpt lat="52.53304" lon="6.05215"></trkpt><trkpt lat="52.53311" lon="6.05211"></trkpt><trkpt lat="52.53339" lon="6.05193"></trkpt><trkpt lat="52.53341" lon="6.05191"></trkpt><trkpt lat="52.53362" lon="6.05177"></trkpt><trkpt lat="52.53407" lon="6.05145"></trkpt><trkpt lat="52.53453" lon="6.05111"></trkpt><trkpt lat="52.53455" lon="6.0511"></trkpt><trkpt lat="52.53579" lon="6.0502"></trkpt><trkpt lat="52.53657" lon="6.04961"></trkpt><trkpt lat="52.53672" lon="6.04951"></trkpt><trkpt lat="52.53719" lon="6.04916"></trkpt><trkpt lat="52.53776" lon="6.04874"></trkpt><trkpt lat="52.53872" lon="6.04803"></trkpt><trkpt lat="52.53906" lon="6.04778"></trkpt><trkpt lat="52.53942" lon="6.04752"></trkpt><trkpt lat="52.53991" lon="6.04716"></trkpt><trkpt lat="52.54028" lon="6.04689"></trkpt><trkpt lat="52.54029" lon="6.04688"></trkpt><trkpt lat="52.54064" lon="6.04662"></trkpt><trkpt lat="52.54124" lon="6.04618"></trkpt><trkpt lat="52.54132" lon="6.04612"></trkpt><trkpt lat="52.54147" lon="6.04601"></trkpt><trkpt lat="52.54258" lon="6.04519"></trkpt><trkpt lat="52.54326" lon="6.04469"></trkpt><trkpt lat="52.54499" lon="6.04342"></trkpt><trkpt lat="52.54598" lon="6.04268"></trkpt><trkpt lat="52.54696" lon="6.04196"></trkpt><trkpt lat="52.54712" lon="6.04184"></trkpt><trkpt lat="52.54728" lon="6.04173"></trkpt><trkpt lat="52.5474" lon="6.04165"></trkpt><trkpt lat="52.54745" lon="6.04162"></trkpt><trkpt lat="52.54762" lon="6.04151"></trkpt><trkpt lat="52.54776" lon="6.04143"></trkpt><trkpt lat="52.54779" lon="6.04141"></trkpt><trkpt lat="52.54781" lon="6.04136"></trkpt><trkpt lat="52.54785" lon="6.04139"></trkpt><trkpt lat="52.54788" lon="6.04139"></trkpt><trkpt lat="52.54791" lon="6.04138"></trkpt><trkpt lat="52.54799" lon="6.04133"></trkpt><trkpt lat="52.54812" lon="6.04126"></trkpt><trkpt lat="52.5484" lon="6.04111"></trkpt><trkpt lat="52.54845" lon="6.04114"></trkpt><trkpt lat="52.54848" lon="6.04114"></trkpt><trkpt lat="52.54851" lon="6.04113"></trkpt><trkpt lat="52.54901" lon="6.04077"></trkpt><trkpt lat="52.54911" lon="6.04069"></trkpt><trkpt lat="52.54927" lon="6.0406"></trkpt><trkpt lat="52.54983" lon="6.0402"></trkpt><trkpt lat="52.55141" lon="6.03906"></trkpt><trkpt lat="52.55148" lon="6.03903"></trkpt><trkpt lat="52.55154" lon="6.039"></trkpt><trkpt lat="52.55162" lon="6.03895"></trkpt><trkpt lat="52.55168" lon="6.03889"></trkpt><trkpt lat="52.55174" lon="6.03883"></trkpt><trkpt lat="52.55179" lon="6.03878"></trkpt><trkpt lat="52.55215" lon="6.03851"></trkpt><trkpt lat="52.55225" lon="6.03844"></trkpt><trkpt lat="52.55237" lon="6.03836"></trkpt><trkpt lat="52.5525" lon="6.03827"></trkpt><trkpt lat="52.55282" lon="6.03803"></trkpt><trkpt lat="52.55357" lon="6.03748"></trkpt><trkpt lat="52.55422" lon="6.03698"></trkpt><trkpt lat="52.55429" lon="6.03694"></trkpt><trkpt lat="52.55437" lon="6.0369"></trkpt><trkpt lat="52.55444" lon="6.03686"></trkpt><trkpt lat="52.55449" lon="6.03681"></trkpt><trkpt lat="52.55454" lon="6.03676"></trkpt><trkpt lat="52.5546" lon="6.03668"></trkpt><trkpt lat="52.55469" lon="6.03661"></trkpt><trkpt lat="52.55545" lon="6.03601"></trkpt><trkpt lat="52.55581" lon="6.03573"></trkpt><trkpt lat="52.55633" lon="6.03534"></trkpt><trkpt lat="52.55634" lon="6.03533"></trkpt><trkpt lat="52.55711" lon="6.03473"></trkpt><trkpt lat="52.55766" lon="6.03432"></trkpt><trkpt lat="52.55824" lon="6.03386"></trkpt><trkpt lat="52.55897" lon="6.03332"></trkpt><trkpt lat="52.55967" lon="6.03279"></trkpt><trkpt lat="52.56057" lon="6.03208"></trkpt><trkpt lat="52.5613" lon="6.03155"></trkpt><trkpt lat="52.56188" lon="6.03111"></trkpt><trkpt lat="52.5627" lon="6.03051"></trkpt><trkpt lat="52.56288" lon="6.03037"></trkpt><trkpt lat="52.56335" lon="6.03003"></trkpt><trkpt lat="52.56366" lon="6.02981"></trkpt><trkpt lat="52.56614" lon="6.02796"></trkpt><trkpt lat="52.56664" lon="6.02759"></trkpt><trkpt lat="52.56676" lon="6.0275"></trkpt><trkpt lat="52.56697" lon="6.02734"></trkpt><trkpt lat="52.56807" lon="6.02651"></trkpt><trkpt lat="52.57017" lon="6.02493"></trkpt><trkpt lat="52.57097" lon="6.02427"></trkpt><trkpt lat="52.57098" lon="6.02426"></trkpt><trkpt lat="52.57135" lon="6.02392"></trkpt><trkpt lat="52.57279" lon="6.02282"></trkpt><trkpt lat="52.57302" lon="6.02265"></trkpt><trkpt lat="52.57323" lon="6.02251"></trkpt><trkpt lat="52.57334" lon="6.02246"></trkpt><trkpt lat="52.57361" lon="6.02234"></trkpt><trkpt lat="52.57367" lon="6.02245"></trkpt><trkpt lat="52.57372" lon="6.02257"></trkpt><trkpt lat="52.57372" lon="6.02258"></trkpt><trkpt lat="52.5738" lon="6.02287"></trkpt><trkpt lat="52.5739" lon="6.02319"></trkpt><trkpt lat="52.5738" lon="6.02287"></trkpt><trkpt lat="52.57372" lon="6.02258"></trkpt><trkpt lat="52.57372" lon="6.02257"></trkpt><trkpt lat="52.57367" lon="6.02245"></trkpt><trkpt lat="52.57361" lon="6.02234"></trkpt><trkpt lat="52.57359" lon="6.02225"></trkpt><trkpt lat="52.57357" lon="6.02215"></trkpt><trkpt lat="52.5735" lon="6.02218"></trkpt><trkpt lat="52.57335" lon="6.02224"></trkpt><trkpt lat="52.57331" lon="6.02225"></trkpt><trkpt lat="52.57327" lon="6.02224"></trkpt><trkpt lat="52.57324" lon="6.02223"></trkpt><trkpt lat="52.57322" lon="6.02221"></trkpt><trkpt lat="52.5732" lon="6.02218"></trkpt><trkpt lat="52.57313" lon="6.02195"></trkpt><trkpt lat="52.57294" lon="6.02129"></trkpt><trkpt lat="52.5729" lon="6.02113"></trkpt><trkpt lat="52.57283" lon="6.0209"></trkpt><trkpt lat="52.57273" lon="6.02061"></trkpt><trkpt lat="52.57257" lon="6.02006"></trkpt><trkpt lat="52.57235" lon="6.01929"></trkpt><trkpt lat="52.57088" lon="6.01409"></trkpt><trkpt lat="52.56991" lon="6.01063"></trkpt><trkpt lat="52.56832" lon="6.00501"></trkpt><trkpt lat="52.56697" lon="6.00019"></trkpt><trkpt lat="52.56583" lon="5.99616"></trkpt><trkpt lat="52.56532" lon="5.99438"></trkpt><trkpt lat="52.56522" lon="5.99403"></trkpt><trkpt lat="52.56514" lon="5.99372"></trkpt><trkpt lat="52.56506" lon="5.9934"></trkpt><trkpt lat="52.56499" lon="5.99308"></trkpt><trkpt lat="52.56496" lon="5.99292"></trkpt><trkpt lat="52.56494" lon="5.9928"></trkpt><trkpt lat="52.56493" lon="5.99273"></trkpt><trkpt lat="52.56492" lon="5.99268"></trkpt><trkpt lat="52.56488" lon="5.9927"></trkpt><trkpt lat="52.56485" lon="5.9925"></trkpt><trkpt lat="52.56429" lon="5.99277"></trkpt><trkpt lat="52.56402" lon="5.99175"></trkpt><trkpt lat="52.56331" lon="5.98926"></trkpt><trkpt lat="52.56088" lon="5.98063"></trkpt><trkpt lat="52.55949" lon="5.97563"></trkpt><trkpt lat="52.55758" lon="5.96878"></trkpt><trkpt lat="52.55708" lon="5.96699"></trkpt><trkpt lat="52.55605" lon="5.96337"></trkpt><trkpt lat="52.55539" lon="5.96105"></trkpt><trkpt lat="52.5552" lon="5.96039"></trkpt><trkpt lat="52.55513" lon="5.9601"></trkpt><trkpt lat="52.55506" lon="5.9598"></trkpt><trkpt lat="52.55502" lon="5.95957"></trkpt><trkpt lat="52.55499" lon="5.95928"></trkpt><trkpt lat="52.55488" lon="5.95827"></trkpt><trkpt lat="52.55486" lon="5.95811"></trkpt><trkpt lat="52.55483" lon="5.958"></trkpt><trkpt lat="52.55472" lon="5.95811"></trkpt><trkpt lat="52.55462" lon="5.95821"></trkpt><trkpt lat="52.55455" lon="5.95827"></trkpt><trkpt lat="52.55449" lon="5.95831"></trkpt><trkpt lat="52.55446" lon="5.95831"></trkpt><trkpt lat="52.55444" lon="5.95832"></trkpt><trkpt lat="52.55439" lon="5.95831"></trkpt><trkpt lat="52.55397" lon="5.95813"></trkpt><trkpt lat="52.55375" lon="5.95806"></trkpt><trkpt lat="52.55356" lon="5.95804"></trkpt><trkpt lat="52.5533" lon="5.95805"></trkpt><trkpt lat="52.55307" lon="5.95799"></trkpt><trkpt lat="52.55286" lon="5.95782"></trkpt><trkpt lat="52.55269" lon="5.95767"></trkpt><trkpt lat="52.55237" lon="5.95734"></trkpt><trkpt lat="52.55203" lon="5.95696"></trkpt><trkpt lat="52.55174" lon="5.95656"></trkpt><trkpt lat="52.55168" lon="5.9565"></trkpt><trkpt lat="52.55163" lon="5.95646"></trkpt><trkpt lat="52.55159" lon="5.95646"></trkpt><trkpt lat="52.55155" lon="5.95646"></trkpt><trkpt lat="52.5515" lon="5.95648"></trkpt><trkpt lat="52.55143" lon="5.95653"></trkpt><trkpt lat="52.55137" lon="5.95662"></trkpt><trkpt lat="52.55113" lon="5.95704"></trkpt><trkpt lat="52.54995" lon="5.95926"></trkpt><trkpt lat="52.54984" lon="5.9594"></trkpt><trkpt lat="52.54972" lon="5.95952"></trkpt><trkpt lat="52.54963" lon="5.95958"></trkpt><trkpt lat="52.54953" lon="5.95963"></trkpt><trkpt lat="52.54942" lon="5.95965"></trkpt><trkpt lat="52.5489" lon="5.95963"></trkpt><trkpt lat="52.54839" lon="5.95962"></trkpt><trkpt lat="52.54822" lon="5.95966"></trkpt><trkpt lat="52.54733" lon="5.95988"></trkpt><trkpt lat="52.54701" lon="5.95991"></trkpt><trkpt lat="52.5469" lon="5.9599"></trkpt><trkpt lat="52.54678" lon="5.95989"></trkpt><trkpt lat="52.54457" lon="5.95933"></trkpt><trkpt lat="52.54445" lon="5.95933"></trkpt><trkpt lat="52.54436" lon="5.95935"></trkpt><trkpt lat="52.54429" lon="5.9594"></trkpt><trkpt lat="52.54424" lon="5.95945"></trkpt><trkpt lat="52.54422" lon="5.95936"></trkpt><trkpt lat="52.54421" lon="5.95931"></trkpt><trkpt lat="52.54421" lon="5.95927"></trkpt><trkpt lat="52.54464" lon="5.95819"></trkpt><trkpt lat="52.5454" lon="5.95623"></trkpt><trkpt lat="52.54634" lon="5.95382"></trkpt><trkpt lat="52.5464" lon="5.95366"></trkpt><trkpt lat="52.54649" lon="5.95348"></trkpt><trkpt lat="52.54655" lon="5.95333"></trkpt><trkpt lat="52.54659" lon="5.95321"></trkpt><trkpt lat="52.54666" lon="5.95298"></trkpt><trkpt lat="52.54673" lon="5.95279"></trkpt><trkpt lat="52.54764" lon="5.95048"></trkpt><trkpt lat="52.548" lon="5.94953"></trkpt><trkpt lat="52.54813" lon="5.94919"></trkpt><trkpt lat="52.54818" lon="5.94905"></trkpt><trkpt lat="52.54829" lon="5.94875"></trkpt><trkpt lat="52.54837" lon="5.94853"></trkpt><trkpt lat="52.54844" lon="5.94827"></trkpt><trkpt lat="52.54851" lon="5.94796"></trkpt><trkpt lat="52.54856" lon="5.94772"></trkpt><trkpt lat="52.5486" lon="5.9475"></trkpt><trkpt lat="52.54864" lon="5.94723"></trkpt><trkpt lat="52.54868" lon="5.94683"></trkpt><trkpt lat="52.54869" lon="5.94674"></trkpt><trkpt lat="52.54873" lon="5.94664"></trkpt><trkpt lat="52.54875" lon="5.94656"></trkpt><trkpt lat="52.54876" lon="5.94651"></trkpt><trkpt lat="52.54876" lon="5.94646"></trkpt><trkpt lat="52.54876" lon="5.94641"></trkpt><trkpt lat="52.54868" lon="5.94641"></trkpt><trkpt lat="52.54855" lon="5.94639"></trkpt><trkpt lat="52.54846" lon="5.94638"></trkpt><trkpt lat="52.54835" lon="5.94635"></trkpt><trkpt lat="52.54837" lon="5.9461"></trkpt><trkpt lat="52.54837" lon="5.9459"></trkpt><trkpt lat="52.54839" lon="5.94568"></trkpt><trkpt lat="52.5484" lon="5.94549"></trkpt><trkpt lat="52.5484" lon="5.94528"></trkpt><trkpt lat="52.5484" lon="5.94508"></trkpt><trkpt lat="52.54839" lon="5.94487"></trkpt><trkpt lat="52.54837" lon="5.94467"></trkpt><trkpt lat="52.54834" lon="5.94436"></trkpt><trkpt lat="52.5483" lon="5.94408"></trkpt><trkpt lat="52.54827" lon="5.94387"></trkpt><trkpt lat="52.54823" lon="5.94368"></trkpt><trkpt lat="52.54818" lon="5.9434"></trkpt><trkpt lat="52.54815" lon="5.94327"></trkpt><trkpt lat="52.54811" lon="5.94312"></trkpt><trkpt lat="52.54807" lon="5.94297"></trkpt><trkpt lat="52.54803" lon="5.94279"></trkpt><trkpt lat="52.54798" lon="5.94263"></trkpt><trkpt lat="52.54793" lon="5.94246"></trkpt><trkpt lat="52.54771" lon="5.94181"></trkpt><trkpt lat="52.54751" lon="5.9414"></trkpt><trkpt lat="52.54707" lon="5.94053"></trkpt><trkpt lat="52.54647" lon="5.93957"></trkpt><trkpt lat="52.54614" lon="5.93904"></trkpt><trkpt lat="52.54547" lon="5.93799"></trkpt><trkpt lat="52.54521" lon="5.93758"></trkpt><trkpt lat="52.54506" lon="5.93734"></trkpt><trkpt lat="52.54494" lon="5.93712"></trkpt><trkpt lat="52.54475" lon="5.93675"></trkpt><trkpt lat="52.54449" lon="5.93628"></trkpt><trkpt lat="52.54043" lon="5.9298"></trkpt><trkpt lat="52.54036" lon="5.92969"></trkpt><trkpt lat="52.54018" lon="5.92943"></trkpt><trkpt lat="52.54003" lon="5.92923"></trkpt><trkpt lat="52.53984" lon="5.92895"></trkpt><trkpt lat="52.53974" lon="5.92881"></trkpt><trkpt lat="52.5396" lon="5.92859"></trkpt><trkpt lat="52.53939" lon="5.92826"></trkpt><trkpt lat="52.53839" lon="5.92667"></trkpt><trkpt lat="52.53807" lon="5.92606"></trkpt><trkpt lat="52.53785" lon="5.92554"></trkpt><trkpt lat="52.53771" lon="5.92512"></trkpt><trkpt lat="52.53757" lon="5.92459"></trkpt><trkpt lat="52.53719" lon="5.92468"></trkpt><trkpt lat="52.53713" lon="5.92472"></trkpt><trkpt lat="52.53707" lon="5.92482"></trkpt><trkpt lat="52.53696" lon="5.92531"></trkpt><trkpt lat="52.53704" lon="5.92537"></trkpt><trkpt lat="52.53721" lon="5.92562"></trkpt><trkpt lat="52.53733" lon="5.92583"></trkpt><trkpt lat="52.53752" lon="5.92626"></trkpt><trkpt lat="52.53799" lon="5.92712"></trkpt><trkpt lat="52.5387" lon="5.92828"></trkpt><trkpt lat="52.53872" lon="5.92838"></trkpt><trkpt lat="52.53816" lon="5.92865"></trkpt><trkpt lat="52.5382" lon="5.92898"></trkpt><trkpt lat="52.53829" lon="5.93005"></trkpt><trkpt lat="52.5383" lon="5.93038"></trkpt><trkpt lat="52.53852" lon="5.93045"></trkpt><trkpt lat="52.53868" lon="5.93054"></trkpt><trkpt lat="52.53888" lon="5.93068"></trkpt><trkpt lat="52.53902" lon="5.93084"></trkpt><trkpt lat="52.53933" lon="5.93122"></trkpt><trkpt lat="52.53948" lon="5.93143"></trkpt><trkpt lat="52.53969" lon="5.93169"></trkpt><trkpt lat="52.53975" lon="5.9316"></trkpt><trkpt lat="52.53979" lon="5.93159"></trkpt><trkpt lat="52.53996" lon="5.9318"></trkpt><trkpt lat="52.53989" lon="5.93193"></trkpt><trkpt lat="52.53982" lon="5.93209"></trkpt><trkpt lat="52.53977" lon="5.93231"></trkpt><trkpt lat="52.53975" lon="5.9324"></trkpt><trkpt lat="52.53972" lon="5.93248"></trkpt><trkpt lat="52.53971" lon="5.9325"></trkpt><trkpt lat="52.53962" lon="5.93269"></trkpt><trkpt lat="52.53945" lon="5.93303"></trkpt><trkpt lat="52.53914" lon="5.93366"></trkpt><trkpt lat="52.53871" lon="5.93457"></trkpt><trkpt lat="52.53823" lon="5.93557"></trkpt><trkpt lat="52.5382" lon="5.93562"></trkpt><trkpt lat="52.53817" lon="5.93567"></trkpt><trkpt lat="52.53798" lon="5.93597"></trkpt><trkpt lat="52.53793" lon="5.93604"></trkpt><trkpt lat="52.53791" lon="5.93606"></trkpt><trkpt lat="52.53789" lon="5.93608"></trkpt><trkpt lat="52.53786" lon="5.93611"></trkpt><trkpt lat="52.53783" lon="5.93612"></trkpt><trkpt lat="52.5378" lon="5.93612"></trkpt><trkpt lat="52.53777" lon="5.93613"></trkpt><trkpt lat="52.53772" lon="5.93613"></trkpt><trkpt lat="52.5377" lon="5.93613"></trkpt><trkpt lat="52.53768" lon="5.93614"></trkpt><trkpt lat="52.53767" lon="5.93615"></trkpt><trkpt lat="52.53765" lon="5.93616"></trkpt><trkpt lat="52.53763" lon="5.93618"></trkpt><trkpt lat="52.53762" lon="5.9362"></trkpt><trkpt lat="52.53761" lon="5.93622"></trkpt><trkpt lat="52.5376" lon="5.93625"></trkpt><trkpt lat="52.53758" lon="5.93628"></trkpt><trkpt lat="52.53757" lon="5.9363"></trkpt><trkpt lat="52.53756" lon="5.93633"></trkpt><trkpt lat="52.53756" lon="5.93634"></trkpt><trkpt lat="52.53755" lon="5.93637"></trkpt><trkpt lat="52.53754" lon="5.93639"></trkpt><trkpt lat="52.53754" lon="5.93643"></trkpt><trkpt lat="52.53754" lon="5.93647"></trkpt><trkpt lat="52.53754" lon="5.9365"></trkpt><trkpt lat="52.53755" lon="5.93655"></trkpt><trkpt lat="52.53755" lon="5.93661"></trkpt><trkpt lat="52.53756" lon="5.93667"></trkpt><trkpt lat="52.53756" lon="5.93673"></trkpt><trkpt lat="52.53756" lon="5.93679"></trkpt><trkpt lat="52.53756" lon="5.93684"></trkpt><trkpt lat="52.53754" lon="5.93689"></trkpt><trkpt lat="52.53753" lon="5.93695"></trkpt><trkpt lat="52.53751" lon="5.93702"></trkpt><trkpt lat="52.53749" lon="5.93709"></trkpt><trkpt lat="52.53746" lon="5.93715"></trkpt><trkpt lat="52.53745" lon="5.93719"></trkpt><trkpt lat="52.53742" lon="5.93726"></trkpt><trkpt lat="52.53728" lon="5.93755"></trkpt><trkpt lat="52.53721" lon="5.93771"></trkpt><trkpt lat="52.53702" lon="5.9381"></trkpt><trkpt lat="52.53688" lon="5.93839"></trkpt><trkpt lat="52.53673" lon="5.93871"></trkpt><trkpt lat="52.53654" lon="5.93912"></trkpt><trkpt lat="52.53634" lon="5.93953"></trkpt><trkpt lat="52.53618" lon="5.93986"></trkpt><trkpt lat="52.53598" lon="5.94023"></trkpt><trkpt lat="52.53585" lon="5.94047"></trkpt><trkpt lat="52.53567" lon="5.9408"></trkpt><trkpt lat="52.53561" lon="5.94092"></trkpt><trkpt lat="52.53549" lon="5.94113"></trkpt><trkpt lat="52.53546" lon="5.94119"></trkpt><trkpt lat="52.53543" lon="5.94124"></trkpt><trkpt lat="52.53541" lon="5.94129"></trkpt><trkpt lat="52.53538" lon="5.94135"></trkpt><trkpt lat="52.53533" lon="5.94145"></trkpt><trkpt lat="52.53518" lon="5.94169"></trkpt><trkpt lat="52.53511" lon="5.94181"></trkpt><trkpt lat="52.53503" lon="5.94193"></trkpt><trkpt lat="52.53488" lon="5.94215"></trkpt><trkpt lat="52.53476" lon="5.94232"></trkpt><trkpt lat="52.53467" lon="5.94244"></trkpt><trkpt lat="52.53465" lon="5.94246"></trkpt><trkpt lat="52.53461" lon="5.94249"></trkpt><trkpt lat="52.53458" lon="5.94251"></trkpt><trkpt lat="52.53456" lon="5.94253"></trkpt><trkpt lat="52.53453" lon="5.94255"></trkpt><trkpt lat="52.53441" lon="5.94271"></trkpt><trkpt lat="52.53434" lon="5.9428"></trkpt><trkpt lat="52.53423" lon="5.94294"></trkpt><trkpt lat="52.53396" lon="5.94329"></trkpt><trkpt lat="52.53386" lon="5.94343"></trkpt><trkpt lat="52.53383" lon="5.94348"></trkpt><trkpt lat="52.53375" lon="5.94359"></trkpt><trkpt lat="52.53368" lon="5.94368"></trkpt><trkpt lat="52.53367" lon="5.94369"></trkpt><trkpt lat="52.53366" lon="5.94369"></trkpt><trkpt lat="52.53363" lon="5.94372"></trkpt><trkpt lat="52.53361" lon="5.94374"></trkpt><trkpt lat="52.53358" lon="5.94378"></trkpt><trkpt lat="52.53354" lon="5.94384"></trkpt><trkpt lat="52.53351" lon="5.94388"></trkpt><trkpt lat="52.5335" lon="5.94391"></trkpt><trkpt lat="52.53349" lon="5.94395"></trkpt><trkpt lat="52.53348" lon="5.94398"></trkpt><trkpt lat="52.53347" lon="5.94401"></trkpt><trkpt lat="52.53345" lon="5.94404"></trkpt><trkpt lat="52.53344" lon="5.94406"></trkpt><trkpt lat="52.53329" lon="5.9443"></trkpt><trkpt lat="52.53312" lon="5.94459"></trkpt><trkpt lat="52.53295" lon="5.94491"></trkpt><trkpt lat="52.53286" lon="5.94509"></trkpt><trkpt lat="52.53273" lon="5.94534"></trkpt><trkpt lat="52.5326" lon="5.94559"></trkpt><trkpt lat="52.5319" lon="5.94696"></trkpt><trkpt lat="52.53188" lon="5.94701"></trkpt><trkpt lat="52.53185" lon="5.94706"></trkpt><trkpt lat="52.53151" lon="5.94773"></trkpt><trkpt lat="52.53149" lon="5.94778"></trkpt><trkpt lat="52.53147" lon="5.94782"></trkpt><trkpt lat="52.53144" lon="5.9479"></trkpt><trkpt lat="52.53139" lon="5.948"></trkpt><trkpt lat="52.53133" lon="5.94811"></trkpt><trkpt lat="52.53128" lon="5.94821"></trkpt><trkpt lat="52.53123" lon="5.94828"></trkpt><trkpt lat="52.53119" lon="5.94835"></trkpt><trkpt lat="52.53109" lon="5.94854"></trkpt><trkpt lat="52.53094" lon="5.94884"></trkpt><trkpt lat="52.53088" lon="5.94895"></trkpt><trkpt lat="52.53082" lon="5.94908"></trkpt><trkpt lat="52.53077" lon="5.94916"></trkpt><trkpt lat="52.53073" lon="5.94926"></trkpt><trkpt lat="52.53067" lon="5.94936"></trkpt><trkpt lat="52.53059" lon="5.94952"></trkpt><trkpt lat="52.53053" lon="5.94964"></trkpt><trkpt lat="52.53045" lon="5.94979"></trkpt><trkpt lat="52.5304" lon="5.94988"></trkpt><trkpt lat="52.53034" lon="5.94997"></trkpt><trkpt lat="52.53031" lon="5.95002"></trkpt><trkpt lat="52.53028" lon="5.95006"></trkpt><trkpt lat="52.53023" lon="5.95013"></trkpt><trkpt lat="52.53015" lon="5.95022"></trkpt><trkpt lat="52.5301" lon="5.95028"></trkpt><trkpt lat="52.53005" lon="5.95033"></trkpt><trkpt lat="52.53001" lon="5.95037"></trkpt><trkpt lat="52.52996" lon="5.95041"></trkpt><trkpt lat="52.52989" lon="5.95048"></trkpt><trkpt lat="52.52982" lon="5.95052"></trkpt><trkpt lat="52.52975" lon="5.95057"></trkpt><trkpt lat="52.52971" lon="5.9506"></trkpt><trkpt lat="52.52965" lon="5.95063"></trkpt><trkpt lat="52.52962" lon="5.95064"></trkpt><trkpt lat="52.52958" lon="5.95066"></trkpt><trkpt lat="52.52953" lon="5.95068"></trkpt><trkpt lat="52.52943" lon="5.95072"></trkpt><trkpt lat="52.52937" lon="5.95074"></trkpt><trkpt lat="52.52932" lon="5.95074"></trkpt><trkpt lat="52.52926" lon="5.95075"></trkpt><trkpt lat="52.5292" lon="5.95076"></trkpt><trkpt lat="52.52909" lon="5.95076"></trkpt><trkpt lat="52.52906" lon="5.95076"></trkpt><trkpt lat="52.52897" lon="5.95076"></trkpt><trkpt lat="52.5289" lon="5.95075"></trkpt><trkpt lat="52.52883" lon="5.95075"></trkpt><trkpt lat="52.52877" lon="5.95074"></trkpt><trkpt lat="52.52874" lon="5.95073"></trkpt><trkpt lat="52.5287" lon="5.95072"></trkpt><trkpt lat="52.52798" lon="5.95055"></trkpt><trkpt lat="52.52763" lon="5.95047"></trkpt><trkpt lat="52.52756" lon="5.95046"></trkpt><trkpt lat="52.5267" lon="5.95025"></trkpt><trkpt lat="52.5264" lon="5.95019"></trkpt><trkpt lat="52.52636" lon="5.95018"></trkpt><trkpt lat="52.52631" lon="5.95017"></trkpt><trkpt lat="52.52628" lon="5.95016"></trkpt><trkpt lat="52.52625" lon="5.95015"></trkpt><trkpt lat="52.5262" lon="5.95013"></trkpt><trkpt lat="52.52617" lon="5.95012"></trkpt><trkpt lat="52.52615" lon="5.95012"></trkpt><trkpt lat="52.52611" lon="5.95011"></trkpt><trkpt lat="52.52607" lon="5.9501"></trkpt><trkpt lat="52.52599" lon="5.95009"></trkpt><trkpt lat="52.52592" lon="5.95008"></trkpt><trkpt lat="52.52584" lon="5.95008"></trkpt><trkpt lat="52.52577" lon="5.95008"></trkpt><trkpt lat="52.52566" lon="5.95009"></trkpt><trkpt lat="52.52559" lon="5.95011"></trkpt><trkpt lat="52.52554" lon="5.95012"></trkpt><trkpt lat="52.52545" lon="5.95016"></trkpt><trkpt lat="52.5254" lon="5.95018"></trkpt><trkpt lat="52.52535" lon="5.9502"></trkpt><trkpt lat="52.5253" lon="5.95022"></trkpt><trkpt lat="52.52526" lon="5.95025"></trkpt><trkpt lat="52.52518" lon="5.9503"></trkpt><trkpt lat="52.52509" lon="5.95037"></trkpt><trkpt lat="52.52501" lon="5.95043"></trkpt><trkpt lat="52.52496" lon="5.95048"></trkpt><trkpt lat="52.52492" lon="5.95052"></trkpt><trkpt lat="52.52483" lon="5.95062"></trkpt><trkpt lat="52.52475" lon="5.95072"></trkpt><trkpt lat="52.52465" lon="5.95087"></trkpt><trkpt lat="52.52455" lon="5.95103"></trkpt><trkpt lat="52.52449" lon="5.95115"></trkpt><trkpt lat="52.52443" lon="5.95127"></trkpt><trkpt lat="52.52437" lon="5.95141"></trkpt><trkpt lat="52.52432" lon="5.95154"></trkpt><trkpt lat="52.52429" lon="5.95164"></trkpt><trkpt lat="52.52426" lon="5.95174"></trkpt><trkpt lat="52.52423" lon="5.95183"></trkpt><trkpt lat="52.52421" lon="5.95193"></trkpt><trkpt lat="52.52416" lon="5.95214"></trkpt><trkpt lat="52.52413" lon="5.95235"></trkpt><trkpt lat="52.52409" lon="5.95262"></trkpt><trkpt lat="52.52407" lon="5.95273"></trkpt><trkpt lat="52.52405" lon="5.95284"></trkpt><trkpt lat="52.52402" lon="5.95299"></trkpt><trkpt lat="52.52398" lon="5.95312"></trkpt><trkpt lat="52.52395" lon="5.95323"></trkpt><trkpt lat="52.52391" lon="5.95336"></trkpt><trkpt lat="52.52385" lon="5.9535"></trkpt><trkpt lat="52.52379" lon="5.95365"></trkpt><trkpt lat="52.52375" lon="5.95372"></trkpt><trkpt lat="52.52371" lon="5.95379"></trkpt><trkpt lat="52.52367" lon="5.95385"></trkpt><trkpt lat="52.52363" lon="5.95393"></trkpt><trkpt lat="52.52358" lon="5.954"></trkpt><trkpt lat="52.52352" lon="5.95408"></trkpt><trkpt lat="52.52346" lon="5.95414"></trkpt><trkpt lat="52.52339" lon="5.95421"></trkpt><trkpt lat="52.52335" lon="5.95425"></trkpt><trkpt lat="52.52331" lon="5.95429"></trkpt><trkpt lat="52.52323" lon="5.95434"></trkpt><trkpt lat="52.52316" lon="5.95439"></trkpt><trkpt lat="52.52307" lon="5.95444"></trkpt><trkpt lat="52.523" lon="5.95448"></trkpt><trkpt lat="52.52293" lon="5.9545"></trkpt><trkpt lat="52.52277" lon="5.95456"></trkpt><trkpt lat="52.52151" lon="5.95499"></trkpt><trkpt lat="52.52089" lon="5.9552"></trkpt><trkpt lat="52.52057" lon="5.95531"></trkpt><trkpt lat="52.52041" lon="5.95536"></trkpt><trkpt lat="52.52026" lon="5.95541"></trkpt><trkpt lat="52.51949" lon="5.95564"></trkpt><trkpt lat="52.51896" lon="5.95578"></trkpt><trkpt lat="52.5184" lon="5.95591"></trkpt><trkpt lat="52.51824" lon="5.95597"></trkpt><trkpt lat="52.51826" lon="5.95618"></trkpt><trkpt lat="52.5183" lon="5.95657"></trkpt><trkpt lat="52.51786" lon="5.95697"></trkpt><trkpt lat="52.51782" lon="5.95701"></trkpt><trkpt lat="52.51778" lon="5.95706"></trkpt><trkpt lat="52.51771" lon="5.95714"></trkpt><trkpt lat="52.51767" lon="5.9572"></trkpt><trkpt lat="52.51763" lon="5.95726"></trkpt><trkpt lat="52.51759" lon="5.95735"></trkpt><trkpt lat="52.51755" lon="5.95743"></trkpt><trkpt lat="52.5175" lon="5.95751"></trkpt><trkpt lat="52.51744" lon="5.95759"></trkpt><trkpt lat="52.51735" lon="5.95772"></trkpt><trkpt lat="52.51726" lon="5.95784"></trkpt><trkpt lat="52.51719" lon="5.95793"></trkpt><trkpt lat="52.51711" lon="5.95803"></trkpt><trkpt lat="52.51705" lon="5.95807"></trkpt><trkpt lat="52.51699" lon="5.95811"></trkpt><trkpt lat="52.51693" lon="5.95813"></trkpt><trkpt lat="52.51688" lon="5.95814"></trkpt><trkpt lat="52.51676" lon="5.95816"></trkpt><trkpt lat="52.51661" lon="5.95817"></trkpt><trkpt lat="52.51634" lon="5.95818"></trkpt><trkpt lat="52.51584" lon="5.9582"></trkpt><trkpt lat="52.51576" lon="5.95822"></trkpt><trkpt lat="52.51571" lon="5.95825"></trkpt><trkpt lat="52.51564" lon="5.95832"></trkpt><trkpt lat="52.5155" lon="5.95849"></trkpt><trkpt lat="52.51542" lon="5.95858"></trkpt><trkpt lat="52.51536" lon="5.95866"></trkpt><trkpt lat="52.51533" lon="5.95871"></trkpt><trkpt lat="52.5153" lon="5.95877"></trkpt><trkpt lat="52.51527" lon="5.95884"></trkpt><trkpt lat="52.51496" lon="5.95965"></trkpt><trkpt lat="52.51492" lon="5.95976"></trkpt><trkpt lat="52.5149" lon="5.95981"></trkpt><trkpt lat="52.51487" lon="5.95986"></trkpt><trkpt lat="52.51484" lon="5.95991"></trkpt><trkpt lat="52.51481" lon="5.95996"></trkpt><trkpt lat="52.51476" lon="5.96001"></trkpt><trkpt lat="52.51471" lon="5.96006"></trkpt><trkpt lat="52.51459" lon="5.96018"></trkpt><trkpt lat="52.51436" lon="5.96041"></trkpt><trkpt lat="52.51427" lon="5.9605"></trkpt><trkpt lat="52.51418" lon="5.9606"></trkpt><trkpt lat="52.51409" lon="5.96072"></trkpt><trkpt lat="52.51403" lon="5.96079"></trkpt><trkpt lat="52.51383" lon="5.96107"></trkpt><trkpt lat="52.51369" lon="5.96129"></trkpt><trkpt lat="52.51362" lon="5.9614"></trkpt><trkpt lat="52.51357" lon="5.96152"></trkpt><trkpt lat="52.51352" lon="5.9616"></trkpt><trkpt lat="52.51351" lon="5.96164"></trkpt><trkpt lat="52.51346" lon="5.96177"></trkpt><trkpt lat="52.51342" lon="5.96189"></trkpt><trkpt lat="52.51339" lon="5.962"></trkpt><trkpt lat="52.51334" lon="5.96217"></trkpt><trkpt lat="52.51331" lon="5.96226"></trkpt><trkpt lat="52.51327" lon="5.96236"></trkpt><trkpt lat="52.5132" lon="5.96248"></trkpt><trkpt lat="52.51315" lon="5.96257"></trkpt><trkpt lat="52.51314" lon="5.96258"></trkpt><trkpt lat="52.51302" lon="5.9628"></trkpt><trkpt lat="52.51297" lon="5.96289"></trkpt><trkpt lat="52.51292" lon="5.96299"></trkpt><trkpt lat="52.51287" lon="5.96314"></trkpt><trkpt lat="52.51284" lon="5.96327"></trkpt><trkpt lat="52.51281" lon="5.96341"></trkpt><trkpt lat="52.51278" lon="5.96355"></trkpt><trkpt lat="52.51275" lon="5.96368"></trkpt><trkpt lat="52.51273" lon="5.96376"></trkpt><trkpt lat="52.51271" lon="5.96381"></trkpt><trkpt lat="52.51268" lon="5.96387"></trkpt><trkpt lat="52.51266" lon="5.9639"></trkpt><trkpt lat="52.51263" lon="5.96394"></trkpt><trkpt lat="52.51257" lon="5.96399"></trkpt><trkpt lat="52.51255" lon="5.96402"></trkpt><trkpt lat="52.51251" lon="5.96405"></trkpt><trkpt lat="52.51244" lon="5.9641"></trkpt><trkpt lat="52.51235" lon="5.96415"></trkpt><trkpt lat="52.51226" lon="5.96421"></trkpt><trkpt lat="52.51219" lon="5.96426"></trkpt><trkpt lat="52.51212" lon="5.96432"></trkpt><trkpt lat="52.51206" lon="5.96438"></trkpt><trkpt lat="52.512" lon="5.96446"></trkpt><trkpt lat="52.51194" lon="5.96454"></trkpt><trkpt lat="52.51181" lon="5.96472"></trkpt><trkpt lat="52.51164" lon="5.965"></trkpt><trkpt lat="52.51154" lon="5.96517"></trkpt><trkpt lat="52.51146" lon="5.96532"></trkpt><trkpt lat="52.51141" lon="5.96541"></trkpt><trkpt lat="52.51138" lon="5.96551"></trkpt><trkpt lat="52.51135" lon="5.96562"></trkpt><trkpt lat="52.51133" lon="5.96573"></trkpt><trkpt lat="52.51131" lon="5.96587"></trkpt><trkpt lat="52.5113" lon="5.96599"></trkpt><trkpt lat="52.51129" lon="5.96621"></trkpt><trkpt lat="52.51129" lon="5.96643"></trkpt><trkpt lat="52.51129" lon="5.96657"></trkpt><trkpt lat="52.51129" lon="5.96671"></trkpt><trkpt lat="52.5113" lon="5.96698"></trkpt><trkpt lat="52.51134" lon="5.96758"></trkpt><trkpt lat="52.51138" lon="5.96822"></trkpt><trkpt lat="52.51139" lon="5.96837"></trkpt><trkpt lat="52.5114" lon="5.96851"></trkpt><trkpt lat="52.51143" lon="5.96874"></trkpt><trkpt lat="52.51145" lon="5.96891"></trkpt><trkpt lat="52.51148" lon="5.96909"></trkpt><trkpt lat="52.51153" lon="5.96936"></trkpt><trkpt lat="52.51155" lon="5.9695"></trkpt><trkpt lat="52.51158" lon="5.96965"></trkpt><trkpt lat="52.51161" lon="5.96979"></trkpt><trkpt lat="52.51162" lon="5.96987"></trkpt><trkpt lat="52.51163" lon="5.96994"></trkpt><trkpt lat="52.51163" lon="5.97004"></trkpt><trkpt lat="52.51164" lon="5.97015"></trkpt><trkpt lat="52.51163" lon="5.97031"></trkpt><trkpt lat="52.51163" lon="5.9704"></trkpt><trkpt lat="52.51162" lon="5.9705"></trkpt><trkpt lat="52.51161" lon="5.97059"></trkpt><trkpt lat="52.51159" lon="5.97068"></trkpt><trkpt lat="52.51156" lon="5.97092"></trkpt><trkpt lat="52.51152" lon="5.97116"></trkpt><trkpt lat="52.51149" lon="5.97138"></trkpt><trkpt lat="52.51146" lon="5.97161"></trkpt><trkpt lat="52.51146" lon="5.97161"></trkpt><trkpt lat="52.51139" lon="5.97256"></trkpt><trkpt lat="52.51137" lon="5.97298"></trkpt><trkpt lat="52.51136" lon="5.97321"></trkpt><trkpt lat="52.51134" lon="5.97353"></trkpt><trkpt lat="52.51134" lon="5.97388"></trkpt><trkpt lat="52.51135" lon="5.97412"></trkpt><trkpt lat="52.51136" lon="5.97434"></trkpt><trkpt lat="52.51139" lon="5.97465"></trkpt><trkpt lat="52.51143" lon="5.97493"></trkpt><trkpt lat="52.51151" lon="5.97555"></trkpt><trkpt lat="52.51155" lon="5.97573"></trkpt><trkpt lat="52.51158" lon="5.97592"></trkpt><trkpt lat="52.51162" lon="5.9761"></trkpt><trkpt lat="52.51167" lon="5.97628"></trkpt><trkpt lat="52.5117" lon="5.97638"></trkpt><trkpt lat="52.51173" lon="5.97647"></trkpt><trkpt lat="52.51181" lon="5.97666"></trkpt><trkpt lat="52.5119" lon="5.97688"></trkpt><trkpt lat="52.51192" lon="5.97694"></trkpt><trkpt lat="52.51203" lon="5.97715"></trkpt><trkpt lat="52.51214" lon="5.97735"></trkpt><trkpt lat="52.51227" lon="5.97756"></trkpt><trkpt lat="52.51251" lon="5.97796"></trkpt><trkpt lat="52.51276" lon="5.97832"></trkpt><trkpt lat="52.51292" lon="5.97853"></trkpt><trkpt lat="52.51311" lon="5.97874"></trkpt><trkpt lat="52.51343" lon="5.97903"></trkpt><trkpt lat="52.51378" lon="5.9793"></trkpt><trkpt lat="52.51426" lon="5.97971"></trkpt><trkpt lat="52.5145" lon="5.97991"></trkpt><trkpt lat="52.51503" lon="5.98036"></trkpt><trkpt lat="52.51536" lon="5.98066"></trkpt><trkpt lat="52.51568" lon="5.98099"></trkpt><trkpt lat="52.51588" lon="5.98127"></trkpt><trkpt lat="52.51606" lon="5.98159"></trkpt><trkpt lat="52.5161" lon="5.98166"></trkpt><trkpt lat="52.51629" lon="5.98207"></trkpt><trkpt lat="52.51663" lon="5.98287"></trkpt><trkpt lat="52.51709" lon="5.9839"></trkpt><trkpt lat="52.51834" lon="5.98675"></trkpt><trkpt lat="52.51883" lon="5.98785"></trkpt><trkpt lat="52.52017" lon="5.99082"></trkpt><trkpt lat="52.52034" lon="5.99118"></trkpt><trkpt lat="52.52042" lon="5.99139"></trkpt><trkpt lat="52.5205" lon="5.9916"></trkpt><trkpt lat="52.52067" lon="5.99203"></trkpt><trkpt lat="52.52084" lon="5.99242"></trkpt><trkpt lat="52.52126" lon="5.99331"></trkpt><trkpt lat="52.52134" lon="5.99347"></trkpt><trkpt lat="52.52143" lon="5.99364"></trkpt><trkpt lat="52.52152" lon="5.99379"></trkpt><trkpt lat="52.52161" lon="5.99394"></trkpt><trkpt lat="52.52183" lon="5.99424"></trkpt><trkpt lat="52.52194" lon="5.99441"></trkpt><trkpt lat="52.52204" lon="5.99457"></trkpt><trkpt lat="52.5221" lon="5.99469"></trkpt><trkpt lat="52.52216" lon="5.99481"></trkpt><trkpt lat="52.52221" lon="5.99493"></trkpt><trkpt lat="52.52228" lon="5.99508"></trkpt><trkpt lat="52.52244" lon="5.99549"></trkpt><trkpt lat="52.52257" lon="5.99585"></trkpt><trkpt lat="52.5227" lon="5.9962"></trkpt><trkpt lat="52.52304" lon="5.99713"></trkpt><trkpt lat="52.52322" lon="5.99756"></trkpt><trkpt lat="52.5233" lon="5.99777"></trkpt><trkpt lat="52.5234" lon="5.99799"></trkpt><trkpt lat="52.52351" lon="5.99823"></trkpt><trkpt lat="52.52368" lon="5.99858"></trkpt><trkpt lat="52.52378" lon="5.99881"></trkpt><trkpt lat="52.52383" lon="5.99891"></trkpt><trkpt lat="52.52386" lon="5.99901"></trkpt><trkpt lat="52.52391" lon="5.99915"></trkpt><trkpt lat="52.52395" lon="5.99928"></trkpt><trkpt lat="52.52397" lon="5.99937"></trkpt><trkpt lat="52.52399" lon="5.99947"></trkpt><trkpt lat="52.52401" lon="5.99957"></trkpt><trkpt lat="52.52402" lon="5.99967"></trkpt><trkpt lat="52.52403" lon="5.99983"></trkpt><trkpt lat="52.52404" lon="6"></trkpt><trkpt lat="52.52405" lon="6.00033"></trkpt><trkpt lat="52.52408" lon="6.00239"></trkpt><trkpt lat="52.52408" lon="6.00273"></trkpt><trkpt lat="52.52408" lon="6.00306"></trkpt><trkpt lat="52.52407" lon="6.00321"></trkpt><trkpt lat="52.52406" lon="6.00341"></trkpt><trkpt lat="52.52404" lon="6.00374"></trkpt><trkpt lat="52.52404" lon="6.00385"></trkpt><trkpt lat="52.52397" lon="6.00527"></trkpt><trkpt lat="52.52393" lon="6.00611"></trkpt><trkpt lat="52.52389" lon="6.00695"></trkpt><trkpt lat="52.52387" lon="6.00712"></trkpt><trkpt lat="52.52384" lon="6.00729"></trkpt><trkpt lat="52.52378" lon="6.0075"></trkpt><trkpt lat="52.52373" lon="6.00769"></trkpt><trkpt lat="52.52369" lon="6.00787"></trkpt><trkpt lat="52.52367" lon="6.00806"></trkpt><trkpt lat="52.52365" lon="6.00834"></trkpt><trkpt lat="52.52364" lon="6.00848"></trkpt><trkpt lat="52.52365" lon="6.00863"></trkpt><trkpt lat="52.52369" lon="6.00923"></trkpt><trkpt lat="52.5237" lon="6.00951"></trkpt><trkpt lat="52.52369" lon="6.00979"></trkpt><trkpt lat="52.52366" lon="6.01012"></trkpt><trkpt lat="52.52362" lon="6.01039"></trkpt><trkpt lat="52.52357" lon="6.01064"></trkpt><trkpt lat="52.52341" lon="6.0113"></trkpt><trkpt lat="52.52313" lon="6.01214"></trkpt><trkpt lat="52.52306" lon="6.01224"></trkpt><trkpt lat="52.52296" lon="6.01228"></trkpt><trkpt lat="52.5228" lon="6.01228"></trkpt><trkpt lat="52.52154" lon="6.01207"></trkpt><trkpt lat="52.52037" lon="6.01185"></trkpt><trkpt lat="52.52029" lon="6.01183"></trkpt><trkpt lat="52.5202" lon="6.01182"></trkpt><trkpt lat="52.52016" lon="6.01181"></trkpt><trkpt lat="52.52005" lon="6.01179"></trkpt><trkpt lat="52.51926" lon="6.01161"></trkpt><trkpt lat="52.51899" lon="6.01155"></trkpt><trkpt lat="52.51863" lon="6.01149"></trkpt><trkpt lat="52.51829" lon="6.01144"></trkpt><trkpt lat="52.5181" lon="6.01143"></trkpt><trkpt lat="52.51791" lon="6.01144"></trkpt><trkpt lat="52.5177" lon="6.01152"></trkpt><trkpt lat="52.51748" lon="6.01164"></trkpt><trkpt lat="52.51717" lon="6.01188"></trkpt><trkpt lat="52.51703" lon="6.01196"></trkpt><trkpt lat="52.51692" lon="6.01197"></trkpt><trkpt lat="52.5168" lon="6.01197"></trkpt><trkpt lat="52.51645" lon="6.01192"></trkpt><trkpt lat="52.51584" lon="6.01181"></trkpt><trkpt lat="52.51516" lon="6.01156"></trkpt><trkpt lat="52.51473" lon="6.01156"></trkpt><trkpt lat="52.51446" lon="6.01164"></trkpt><trkpt lat="52.51428" lon="6.01177"></trkpt><trkpt lat="52.51418" lon="6.01188"></trkpt><trkpt lat="52.51374" lon="6.01244"></trkpt><trkpt lat="52.51344" lon="6.01283"></trkpt><trkpt lat="52.51313" lon="6.01318"></trkpt><trkpt lat="52.51287" lon="6.01348"></trkpt><trkpt lat="52.51251" lon="6.0138"></trkpt><trkpt lat="52.51226" lon="6.01402"></trkpt><trkpt lat="52.51195" lon="6.0143"></trkpt><trkpt lat="52.51174" lon="6.01452"></trkpt><trkpt lat="52.51164" lon="6.01465"></trkpt><trkpt lat="52.51157" lon="6.01476"></trkpt><trkpt lat="52.51145" lon="6.01495"></trkpt><trkpt lat="52.51122" lon="6.01535"></trkpt><trkpt lat="52.51025" lon="6.01708"></trkpt><trkpt lat="52.50982" lon="6.01781"></trkpt><trkpt lat="52.50971" lon="6.01794"></trkpt><trkpt lat="52.5096" lon="6.01806"></trkpt><trkpt lat="52.50946" lon="6.01824"></trkpt><trkpt lat="52.50921" lon="6.01844"></trkpt><trkpt lat="52.509" lon="6.01857"></trkpt><trkpt lat="52.50878" lon="6.0187"></trkpt><trkpt lat="52.50833" lon="6.01897"></trkpt><trkpt lat="52.50828" lon="6.01902"></trkpt><trkpt lat="52.50826" lon="6.01904"></trkpt><trkpt lat="52.50822" lon="6.01908"></trkpt><trkpt lat="52.5081" lon="6.01923"></trkpt><trkpt lat="52.50802" lon="6.01938"></trkpt><trkpt lat="52.50766" lon="6.02009"></trkpt><trkpt lat="52.50755" lon="6.02031"></trkpt><trkpt lat="52.50746" lon="6.02048"></trkpt><trkpt lat="52.50738" lon="6.02057"></trkpt><trkpt lat="52.50729" lon="6.02063"></trkpt><trkpt lat="52.50694" lon="6.02082"></trkpt><trkpt lat="52.50683" lon="6.02091"></trkpt><trkpt lat="52.50675" lon="6.02099"></trkpt><trkpt lat="52.50669" lon="6.02107"></trkpt><trkpt lat="52.50662" lon="6.02117"></trkpt><trkpt lat="52.50656" lon="6.02126"></trkpt><trkpt lat="52.50641" lon="6.02152"></trkpt><trkpt lat="52.50623" lon="6.02182"></trkpt><trkpt lat="52.50611" lon="6.02201"></trkpt><trkpt lat="52.50585" lon="6.02237"></trkpt><trkpt lat="52.50574" lon="6.02251"></trkpt><trkpt lat="52.50564" lon="6.02264"></trkpt><trkpt lat="52.50535" lon="6.02301"></trkpt><trkpt lat="52.50529" lon="6.02312"></trkpt><trkpt lat="52.50523" lon="6.02328"></trkpt><trkpt lat="52.50522" lon="6.02336"></trkpt><trkpt lat="52.5052" lon="6.0235"></trkpt><trkpt lat="52.50518" lon="6.02375"></trkpt><trkpt lat="52.50516" lon="6.02418"></trkpt><trkpt lat="52.50514" lon="6.02444"></trkpt><trkpt lat="52.50506" lon="6.02479"></trkpt><trkpt lat="52.50495" lon="6.02523"></trkpt><trkpt lat="52.50482" lon="6.02567"></trkpt><trkpt lat="52.50471" lon="6.02613"></trkpt><trkpt lat="52.50465" lon="6.02649"></trkpt><trkpt lat="52.50459" lon="6.0268"></trkpt><trkpt lat="52.50453" lon="6.02722"></trkpt><trkpt lat="52.50447" lon="6.02765"></trkpt><trkpt lat="52.50434" lon="6.0287"></trkpt><trkpt lat="52.50428" lon="6.02917"></trkpt><trkpt lat="52.50425" lon="6.02964"></trkpt><trkpt lat="52.50422" lon="6.03022"></trkpt><trkpt lat="52.5042" lon="6.03082"></trkpt><trkpt lat="52.5042" lon="6.03114"></trkpt><trkpt lat="52.5042" lon="6.0314"></trkpt><trkpt lat="52.50421" lon="6.03165"></trkpt><trkpt lat="52.50428" lon="6.0325"></trkpt><trkpt lat="52.50429" lon="6.03279"></trkpt><trkpt lat="52.50435" lon="6.03351"></trkpt><trkpt lat="52.50437" lon="6.03373"></trkpt><trkpt lat="52.50441" lon="6.03424"></trkpt><trkpt lat="52.50443" lon="6.03472"></trkpt><trkpt lat="52.50442" lon="6.0349"></trkpt><trkpt lat="52.50439" lon="6.03511"></trkpt><trkpt lat="52.50429" lon="6.03555"></trkpt><trkpt lat="52.50416" lon="6.03599"></trkpt><trkpt lat="52.50399" lon="6.03642"></trkpt><trkpt lat="52.50381" lon="6.03684"></trkpt><trkpt lat="52.5033" lon="6.03798"></trkpt><trkpt lat="52.50278" lon="6.03911"></trkpt><trkpt lat="52.50264" lon="6.03941"></trkpt><trkpt lat="52.50229" lon="6.04017"></trkpt><trkpt lat="52.50178" lon="6.04118"></trkpt><trkpt lat="52.5015" lon="6.04179"></trkpt><trkpt lat="52.50123" lon="6.04243"></trkpt><trkpt lat="52.50095" lon="6.0431"></trkpt><trkpt lat="52.5008" lon="6.04344"></trkpt><trkpt lat="52.50066" lon="6.04375"></trkpt><trkpt lat="52.50015" lon="6.04471"></trkpt><trkpt lat="52.50007" lon="6.045"></trkpt><trkpt lat="52.50003" lon="6.04529"></trkpt><trkpt lat="52.50002" lon="6.0454"></trkpt><trkpt lat="52.49999" lon="6.04594"></trkpt><trkpt lat="52.49996" lon="6.04646"></trkpt><trkpt lat="52.49992" lon="6.04701"></trkpt><trkpt lat="52.4999" lon="6.04721"></trkpt><trkpt lat="52.49988" lon="6.04737"></trkpt><trkpt lat="52.49986" lon="6.04754"></trkpt><trkpt lat="52.49984" lon="6.04769"></trkpt><trkpt lat="52.49981" lon="6.04782"></trkpt><trkpt lat="52.49977" lon="6.04798"></trkpt><trkpt lat="52.49972" lon="6.04811"></trkpt><trkpt lat="52.49968" lon="6.04823"></trkpt><trkpt lat="52.49963" lon="6.04832"></trkpt><trkpt lat="52.49946" lon="6.04866"></trkpt><trkpt lat="52.49931" lon="6.04891"></trkpt><trkpt lat="52.49877" lon="6.04955"></trkpt><trkpt lat="52.49846" lon="6.04983"></trkpt><trkpt lat="52.49821" lon="6.05006"></trkpt><trkpt lat="52.49812" lon="6.05015"></trkpt><trkpt lat="52.498" lon="6.05026"></trkpt><trkpt lat="52.49768" lon="6.05056"></trkpt><trkpt lat="52.49739" lon="6.05084"></trkpt><trkpt lat="52.49704" lon="6.05116"></trkpt><trkpt lat="52.49692" lon="6.05127"></trkpt><trkpt lat="52.49685" lon="6.05133"></trkpt><trkpt lat="52.49684" lon="6.05134"></trkpt><trkpt lat="52.49678" lon="6.05139"></trkpt><trkpt lat="52.49665" lon="6.05147"></trkpt><trkpt lat="52.49647" lon="6.05158"></trkpt><trkpt lat="52.49637" lon="6.05164"></trkpt><trkpt lat="52.49583" lon="6.05193"></trkpt><trkpt lat="52.4957" lon="6.05199"></trkpt><trkpt lat="52.49566" lon="6.05199"></trkpt><trkpt lat="52.49563" lon="6.05198"></trkpt><trkpt lat="52.4956" lon="6.05197"></trkpt><trkpt lat="52.49558" lon="6.05195"></trkpt><trkpt lat="52.49555" lon="6.05192"></trkpt><trkpt lat="52.49535" lon="6.05173"></trkpt><trkpt lat="52.49529" lon="6.05167"></trkpt><trkpt lat="52.49525" lon="6.05164"></trkpt><trkpt lat="52.49523" lon="6.05164"></trkpt><trkpt lat="52.4952" lon="6.05163"></trkpt><trkpt lat="52.49516" lon="6.05163"></trkpt><trkpt lat="52.49515" lon="6.05161"></trkpt><trkpt lat="52.49515" lon="6.0516"></trkpt><trkpt lat="52.49512" lon="6.05157"></trkpt><trkpt lat="52.49509" lon="6.05155"></trkpt><trkpt lat="52.49505" lon="6.05155"></trkpt><trkpt lat="52.49502" lon="6.05156"></trkpt><trkpt lat="52.49498" lon="6.05158"></trkpt><trkpt lat="52.49494" lon="6.05161"></trkpt><trkpt lat="52.49492" lon="6.05163"></trkpt><trkpt lat="52.4949" lon="6.05165"></trkpt><trkpt lat="52.49487" lon="6.05166"></trkpt><trkpt lat="52.49485" lon="6.05166"></trkpt><trkpt lat="52.49482" lon="6.05165"></trkpt><trkpt lat="52.49478" lon="6.05162"></trkpt><trkpt lat="52.49475" lon="6.05166"></trkpt><trkpt lat="52.49472" lon="6.0517"></trkpt><trkpt lat="52.49462" lon="6.05183"></trkpt><trkpt lat="52.49457" lon="6.0519"></trkpt><trkpt lat="52.49452" lon="6.05197"></trkpt><trkpt lat="52.49458" lon="6.05209"></trkpt><trkpt lat="52.49461" lon="6.05216"></trkpt><trkpt lat="52.49465" lon="6.05224"></trkpt><trkpt lat="52.49469" lon="6.05233"></trkpt><trkpt lat="52.4948" lon="6.05253"></trkpt><trkpt lat="52.49485" lon="6.05261"></trkpt><trkpt lat="52.49517" lon="6.0531"></trkpt><trkpt lat="52.49525" lon="6.05323"></trkpt><trkpt lat="52.49547" lon="6.05362"></trkpt><trkpt lat="52.49563" lon="6.05397"></trkpt><trkpt lat="52.49568" lon="6.05408"></trkpt><trkpt lat="52.49578" lon="6.05437"></trkpt><trkpt lat="52.49659" lon="6.05682"></trkpt><trkpt lat="52.49766" lon="6.06003"></trkpt><trkpt lat="52.498" lon="6.06107"></trkpt><trkpt lat="52.49812" lon="6.06146"></trkpt><trkpt lat="52.49826" lon="6.06187"></trkpt><trkpt lat="52.49827" lon="6.06189"></trkpt><trkpt lat="52.49827" lon="6.06192"></trkpt><trkpt lat="52.49828" lon="6.06198"></trkpt><trkpt lat="52.49828" lon="6.06207"></trkpt><trkpt lat="52.49822" lon="6.06226"></trkpt><trkpt lat="52.49821" lon="6.06232"></trkpt><trkpt lat="52.49821" lon="6.06237"></trkpt><trkpt lat="52.49821" lon="6.06243"></trkpt><trkpt lat="52.49823" lon="6.06248"></trkpt><trkpt lat="52.49824" lon="6.06251"></trkpt><trkpt lat="52.49825" lon="6.06253"></trkpt><trkpt lat="52.49829" lon="6.06259"></trkpt><trkpt lat="52.49835" lon="6.06272"></trkpt><trkpt lat="52.49838" lon="6.06278"></trkpt><trkpt lat="52.49849" lon="6.06301"></trkpt><trkpt lat="52.49862" lon="6.06335"></trkpt><trkpt lat="52.49872" lon="6.06361"></trkpt><trkpt lat="52.49877" lon="6.06372"></trkpt><trkpt lat="52.49891" lon="6.06412"></trkpt><trkpt lat="52.499" lon="6.06441"></trkpt><trkpt lat="52.49981" lon="6.06687"></trkpt><trkpt lat="52.50018" lon="6.06764"></trkpt><trkpt lat="52.50038" lon="6.06806"></trkpt><trkpt lat="52.5004" lon="6.0681"></trkpt><trkpt lat="52.50042" lon="6.06813"></trkpt><trkpt lat="52.50043" lon="6.06815"></trkpt><trkpt lat="52.50044" lon="6.06818"></trkpt><trkpt lat="52.50045" lon="6.06822"></trkpt><trkpt lat="52.50045" lon="6.06825"></trkpt><trkpt lat="52.50045" lon="6.06827"></trkpt><trkpt lat="52.50045" lon="6.06832"></trkpt><trkpt lat="52.50039" lon="6.06865"></trkpt><trkpt lat="52.50039" lon="6.06869"></trkpt><trkpt lat="52.50039" lon="6.06873"></trkpt><trkpt lat="52.50039" lon="6.06876"></trkpt><trkpt lat="52.50041" lon="6.06879"></trkpt><trkpt lat="52.50043" lon="6.06881"></trkpt><trkpt lat="52.50045" lon="6.06883"></trkpt><trkpt lat="52.50065" lon="6.06895"></trkpt><trkpt lat="52.50092" lon="6.06916"></trkpt><trkpt lat="52.5012" lon="6.06933"></trkpt><trkpt lat="52.50142" lon="6.06941"></trkpt><trkpt lat="52.50167" lon="6.06948"></trkpt><trkpt lat="52.50173" lon="6.06949"></trkpt><trkpt lat="52.50179" lon="6.06949"></trkpt><trkpt lat="52.50192" lon="6.06947"></trkpt><trkpt lat="52.50205" lon="6.06943"></trkpt><trkpt lat="52.50208" lon="6.06942"></trkpt><trkpt lat="52.50237" lon="6.06933"></trkpt><trkpt lat="52.5024" lon="6.06933"></trkpt><trkpt lat="52.50242" lon="6.06932"></trkpt><trkpt lat="52.50244" lon="6.06933"></trkpt><trkpt lat="52.50246" lon="6.06934"></trkpt><trkpt lat="52.50248" lon="6.06936"></trkpt><trkpt lat="52.50251" lon="6.0694"></trkpt><trkpt lat="52.50252" lon="6.06943"></trkpt><trkpt lat="52.50253" lon="6.06947"></trkpt><trkpt lat="52.50254" lon="6.06952"></trkpt><trkpt lat="52.50255" lon="6.06958"></trkpt><trkpt lat="52.50279" lon="6.07142"></trkpt><trkpt lat="52.50286" lon="6.07194"></trkpt><trkpt lat="52.50288" lon="6.0721"></trkpt><trkpt lat="52.5029" lon="6.07219"></trkpt><trkpt lat="52.50291" lon="6.07227"></trkpt><trkpt lat="52.50294" lon="6.07237"></trkpt><trkpt lat="52.50296" lon="6.07246"></trkpt><trkpt lat="52.503" lon="6.07256"></trkpt><trkpt lat="52.50308" lon="6.07266"></trkpt><trkpt lat="52.5032" lon="6.07281"></trkpt><trkpt lat="52.50324" lon="6.07287"></trkpt><trkpt lat="52.50349" lon="6.07315"></trkpt><trkpt lat="52.50387" lon="6.07363"></trkpt><trkpt lat="52.50413" lon="6.07394"></trkpt><trkpt lat="52.50422" lon="6.07405"></trkpt><trkpt lat="52.50431" lon="6.07416"></trkpt><trkpt lat="52.5044" lon="6.07427"></trkpt><trkpt lat="52.50446" lon="6.07436"></trkpt><trkpt lat="52.5045" lon="6.07444"></trkpt><trkpt lat="52.50455" lon="6.07452"></trkpt><trkpt lat="52.50459" lon="6.07462"></trkpt><trkpt lat="52.50464" lon="6.07474"></trkpt><trkpt lat="52.50483" lon="6.07519"></trkpt><trkpt lat="52.50514" lon="6.07611"></trkpt><trkpt lat="52.50517" lon="6.07623"></trkpt><trkpt lat="52.50518" lon="6.07648"></trkpt><trkpt lat="52.5052" lon="6.07687"></trkpt><trkpt lat="52.50521" lon="6.077"></trkpt><trkpt lat="52.50527" lon="6.07719"></trkpt><trkpt lat="52.50531" lon="6.07729"></trkpt><trkpt lat="52.50535" lon="6.07739"></trkpt><trkpt lat="52.50539" lon="6.07748"></trkpt><trkpt lat="52.50571" lon="6.07779"></trkpt><trkpt lat="52.50574" lon="6.07783"></trkpt><trkpt lat="52.50579" lon="6.07791"></trkpt><trkpt lat="52.50587" lon="6.07811"></trkpt><trkpt lat="52.50603" lon="6.07851"></trkpt><trkpt lat="52.5062" lon="6.07884"></trkpt><trkpt lat="52.50638" lon="6.0792"></trkpt><trkpt lat="52.50653" lon="6.07957"></trkpt><trkpt lat="52.50686" lon="6.08038"></trkpt><trkpt lat="52.50693" lon="6.0806"></trkpt><trkpt lat="52.50696" lon="6.08066"></trkpt><trkpt lat="52.50705" lon="6.0809"></trkpt><trkpt lat="52.50713" lon="6.08105"></trkpt><trkpt lat="52.50736" lon="6.08166"></trkpt><trkpt lat="52.50764" lon="6.08249"></trkpt><trkpt lat="52.50776" lon="6.08279"></trkpt><trkpt lat="52.50785" lon="6.08307"></trkpt><trkpt lat="52.50791" lon="6.08325"></trkpt><trkpt lat="52.50793" lon="6.08321"></trkpt><trkpt lat="52.50797" lon="6.08315"></trkpt><trkpt lat="52.50803" lon="6.08305"></trkpt><trkpt lat="52.50811" lon="6.08292"></trkpt><trkpt lat="52.50815" lon="6.08287"></trkpt><trkpt lat="52.50819" lon="6.08282"></trkpt><trkpt lat="52.50821" lon="6.08291"></trkpt><trkpt lat="52.50825" lon="6.08304"></trkpt><trkpt lat="52.50829" lon="6.08317"></trkpt><trkpt lat="52.50831" lon="6.08326"></trkpt><trkpt lat="52.50835" lon="6.08338"></trkpt><trkpt lat="52.50843" lon="6.08361"></trkpt><trkpt lat="52.5085" lon="6.08384"></trkpt><trkpt lat="52.50859" lon="6.08409"></trkpt><trkpt lat="52.5086" lon="6.08412"></trkpt><trkpt lat="52.50873" lon="6.08449"></trkpt><trkpt lat="52.50876" lon="6.08454"></trkpt><trkpt lat="52.50879" lon="6.08463"></trkpt><trkpt lat="52.50883" lon="6.08471"></trkpt><trkpt lat="52.50888" lon="6.0848"></trkpt><trkpt lat="52.50898" lon="6.08495"></trkpt><trkpt lat="52.50905" lon="6.08504"></trkpt><trkpt lat="52.50912" lon="6.08513"></trkpt><trkpt lat="52.50919" lon="6.0852"></trkpt><trkpt lat="52.50926" lon="6.08526"></trkpt><trkpt lat="52.50931" lon="6.08529"></trkpt><trkpt lat="52.50936" lon="6.08533"></trkpt><trkpt lat="52.50944" lon="6.08537"></trkpt><trkpt lat="52.50952" lon="6.0854"></trkpt><trkpt lat="52.5097" lon="6.08547"></trkpt><trkpt lat="52.50983" lon="6.08552"></trkpt><trkpt lat="52.50992" lon="6.08556"></trkpt><trkpt lat="52.51002" lon="6.0856"></trkpt><trkpt lat="52.51014" lon="6.08566"></trkpt><trkpt lat="52.51022" lon="6.08569"></trkpt><trkpt lat="52.51034" lon="6.08573"></trkpt><trkpt lat="52.51038" lon="6.08574"></trkpt><trkpt lat="52.51065" lon="6.08576"></trkpt><trkpt lat="52.51081" lon="6.08577"></trkpt><trkpt lat="52.51086" lon="6.08578"></trkpt><trkpt lat="52.51098" lon="6.08581"></trkpt><trkpt lat="52.51108" lon="6.08585"></trkpt><trkpt lat="52.51125" lon="6.08593"></trkpt><trkpt lat="52.51153" lon="6.08613"></trkpt><trkpt lat="52.51195" lon="6.0864"></trkpt><trkpt lat="52.51214" lon="6.08653"></trkpt><trkpt lat="52.51213" lon="6.0866"></trkpt><trkpt lat="52.51212" lon="6.08663"></trkpt><trkpt lat="52.51209" lon="6.08676"></trkpt><trkpt lat="52.51207" lon="6.08689"></trkpt><trkpt lat="52.51206" lon="6.08699"></trkpt><trkpt lat="52.51206" lon="6.08705"></trkpt><trkpt lat="52.51209" lon="6.08725"></trkpt><trkpt lat="52.51199" lon="6.08784"></trkpt><trkpt lat="52.51197" lon="6.08801"></trkpt><trkpt lat="52.51199" lon="6.08817"></trkpt><trkpt lat="52.51211" lon="6.08825"></trkpt><trkpt lat="52.51218" lon="6.08836"></trkpt><trkpt lat="52.5123" lon="6.08856"></trkpt><trkpt lat="52.5126" lon="6.0888"></trkpt><trkpt lat="52.51284" lon="6.08898"></trkpt><trkpt lat="52.51287" lon="6.089"></trkpt><trkpt lat="52.51318" lon="6.08921"></trkpt></trkseg></trk></gpx>