<?xml version="1.0" encoding="UTF-8" standalone="no" ?>
<gpx xmlns="http://www.topografix.com/GPX/1/1"
		xmlns:gpxx="http://www.garmin.com/xmlschemas/GpxExtensions/v3"
		xmlns:gpxtpx="http://www.garmin.com/xmlschemas/TrackPointExtension/v1"
		xmlns:xsi="http://www.w3.org/2001/XMLSchema-instance"
		xsi:schemaLocation="http://www.topografix.com/GPX/1/1 http://www.topografix.com/GPX/1/1/gpx.xsd http://www.garmin.com/xmlschemas/GpxExtensions/v3 http://www.garmin.com/xmlschemas/GpxExtensionsv3.xsd http://www.garmin.com/xmlschemas/TrackPointExtension/v1 http://www.garmin.com/xmlschemas/TrackPointExtensionv1.xsd"
		creator="Gravelmap.com"
		version="1.1">

	<metadata>
		<name><![CDATA[Gravel Route: Autun ==> Beaune]]></name>
		<desc><![CDATA[Dernière étape de mon petit tour de Bourgogne]]></desc>
		<link href="http://www.gravelmap.com/route/130512">
			<text><![CDATA[Gravel Route: Autun ==> Beaune]]></text>
		</link>
		<time>2022-12-06T07:34:18-05:00</time>
	</metadata>

	<trk>
		<name><![CDATA[Gravel Route: Autun ==> Beaune]]></name>
		<desc><![CDATA[Dernière étape de mon petit tour de Bourgogne]]></desc>
		<link href="http://www.gravelmap.com/route/130512">
			<text><![CDATA[Gravel Route: Autun ==> Beaune]]></text>
		</link>
		<trkseg>
			<trkpt lat="46.96452" lon="4.29265">
				<ele>290.22</ele>
			</trkpt>
			<trkpt lat="46.96461" lon="4.29274">
				<ele>290.22</ele>
			</trkpt>
			<trkpt lat="46.96464" lon="4.29292">
				<ele>290.22</ele>
			</trkpt>
			<trkpt lat="46.9647" lon="4.29401">
				<ele>290.22</ele>
			</trkpt>
			<trkpt lat="46.96499" lon="4.294">
				<ele>288.83</ele>
			</trkpt>
			<trkpt lat="46.96618" lon="4.29402">
				<ele>288.83</ele>
			</trkpt>
			<trkpt lat="46.96618" lon="4.295">
				<ele>288.83</ele>
			</trkpt>
			<trkpt lat="46.96622" lon="4.29568">
				<ele>288.59</ele>
			</trkpt>
			<trkpt lat="46.96619" lon="4.29614">
				<ele>288.59</ele>
			</trkpt>
			<trkpt lat="46.966" lon="4.29797">
				<ele>288.59</ele>
			</trkpt>
			<trkpt lat="46.96599" lon="4.29819">
				<ele>288.59</ele>
			</trkpt>
			<trkpt lat="46.96607" lon="4.30088">
				<ele>288.51</ele>
			</trkpt>
			<trkpt lat="46.96616" lon="4.30216">
				<ele>288.51</ele>
			</trkpt>
			<trkpt lat="46.96617" lon="4.3024">
				<ele>288.51</ele>
			</trkpt>
			<trkpt lat="46.96615" lon="4.30265">
				<ele>293.48</ele>
			</trkpt>
			<trkpt lat="46.96605" lon="4.30297">
				<ele>293.48</ele>
			</trkpt>
			<trkpt lat="46.9655" lon="4.30424">
				<ele>293.48</ele>
			</trkpt>
			<trkpt lat="46.96638" lon="4.30497">
				<ele>293.48</ele>
			</trkpt>
			<trkpt lat="46.96666" lon="4.30515">
				<ele>300.73</ele>
			</trkpt>
			<trkpt lat="46.96687" lon="4.30525">
				<ele>300.73</ele>
			</trkpt>
			<trkpt lat="46.96725" lon="4.3053">
				<ele>300.73</ele>
			</trkpt>
			<trkpt lat="46.96741" lon="4.30543">
				<ele>297.84</ele>
			</trkpt>
			<trkpt lat="46.96742" lon="4.30577">
				<ele>297.84</ele>
			</trkpt>
			<trkpt lat="46.96754" lon="4.30564">
				<ele>297.84</ele>
			</trkpt>
			<trkpt lat="46.96762" lon="4.30544">
				<ele>297.84</ele>
			</trkpt>
			<trkpt lat="46.96782" lon="4.30523">
				<ele>297.3</ele>
			</trkpt>
			<trkpt lat="46.96823" lon="4.30522">
				<ele>297.3</ele>
			</trkpt>
			<trkpt lat="46.96839" lon="4.30524">
				<ele>297.3</ele>
			</trkpt>
			<trkpt lat="46.96955" lon="4.30561">
				<ele>297.16</ele>
			</trkpt>
			<trkpt lat="46.96981" lon="4.30587">
				<ele>297.16</ele>
			</trkpt>
			<trkpt lat="46.97013" lon="4.30597">
				<ele>297.16</ele>
			</trkpt>
			<trkpt lat="46.9716" lon="4.30645">
				<ele>297.16</ele>
			</trkpt>
			<trkpt lat="46.97164" lon="4.30629">
				<ele>299.54</ele>
			</trkpt>
			<trkpt lat="46.97198" lon="4.30641">
				<ele>299.54</ele>
			</trkpt>
			<trkpt lat="46.97197" lon="4.30655">
				<ele>299.54</ele>
			</trkpt>
			<trkpt lat="46.97276" lon="4.30682">
				<ele>300.96</ele>
			</trkpt>
			<trkpt lat="46.97293" lon="4.30684">
				<ele>300.96</ele>
			</trkpt>
			<trkpt lat="46.97302" lon="4.30679">
				<ele>300.96</ele>
			</trkpt>
			<trkpt lat="46.97333" lon="4.30677">
				<ele>300.96</ele>
			</trkpt>
			<trkpt lat="46.97394" lon="4.30674">
				<ele>299.86</ele>
			</trkpt>
			<trkpt lat="46.97421" lon="4.30676">
				<ele>299.86</ele>
			</trkpt>
			<trkpt lat="46.97472" lon="4.3069">
				<ele>299.86</ele>
			</trkpt>
			<trkpt lat="46.97506" lon="4.30706">
				<ele>297.42</ele>
			</trkpt>
			<trkpt lat="46.97538" lon="4.30731">
				<ele>297.42</ele>
			</trkpt>
			<trkpt lat="46.97562" lon="4.30752">
				<ele>297.42</ele>
			</trkpt>
			<trkpt lat="46.97634" lon="4.30823">
				<ele>298.01</ele>
			</trkpt>
			<trkpt lat="46.9767" lon="4.30852">
				<ele>298.01</ele>
			</trkpt>
			<trkpt lat="46.97716" lon="4.30877">
				<ele>298.01</ele>
			</trkpt>
			<trkpt lat="46.9778" lon="4.30907">
				<ele>298.01</ele>
			</trkpt>
			<trkpt lat="46.97929" lon="4.30973">
				<ele>298.28</ele>
			</trkpt>
			<trkpt lat="46.97902" lon="4.31054">
				<ele>298.28</ele>
			</trkpt>
			<trkpt lat="46.97931" lon="4.31068">
				<ele>298.28</ele>
			</trkpt>
			<trkpt lat="46.97984" lon="4.31089">
				<ele>300.52</ele>
			</trkpt>
			<trkpt lat="46.98014" lon="4.31108">
				<ele>300.52</ele>
			</trkpt>
			<trkpt lat="46.98035" lon="4.31135">
				<ele>300.52</ele>
			</trkpt>
			<trkpt lat="46.98073" lon="4.31169">
				<ele>300.52</ele>
			</trkpt>
			<trkpt lat="46.98093" lon="4.31184">
				<ele>300.67</ele>
			</trkpt>
			<trkpt lat="46.98157" lon="4.31221">
				<ele>300.67</ele>
			</trkpt>
			<trkpt lat="46.98188" lon="4.31237">
				<ele>300.67</ele>
			</trkpt>
			<trkpt lat="46.98203" lon="4.31242">
				<ele>300.5</ele>
			</trkpt>
			<trkpt lat="46.98228" lon="4.31235">
				<ele>300.5</ele>
			</trkpt>
			<trkpt lat="46.98246" lon="4.31239">
				<ele>300.5</ele>
			</trkpt>
			<trkpt lat="46.98332" lon="4.31274">
				<ele>300.5</ele>
			</trkpt>
			<trkpt lat="46.98356" lon="4.31281">
				<ele>297.43</ele>
			</trkpt>
			<trkpt lat="46.98371" lon="4.31279">
				<ele>297.43</ele>
			</trkpt>
			<trkpt lat="46.98386" lon="4.3126">
				<ele>297.43</ele>
			</trkpt>
			<trkpt lat="46.98394" lon="4.31241">
				<ele>297.4</ele>
			</trkpt>
			<trkpt lat="46.98407" lon="4.31242">
				<ele>297.4</ele>
			</trkpt>
			<trkpt lat="46.98435" lon="4.31252">
				<ele>297.4</ele>
			</trkpt>
			<trkpt lat="46.98567" lon="4.31313">
				<ele>297.4</ele>
			</trkpt>
			<trkpt lat="46.98729" lon="4.31391">
				<ele>297.51</ele>
			</trkpt>
			<trkpt lat="46.98742" lon="4.31398">
				<ele>297.51</ele>
			</trkpt>
			<trkpt lat="46.98757" lon="4.31403">
				<ele>297.51</ele>
			</trkpt>
			<trkpt lat="46.98832" lon="4.31437">
				<ele>299.34</ele>
			</trkpt>
			<trkpt lat="46.99042" lon="4.31539">
				<ele>299.34</ele>
			</trkpt>
			<trkpt lat="46.99206" lon="4.31614">
				<ele>299.34</ele>
			</trkpt>
			<trkpt lat="46.99308" lon="4.31666">
				<ele>299.34</ele>
			</trkpt>
			<trkpt lat="46.99531" lon="4.31771">
				<ele>301.62</ele>
			</trkpt>
			<trkpt lat="46.99694" lon="4.31855">
				<ele>301.62</ele>
			</trkpt>
			<trkpt lat="46.99732" lon="4.31882">
				<ele>301.62</ele>
			</trkpt>
			<trkpt lat="46.99735" lon="4.31996">
				<ele>305.93</ele>
			</trkpt>
			<trkpt lat="46.99714" lon="4.32327">
				<ele>305.93</ele>
			</trkpt>
			<trkpt lat="46.99716" lon="4.32346">
				<ele>305.93</ele>
			</trkpt>
			<trkpt lat="46.99753" lon="4.32454">
				<ele>315.4</ele>
			</trkpt>
			<trkpt lat="46.9976" lon="4.32487">
				<ele>315.4</ele>
			</trkpt>
			<trkpt lat="46.99782" lon="4.3254">
				<ele>315.4</ele>
			</trkpt>
			<trkpt lat="46.99805" lon="4.32592">
				<ele>315.4</ele>
			</trkpt>
			<trkpt lat="46.99858" lon="4.32716">
				<ele>322.24</ele>
			</trkpt>
			<trkpt lat="46.9992" lon="4.32876">
				<ele>322.24</ele>
			</trkpt>
			<trkpt lat="46.99968" lon="4.33009">
				<ele>322.24</ele>
			</trkpt>
			<trkpt lat="46.99974" lon="4.3303">
				<ele>332.82</ele>
			</trkpt>
			<trkpt lat="46.99986" lon="4.33054">
				<ele>332.82</ele>
			</trkpt>
			<trkpt lat="47" lon="4.33103">
				<ele>332.82</ele>
			</trkpt>
			<trkpt lat="47.0001" lon="4.33126">
				<ele>332.82</ele>
			</trkpt>
			<trkpt lat="47.0002" lon="4.33139">
				<ele>328.54</ele>
			</trkpt>
			<trkpt lat="47.00047" lon="4.33162">
				<ele>328.54</ele>
			</trkpt>
			<trkpt lat="47.00093" lon="4.33222">
				<ele>328.54</ele>
			</trkpt>
			<trkpt lat="47.00111" lon="4.33248">
				<ele>308.96</ele>
			</trkpt>
			<trkpt lat="47.0013" lon="4.33289">
				<ele>308.96</ele>
			</trkpt>
			<trkpt lat="47.0014" lon="4.33305">
				<ele>308.96</ele>
			</trkpt>
			<trkpt lat="47.00172" lon="4.3332">
				<ele>308.96</ele>
			</trkpt>
			<trkpt lat="47.00218" lon="4.33349">
				<ele>308.44</ele>
			</trkpt>
			<trkpt lat="47.00231" lon="4.33374">
				<ele>308.44</ele>
			</trkpt>
			<trkpt lat="47.00231" lon="4.33389">
				<ele>308.44</ele>
			</trkpt>
			<trkpt lat="47.00242" lon="4.33416">
				<ele>307.09</ele>
			</trkpt>
			<trkpt lat="47.00247" lon="4.33431">
				<ele>307.09</ele>
			</trkpt>
			<trkpt lat="47.00242" lon="4.3345">
				<ele>307.09</ele>
			</trkpt>
			<trkpt lat="47.00223" lon="4.33473">
				<ele>307.09</ele>
			</trkpt>
			<trkpt lat="47.00206" lon="4.33505">
				<ele>313.01</ele>
			</trkpt>
			<trkpt lat="47.00202" lon="4.33527">
				<ele>313.01</ele>
			</trkpt>
			<trkpt lat="47.00199" lon="4.33608">
				<ele>313.01</ele>
			</trkpt>
			<trkpt lat="47.002" lon="4.33641">
				<ele>316</ele>
			</trkpt>
			<trkpt lat="47.0023" lon="4.33702">
				<ele>316</ele>
			</trkpt>
			<trkpt lat="47.00244" lon="4.3374">
				<ele>316</ele>
			</trkpt>
			<trkpt lat="47.00258" lon="4.33767">
				<ele>316</ele>
			</trkpt>
			<trkpt lat="47.00277" lon="4.3379">
				<ele>317.15</ele>
			</trkpt>
			<trkpt lat="47.00327" lon="4.33833">
				<ele>317.15</ele>
			</trkpt>
			<trkpt lat="47.00339" lon="4.33848">
				<ele>317.15</ele>
			</trkpt>
			<trkpt lat="47.00353" lon="4.3388">
				<ele>315.3</ele>
			</trkpt>
			<trkpt lat="47.0037" lon="4.3394">
				<ele>315.3</ele>
			</trkpt>
			<trkpt lat="47.00384" lon="4.33972">
				<ele>315.3</ele>
			</trkpt>
			<trkpt lat="47.00411" lon="4.33996">
				<ele>306.21</ele>
			</trkpt>
			<trkpt lat="47.00429" lon="4.34004">
				<ele>306.21</ele>
			</trkpt>
			<trkpt lat="47.00449" lon="4.34017">
				<ele>306.21</ele>
			</trkpt>
			<trkpt lat="47.00474" lon="4.34046">
				<ele>306.21</ele>
			</trkpt>
			<trkpt lat="47.00503" lon="4.34084">
				<ele>305.94</ele>
			</trkpt>
			<trkpt lat="47.00525" lon="4.34124">
				<ele>305.94</ele>
			</trkpt>
			<trkpt lat="47.00549" lon="4.34176">
				<ele>305.94</ele>
			</trkpt>
			<trkpt lat="47.00561" lon="4.34217">
				<ele>304.4</ele>
			</trkpt>
			<trkpt lat="47.0059" lon="4.34345">
				<ele>304.4</ele>
			</trkpt>
			<trkpt lat="47.00594" lon="4.34373">
				<ele>304.4</ele>
			</trkpt>
			<trkpt lat="47.00592" lon="4.34392">
				<ele>304.4</ele>
			</trkpt>
			<trkpt lat="47.00567" lon="4.34455">
				<ele>301.78</ele>
			</trkpt>
			<trkpt lat="47.00555" lon="4.3449">
				<ele>301.78</ele>
			</trkpt>
			<trkpt lat="47.00545" lon="4.3454">
				<ele>301.78</ele>
			</trkpt>
			<trkpt lat="47.00546" lon="4.34571">
				<ele>306.11</ele>
			</trkpt>
			<trkpt lat="47.00555" lon="4.34624">
				<ele>306.11</ele>
			</trkpt>
			<trkpt lat="47.00567" lon="4.34659">
				<ele>306.11</ele>
			</trkpt>
			<trkpt lat="47.00582" lon="4.34711">
				<ele>306.11</ele>
			</trkpt>
			<trkpt lat="47.00592" lon="4.34731">
				<ele>304.88</ele>
			</trkpt>
			<trkpt lat="47.00604" lon="4.34747">
				<ele>304.88</ele>
			</trkpt>
			<trkpt lat="47.00635" lon="4.34769">
				<ele>304.88</ele>
			</trkpt>
			<trkpt lat="47.00647" lon="4.34784">
				<ele>303.64</ele>
			</trkpt>
			<trkpt lat="47.00659" lon="4.34792">
				<ele>303.64</ele>
			</trkpt>
			<trkpt lat="47.00674" lon="4.34792">
				<ele>303.64</ele>
			</trkpt>
			<trkpt lat="47.00686" lon="4.34789">
				<ele>303.64</ele>
			</trkpt>
			<trkpt lat="47.00724" lon="4.34772">
				<ele>303.72</ele>
			</trkpt>
			<trkpt lat="47.0074" lon="4.34771">
				<ele>303.72</ele>
			</trkpt>
			<trkpt lat="47.00753" lon="4.34778">
				<ele>303.72</ele>
			</trkpt>
			<trkpt lat="47.00773" lon="4.34801">
				<ele>304.71</ele>
			</trkpt>
			<trkpt lat="47.00786" lon="4.34811">
				<ele>304.71</ele>
			</trkpt>
			<trkpt lat="47.00799" lon="4.34819">
				<ele>304.71</ele>
			</trkpt>
			<trkpt lat="47.00816" lon="4.3482">
				<ele>304.71</ele>
			</trkpt>
			<trkpt lat="47.00912" lon="4.3479">
				<ele>302.94</ele>
			</trkpt>
			<trkpt lat="47.00914" lon="4.34807">
				<ele>302.94</ele>
			</trkpt>
			<trkpt lat="47.00917" lon="4.34819">
				<ele>302.94</ele>
			</trkpt>
			<trkpt lat="47.00928" lon="4.34844">
				<ele>303.43</ele>
			</trkpt>
			<trkpt lat="47.01036" lon="4.35008">
				<ele>303.43</ele>
			</trkpt>
			<trkpt lat="47.01073" lon="4.35068">
				<ele>303.43</ele>
			</trkpt>
			<trkpt lat="47.01083" lon="4.35087">
				<ele>303.43</ele>
			</trkpt>
			<trkpt lat="47.01112" lon="4.35209">
				<ele>302.94</ele>
			</trkpt>
			<trkpt lat="47.01133" lon="4.35174">
				<ele>302.94</ele>
			</trkpt>
			<trkpt lat="47.01141" lon="4.3515">
				<ele>302.94</ele>
			</trkpt>
			<trkpt lat="47.01144" lon="4.35118">
				<ele>303.98</ele>
			</trkpt>
			<trkpt lat="47.01153" lon="4.35106">
				<ele>303.98</ele>
			</trkpt>
			<trkpt lat="47.01163" lon="4.35121">
				<ele>303.98</ele>
			</trkpt>
			<trkpt lat="47.01164" lon="4.35154">
				<ele>303.18</ele>
			</trkpt>
			<trkpt lat="47.01174" lon="4.35183">
				<ele>303.18</ele>
			</trkpt>
			<trkpt lat="47.01189" lon="4.35253">
				<ele>303.18</ele>
			</trkpt>
			<trkpt lat="47.01203" lon="4.35342">
				<ele>303.18</ele>
			</trkpt>
			<trkpt lat="47.01256" lon="4.35785">
				<ele>305.85</ele>
			</trkpt>
			<trkpt lat="47.01269" lon="4.35875">
				<ele>305.85</ele>
			</trkpt>
			<trkpt lat="47.01296" lon="4.35998">
				<ele>305.85</ele>
			</trkpt>
			<trkpt lat="47.01479" lon="4.36886">
				<ele>306.9</ele>
			</trkpt>
			<trkpt lat="47.0171" lon="4.37982">
				<ele>306.9</ele>
			</trkpt>
			<trkpt lat="47.01757" lon="4.3822">
				<ele>306.9</ele>
			</trkpt>
			<trkpt lat="47.01777" lon="4.38376">
				<ele>306.9</ele>
			</trkpt>
			<trkpt lat="47.01787" lon="4.38544">
				<ele>308.24</ele>
			</trkpt>
			<trkpt lat="47.01787" lon="4.38676">
				<ele>308.24</ele>
			</trkpt>
			<trkpt lat="47.01784" lon="4.38793">
				<ele>308.24</ele>
			</trkpt>
			<trkpt lat="47.01675" lon="4.40189">
				<ele>308.23</ele>
			</trkpt>
			<trkpt lat="47.01666" lon="4.40206">
				<ele>308.23</ele>
			</trkpt>
			<trkpt lat="47.01655" lon="4.40201">
				<ele>308.23</ele>
			</trkpt>
			<trkpt lat="47.01634" lon="4.40227">
				<ele>308.23</ele>
			</trkpt>
			<trkpt lat="47.01622" lon="4.40252">
				<ele>308.9</ele>
			</trkpt>
			<trkpt lat="47.01611" lon="4.40283">
				<ele>308.9</ele>
			</trkpt>
			<trkpt lat="47.01579" lon="4.40387">
				<ele>308.9</ele>
			</trkpt>
			<trkpt lat="47.01552" lon="4.40532">
				<ele>312.57</ele>
			</trkpt>
			<trkpt lat="47.01548" lon="4.40592">
				<ele>312.57</ele>
			</trkpt>
			<trkpt lat="47.01539" lon="4.40624">
				<ele>312.57</ele>
			</trkpt>
			<trkpt lat="47.01533" lon="4.4067">
				<ele>312.57</ele>
			</trkpt>
			<trkpt lat="47.01531" lon="4.40726">
				<ele>313.25</ele>
			</trkpt>
			<trkpt lat="47.01539" lon="4.40818">
				<ele>313.25</ele>
			</trkpt>
			<trkpt lat="47.01535" lon="4.40854">
				<ele>313.25</ele>
			</trkpt>
			<trkpt lat="47.01534" lon="4.40887">
				<ele>314.92</ele>
			</trkpt>
			<trkpt lat="47.01489" lon="4.41067">
				<ele>314.92</ele>
			</trkpt>
			<trkpt lat="47.01484" lon="4.4108">
				<ele>314.92</ele>
			</trkpt>
			<trkpt lat="47.01475" lon="4.41092">
				<ele>314.92</ele>
			</trkpt>
			<trkpt lat="47.01462" lon="4.411">
				<ele>314.6</ele>
			</trkpt>
			<trkpt lat="47.01402" lon="4.41094">
				<ele>314.6</ele>
			</trkpt>
			<trkpt lat="47.01391" lon="4.41099">
				<ele>314.6</ele>
			</trkpt>
			<trkpt lat="47.01381" lon="4.41122">
				<ele>319.55</ele>
			</trkpt>
			<trkpt lat="47.01523" lon="4.4113">
				<ele>319.55</ele>
			</trkpt>
			<trkpt lat="47.01542" lon="4.41121">
				<ele>319.55</ele>
			</trkpt>
			<trkpt lat="47.01552" lon="4.4111">
				<ele>318.49</ele>
			</trkpt>
			<trkpt lat="47.01559" lon="4.41096">
				<ele>318.49</ele>
			</trkpt>
			<trkpt lat="47.01575" lon="4.41044">
				<ele>318.49</ele>
			</trkpt>
			<trkpt lat="47.01584" lon="4.41006">
				<ele>318.49</ele>
			</trkpt>
			<trkpt lat="47.01594" lon="4.41016">
				<ele>314.14</ele>
			</trkpt>
			<trkpt lat="47.01594" lon="4.41034">
				<ele>314.14</ele>
			</trkpt>
			<trkpt lat="47.01579" lon="4.41086">
				<ele>314.14</ele>
			</trkpt>
			<trkpt lat="47.01559" lon="4.41137">
				<ele>316.25</ele>
			</trkpt>
			<trkpt lat="47.0156" lon="4.41153">
				<ele>316.25</ele>
			</trkpt>
			<trkpt lat="47.01595" lon="4.41203">
				<ele>316.25</ele>
			</trkpt>
			<trkpt lat="47.01593" lon="4.41248">
				<ele>316.25</ele>
			</trkpt>
			<trkpt lat="47.01562" lon="4.41614">
				<ele>321.08</ele>
			</trkpt>
			<trkpt lat="47.01536" lon="4.41804">
				<ele>321.08</ele>
			</trkpt>
			<trkpt lat="47.01522" lon="4.41889">
				<ele>321.08</ele>
			</trkpt>
			<trkpt lat="47.01489" lon="4.42048">
				<ele>331.22</ele>
			</trkpt>
			<trkpt lat="47.01402" lon="4.42456">
				<ele>331.22</ele>
			</trkpt>
			<trkpt lat="47.01292" lon="4.42958">
				<ele>331.22</ele>
			</trkpt>
			<trkpt lat="47.0118" lon="4.43485">
				<ele>331.22</ele>
			</trkpt>
			<trkpt lat="47.01034" lon="4.44161">
				<ele>330.52</ele>
			</trkpt>
			<trkpt lat="47.00874" lon="4.44885">
				<ele>330.52</ele>
			</trkpt>
			<trkpt lat="47.0053" lon="4.46463">
				<ele>330.52</ele>
			</trkpt>
			<trkpt lat="47.00493" lon="4.46647">
				<ele>315.31</ele>
			</trkpt>
			<trkpt lat="47.00477" lon="4.46743">
				<ele>315.31</ele>
			</trkpt>
			<trkpt lat="47.00461" lon="4.46846">
				<ele>315.31</ele>
			</trkpt>
			<trkpt lat="47.00445" lon="4.46972">
				<ele>315.31</ele>
			</trkpt>
			<trkpt lat="47.00431" lon="4.47211">
				<ele>314.09</ele>
			</trkpt>
			<trkpt lat="47.00435" lon="4.47529">
				<ele>314.09</ele>
			</trkpt>
			<trkpt lat="47.00467" lon="4.48355">
				<ele>314.09</ele>
			</trkpt>
			<trkpt lat="47.00463" lon="4.48464">
				<ele>315.94</ele>
			</trkpt>
			<trkpt lat="47.00455" lon="4.4853">
				<ele>315.94</ele>
			</trkpt>
			<trkpt lat="47.00448" lon="4.48572">
				<ele>315.94</ele>
			</trkpt>
			<trkpt lat="47.00438" lon="4.48621">
				<ele>315.94</ele>
			</trkpt>
			<trkpt lat="47.00408" lon="4.48725">
				<ele>311.82</ele>
			</trkpt>
			<trkpt lat="47.00364" lon="4.48828">
				<ele>311.82</ele>
			</trkpt>
			<trkpt lat="47.00335" lon="4.48879">
				<ele>311.82</ele>
			</trkpt>
			<trkpt lat="47.00296" lon="4.48941">
				<ele>318.05</ele>
			</trkpt>
			<trkpt lat="47.00116" lon="4.49156">
				<ele>318.05</ele>
			</trkpt>
			<trkpt lat="47.00045" lon="4.49244">
				<ele>318.05</ele>
			</trkpt>
			<trkpt lat="46.99999" lon="4.49308">
				<ele>317.13</ele>
			</trkpt>
			<trkpt lat="46.99968" lon="4.49358">
				<ele>317.13</ele>
			</trkpt>
			<trkpt lat="46.99937" lon="4.49428">
				<ele>317.13</ele>
			</trkpt>
			<trkpt lat="46.99911" lon="4.49507">
				<ele>317.13</ele>
			</trkpt>
			<trkpt lat="46.99891" lon="4.49605">
				<ele>316.56</ele>
			</trkpt>
			<trkpt lat="46.99871" lon="4.49717">
				<ele>316.56</ele>
			</trkpt>
			<trkpt lat="46.99819" lon="4.49993">
				<ele>316.56</ele>
			</trkpt>
			<trkpt lat="46.99803" lon="4.50062">
				<ele>316.61</ele>
			</trkpt>
			<trkpt lat="46.9975" lon="4.50215">
				<ele>316.61</ele>
			</trkpt>
			<trkpt lat="46.99714" lon="4.50301">
				<ele>316.61</ele>
			</trkpt>
			<trkpt lat="46.99611" lon="4.50515">
				<ele>316.61</ele>
			</trkpt>
			<trkpt lat="46.99575" lon="4.50573">
				<ele>316.65</ele>
			</trkpt>
			<trkpt lat="46.99556" lon="4.506">
				<ele>316.65</ele>
			</trkpt>
			<trkpt lat="46.99513" lon="4.5065">
				<ele>316.65</ele>
			</trkpt>
			<trkpt lat="46.99487" lon="4.50674">
				<ele>315.7</ele>
			</trkpt>
			<trkpt lat="46.99422" lon="4.50726">
				<ele>315.7</ele>
			</trkpt>
			<trkpt lat="46.9926" lon="4.50807">
				<ele>315.7</ele>
			</trkpt>
			<trkpt lat="46.99217" lon="4.50836">
				<ele>315.7</ele>
			</trkpt>
			<trkpt lat="46.99183" lon="4.50865">
				<ele>317</ele>
			</trkpt>
			<trkpt lat="46.99151" lon="4.50897">
				<ele>317</ele>
			</trkpt>
			<trkpt lat="46.99107" lon="4.50961">
				<ele>317</ele>
			</trkpt>
			<trkpt lat="46.99071" lon="4.51026">
				<ele>318.87</ele>
			</trkpt>
			<trkpt lat="46.98993" lon="4.51182">
				<ele>318.87</ele>
			</trkpt>
			<trkpt lat="46.98897" lon="4.51359">
				<ele>318.87</ele>
			</trkpt>
			<trkpt lat="46.98803" lon="4.5151">
				<ele>318.87</ele>
			</trkpt>
			<trkpt lat="46.98645" lon="4.51774">
				<ele>319.73</ele>
			</trkpt>
			<trkpt lat="46.98615" lon="4.5183">
				<ele>319.73</ele>
			</trkpt>
			<trkpt lat="46.98587" lon="4.51895">
				<ele>319.73</ele>
			</trkpt>
			<trkpt lat="46.98597" lon="4.51931">
				<ele>319.17</ele>
			</trkpt>
			<trkpt lat="46.986" lon="4.51964">
				<ele>319.17</ele>
			</trkpt>
			<trkpt lat="46.98602" lon="4.52134">
				<ele>319.17</ele>
			</trkpt>
			<trkpt lat="46.98612" lon="4.52351">
				<ele>319.17</ele>
			</trkpt>
			<trkpt lat="46.98616" lon="4.52392">
				<ele>319.39</ele>
			</trkpt>
			<trkpt lat="46.98624" lon="4.52432">
				<ele>319.39</ele>
			</trkpt>
			<trkpt lat="46.9866" lon="4.52576">
				<ele>319.39</ele>
			</trkpt>
			<trkpt lat="46.98671" lon="4.52643">
				<ele>322.77</ele>
			</trkpt>
			<trkpt lat="46.98678" lon="4.52697">
				<ele>322.77</ele>
			</trkpt>
			<trkpt lat="46.98677" lon="4.52743">
				<ele>322.77</ele>
			</trkpt>
			<trkpt lat="46.98669" lon="4.52822">
				<ele>322.77</ele>
			</trkpt>
			<trkpt lat="46.9866" lon="4.52883">
				<ele>322.82</ele>
			</trkpt>
			<trkpt lat="46.98645" lon="4.52935">
				<ele>322.82</ele>
			</trkpt>
			<trkpt lat="46.98549" lon="4.53145">
				<ele>322.82</ele>
			</trkpt>
			<trkpt lat="46.98538" lon="4.53183">
				<ele>322.34</ele>
			</trkpt>
			<trkpt lat="46.98533" lon="4.53214">
				<ele>322.34</ele>
			</trkpt>
			<trkpt lat="46.98531" lon="4.5341">
				<ele>322.34</ele>
			</trkpt>
			<trkpt lat="46.98536" lon="4.53466">
				<ele>322.88</ele>
			</trkpt>
			<trkpt lat="46.98541" lon="4.53505">
				<ele>322.88</ele>
			</trkpt>
			<trkpt lat="46.9854" lon="4.53548">
				<ele>322.88</ele>
			</trkpt>
			<trkpt lat="46.98534" lon="4.53577">
				<ele>322.88</ele>
			</trkpt>
			<trkpt lat="46.9852" lon="4.5361">
				<ele>322.02</ele>
			</trkpt>
			<trkpt lat="46.98487" lon="4.53829">
				<ele>322.02</ele>
			</trkpt>
			<trkpt lat="46.98472" lon="4.53905">
				<ele>322.02</ele>
			</trkpt>
			<trkpt lat="46.98462" lon="4.5394">
				<ele>321.06</ele>
			</trkpt>
			<trkpt lat="46.98444" lon="4.5398">
				<ele>321.06</ele>
			</trkpt>
			<trkpt lat="46.98417" lon="4.54031">
				<ele>321.06</ele>
			</trkpt>
			<trkpt lat="46.98413" lon="4.54236">
				<ele>321.06</ele>
			</trkpt>
			<trkpt lat="46.98406" lon="4.54325">
				<ele>321.02</ele>
			</trkpt>
			<trkpt lat="46.98381" lon="4.54456">
				<ele>321.02</ele>
			</trkpt>
			<trkpt lat="46.9837" lon="4.54457">
				<ele>321.02</ele>
			</trkpt>
			<trkpt lat="46.9838" lon="4.54518">
				<ele>320.89</ele>
			</trkpt>
			<trkpt lat="46.98386" lon="4.54542">
				<ele>320.89</ele>
			</trkpt>
			<trkpt lat="46.98432" lon="4.54673">
				<ele>320.89</ele>
			</trkpt>
			<trkpt lat="46.98442" lon="4.5472">
				<ele>320.89</ele>
			</trkpt>
			<trkpt lat="46.98446" lon="4.54755">
				<ele>318.78</ele>
			</trkpt>
			<trkpt lat="46.98439" lon="4.54864">
				<ele>318.78</ele>
			</trkpt>
			<trkpt lat="46.98438" lon="4.54897">
				<ele>318.78</ele>
			</trkpt>
			<trkpt lat="46.98459" lon="4.55063">
				<ele>317.71</ele>
			</trkpt>
			<trkpt lat="46.98469" lon="4.55098">
				<ele>317.71</ele>
			</trkpt>
			<trkpt lat="46.98532" lon="4.5527">
				<ele>317.71</ele>
			</trkpt>
			<trkpt lat="46.98539" lon="4.55296">
				<ele>317.71</ele>
			</trkpt>
			<trkpt lat="46.98542" lon="4.55315">
				<ele>315.48</ele>
			</trkpt>
			<trkpt lat="46.98544" lon="4.55357">
				<ele>315.48</ele>
			</trkpt>
			<trkpt lat="46.98551" lon="4.55386">
				<ele>315.48</ele>
			</trkpt>
			<trkpt lat="46.98559" lon="4.55398">
				<ele>317.21</ele>
			</trkpt>
			<trkpt lat="46.98595" lon="4.55442">
				<ele>317.21</ele>
			</trkpt>
			<trkpt lat="46.98643" lon="4.55554">
				<ele>317.21</ele>
			</trkpt>
			<trkpt lat="46.98661" lon="4.55603">
				<ele>317.21</ele>
			</trkpt>
			<trkpt lat="46.98679" lon="4.55669">
				<ele>322.16</ele>
			</trkpt>
			<trkpt lat="46.987" lon="4.5575">
				<ele>322.16</ele>
			</trkpt>
			<trkpt lat="46.98719" lon="4.55847">
				<ele>322.16</ele>
			</trkpt>
			<trkpt lat="46.98744" lon="4.56012">
				<ele>321.87</ele>
			</trkpt>
			<trkpt lat="46.98783" lon="4.56183">
				<ele>321.87</ele>
			</trkpt>
			<trkpt lat="46.98786" lon="4.56218">
				<ele>321.87</ele>
			</trkpt>
			<trkpt lat="46.98785" lon="4.56236">
				<ele>324.51</ele>
			</trkpt>
			<trkpt lat="46.98778" lon="4.56266">
				<ele>324.51</ele>
			</trkpt>
			<trkpt lat="46.98751" lon="4.56349">
				<ele>324.51</ele>
			</trkpt>
			<trkpt lat="46.98703" lon="4.56475">
				<ele>324.51</ele>
			</trkpt>
			<trkpt lat="46.9863" lon="4.56683">
				<ele>328.89</ele>
			</trkpt>
			<trkpt lat="46.98536" lon="4.56939">
				<ele>328.89</ele>
			</trkpt>
			<trkpt lat="46.98526" lon="4.56966">
				<ele>328.89</ele>
			</trkpt>
			<trkpt lat="46.98523" lon="4.56985">
				<ele>328.67</ele>
			</trkpt>
			<trkpt lat="46.98519" lon="4.57027">
				<ele>328.67</ele>
			</trkpt>
			<trkpt lat="46.98519" lon="4.57048">
				<ele>328.67</ele>
			</trkpt>
			<trkpt lat="46.98523" lon="4.57123">
				<ele>328.67</ele>
			</trkpt>
			<trkpt lat="46.98523" lon="4.57186">
				<ele>330</ele>
			</trkpt>
			<trkpt lat="46.98507" lon="4.57353">
				<ele>330</ele>
			</trkpt>
			<trkpt lat="46.98493" lon="4.57426">
				<ele>330</ele>
			</trkpt>
			<trkpt lat="46.98488" lon="4.57471">
				<ele>330.39</ele>
			</trkpt>
			<trkpt lat="46.9848" lon="4.57588">
				<ele>330.39</ele>
			</trkpt>
			<trkpt lat="46.98462" lon="4.57709">
				<ele>330.39</ele>
			</trkpt>
			<trkpt lat="46.98455" lon="4.5778">
				<ele>330.39</ele>
			</trkpt>
			<trkpt lat="46.98452" lon="4.57845">
				<ele>328.17</ele>
			</trkpt>
			<trkpt lat="46.98452" lon="4.5791">
				<ele>328.17</ele>
			</trkpt>
			<trkpt lat="46.98455" lon="4.58034">
				<ele>328.17</ele>
			</trkpt>
			<trkpt lat="46.98468" lon="4.5818">
				<ele>325.44</ele>
			</trkpt>
			<trkpt lat="46.98472" lon="4.58261">
				<ele>325.44</ele>
			</trkpt>
			<trkpt lat="46.98471" lon="4.58293">
				<ele>325.44</ele>
			</trkpt>
			<trkpt lat="46.98464" lon="4.58318">
				<ele>325.44</ele>
			</trkpt>
			<trkpt lat="46.98428" lon="4.58392">
				<ele>332.04</ele>
			</trkpt>
			<trkpt lat="46.98422" lon="4.58407">
				<ele>332.04</ele>
			</trkpt>
			<trkpt lat="46.98413" lon="4.58446">
				<ele>332.04</ele>
			</trkpt>
			<trkpt lat="46.98405" lon="4.58533">
				<ele>334.85</ele>
			</trkpt>
			<trkpt lat="46.98393" lon="4.58637">
				<ele>334.85</ele>
			</trkpt>
			<trkpt lat="46.98387" lon="4.5877">
				<ele>334.85</ele>
			</trkpt>
			<trkpt lat="46.98386" lon="4.58835">
				<ele>334.85</ele>
			</trkpt>
			<trkpt lat="46.98387" lon="4.58891">
				<ele>329.4</ele>
			</trkpt>
			<trkpt lat="46.98385" lon="4.5892">
				<ele>329.4</ele>
			</trkpt>
			<trkpt lat="46.98374" lon="4.59002">
				<ele>329.4</ele>
			</trkpt>
			<trkpt lat="46.98348" lon="4.59104">
				<ele>332.37</ele>
			</trkpt>
			<trkpt lat="46.98346" lon="4.59173">
				<ele>332.37</ele>
			</trkpt>
			<trkpt lat="46.98344" lon="4.59206">
				<ele>332.37</ele>
			</trkpt>
			<trkpt lat="46.98375" lon="4.59253">
				<ele>340.44</ele>
			</trkpt>
			<trkpt lat="46.98401" lon="4.59282">
				<ele>340.44</ele>
			</trkpt>
			<trkpt lat="46.98421" lon="4.59316">
				<ele>340.44</ele>
			</trkpt>
			<trkpt lat="46.98454" lon="4.59397">
				<ele>340.44</ele>
			</trkpt>
			<trkpt lat="46.98492" lon="4.59509">
				<ele>343.05</ele>
			</trkpt>
			<trkpt lat="46.98525" lon="4.59576">
				<ele>343.05</ele>
			</trkpt>
			<trkpt lat="46.98555" lon="4.59617">
				<ele>343.05</ele>
			</trkpt>
			<trkpt lat="46.98583" lon="4.59672">
				<ele>339.95</ele>
			</trkpt>
			<trkpt lat="46.98606" lon="4.5973">
				<ele>339.95</ele>
			</trkpt>
			<trkpt lat="46.98631" lon="4.598">
				<ele>339.95</ele>
			</trkpt>
			<trkpt lat="46.98657" lon="4.59859">
				<ele>339.95</ele>
			</trkpt>
			<trkpt lat="46.98663" lon="4.59881">
				<ele>345.57</ele>
			</trkpt>
			<trkpt lat="46.98667" lon="4.59911">
				<ele>345.57</ele>
			</trkpt>
			<trkpt lat="46.98671" lon="4.60023">
				<ele>345.57</ele>
			</trkpt>
			<trkpt lat="46.9867" lon="4.60105">
				<ele>347.4</ele>
			</trkpt>
			<trkpt lat="46.98675" lon="4.60148">
				<ele>347.4</ele>
			</trkpt>
			<trkpt lat="46.98685" lon="4.602">
				<ele>347.4</ele>
			</trkpt>
			<trkpt lat="46.9869" lon="4.60239">
				<ele>347.4</ele>
			</trkpt>
			<trkpt lat="46.98693" lon="4.60296">
				<ele>346.12</ele>
			</trkpt>
			<trkpt lat="46.98692" lon="4.60315">
				<ele>346.12</ele>
			</trkpt>
			<trkpt lat="46.98686" lon="4.6034">
				<ele>346.12</ele>
			</trkpt>
			<trkpt lat="46.98684" lon="4.60359">
				<ele>349.9</ele>
			</trkpt>
			<trkpt lat="46.98695" lon="4.6045">
				<ele>349.9</ele>
			</trkpt>
			<trkpt lat="46.98695" lon="4.60471">
				<ele>349.9</ele>
			</trkpt>
			<trkpt lat="46.98689" lon="4.60502">
				<ele>349.9</ele>
			</trkpt>
			<trkpt lat="46.98681" lon="4.6052">
				<ele>341.78</ele>
			</trkpt>
			<trkpt lat="46.98638" lon="4.60596">
				<ele>341.78</ele>
			</trkpt>
			<trkpt lat="46.98623" lon="4.60631">
				<ele>341.78</ele>
			</trkpt>
			<trkpt lat="46.98616" lon="4.60661">
				<ele>337.89</ele>
			</trkpt>
			<trkpt lat="46.98613" lon="4.60686">
				<ele>337.89</ele>
			</trkpt>
			<trkpt lat="46.98617" lon="4.60728">
				<ele>337.89</ele>
			</trkpt>
			<trkpt lat="46.98626" lon="4.60754">
				<ele>337.89</ele>
			</trkpt>
			<trkpt lat="46.98657" lon="4.60818">
				<ele>334.22</ele>
			</trkpt>
			<trkpt lat="46.9867" lon="4.60865">
				<ele>334.22</ele>
			</trkpt>
			<trkpt lat="46.98672" lon="4.60898">
				<ele>334.22</ele>
			</trkpt>
			<trkpt lat="46.9867" lon="4.60935">
				<ele>343.34</ele>
			</trkpt>
			<trkpt lat="46.98672" lon="4.60981">
				<ele>343.34</ele>
			</trkpt>
			<trkpt lat="46.98678" lon="4.61049">
				<ele>343.34</ele>
			</trkpt>
			<trkpt lat="46.98723" lon="4.61097">
				<ele>343.34</ele>
			</trkpt>
			<trkpt lat="46.98726" lon="4.6112">
				<ele>360.99</ele>
			</trkpt>
			<trkpt lat="46.98724" lon="4.61158">
				<ele>360.99</ele>
			</trkpt>
			<trkpt lat="46.9873" lon="4.61183">
				<ele>360.99</ele>
			</trkpt>
			<trkpt lat="46.9874" lon="4.61214">
				<ele>380.27</ele>
			</trkpt>
			<trkpt lat="46.98769" lon="4.6128">
				<ele>380.27</ele>
			</trkpt>
			<trkpt lat="46.98772" lon="4.61298">
				<ele>380.27</ele>
			</trkpt>
			<trkpt lat="46.98775" lon="4.6136">
				<ele>375.83</ele>
			</trkpt>
			<trkpt lat="46.98826" lon="4.6157">
				<ele>375.83</ele>
			</trkpt>
			<trkpt lat="46.98826" lon="4.6161">
				<ele>375.83</ele>
			</trkpt>
			<trkpt lat="46.98816" lon="4.61679">
				<ele>375.83</ele>
			</trkpt>
			<trkpt lat="46.98808" lon="4.61707">
				<ele>386.61</ele>
			</trkpt>
			<trkpt lat="46.98791" lon="4.61756">
				<ele>386.61</ele>
			</trkpt>
			<trkpt lat="46.98783" lon="4.61788">
				<ele>386.61</ele>
			</trkpt>
			<trkpt lat="46.98779" lon="4.61829">
				<ele>392.84</ele>
			</trkpt>
			<trkpt lat="46.98798" lon="4.6194">
				<ele>392.84</ele>
			</trkpt>
			<trkpt lat="46.98817" lon="4.62009">
				<ele>392.84</ele>
			</trkpt>
			<trkpt lat="46.98864" lon="4.62134">
				<ele>392.84</ele>
			</trkpt>
			<trkpt lat="46.98931" lon="4.62304">
				<ele>409.24</ele>
			</trkpt>
			<trkpt lat="46.9905" lon="4.62522">
				<ele>409.24</ele>
			</trkpt>
			<trkpt lat="46.99071" lon="4.62575">
				<ele>409.24</ele>
			</trkpt>
			<trkpt lat="46.99101" lon="4.62706">
				<ele>422.62</ele>
			</trkpt>
			<trkpt lat="46.99116" lon="4.62751">
				<ele>422.62</ele>
			</trkpt>
			<trkpt lat="46.99186" lon="4.62881">
				<ele>422.62</ele>
			</trkpt>
			<trkpt lat="46.99211" lon="4.62961">
				<ele>422.62</ele>
			</trkpt>
			<trkpt lat="46.9923" lon="4.63034">
				<ele>440.58</ele>
			</trkpt>
			<trkpt lat="46.99237" lon="4.63086">
				<ele>440.58</ele>
			</trkpt>
			<trkpt lat="46.99232" lon="4.63182">
				<ele>440.58</ele>
			</trkpt>
			<trkpt lat="46.99291" lon="4.6372">
				<ele>454.66</ele>
			</trkpt>
			<trkpt lat="46.99403" lon="4.64345">
				<ele>454.66</ele>
			</trkpt>
			<trkpt lat="46.99426" lon="4.64517">
				<ele>454.66</ele>
			</trkpt>
			<trkpt lat="46.99423" lon="4.64554">
				<ele>454.66</ele>
			</trkpt>
			<trkpt lat="46.99406" lon="4.64654">
				<ele>462.91</ele>
			</trkpt>
			<trkpt lat="46.9937" lon="4.64743">
				<ele>462.91</ele>
			</trkpt>
			<trkpt lat="46.99344" lon="4.64887">
				<ele>462.91</ele>
			</trkpt>
			<trkpt lat="46.99315" lon="4.65016">
				<ele>465.17</ele>
			</trkpt>
			<trkpt lat="46.9918" lon="4.65351">
				<ele>465.17</ele>
			</trkpt>
			<trkpt lat="46.9912" lon="4.65532">
				<ele>465.17</ele>
			</trkpt>
			<trkpt lat="46.99089" lon="4.65664">
				<ele>465.17</ele>
			</trkpt>
			<trkpt lat="46.99035" lon="4.66064">
				<ele>460.34</ele>
			</trkpt>
			<trkpt lat="46.9904" lon="4.66132">
				<ele>460.34</ele>
			</trkpt>
			<trkpt lat="46.99039" lon="4.66168">
				<ele>460.34</ele>
			</trkpt>
			<trkpt lat="46.99047" lon="4.66297">
				<ele>464.78</ele>
			</trkpt>
			<trkpt lat="46.99057" lon="4.6641">
				<ele>464.78</ele>
			</trkpt>
			<trkpt lat="46.99046" lon="4.66481">
				<ele>464.78</ele>
			</trkpt>
			<trkpt lat="46.99027" lon="4.66578">
				<ele>467.88</ele>
			</trkpt>
			<trkpt lat="46.98998" lon="4.66693">
				<ele>467.88</ele>
			</trkpt>
			<trkpt lat="46.98991" lon="4.6679">
				<ele>467.88</ele>
			</trkpt>
			<trkpt lat="46.9899" lon="4.66835">
				<ele>467.88</ele>
			</trkpt>
			<trkpt lat="46.98977" lon="4.6685">
				<ele>466.19</ele>
			</trkpt>
			<trkpt lat="46.98895" lon="4.66883">
				<ele>466.19</ele>
			</trkpt>
			<trkpt lat="46.98924" lon="4.67053">
				<ele>466.19</ele>
			</trkpt>
			<trkpt lat="46.98936" lon="4.67236">
				<ele>467.03</ele>
			</trkpt>
			<trkpt lat="46.98945" lon="4.67421">
				<ele>467.03</ele>
			</trkpt>
			<trkpt lat="46.98961" lon="4.67591">
				<ele>467.03</ele>
			</trkpt>
			<trkpt lat="46.98964" lon="4.6764">
				<ele>467.03</ele>
			</trkpt>
			<trkpt lat="46.98961" lon="4.67689">
				<ele>472.57</ele>
			</trkpt>
			<trkpt lat="46.98955" lon="4.67732">
				<ele>472.57</ele>
			</trkpt>
			<trkpt lat="46.98948" lon="4.67809">
				<ele>472.57</ele>
			</trkpt>
			<trkpt lat="46.98942" lon="4.67912">
				<ele>475.2</ele>
			</trkpt>
			<trkpt lat="46.98942" lon="4.67993">
				<ele>475.2</ele>
			</trkpt>
			<trkpt lat="46.98953" lon="4.6806">
				<ele>475.2</ele>
			</trkpt>
			<trkpt lat="46.98963" lon="4.68107">
				<ele>475.2</ele>
			</trkpt>
			<trkpt lat="46.98952" lon="4.68149">
				<ele>474.64</ele>
			</trkpt>
			<trkpt lat="46.98946" lon="4.6816">
				<ele>474.64</ele>
			</trkpt>
			<trkpt lat="46.98892" lon="4.68196">
				<ele>474.64</ele>
			</trkpt>
			<trkpt lat="46.98853" lon="4.68283">
				<ele>474.57</ele>
			</trkpt>
			<trkpt lat="46.98829" lon="4.68358">
				<ele>474.57</ele>
			</trkpt>
			<trkpt lat="46.98813" lon="4.68396">
				<ele>474.57</ele>
			</trkpt>
			<trkpt lat="46.98772" lon="4.6845">
				<ele>474.57</ele>
			</trkpt>
			<trkpt lat="46.98711" lon="4.68543">
				<ele>474.38</ele>
			</trkpt>
			<trkpt lat="46.98674" lon="4.68588">
				<ele>474.38</ele>
			</trkpt>
			<trkpt lat="46.98607" lon="4.68699">
				<ele>474.38</ele>
			</trkpt>
			<trkpt lat="46.98595" lon="4.68716">
				<ele>472.83</ele>
			</trkpt>
			<trkpt lat="46.98553" lon="4.68752">
				<ele>472.83</ele>
			</trkpt>
			<trkpt lat="46.98525" lon="4.68781">
				<ele>472.83</ele>
			</trkpt>
			<trkpt lat="46.98496" lon="4.68808">
				<ele>472.83</ele>
			</trkpt>
			<trkpt lat="46.98487" lon="4.68818">
				<ele>474.61</ele>
			</trkpt>
			<trkpt lat="46.98458" lon="4.68861">
				<ele>474.61</ele>
			</trkpt>
			<trkpt lat="46.98443" lon="4.68878">
				<ele>474.61</ele>
			</trkpt>
			<trkpt lat="46.98428" lon="4.68889">
				<ele>478.04</ele>
			</trkpt>
			<trkpt lat="46.98398" lon="4.68907">
				<ele>478.04</ele>
			</trkpt>
			<trkpt lat="46.98367" lon="4.68914">
				<ele>478.04</ele>
			</trkpt>
			<trkpt lat="46.98312" lon="4.68935">
				<ele>480.08</ele>
			</trkpt>
			<trkpt lat="46.98294" lon="4.68939">
				<ele>480.08</ele>
			</trkpt>
			<trkpt lat="46.982" lon="4.68944">
				<ele>480.08</ele>
			</trkpt>
			<trkpt lat="46.98189" lon="4.68951">
				<ele>480.08</ele>
			</trkpt>
			<trkpt lat="46.9817" lon="4.68951">
				<ele>480.57</ele>
			</trkpt>
			<trkpt lat="46.98114" lon="4.68934">
				<ele>480.57</ele>
			</trkpt>
			<trkpt lat="46.98079" lon="4.68915">
				<ele>480.57</ele>
			</trkpt>
			<trkpt lat="46.9805" lon="4.68895">
				<ele>488.69</ele>
			</trkpt>
			<trkpt lat="46.98034" lon="4.68885">
				<ele>488.69</ele>
			</trkpt>
			<trkpt lat="46.98007" lon="4.68873">
				<ele>488.69</ele>
			</trkpt>
			<trkpt lat="46.97934" lon="4.68836">
				<ele>488.69</ele>
			</trkpt>
			<trkpt lat="46.97911" lon="4.68834">
				<ele>491.64</ele>
			</trkpt>
			<trkpt lat="46.97834" lon="4.68848">
				<ele>491.64</ele>
			</trkpt>
			<trkpt lat="46.97819" lon="4.68854">
				<ele>491.64</ele>
			</trkpt>
			<trkpt lat="46.97746" lon="4.68897">
				<ele>492.71</ele>
			</trkpt>
			<trkpt lat="46.97742" lon="4.6897">
				<ele>492.71</ele>
			</trkpt>
			<trkpt lat="46.97739" lon="4.6914">
				<ele>492.71</ele>
			</trkpt>
			<trkpt lat="46.97755" lon="4.69164">
				<ele>492.71</ele>
			</trkpt>
			<trkpt lat="46.97794" lon="4.69175">
				<ele>494.65</ele>
			</trkpt>
			<trkpt lat="46.97819" lon="4.69187">
				<ele>494.65</ele>
			</trkpt>
			<trkpt lat="46.97857" lon="4.69244">
				<ele>494.65</ele>
			</trkpt>
			<trkpt lat="46.97871" lon="4.69262">
				<ele>500.6</ele>
			</trkpt>
			<trkpt lat="46.97901" lon="4.69289">
				<ele>500.6</ele>
			</trkpt>
			<trkpt lat="46.97997" lon="4.69365">
				<ele>500.6</ele>
			</trkpt>
			<trkpt lat="46.98014" lon="4.69381">
				<ele>500.6</ele>
			</trkpt>
			<trkpt lat="46.98025" lon="4.69396">
				<ele>509.42</ele>
			</trkpt>
			<trkpt lat="46.9806" lon="4.69452">
				<ele>509.42</ele>
			</trkpt>
			<trkpt lat="46.98109" lon="4.69497">
				<ele>509.42</ele>
			</trkpt>
			<trkpt lat="46.98143" lon="4.69531">
				<ele>528.39</ele>
			</trkpt>
			<trkpt lat="46.98159" lon="4.69552">
				<ele>528.39</ele>
			</trkpt>
			<trkpt lat="46.98169" lon="4.69561">
				<ele>528.39</ele>
			</trkpt>
			<trkpt lat="46.98178" lon="4.69568">
				<ele>528.39</ele>
			</trkpt>
			<trkpt lat="46.98221" lon="4.69584">
				<ele>545.86</ele>
			</trkpt>
			<trkpt lat="46.9824" lon="4.69595">
				<ele>545.86</ele>
			</trkpt>
			<trkpt lat="46.98315" lon="4.69657">
				<ele>545.86</ele>
			</trkpt>
			<trkpt lat="46.98384" lon="4.69663">
				<ele>531.24</ele>
			</trkpt>
			<trkpt lat="46.98404" lon="4.69672">
				<ele>531.24</ele>
			</trkpt>
			<trkpt lat="46.98464" lon="4.69731">
				<ele>531.24</ele>
			</trkpt>
			<trkpt lat="46.9847" lon="4.69742">
				<ele>531.24</ele>
			</trkpt>
			<trkpt lat="46.9848" lon="4.69754">
				<ele>527.46</ele>
			</trkpt>
			<trkpt lat="46.98494" lon="4.69759">
				<ele>527.46</ele>
			</trkpt>
			<trkpt lat="46.98541" lon="4.69789">
				<ele>527.46</ele>
			</trkpt>
			<trkpt lat="46.98566" lon="4.69811">
				<ele>533.58</ele>
			</trkpt>
			<trkpt lat="46.9859" lon="4.69835">
				<ele>533.58</ele>
			</trkpt>
			<trkpt lat="46.98654" lon="4.69908">
				<ele>533.58</ele>
			</trkpt>
			<trkpt lat="46.98696" lon="4.69949">
				<ele>532.55</ele>
			</trkpt>
			<trkpt lat="46.98713" lon="4.69974">
				<ele>532.55</ele>
			</trkpt>
			<trkpt lat="46.98737" lon="4.70019">
				<ele>532.55</ele>
			</trkpt>
			<trkpt lat="46.98749" lon="4.70038">
				<ele>532.55</ele>
			</trkpt>
			<trkpt lat="46.98769" lon="4.70061">
				<ele>537.94</ele>
			</trkpt>
			<trkpt lat="46.98787" lon="4.70074">
				<ele>537.94</ele>
			</trkpt>
			<trkpt lat="46.98827" lon="4.70094">
				<ele>537.94</ele>
			</trkpt>
			<trkpt lat="46.98842" lon="4.70105">
				<ele>541.54</ele>
			</trkpt>
			<trkpt lat="46.98929" lon="4.70186">
				<ele>541.54</ele>
			</trkpt>
			<trkpt lat="46.98958" lon="4.70221">
				<ele>541.54</ele>
			</trkpt>
			<trkpt lat="46.98979" lon="4.7024">
				<ele>541.54</ele>
			</trkpt>
			<trkpt lat="46.99022" lon="4.70268">
				<ele>531.29</ele>
			</trkpt>
			<trkpt lat="46.99085" lon="4.70315">
				<ele>531.29</ele>
			</trkpt>
			<trkpt lat="46.99187" lon="4.70376">
				<ele>531.29</ele>
			</trkpt>
			<trkpt lat="46.99236" lon="4.70409">
				<ele>532.1</ele>
			</trkpt>
			<trkpt lat="46.99261" lon="4.70428">
				<ele>532.1</ele>
			</trkpt>
			<trkpt lat="46.99319" lon="4.70463">
				<ele>532.1</ele>
			</trkpt>
			<trkpt lat="46.99349" lon="4.70485">
				<ele>532.1</ele>
			</trkpt>
			<trkpt lat="46.99379" lon="4.70511">
				<ele>532.27</ele>
			</trkpt>
			<trkpt lat="46.99393" lon="4.70519">
				<ele>532.27</ele>
			</trkpt>
			<trkpt lat="46.99489" lon="4.70548">
				<ele>532.27</ele>
			</trkpt>
			<trkpt lat="46.99509" lon="4.70553">
				<ele>535.91</ele>
			</trkpt>
			<trkpt lat="46.99548" lon="4.70555">
				<ele>535.91</ele>
			</trkpt>
			<trkpt lat="46.99596" lon="4.70572">
				<ele>535.91</ele>
			</trkpt>
			<trkpt lat="46.99619" lon="4.70584">
				<ele>535.91</ele>
			</trkpt>
			<trkpt lat="46.99653" lon="4.70598">
				<ele>535.95</ele>
			</trkpt>
			<trkpt lat="46.99701" lon="4.7062">
				<ele>535.95</ele>
			</trkpt>
			<trkpt lat="46.99723" lon="4.70634">
				<ele>535.95</ele>
			</trkpt>
			<trkpt lat="46.99741" lon="4.70658">
				<ele>531.42</ele>
			</trkpt>
			<trkpt lat="46.99754" lon="4.70667">
				<ele>531.42</ele>
			</trkpt>
			<trkpt lat="46.99779" lon="4.70666">
				<ele>531.42</ele>
			</trkpt>
			<trkpt lat="46.99798" lon="4.70669">
				<ele>531.42</ele>
			</trkpt>
			<trkpt lat="46.99837" lon="4.70717">
				<ele>524.98</ele>
			</trkpt>
			<trkpt lat="46.99839" lon="4.7077">
				<ele>524.98</ele>
			</trkpt>
			<trkpt lat="46.99826" lon="4.70845">
				<ele>524.98</ele>
			</trkpt>
			<trkpt lat="46.9982" lon="4.70893">
				<ele>517.11</ele>
			</trkpt>
			<trkpt lat="46.99829" lon="4.7091">
				<ele>517.11</ele>
			</trkpt>
			<trkpt lat="46.99847" lon="4.70937">
				<ele>517.11</ele>
			</trkpt>
			<trkpt lat="46.99886" lon="4.70977">
				<ele>519.31</ele>
			</trkpt>
			<trkpt lat="46.99913" lon="4.70998">
				<ele>519.31</ele>
			</trkpt>
			<trkpt lat="46.99941" lon="4.71023">
				<ele>519.31</ele>
			</trkpt>
			<trkpt lat="46.99956" lon="4.71046">
				<ele>519.31</ele>
			</trkpt>
			<trkpt lat="47" lon="4.71076">
				<ele>531.5</ele>
			</trkpt>
			<trkpt lat="47.00019" lon="4.71094">
				<ele>531.5</ele>
			</trkpt>
			<trkpt lat="47.00037" lon="4.71113">
				<ele>531.5</ele>
			</trkpt>
			<trkpt lat="47.00066" lon="4.71152">
				<ele>537.89</ele>
			</trkpt>
			<trkpt lat="47.00093" lon="4.71179">
				<ele>537.89</ele>
			</trkpt>
			<trkpt lat="47.00102" lon="4.71192">
				<ele>537.89</ele>
			</trkpt>
			<trkpt lat="47.002" lon="4.71296">
				<ele>537.89</ele>
			</trkpt>
			<trkpt lat="47.00235" lon="4.71318">
				<ele>542.97</ele>
			</trkpt>
			<trkpt lat="47.00261" lon="4.71337">
				<ele>542.97</ele>
			</trkpt>
			<trkpt lat="47.00286" lon="4.71369">
				<ele>542.97</ele>
			</trkpt>
			<trkpt lat="47.00301" lon="4.71392">
				<ele>549.4</ele>
			</trkpt>
			<trkpt lat="47.003" lon="4.71411">
				<ele>549.4</ele>
			</trkpt>
			<trkpt lat="47.00348" lon="4.71446">
				<ele>549.4</ele>
			</trkpt>
			<trkpt lat="47.0039" lon="4.71463">
				<ele>549.4</ele>
			</trkpt>
			<trkpt lat="47.00425" lon="4.71493">
				<ele>553.85</ele>
			</trkpt>
			<trkpt lat="47.00493" lon="4.71534">
				<ele>553.85</ele>
			</trkpt>
			<trkpt lat="47.00519" lon="4.71544">
				<ele>553.85</ele>
			</trkpt>
			<trkpt lat="47.0061" lon="4.71568">
				<ele>548.81</ele>
			</trkpt>
			<trkpt lat="47.00636" lon="4.71578">
				<ele>548.81</ele>
			</trkpt>
			<trkpt lat="47.00656" lon="4.71594">
				<ele>548.81</ele>
			</trkpt>
			<trkpt lat="47.00663" lon="4.71603">
				<ele>548.81</ele>
			</trkpt>
			<trkpt lat="47.00671" lon="4.71632">
				<ele>531.25</ele>
			</trkpt>
			<trkpt lat="47.00674" lon="4.71654">
				<ele>531.25</ele>
			</trkpt>
			<trkpt lat="47.00674" lon="4.71671">
				<ele>531.25</ele>
			</trkpt>
			<trkpt lat="47.00671" lon="4.71725">
				<ele>515.62</ele>
			</trkpt>
			<trkpt lat="47.00665" lon="4.71778">
				<ele>515.62</ele>
			</trkpt>
			<trkpt lat="47.00657" lon="4.71816">
				<ele>515.62</ele>
			</trkpt>
			<trkpt lat="47.00651" lon="4.71837">
				<ele>515.62</ele>
			</trkpt>
			<trkpt lat="47.00619" lon="4.71903">
				<ele>503.14</ele>
			</trkpt>
			<trkpt lat="47.00618" lon="4.71923">
				<ele>503.14</ele>
			</trkpt>
			<trkpt lat="47.00629" lon="4.71963">
				<ele>503.14</ele>
			</trkpt>
			<trkpt lat="47.00635" lon="4.71991">
				<ele>486.2</ele>
			</trkpt>
			<trkpt lat="47.00638" lon="4.72009">
				<ele>486.2</ele>
			</trkpt>
			<trkpt lat="47.00644" lon="4.72073">
				<ele>486.2</ele>
			</trkpt>
			<trkpt lat="47.00674" lon="4.72218">
				<ele>485.29</ele>
			</trkpt>
			<trkpt lat="47.00679" lon="4.72245">
				<ele>485.29</ele>
			</trkpt>
			<trkpt lat="47.0068" lon="4.72264">
				<ele>485.29</ele>
			</trkpt>
			<trkpt lat="47.00673" lon="4.72287">
				<ele>485.29</ele>
			</trkpt>
			<trkpt lat="47.00619" lon="4.7239">
				<ele>471.57</ele>
			</trkpt>
			<trkpt lat="47.00597" lon="4.72403">
				<ele>471.57</ele>
			</trkpt>
			<trkpt lat="47.00588" lon="4.72414">
				<ele>471.57</ele>
			</trkpt>
			<trkpt lat="47.00572" lon="4.72422">
				<ele>437.55</ele>
			</trkpt>
			<trkpt lat="47.0057" lon="4.72495">
				<ele>437.55</ele>
			</trkpt>
			<trkpt lat="47.00534" lon="4.72646">
				<ele>437.55</ele>
			</trkpt>
			<trkpt lat="47.00518" lon="4.72687">
				<ele>437.55</ele>
			</trkpt>
			<trkpt lat="47.00501" lon="4.72767">
				<ele>408.98</ele>
			</trkpt>
			<trkpt lat="47.00483" lon="4.7284">
				<ele>408.98</ele>
			</trkpt>
			<trkpt lat="47.00466" lon="4.73019">
				<ele>408.98</ele>
			</trkpt>
			<trkpt lat="47.00458" lon="4.73061">
				<ele>406.87</ele>
			</trkpt>
			<trkpt lat="47.00449" lon="4.73136">
				<ele>406.87</ele>
			</trkpt>
			<trkpt lat="47.00417" lon="4.73303">
				<ele>406.87</ele>
			</trkpt>
			<trkpt lat="47.00391" lon="4.73414">
				<ele>406.87</ele>
			</trkpt>
			<trkpt lat="47.00376" lon="4.73498">
				<ele>410.98</ele>
			</trkpt>
			<trkpt lat="47.00365" lon="4.73541">
				<ele>410.98</ele>
			</trkpt>
			<trkpt lat="47.00353" lon="4.73603">
				<ele>410.98</ele>
			</trkpt>
			<trkpt lat="47.00351" lon="4.73623">
				<ele>397.56</ele>
			</trkpt>
			<trkpt lat="47.00353" lon="4.73646">
				<ele>397.56</ele>
			</trkpt>
			<trkpt lat="47.00339" lon="4.73697">
				<ele>397.56</ele>
			</trkpt>
			<trkpt lat="47.00331" lon="4.7374">
				<ele>397.56</ele>
			</trkpt>
			<trkpt lat="47.00322" lon="4.73772">
				<ele>374.41</ele>
			</trkpt>
			<trkpt lat="47.00316" lon="4.73788">
				<ele>374.41</ele>
			</trkpt>
			<trkpt lat="47.00298" lon="4.73825">
				<ele>374.41</ele>
			</trkpt>
			<trkpt lat="47.0029" lon="4.73855">
				<ele>353.27</ele>
			</trkpt>
			<trkpt lat="47.00309" lon="4.73897">
				<ele>353.27</ele>
			</trkpt>
			<trkpt lat="47.00325" lon="4.73904">
				<ele>353.27</ele>
			</trkpt>
			<trkpt lat="47.00361" lon="4.74032">
				<ele>353.27</ele>
			</trkpt>
			<trkpt lat="47.00363" lon="4.74055">
				<ele>368.97</ele>
			</trkpt>
			<trkpt lat="47.0036" lon="4.74071">
				<ele>368.97</ele>
			</trkpt>
			<trkpt lat="47.00354" lon="4.74084">
				<ele>368.97</ele>
			</trkpt>
			<trkpt lat="47.0035" lon="4.7412">
				<ele>390.33</ele>
			</trkpt>
			<trkpt lat="47.00353" lon="4.74152">
				<ele>390.33</ele>
			</trkpt>
			<trkpt lat="47.00386" lon="4.74273">
				<ele>390.33</ele>
			</trkpt>
			<trkpt lat="47.00388" lon="4.74317">
				<ele>390.33</ele>
			</trkpt>
			<trkpt lat="47.00374" lon="4.74401">
				<ele>403.52</ele>
			</trkpt>
			<trkpt lat="47.00372" lon="4.74466">
				<ele>403.52</ele>
			</trkpt>
			<trkpt lat="47.00391" lon="4.74575">
				<ele>403.52</ele>
			</trkpt>
			<trkpt lat="47.00424" lon="4.74693">
				<ele>414.4</ele>
			</trkpt>
			<trkpt lat="47.00428" lon="4.74719">
				<ele>414.4</ele>
			</trkpt>
			<trkpt lat="47.00428" lon="4.74735">
				<ele>414.4</ele>
			</trkpt>
			<trkpt lat="47.00422" lon="4.74778">
				<ele>406.68</ele>
			</trkpt>
			<trkpt lat="47.00417" lon="4.74838">
				<ele>406.68</ele>
			</trkpt>
			<trkpt lat="47.00413" lon="4.74937">
				<ele>406.68</ele>
			</trkpt>
			<trkpt lat="47.00413" lon="4.74995">
				<ele>406.68</ele>
			</trkpt>
			<trkpt lat="47.00419" lon="4.75091">
				<ele>391.28</ele>
			</trkpt>
			<trkpt lat="47.00422" lon="4.75107">
				<ele>391.28</ele>
			</trkpt>
			<trkpt lat="47.00432" lon="4.75199">
				<ele>391.28</ele>
			</trkpt>
			<trkpt lat="47.00453" lon="4.75301">
				<ele>383.07</ele>
			</trkpt>
			<trkpt lat="47.00455" lon="4.75321">
				<ele>383.07</ele>
			</trkpt>
			<trkpt lat="47.00459" lon="4.75397">
				<ele>383.07</ele>
			</trkpt>
			<trkpt lat="47.0047" lon="4.75468">
				<ele>383.07</ele>
			</trkpt>
			<trkpt lat="47.00483" lon="4.75532">
				<ele>355.9</ele>
			</trkpt>
			<trkpt lat="47.00499" lon="4.75626">
				<ele>355.9</ele>
			</trkpt>
			<trkpt lat="47.00504" lon="4.75664">
				<ele>355.9</ele>
			</trkpt>
			<trkpt lat="47.00507" lon="4.75698">
				<ele>350.75</ele>
			</trkpt>
			<trkpt lat="47.00509" lon="4.75782">
				<ele>350.75</ele>
			</trkpt>
			<trkpt lat="47.00508" lon="4.75857">
				<ele>350.75</ele>
			</trkpt>
			<trkpt lat="47.00508" lon="4.75901">
				<ele>350.75</ele>
			</trkpt>
			<trkpt lat="47.00503" lon="4.75971">
				<ele>375.57</ele>
			</trkpt>
			<trkpt lat="47.00489" lon="4.76086">
				<ele>375.57</ele>
			</trkpt>
			<trkpt lat="47.00486" lon="4.76157">
				<ele>375.57</ele>
			</trkpt>
			<trkpt lat="47.00475" lon="4.76211">
				<ele>404.32</ele>
			</trkpt>
			<trkpt lat="47.00467" lon="4.76242">
				<ele>404.32</ele>
			</trkpt>
			<trkpt lat="47.00457" lon="4.76274">
				<ele>404.32</ele>
			</trkpt>
			<trkpt lat="47.00479" lon="4.76311">
				<ele>404.32</ele>
			</trkpt>
			<trkpt lat="47.00469" lon="4.76357">
				<ele>414.12</ele>
			</trkpt>
			<trkpt lat="47.00466" lon="4.76385">
				<ele>414.12</ele>
			</trkpt>
			<trkpt lat="47.00466" lon="4.76426">
				<ele>414.12</ele>
			</trkpt>
			<trkpt lat="47.00469" lon="4.76459">
				<ele>426.78</ele>
			</trkpt>
			<trkpt lat="47.00469" lon="4.76474">
				<ele>426.78</ele>
			</trkpt>
			<trkpt lat="47.00465" lon="4.76492">
				<ele>426.78</ele>
			</trkpt>
			<trkpt lat="47.00445" lon="4.76533">
				<ele>426.78</ele>
			</trkpt>
			<trkpt lat="47.00434" lon="4.76577">
				<ele>433.31</ele>
			</trkpt>
			<trkpt lat="47.00417" lon="4.76614">
				<ele>433.31</ele>
			</trkpt>
			<trkpt lat="47.00395" lon="4.76671">
				<ele>433.31</ele>
			</trkpt>
			<trkpt lat="47.00381" lon="4.76716">
				<ele>428.76</ele>
			</trkpt>
			<trkpt lat="47.00365" lon="4.7674">
				<ele>428.76</ele>
			</trkpt>
			<trkpt lat="47.00358" lon="4.7676">
				<ele>428.76</ele>
			</trkpt>
			<trkpt lat="47.00357" lon="4.76785">
				<ele>429.13</ele>
			</trkpt>
			<trkpt lat="47.00352" lon="4.76813">
				<ele>429.13</ele>
			</trkpt>
			<trkpt lat="47.00345" lon="4.76842">
				<ele>429.13</ele>
			</trkpt>
			<trkpt lat="47.00343" lon="4.76861">
				<ele>429.13</ele>
			</trkpt>
			<trkpt lat="47.00339" lon="4.76936">
				<ele>418.98</ele>
			</trkpt>
			<trkpt lat="47.00331" lon="4.7698">
				<ele>418.98</ele>
			</trkpt>
			<trkpt lat="47.00324" lon="4.77047">
				<ele>418.98</ele>
			</trkpt>
			<trkpt lat="47.00322" lon="4.77138">
				<ele>428.54</ele>
			</trkpt>
			<trkpt lat="47.00323" lon="4.77198">
				<ele>428.54</ele>
			</trkpt>
			<trkpt lat="47.00322" lon="4.77214">
				<ele>428.54</ele>
			</trkpt>
			<trkpt lat="47.00303" lon="4.77262">
				<ele>428.54</ele>
			</trkpt>
			<trkpt lat="47.00286" lon="4.77312">
				<ele>422.87</ele>
			</trkpt>
			<trkpt lat="47.00306" lon="4.7735">
				<ele>422.87</ele>
			</trkpt>
			<trkpt lat="47.00315" lon="4.77354">
				<ele>422.87</ele>
			</trkpt>
			<trkpt lat="47.00349" lon="4.77417">
				<ele>415.56</ele>
			</trkpt>
			<trkpt lat="47.00383" lon="4.7745">
				<ele>415.56</ele>
			</trkpt>
			<trkpt lat="47.0044" lon="4.77465">
				<ele>415.56</ele>
			</trkpt>
			<trkpt lat="47.00437" lon="4.77483">
				<ele>415.56</ele>
			</trkpt>
			<trkpt lat="47.00431" lon="4.7756">
				<ele>404.9</ele>
			</trkpt>
			<trkpt lat="47.00431" lon="4.77597">
				<ele>404.9</ele>
			</trkpt>
			<trkpt lat="47.00426" lon="4.77625">
				<ele>404.9</ele>
			</trkpt>
			<trkpt lat="47.00442" lon="4.77652">
				<ele>396.15</ele>
			</trkpt>
			<trkpt lat="47.0043" lon="4.77685">
				<ele>396.15</ele>
			</trkpt>
			<trkpt lat="47.00412" lon="4.77767">
				<ele>396.15</ele>
			</trkpt>
			<trkpt lat="47.00399" lon="4.77857">
				<ele>396.15</ele>
			</trkpt>
			<trkpt lat="47.00367" lon="4.77897">
				<ele>392.47</ele>
			</trkpt>
			<trkpt lat="47.00352" lon="4.77922">
				<ele>392.47</ele>
			</trkpt>
			<trkpt lat="47.00308" lon="4.77988">
				<ele>392.47</ele>
			</trkpt>
			<trkpt lat="47.00291" lon="4.77993">
				<ele>389.98</ele>
			</trkpt>
			<trkpt lat="47.00254" lon="4.78035">
				<ele>389.98</ele>
			</trkpt>
			<trkpt lat="47.0022" lon="4.7807">
				<ele>389.98</ele>
			</trkpt>
			<trkpt lat="47.00213" lon="4.78081">
				<ele>389.98</ele>
			</trkpt>
			<trkpt lat="47.00206" lon="4.78097">
				<ele>381.3</ele>
			</trkpt>
			<trkpt lat="47.00202" lon="4.78144">
				<ele>381.3</ele>
			</trkpt>
			<trkpt lat="47.00198" lon="4.78159">
				<ele>381.3</ele>
			</trkpt>
			<trkpt lat="47.00177" lon="4.78198">
				<ele>366.38</ele>
			</trkpt>
			<trkpt lat="47.00162" lon="4.78231">
				<ele>366.38</ele>
			</trkpt>
			<trkpt lat="47.00189" lon="4.78265">
				<ele>366.38</ele>
			</trkpt>
			<trkpt lat="47.00219" lon="4.78313">
				<ele>357.05</ele>
			</trkpt>
			<trkpt lat="47.00246" lon="4.78349">
				<ele>357.05</ele>
			</trkpt>
			<trkpt lat="47.00288" lon="4.7838">
				<ele>357.05</ele>
			</trkpt>
			<trkpt lat="47.00313" lon="4.7839">
				<ele>357.05</ele>
			</trkpt>
			<trkpt lat="47.00341" lon="4.78407">
				<ele>352.19</ele>
			</trkpt>
			<trkpt lat="47.00404" lon="4.78498">
				<ele>352.19</ele>
			</trkpt>
			<trkpt lat="47.00424" lon="4.78516">
				<ele>352.19</ele>
			</trkpt>
			<trkpt lat="47.00464" lon="4.78547">
				<ele>345.91</ele>
			</trkpt>
			<trkpt lat="47.0048" lon="4.786">
				<ele>345.91</ele>
			</trkpt>
			<trkpt lat="47.00492" lon="4.78622">
				<ele>345.91</ele>
			</trkpt>
			<trkpt lat="47.00506" lon="4.78634">
				<ele>345.91</ele>
			</trkpt>
			<trkpt lat="47.0053" lon="4.78661">
				<ele>342.81</ele>
			</trkpt>
			<trkpt lat="47.00548" lon="4.78675">
				<ele>342.81</ele>
			</trkpt>
			<trkpt lat="47.00539" lon="4.7871">
				<ele>342.81</ele>
			</trkpt>
			<trkpt lat="47.00541" lon="4.78731">
				<ele>340.66</ele>
			</trkpt>
			<trkpt lat="47.00551" lon="4.78745">
				<ele>340.66</ele>
			</trkpt>
			<trkpt lat="47.0056" lon="4.78767">
				<ele>340.66</ele>
			</trkpt>
			<trkpt lat="47.00582" lon="4.78799">
				<ele>340.66</ele>
			</trkpt>
			<trkpt lat="47.00615" lon="4.78839">
				<ele>332.84</ele>
			</trkpt>
			<trkpt lat="47.00631" lon="4.78876">
				<ele>332.84</ele>
			</trkpt>
			<trkpt lat="47.00641" lon="4.78919">
				<ele>332.84</ele>
			</trkpt>
			<trkpt lat="47.00659" lon="4.78982">
				<ele>333.2</ele>
			</trkpt>
			<trkpt lat="47.0067" lon="4.79003">
				<ele>333.2</ele>
			</trkpt>
			<trkpt lat="47.00677" lon="4.79023">
				<ele>333.2</ele>
			</trkpt>
			<trkpt lat="47.00712" lon="4.79102">
				<ele>333.2</ele>
			</trkpt>
			<trkpt lat="47.00746" lon="4.79163">
				<ele>357.77</ele>
			</trkpt>
			<trkpt lat="47.00759" lon="4.79202">
				<ele>357.77</ele>
			</trkpt>
			<trkpt lat="47.00778" lon="4.79244">
				<ele>357.77</ele>
			</trkpt>
			<trkpt lat="47.00789" lon="4.79272">
				<ele>366.37</ele>
			</trkpt>
			<trkpt lat="47.00795" lon="4.79293">
				<ele>366.37</ele>
			</trkpt>
			<trkpt lat="47.00805" lon="4.79311">
				<ele>366.37</ele>
			</trkpt>
			<trkpt lat="47.00852" lon="4.79351">
				<ele>366.37</ele>
			</trkpt>
			<trkpt lat="47.00896" lon="4.79407">
				<ele>377.99</ele>
			</trkpt>
			<trkpt lat="47.0093" lon="4.79445">
				<ele>377.99</ele>
			</trkpt>
			<trkpt lat="47.00947" lon="4.79441">
				<ele>377.99</ele>
			</trkpt>
			<trkpt lat="47.0098" lon="4.79483">
				<ele>370.88</ele>
			</trkpt>
			<trkpt lat="47.01003" lon="4.79507">
				<ele>370.88</ele>
			</trkpt>
			<trkpt lat="47.01034" lon="4.79549">
				<ele>370.88</ele>
			</trkpt>
			<trkpt lat="47.01044" lon="4.79574">
				<ele>370.88</ele>
			</trkpt>
			<trkpt lat="47.01107" lon="4.79648">
				<ele>342.7</ele>
			</trkpt>
			<trkpt lat="47.01169" lon="4.797">
				<ele>342.7</ele>
			</trkpt>
			<trkpt lat="47.01186" lon="4.79732">
				<ele>342.7</ele>
			</trkpt>
			<trkpt lat="47.01219" lon="4.79769">
				<ele>310.49</ele>
			</trkpt>
			<trkpt lat="47.01237" lon="4.79789">
				<ele>310.49</ele>
			</trkpt>
			<trkpt lat="47.01252" lon="4.79828">
				<ele>310.49</ele>
			</trkpt>
			<trkpt lat="47.01288" lon="4.79887">
				<ele>292.63</ele>
			</trkpt>
			<trkpt lat="47.01293" lon="4.79915">
				<ele>292.63</ele>
			</trkpt>
			<trkpt lat="47.01285" lon="4.79951">
				<ele>292.63</ele>
			</trkpt>
			<trkpt lat="47.01291" lon="4.79967">
				<ele>292.63</ele>
			</trkpt>
			<trkpt lat="47.01312" lon="4.79996">
				<ele>286.61</ele>
			</trkpt>
			<trkpt lat="47.01322" lon="4.80019">
				<ele>286.61</ele>
			</trkpt>
			<trkpt lat="47.01329" lon="4.80055">
				<ele>286.61</ele>
			</trkpt>
			<trkpt lat="47.0135" lon="4.80107">
				<ele>286.28</ele>
			</trkpt>
			<trkpt lat="47.01368" lon="4.80179">
				<ele>286.28</ele>
			</trkpt>
			<trkpt lat="47.01416" lon="4.80338">
				<ele>286.28</ele>
			</trkpt>
			<trkpt lat="47.0142" lon="4.80358">
				<ele>286.28</ele>
			</trkpt>
			<trkpt lat="47.01422" lon="4.8039">
				<ele>274.76</ele>
			</trkpt>
			<trkpt lat="47.01422" lon="4.80457">
				<ele>274.76</ele>
			</trkpt>
			<trkpt lat="47.01426" lon="4.80477">
				<ele>274.76</ele>
			</trkpt>
			<trkpt lat="47.01429" lon="4.80491">
				<ele>263.65</ele>
			</trkpt>
			<trkpt lat="47.01445" lon="4.80521">
				<ele>263.65</ele>
			</trkpt>
			<trkpt lat="47.01465" lon="4.8061">
				<ele>263.65</ele>
			</trkpt>
			<trkpt lat="47.01496" lon="4.80716">
				<ele>263.65</ele>
			</trkpt>
			<trkpt lat="47.01504" lon="4.80742">
				<ele>253.43</ele>
			</trkpt>
			<trkpt lat="47.01523" lon="4.80767">
				<ele>253.43</ele>
			</trkpt>
			<trkpt lat="47.01612" lon="4.80862">
				<ele>253.43</ele>
			</trkpt>
			<trkpt lat="47.01618" lon="4.80873">
				<ele>250.01</ele>
			</trkpt>
			<trkpt lat="47.01631" lon="4.80917">
				<ele>250.01</ele>
			</trkpt>
			<trkpt lat="47.01646" lon="4.8095">
				<ele>250.01</ele>
			</trkpt>
			<trkpt lat="47.01669" lon="4.81021">
				<ele>250.01</ele>
			</trkpt>
			<trkpt lat="47.01678" lon="4.81065">
				<ele>251.04</ele>
			</trkpt>
			<trkpt lat="47.01688" lon="4.81091">
				<ele>251.04</ele>
			</trkpt>
			<trkpt lat="47.01695" lon="4.81116">
				<ele>251.04</ele>
			</trkpt>
			<trkpt lat="47.017" lon="4.81143">
				<ele>254.75</ele>
			</trkpt>
			<trkpt lat="47.01706" lon="4.81209">
				<ele>254.75</ele>
			</trkpt>
			<trkpt lat="47.01711" lon="4.81225">
				<ele>254.75</ele>
			</trkpt>
			<trkpt lat="47.01722" lon="4.81244">
				<ele>254.75</ele>
			</trkpt>
			<trkpt lat="47.01787" lon="4.81339">
				<ele>258.79</ele>
			</trkpt>
			<trkpt lat="47.01803" lon="4.81367">
				<ele>258.79</ele>
			</trkpt>
			<trkpt lat="47.01818" lon="4.81405">
				<ele>258.79</ele>
			</trkpt>
			<trkpt lat="47.01827" lon="4.81436">
				<ele>252.8</ele>
			</trkpt>
			<trkpt lat="47.01832" lon="4.81466">
				<ele>252.8</ele>
			</trkpt>
			<trkpt lat="47.01835" lon="4.8151">
				<ele>252.8</ele>
			</trkpt>
			<trkpt lat="47.01839" lon="4.81529">
				<ele>250.43</ele>
			</trkpt>
			<trkpt lat="47.01847" lon="4.81547">
				<ele>250.43</ele>
			</trkpt>
			<trkpt lat="47.0189" lon="4.81611">
				<ele>250.43</ele>
			</trkpt>
			<trkpt lat="47.01896" lon="4.81629">
				<ele>250.43</ele>
			</trkpt>
			<trkpt lat="47.01909" lon="4.81628">
				<ele>248.36</ele>
			</trkpt>
			<trkpt lat="47.01938" lon="4.81653">
				<ele>248.36</ele>
			</trkpt>
			<trkpt lat="47.01984" lon="4.81682">
				<ele>248.36</ele>
			</trkpt>
			<trkpt lat="47.02" lon="4.81687">
				<ele>244.45</ele>
			</trkpt>
			<trkpt lat="47.02011" lon="4.81689">
				<ele>244.45</ele>
			</trkpt>
			<trkpt lat="47.0203" lon="4.81684">
				<ele>244.45</ele>
			</trkpt>
			<trkpt lat="47.02041" lon="4.81676">
				<ele>244.45</ele>
			</trkpt>
			<trkpt lat="47.02052" lon="4.81685">
				<ele>238.12</ele>
			</trkpt>
			<trkpt lat="47.02151" lon="4.81803">
				<ele>238.12</ele>
			</trkpt>
			<trkpt lat="47.02211" lon="4.81883">
				<ele>238.12</ele>
			</trkpt>
			<trkpt lat="47.02245" lon="4.81916">
				<ele>232.61</ele>
			</trkpt>
			<trkpt lat="47.0227" lon="4.81948">
				<ele>232.61</ele>
			</trkpt>
			<trkpt lat="47.02277" lon="4.81965">
				<ele>232.61</ele>
			</trkpt>
			<trkpt lat="47.02291" lon="4.81988">
				<ele>232.61</ele>
			</trkpt>
			<trkpt lat="47.02314" lon="4.82011">
				<ele>230.97</ele>
			</trkpt>
			<trkpt lat="47.02335" lon="4.82027">
				<ele>230.97</ele>
			</trkpt>
			<trkpt lat="47.02361" lon="4.82044">
				<ele>230.97</ele>
			</trkpt>
			<trkpt lat="47.02433" lon="4.82135">
				<ele>235.04</ele>
			</trkpt>
			<trkpt lat="47.02441" lon="4.82148">
				<ele>235.04</ele>
			</trkpt>
			<trkpt lat="47.02444" lon="4.82162">
				<ele>235.04</ele>
			</trkpt>
			<trkpt lat="47.0244" lon="4.82176">
				<ele>235.04</ele>
			</trkpt>
			<trkpt lat="47.02403" lon="4.82264">
				<ele>234.25</ele>
			</trkpt>
			<trkpt lat="47.02383" lon="4.82319">
				<ele>234.25</ele>
			</trkpt>
			<trkpt lat="47.02363" lon="4.82374">
				<ele>234.25</ele>
			</trkpt>
			<trkpt lat="47.02329" lon="4.82482">
				<ele>231.97</ele>
			</trkpt>
			<trkpt lat="47.02327" lon="4.82578">
				<ele>231.97</ele>
			</trkpt>
			<trkpt lat="47.02334" lon="4.82588">
				<ele>231.97</ele>
			</trkpt>
			<trkpt lat="47.02415" lon="4.82657">
				<ele>231.97</ele>
			</trkpt>
			<trkpt lat="47.02486" lon="4.82723">
				<ele>228.1</ele>
			</trkpt>
			<trkpt lat="47.02501" lon="4.82731">
				<ele>228.1</ele>
			</trkpt>
			<trkpt lat="47.02605" lon="4.82818">
				<ele>228.1</ele>
			</trkpt>
			<trkpt lat="47.026" lon="4.82841">
				<ele>223.65</ele>
			</trkpt>
			<trkpt lat="47.02581" lon="4.83034">
				<ele>223.65</ele>
			</trkpt>
			<trkpt lat="47.02565" lon="4.83196">
				<ele>223.65</ele>
			</trkpt>
			<trkpt lat="47.02565" lon="4.83234">
				<ele>223.11</ele>
			</trkpt>
			<trkpt lat="47.02603" lon="4.83302">
				<ele>223.11</ele>
			</trkpt>
			<trkpt lat="47.02612" lon="4.83335">
				<ele>223.11</ele>
			</trkpt>
			<trkpt lat="47.02588" lon="4.83439">
				<ele>223.11</ele>
			</trkpt>
			<trkpt lat="47.02528" lon="4.83372">
				<ele>219.38</ele>
			</trkpt>
			<trkpt lat="47.0252" lon="4.83386">
				<ele>219.38</ele>
			</trkpt>
			<trkpt lat="47.02531" lon="4.83401">
				<ele>219.38</ele>
			</trkpt>
			<trkpt lat="47.02545" lon="4.83405">
				<ele>218.23</ele>
			</trkpt>
			<trkpt lat="47.02579" lon="4.83446">
				<ele>218.23</ele>
			</trkpt>
			<trkpt lat="47.02589" lon="4.83462">
				<ele>218.23</ele>
			</trkpt>
			<trkpt lat="47.02605" lon="4.83499">
				<ele>218.23</ele>
			</trkpt>
			<trkpt lat="47.02612" lon="4.8352">
				<ele>219.1</ele>
			</trkpt>
			<trkpt lat="47.02623" lon="4.83563">
				<ele>219.1</ele>
			</trkpt>
			<trkpt lat="47.02632" lon="4.83587">
				<ele>219.1</ele>
			</trkpt>
			<trkpt lat="47.027" lon="4.83654">
				<ele>222.21</ele>
			</trkpt>
			<trkpt lat="47.02753" lon="4.83696">
				<ele>222.21</ele>
			</trkpt>
			<trkpt lat="47.02762" lon="4.83705">
				<ele>222.21</ele>
			</trkpt>
			<trkpt lat="47.02767" lon="4.83722">
				<ele>222.21</ele>
			</trkpt>
			<trkpt lat="47.02767" lon="4.83739">
				<ele>221.38</ele>
			</trkpt>
			<trkpt lat="47.02763" lon="4.83772">
				<ele>221.38</ele>
			</trkpt>
			<trkpt lat="47.02754" lon="4.83826">
				<ele>221.38</ele>
			</trkpt>
			<trkpt lat="47.02737" lon="4.83944">
				<ele>221.36</ele>
			</trkpt>
			<trkpt lat="47.02726" lon="4.83941">
				<ele>221.36</ele>
			</trkpt>
			<trkpt lat="47.02707" lon="4.83944">
				<ele>221.36</ele>
			</trkpt>
			<trkpt lat="47.0264" lon="4.83916">
				<ele>221.36</ele>
			</trkpt>
			<trkpt lat="47.02628" lon="4.83947">
				<ele>221.46</ele>
			</trkpt>
			<trkpt lat="47.02657" lon="4.83972">
				<ele>221.46</ele>
			</trkpt>
			<trkpt lat="47.02618" lon="4.84046">
				<ele>221.46</ele>
			</trkpt>
			<trkpt lat="47.02579" lon="4.8407">
				<ele>219.93</ele>
			</trkpt>
			<trkpt lat="47.02553" lon="4.84117">
				<ele>219.93</ele>
			</trkpt>
			<trkpt lat="47.02492" lon="4.84207">
				<ele>219.93</ele>
			</trkpt>
			<trkpt lat="47.0248" lon="4.84223">
				<ele>219.93</ele>
			</trkpt>
			<trkpt lat="47.02448" lon="4.84244">
				<ele>217.6</ele>
			</trkpt>
			<trkpt lat="47.02417" lon="4.84226">
				<ele>217.6</ele>
			</trkpt>
			<trkpt lat="47.0238" lon="4.84426">
				<ele>217.6</ele>
			</trkpt>
			<trkpt lat="47.02303" lon="4.84807">
				<ele>218.54</ele>
			</trkpt>
			<trkpt lat="47.02287" lon="4.84821">
				<ele>218.54</ele>
			</trkpt>
			<trkpt lat="47.02303" lon="4.84837">
				<ele>218.54</ele>
			</trkpt>
		</trkseg>
	</trk>
</gpx>