<?xml version="1.0" encoding="UTF-8" standalone="no" ?>
<gpx xmlns="http://www.topografix.com/GPX/1/1"
		xmlns:gpxx="http://www.garmin.com/xmlschemas/GpxExtensions/v3"
		xmlns:gpxtpx="http://www.garmin.com/xmlschemas/TrackPointExtension/v1"
		xmlns:xsi="http://www.w3.org/2001/XMLSchema-instance"
		xsi:schemaLocation="http://www.topografix.com/GPX/1/1 http://www.topografix.com/GPX/1/1/gpx.xsd http://www.garmin.com/xmlschemas/GpxExtensions/v3 http://www.garmin.com/xmlschemas/GpxExtensionsv3.xsd http://www.garmin.com/xmlschemas/TrackPointExtension/v1 http://www.garmin.com/xmlschemas/TrackPointExtensionv1.xsd"
		creator="Gravelmap.com"
		version="1.1">

	<metadata>
		<name><![CDATA[Gravel Route: Dinsdagavondrondje]]></name>
		<desc><![CDATA[]]></desc>
		<link href="http://www.gravelmap.com/route/128615">
			<text><![CDATA[Gravel Route: Dinsdagavondrondje]]></text>
		</link>
		<time>2022-10-10T05:48:17-04:00</time>
	</metadata>

	<trk>
		<name><![CDATA[Gravel Route: Dinsdagavondrondje]]></name>
		<desc><![CDATA[]]></desc>
		<link href="http://www.gravelmap.com/route/128615">
			<text><![CDATA[Gravel Route: Dinsdagavondrondje]]></text>
		</link>
		<trkseg>
			<trkpt lat="52.97922" lon="6.55969">
				<ele>10.88</ele>
			</trkpt>
			<trkpt lat="52.97922" lon="6.55968">
				<ele>10.88</ele>
			</trkpt>
			<trkpt lat="52.97851" lon="6.55909">
				<ele>9</ele>
			</trkpt>
			<trkpt lat="52.97879" lon="6.55821">
				<ele>9.52</ele>
			</trkpt>
			<trkpt lat="52.97756" lon="6.55718">
				<ele>9.39</ele>
			</trkpt>
			<trkpt lat="52.97752" lon="6.55675">
				<ele>10.62</ele>
			</trkpt>
			<trkpt lat="52.97626" lon="6.55672">
				<ele>13.31</ele>
			</trkpt>
			<trkpt lat="52.97477" lon="6.55597">
				<ele>13.31</ele>
			</trkpt>
			<trkpt lat="52.97415" lon="6.5561">
				<ele>12.42</ele>
			</trkpt>
			<trkpt lat="52.97073" lon="6.55556">
				<ele>13.81</ele>
			</trkpt>
			<trkpt lat="52.97051" lon="6.55812">
				<ele>13.35</ele>
			</trkpt>
			<trkpt lat="52.96949" lon="6.56076">
				<ele>13.36</ele>
			</trkpt>
			<trkpt lat="52.96908" lon="6.56297">
				<ele>14.4</ele>
			</trkpt>
			<trkpt lat="52.96907" lon="6.56427">
				<ele>11</ele>
			</trkpt>
			<trkpt lat="52.96952" lon="6.56588">
				<ele>11</ele>
			</trkpt>
			<trkpt lat="52.96956" lon="6.56557">
				<ele>11</ele>
			</trkpt>
			<trkpt lat="52.96925" lon="6.56432">
				<ele>10.08</ele>
			</trkpt>
			<trkpt lat="52.96928" lon="6.56305">
				<ele>9.28</ele>
			</trkpt>
			<trkpt lat="52.96919" lon="6.56287">
				<ele>11</ele>
			</trkpt>
			<trkpt lat="52.96869" lon="6.56272">
				<ele>11.72</ele>
			</trkpt>
			<trkpt lat="52.96855" lon="6.56294">
				<ele>11.72</ele>
			</trkpt>
			<trkpt lat="52.96812" lon="6.56623">
				<ele>14.32</ele>
			</trkpt>
			<trkpt lat="52.96562" lon="6.56815">
				<ele>11.51</ele>
			</trkpt>
			<trkpt lat="52.96549" lon="6.56778">
				<ele>13.01</ele>
			</trkpt>
			<trkpt lat="52.96549" lon="6.56778">
				<ele>11.91</ele>
			</trkpt>
			<trkpt lat="52.96531" lon="6.56713">
				<ele>11.87</ele>
			</trkpt>
			<trkpt lat="52.96508" lon="6.56607">
				<ele>11.88</ele>
			</trkpt>
			<trkpt lat="52.96512" lon="6.56481">
				<ele>11.88</ele>
			</trkpt>
			<trkpt lat="52.96506" lon="6.56227">
				<ele>12.87</ele>
			</trkpt>
			<trkpt lat="52.96405" lon="6.56307">
				<ele>9</ele>
			</trkpt>
			<trkpt lat="52.96405" lon="6.56307">
				<ele>9.36</ele>
			</trkpt>
			<trkpt lat="52.96198" lon="6.56473">
				<ele>10</ele>
			</trkpt>
			<trkpt lat="52.96056" lon="6.56461">
				<ele>10.68</ele>
			</trkpt>
			<trkpt lat="52.96062" lon="6.56058">
				<ele>10.68</ele>
			</trkpt>
			<trkpt lat="52.96084" lon="6.56043">
				<ele>12</ele>
			</trkpt>
			<trkpt lat="52.96084" lon="6.56043">
				<ele>11.59</ele>
			</trkpt>
			<trkpt lat="52.96118" lon="6.56016">
				<ele>11</ele>
			</trkpt>
			<trkpt lat="52.9614" lon="6.55935">
				<ele>11</ele>
			</trkpt>
			<trkpt lat="52.96204" lon="6.55955">
				<ele>12</ele>
			</trkpt>
			<trkpt lat="52.96708" lon="6.55597">
				<ele>11</ele>
			</trkpt>
			<trkpt lat="52.9671" lon="6.55544">
				<ele>11</ele>
			</trkpt>
			<trkpt lat="52.9671" lon="6.55544">
				<ele>9.13</ele>
			</trkpt>
			<trkpt lat="52.96711" lon="6.55451">
				<ele>10.98</ele>
			</trkpt>
			<trkpt lat="52.96433" lon="6.55432">
				<ele>9.54</ele>
			</trkpt>
			<trkpt lat="52.95155" lon="6.55002">
				<ele>9.57</ele>
			</trkpt>
			<trkpt lat="52.94953" lon="6.54681">
				<ele>12.4</ele>
			</trkpt>
			<trkpt lat="52.94354" lon="6.54711">
				<ele>12.4</ele>
			</trkpt>
			<trkpt lat="52.9435" lon="6.54594">
				<ele>11.69</ele>
			</trkpt>
			<trkpt lat="52.9435" lon="6.54594">
				<ele>10</ele>
			</trkpt>
			<trkpt lat="52.94408" lon="6.54009">
				<ele>10.03</ele>
			</trkpt>
			<trkpt lat="52.94429" lon="6.5389">
				<ele>10.11</ele>
			</trkpt>
			<trkpt lat="52.95097" lon="6.54138">
				<ele>10.26</ele>
			</trkpt>
			<trkpt lat="52.95148" lon="6.54135">
				<ele>10.04</ele>
			</trkpt>
			<trkpt lat="52.95242" lon="6.54095">
				<ele>10.04</ele>
			</trkpt>
			<trkpt lat="52.95267" lon="6.53981">
				<ele>10.99</ele>
			</trkpt>
			<trkpt lat="52.9528" lon="6.53966">
				<ele>11</ele>
			</trkpt>
			<trkpt lat="52.95302" lon="6.53972">
				<ele>12</ele>
			</trkpt>
			<trkpt lat="52.95302" lon="6.53972">
				<ele>11.32</ele>
			</trkpt>
			<trkpt lat="52.95374" lon="6.53998">
				<ele>11.04</ele>
			</trkpt>
			<trkpt lat="52.95384" lon="6.53995">
				<ele>11.57</ele>
			</trkpt>
			<trkpt lat="52.95392" lon="6.53978">
				<ele>11.57</ele>
			</trkpt>
			<trkpt lat="52.95476" lon="6.53669">
				<ele>11.53</ele>
			</trkpt>
			<trkpt lat="52.95516" lon="6.53549">
				<ele>11.25</ele>
			</trkpt>
			<trkpt lat="52.9552" lon="6.53531">
				<ele>13.92</ele>
			</trkpt>
			<trkpt lat="52.95497" lon="6.53114">
				<ele>15.94</ele>
			</trkpt>
			<trkpt lat="52.95497" lon="6.53092">
				<ele>17.94</ele>
			</trkpt>
			<trkpt lat="52.95507" lon="6.53074">
				<ele>17.94</ele>
			</trkpt>
			<trkpt lat="52.95569" lon="6.53017">
				<ele>19.11</ele>
			</trkpt>
			<trkpt lat="52.95588" lon="6.52973">
				<ele>21.72</ele>
			</trkpt>
			<trkpt lat="52.95627" lon="6.52939">
				<ele>22.32</ele>
			</trkpt>
			<trkpt lat="52.9563" lon="6.52931">
				<ele>17</ele>
			</trkpt>
			<trkpt lat="52.95623" lon="6.52918">
				<ele>20</ele>
			</trkpt>
			<trkpt lat="52.95623" lon="6.52918">
				<ele>21.65</ele>
			</trkpt>
			<trkpt lat="52.95467" lon="6.52611">
				<ele>21.65</ele>
			</trkpt>
			<trkpt lat="52.95395" lon="6.52597">
				<ele>19.38</ele>
			</trkpt>
			<trkpt lat="52.95395" lon="6.52597">
				<ele>23.3</ele>
			</trkpt>
			<trkpt lat="52.94668" lon="6.52434">
				<ele>24.15</ele>
			</trkpt>
			<trkpt lat="52.94101" lon="6.52583">
				<ele>24.43</ele>
			</trkpt>
			<trkpt lat="52.94101" lon="6.52583">
				<ele>21.85</ele>
			</trkpt>
			<trkpt lat="52.93847" lon="6.52717">
				<ele>21.85</ele>
			</trkpt>
			<trkpt lat="52.93165" lon="6.52854">
				<ele>20.83</ele>
			</trkpt>
			<trkpt lat="52.93112" lon="6.52918">
				<ele>25.06</ele>
			</trkpt>
			<trkpt lat="52.92982" lon="6.5325">
				<ele>29.05</ele>
			</trkpt>
			<trkpt lat="52.92849" lon="6.53409">
				<ele>24.02</ele>
			</trkpt>
			<trkpt lat="52.92633" lon="6.53332">
				<ele>15.91</ele>
			</trkpt>
			<trkpt lat="52.92616" lon="6.53368">
				<ele>15.31</ele>
			</trkpt>
			<trkpt lat="52.92522" lon="6.53371">
				<ele>15.31</ele>
			</trkpt>
			<trkpt lat="52.925" lon="6.53491">
				<ele>15.38</ele>
			</trkpt>
			<trkpt lat="52.92394" lon="6.53541">
				<ele>15.22</ele>
			</trkpt>
			<trkpt lat="52.92334" lon="6.53649">
				<ele>15.32</ele>
			</trkpt>
			<trkpt lat="52.92263" lon="6.53715">
				<ele>14.33</ele>
			</trkpt>
			<trkpt lat="52.92281" lon="6.53804">
				<ele>12.56</ele>
			</trkpt>
			<trkpt lat="52.92243" lon="6.53965">
				<ele>12.56</ele>
			</trkpt>
			<trkpt lat="52.92263" lon="6.54156">
				<ele>13.13</ele>
			</trkpt>
			<trkpt lat="52.92226" lon="6.54413">
				<ele>13.14</ele>
			</trkpt>
			<trkpt lat="52.92201" lon="6.54467">
				<ele>14</ele>
			</trkpt>
			<trkpt lat="52.92186" lon="6.54654">
				<ele>13.56</ele>
			</trkpt>
			<trkpt lat="52.92186" lon="6.54654">
				<ele>13.16</ele>
			</trkpt>
			<trkpt lat="52.92191" lon="6.54835">
				<ele>10.81</ele>
			</trkpt>
			<trkpt lat="52.92177" lon="6.55155">
				<ele>10.81</ele>
			</trkpt>
			<trkpt lat="52.9219" lon="6.55926">
				<ele>11.96</ele>
			</trkpt>
			<trkpt lat="52.92257" lon="6.56688">
				<ele>14</ele>
			</trkpt>
			<trkpt lat="52.92246" lon="6.56851">
				<ele>13.22</ele>
			</trkpt>
			<trkpt lat="52.92195" lon="6.57082">
				<ele>12.33</ele>
			</trkpt>
			<trkpt lat="52.92195" lon="6.57082">
				<ele>11.8</ele>
			</trkpt>
			<trkpt lat="52.92316" lon="6.57461">
				<ele>12.56</ele>
			</trkpt>
			<trkpt lat="52.9317" lon="6.58668">
				<ele>12.56</ele>
			</trkpt>
			<trkpt lat="52.93351" lon="6.59187">
				<ele>12.45</ele>
			</trkpt>
			<trkpt lat="52.93466" lon="6.59406">
				<ele>13.44</ele>
			</trkpt>
			<trkpt lat="52.93506" lon="6.59647">
				<ele>11.33</ele>
			</trkpt>
			<trkpt lat="52.93922" lon="6.60734">
				<ele>11.99</ele>
			</trkpt>
			<trkpt lat="52.94058" lon="6.61178">
				<ele>12.55</ele>
			</trkpt>
			<trkpt lat="52.94225" lon="6.61281">
				<ele>12.55</ele>
			</trkpt>
			<trkpt lat="52.9397" lon="6.62549">
				<ele>12</ele>
			</trkpt>
			<trkpt lat="52.94918" lon="6.63043">
				<ele>11.99</ele>
			</trkpt>
			<trkpt lat="52.94924" lon="6.63009">
				<ele>11.91</ele>
			</trkpt>
			<trkpt lat="52.94924" lon="6.63009">
				<ele>14.13</ele>
			</trkpt>
			<trkpt lat="52.9497" lon="6.62648">
				<ele>12.64</ele>
			</trkpt>
			<trkpt lat="52.95053" lon="6.6268">
				<ele>12.58</ele>
			</trkpt>
			<trkpt lat="52.95114" lon="6.62674">
				<ele>12.58</ele>
			</trkpt>
			<trkpt lat="52.95166" lon="6.62639">
				<ele>14.98</ele>
			</trkpt>
			<trkpt lat="52.95207" lon="6.62586">
				<ele>20.34</ele>
			</trkpt>
			<trkpt lat="52.95248" lon="6.62548">
				<ele>14.93</ele>
			</trkpt>
			<trkpt lat="52.95334" lon="6.62516">
				<ele>13.72</ele>
			</trkpt>
			<trkpt lat="52.95405" lon="6.62461">
				<ele>13.75</ele>
			</trkpt>
			<trkpt lat="52.95457" lon="6.62596">
				<ele>13.75</ele>
			</trkpt>
			<trkpt lat="52.95457" lon="6.62596">
				<ele>16.9</ele>
			</trkpt>
			<trkpt lat="52.95558" lon="6.62832">
				<ele>16.02</ele>
			</trkpt>
			<trkpt lat="52.95692" lon="6.63047">
				<ele>15.36</ele>
			</trkpt>
			<trkpt lat="52.96121" lon="6.6349">
				<ele>13.78</ele>
			</trkpt>
			<trkpt lat="52.96291" lon="6.63614">
				<ele>12.99</ele>
			</trkpt>
			<trkpt lat="52.96561" lon="6.63715">
				<ele>13.35</ele>
			</trkpt>
			<trkpt lat="52.96607" lon="6.63771">
				<ele>13.35</ele>
			</trkpt>
			<trkpt lat="52.96501" lon="6.63983">
				<ele>16.27</ele>
			</trkpt>
			<trkpt lat="52.96475" lon="6.64189">
				<ele>12.06</ele>
			</trkpt>
			<trkpt lat="52.96679" lon="6.65646">
				<ele>12</ele>
			</trkpt>
			<trkpt lat="52.9671" lon="6.65691">
				<ele>12</ele>
			</trkpt>
			<trkpt lat="52.96697" lon="6.65766">
				<ele>13.51</ele>
			</trkpt>
			<trkpt lat="52.97006" lon="6.67851">
				<ele>13.51</ele>
			</trkpt>
			<trkpt lat="52.97006" lon="6.67851">
				<ele>15.58</ele>
			</trkpt>
			<trkpt lat="52.96999" lon="6.67809">
				<ele>14.36</ele>
			</trkpt>
			<trkpt lat="52.97365" lon="6.672">
				<ele>14.47</ele>
			</trkpt>
			<trkpt lat="52.97485" lon="6.66809">
				<ele>11.99</ele>
			</trkpt>
			<trkpt lat="52.97837" lon="6.66204">
				<ele>11</ele>
			</trkpt>
			<trkpt lat="52.97978" lon="6.6667">
				<ele>11.58</ele>
			</trkpt>
			<trkpt lat="52.98029" lon="6.66592">
				<ele>11.58</ele>
			</trkpt>
			<trkpt lat="52.98059" lon="6.66696">
				<ele>12</ele>
			</trkpt>
			<trkpt lat="52.98133" lon="6.66804">
				<ele>10.25</ele>
			</trkpt>
			<trkpt lat="52.98525" lon="6.66967">
				<ele>11.68</ele>
			</trkpt>
			<trkpt lat="52.98767" lon="6.67107">
				<ele>11.04</ele>
			</trkpt>
			<trkpt lat="52.98791" lon="6.6741">
				<ele>13</ele>
			</trkpt>
			<trkpt lat="52.99014" lon="6.68701">
				<ele>14.11</ele>
			</trkpt>
			<trkpt lat="52.99377" lon="6.68695">
				<ele>14.11</ele>
			</trkpt>
			<trkpt lat="52.99377" lon="6.68695">
				<ele>12</ele>
			</trkpt>
			<trkpt lat="52.99188" lon="6.67478">
				<ele>12.01</ele>
			</trkpt>
			<trkpt lat="52.99069" lon="6.66168">
				<ele>11</ele>
			</trkpt>
			<trkpt lat="52.99083" lon="6.66174">
				<ele>10.36</ele>
			</trkpt>
			<trkpt lat="52.99083" lon="6.66174">
				<ele>10.5</ele>
			</trkpt>
			<trkpt lat="52.99182" lon="6.66205">
				<ele>10.5</ele>
			</trkpt>
			<trkpt lat="52.99518" lon="6.6616">
				<ele>7</ele>
			</trkpt>
			<trkpt lat="53.00046" lon="6.65728">
				<ele>8.43</ele>
			</trkpt>
			<trkpt lat="53.00046" lon="6.65728">
				<ele>8.14</ele>
			</trkpt>
			<trkpt lat="53.002" lon="6.65586">
				<ele>12.59</ele>
			</trkpt>
			<trkpt lat="53.00264" lon="6.65432">
				<ele>12.77</ele>
			</trkpt>
			<trkpt lat="53.00275" lon="6.64886">
				<ele>12.67</ele>
			</trkpt>
			<trkpt lat="53.00248" lon="6.64577">
				<ele>12.67</ele>
			</trkpt>
			<trkpt lat="53.00287" lon="6.64406">
				<ele>11</ele>
			</trkpt>
			<trkpt lat="53.00233" lon="6.64243">
				<ele>13</ele>
			</trkpt>
			<trkpt lat="53.0025" lon="6.64218">
				<ele>11.62</ele>
			</trkpt>
			<trkpt lat="53.004" lon="6.64257">
				<ele>9.17</ele>
			</trkpt>
			<trkpt lat="53.00467" lon="6.64383">
				<ele>12.85</ele>
			</trkpt>
			<trkpt lat="53.00492" lon="6.64386">
				<ele>12.85</ele>
			</trkpt>
			<trkpt lat="53.00706" lon="6.64217">
				<ele>12.53</ele>
			</trkpt>
			<trkpt lat="53.00778" lon="6.64217">
				<ele>12.44</ele>
			</trkpt>
			<trkpt lat="53.00852" lon="6.6403">
				<ele>13.58</ele>
			</trkpt>
			<trkpt lat="53.0095" lon="6.63928">
				<ele>14.8</ele>
			</trkpt>
			<trkpt lat="53.01055" lon="6.6389">
				<ele>12.94</ele>
			</trkpt>
			<trkpt lat="53.01147" lon="6.639">
				<ele>10.05</ele>
			</trkpt>
			<trkpt lat="53.01392" lon="6.64069">
				<ele>10.05</ele>
			</trkpt>
			<trkpt lat="53.01648" lon="6.64047">
				<ele>9.96</ele>
			</trkpt>
			<trkpt lat="53.01819" lon="6.64073">
				<ele>8.29</ele>
			</trkpt>
			<trkpt lat="53.01974" lon="6.64199">
				<ele>9.87</ele>
			</trkpt>
			<trkpt lat="53.0212" lon="6.64231">
				<ele>9</ele>
			</trkpt>
			<trkpt lat="53.02194" lon="6.64196">
				<ele>10</ele>
			</trkpt>
			<trkpt lat="53.02326" lon="6.63921">
				<ele>10</ele>
			</trkpt>
			<trkpt lat="53.02392" lon="6.63904">
				<ele>8.89</ele>
			</trkpt>
			<trkpt lat="53.02378" lon="6.63917">
				<ele>8</ele>
			</trkpt>
			<trkpt lat="53.02378" lon="6.63917">
				<ele>9.56</ele>
			</trkpt>
			<trkpt lat="53.02399" lon="6.639">
				<ele>8.93</ele>
			</trkpt>
			<trkpt lat="53.02673" lon="6.65306">
				<ele>8.31</ele>
			</trkpt>
			<trkpt lat="53.02695" lon="6.65412">
				<ele>7.29</ele>
			</trkpt>
			<trkpt lat="53.02729" lon="6.65525">
				<ele>7.29</ele>
			</trkpt>
			<trkpt lat="53.02752" lon="6.65588">
				<ele>7</ele>
			</trkpt>
			<trkpt lat="53.02806" lon="6.65694">
				<ele>6.72</ele>
			</trkpt>
			<trkpt lat="53.02869" lon="6.65785">
				<ele>6</ele>
			</trkpt>
			<trkpt lat="53.02997" lon="6.65937">
				<ele>6.17</ele>
			</trkpt>
			<trkpt lat="53.0301" lon="6.65914">
				<ele>5.21</ele>
			</trkpt>
			<trkpt lat="53.0302" lon="6.65814">
				<ele>5.21</ele>
			</trkpt>
			<trkpt lat="53.03042" lon="6.65787">
				<ele>5.9</ele>
			</trkpt>
			<trkpt lat="53.03041" lon="6.65777">
				<ele>6</ele>
			</trkpt>
			<trkpt lat="53.03041" lon="6.65777">
				<ele>5.12</ele>
			</trkpt>
			<trkpt lat="53.03075" lon="6.65515">
				<ele>5.67</ele>
			</trkpt>
			<trkpt lat="53.03175" lon="6.65328">
				<ele>5</ele>
			</trkpt>
			<trkpt lat="53.03224" lon="6.65156">
				<ele>7.3</ele>
			</trkpt>
			<trkpt lat="53.03324" lon="6.65123">
				<ele>7.3</ele>
			</trkpt>
			<trkpt lat="53.03435" lon="6.65036">
				<ele>11</ele>
			</trkpt>
			<trkpt lat="53.03676" lon="6.64998">
				<ele>11.67</ele>
			</trkpt>
			<trkpt lat="53.03809" lon="6.64812">
				<ele>10.02</ele>
			</trkpt>
			<trkpt lat="53.03918" lon="6.6476">
				<ele>5.72</ele>
			</trkpt>
			<trkpt lat="53.04018" lon="6.64582">
				<ele>6.72</ele>
			</trkpt>
			<trkpt lat="53.04047" lon="6.64479">
				<ele>9</ele>
			</trkpt>
			<trkpt lat="53.04129" lon="6.6436">
				<ele>9</ele>
			</trkpt>
			<trkpt lat="53.04182" lon="6.64461">
				<ele>6</ele>
			</trkpt>
			<trkpt lat="53.04313" lon="6.64574">
				<ele>8.15</ele>
			</trkpt>
			<trkpt lat="53.04892" lon="6.64709">
				<ele>8.69</ele>
			</trkpt>
			<trkpt lat="53.04892" lon="6.64709">
				<ele>8.15</ele>
			</trkpt>
			<trkpt lat="53.04964" lon="6.64436">
				<ele>8.88</ele>
			</trkpt>
			<trkpt lat="53.04943" lon="6.64168">
				<ele>8.88</ele>
			</trkpt>
			<trkpt lat="53.049" lon="6.6401">
				<ele>5.5</ele>
			</trkpt>
			<trkpt lat="53.04895" lon="6.63857">
				<ele>11.38</ele>
			</trkpt>
			<trkpt lat="53.04928" lon="6.63421">
				<ele>9.47</ele>
			</trkpt>
			<trkpt lat="53.04974" lon="6.63113">
				<ele>8.02</ele>
			</trkpt>
			<trkpt lat="53.04834" lon="6.62403">
				<ele>7.78</ele>
			</trkpt>
			<trkpt lat="53.04774" lon="6.61935">
				<ele>7.76</ele>
			</trkpt>
			<trkpt lat="53.0469" lon="6.61618">
				<ele>7.76</ele>
			</trkpt>
			<trkpt lat="53.04834" lon="6.61112">
				<ele>8.32</ele>
			</trkpt>
			<trkpt lat="53.04847" lon="6.60801">
				<ele>10.68</ele>
			</trkpt>
			<trkpt lat="53.05168" lon="6.60729">
				<ele>12.04</ele>
			</trkpt>
			<trkpt lat="53.05613" lon="6.60527">
				<ele>11.11</ele>
			</trkpt>
			<trkpt lat="53.05888" lon="6.60363">
				<ele>10.11</ele>
			</trkpt>
			<trkpt lat="53.06186" lon="6.6013">
				<ele>10.11</ele>
			</trkpt>
			<trkpt lat="53.06082" lon="6.60042">
				<ele>16.75</ele>
			</trkpt>
			<trkpt lat="53.0605" lon="6.59912">
				<ele>11.58</ele>
			</trkpt>
			<trkpt lat="53.0605" lon="6.59912">
				<ele>12.61</ele>
			</trkpt>
			<trkpt lat="53.05796" lon="6.58783">
				<ele>11.71</ele>
			</trkpt>
			<trkpt lat="53.0581" lon="6.58756">
				<ele>11.48</ele>
			</trkpt>
			<trkpt lat="53.05961" lon="6.58671">
				<ele>9.87</ele>
			</trkpt>
			<trkpt lat="53.05969" lon="6.58644">
				<ele>9.87</ele>
			</trkpt>
			<trkpt lat="53.05896" lon="6.5803">
				<ele>9.8</ele>
			</trkpt>
			<trkpt lat="53.05908" lon="6.57651">
				<ele>12.84</ele>
			</trkpt>
			<trkpt lat="53.05908" lon="6.57651">
				<ele>13.33</ele>
			</trkpt>
			<trkpt lat="53.06387" lon="6.57658">
				<ele>10.67</ele>
			</trkpt>
			<trkpt lat="53.05383" lon="6.57512">
				<ele>8.37</ele>
			</trkpt>
			<trkpt lat="53.04003" lon="6.57109">
				<ele>8.37</ele>
			</trkpt>
			<trkpt lat="53.02109" lon="6.57168">
				<ele>6.49</ele>
			</trkpt>
			<trkpt lat="53.02187" lon="6.56715">
				<ele>8.34</ele>
			</trkpt>
			<trkpt lat="53.02187" lon="6.56715">
				<ele>11.5</ele>
			</trkpt>
			<trkpt lat="53.02166" lon="6.55655">
				<ele>9.68</ele>
			</trkpt>
			<trkpt lat="53.02113" lon="6.5541">
				<ele>10.04</ele>
			</trkpt>
			<trkpt lat="53.0202" lon="6.55202">
				<ele>9.69</ele>
			</trkpt>
			<trkpt lat="53.00771" lon="6.53606">
				<ele>9.69</ele>
			</trkpt>
			<trkpt lat="53.00608" lon="6.53512">
				<ele>11.78</ele>
			</trkpt>
			<trkpt lat="53.00084" lon="6.53398">
				<ele>11.05</ele>
			</trkpt>
			<trkpt lat="52.99963" lon="6.53319">
				<ele>11.58</ele>
			</trkpt>
			<trkpt lat="52.99871" lon="6.53141">
				<ele>9.28</ele>
			</trkpt>
			<trkpt lat="52.99871" lon="6.53141">
				<ele>11.36</ele>
			</trkpt>
			<trkpt lat="52.99788" lon="6.53282">
				<ele>11.26</ele>
			</trkpt>
			<trkpt lat="52.99724" lon="6.53185">
				<ele>11.26</ele>
			</trkpt>
			<trkpt lat="52.9963" lon="6.53129">
				<ele>13.49</ele>
			</trkpt>
			<trkpt lat="52.99268" lon="6.53166">
				<ele>13.4</ele>
			</trkpt>
			<trkpt lat="52.99089" lon="6.53246">
				<ele>12.11</ele>
			</trkpt>
			<trkpt lat="52.9863" lon="6.53698">
				<ele>10.69</ele>
			</trkpt>
			<trkpt lat="52.98559" lon="6.53717">
				<ele>10.2</ele>
			</trkpt>
			<trkpt lat="52.98433" lon="6.53833">
				<ele>10.2</ele>
			</trkpt>
			<trkpt lat="52.98414" lon="6.53883">
				<ele>11.79</ele>
			</trkpt>
			<trkpt lat="52.98384" lon="6.53876">
				<ele>10.44</ele>
			</trkpt>
			<trkpt lat="52.98148" lon="6.54097">
				<ele>13.43</ele>
			</trkpt>
			<trkpt lat="52.98013" lon="6.54349">
				<ele>12.14</ele>
			</trkpt>
			<trkpt lat="52.98006" lon="6.54387">
				<ele>11.8</ele>
			</trkpt>
			<trkpt lat="52.98035" lon="6.54431">
				<ele>12</ele>
			</trkpt>
			<trkpt lat="52.97981" lon="6.54553">
				<ele>12</ele>
			</trkpt>
			<trkpt lat="52.97981" lon="6.54553">
				<ele>11.37</ele>
			</trkpt>
			<trkpt lat="52.97977" lon="6.54565">
				<ele>12.36</ele>
			</trkpt>
			<trkpt lat="52.97976" lon="6.5464">
				<ele>11.31</ele>
			</trkpt>
			<trkpt lat="52.97962" lon="6.54721">
				<ele>11</ele>
			</trkpt>
			<trkpt lat="52.97952" lon="6.54762">
				<ele>11</ele>
			</trkpt>
			<trkpt lat="52.97932" lon="6.54821">
				<ele>11</ele>
			</trkpt>
			<trkpt lat="52.97917" lon="6.54876">
				<ele>11.02</ele>
			</trkpt>
			<trkpt lat="52.97905" lon="6.54885">
				<ele>11</ele>
			</trkpt>
			<trkpt lat="52.97874" lon="6.54881">
				<ele>10.42</ele>
			</trkpt>
			<trkpt lat="52.97829" lon="6.54922">
				<ele>10.92</ele>
			</trkpt>
			<trkpt lat="52.97823" lon="6.54924">
				<ele>11.97</ele>
			</trkpt>
			<trkpt lat="52.97817" lon="6.5492">
				<ele>12</ele>
			</trkpt>
			<trkpt lat="52.97817" lon="6.5492">
				<ele>12</ele>
			</trkpt>
			<trkpt lat="52.97815" lon="6.54917">
				<ele>10.11</ele>
			</trkpt>
			<trkpt lat="52.97798" lon="6.54967">
				<ele>10.99</ele>
			</trkpt>
			<trkpt lat="52.97825" lon="6.55006">
				<ele>10.46</ele>
			</trkpt>
			<trkpt lat="52.97841" lon="6.55041">
				<ele>11.2</ele>
			</trkpt>
			<trkpt lat="52.97841" lon="6.55041">
				<ele>11.56</ele>
			</trkpt>
			<trkpt lat="52.97859" lon="6.55072">
				<ele>11.56</ele>
			</trkpt>
			<trkpt lat="52.97969" lon="6.55105">
				<ele>11.49</ele>
			</trkpt>
			<trkpt lat="52.97973" lon="6.55109">
				<ele>11.42</ele>
			</trkpt>
			<trkpt lat="52.98047" lon="6.55875">
				<ele>13.15</ele>
			</trkpt>
			<trkpt lat="52.98052" lon="6.55928">
				<ele>13</ele>
			</trkpt>
			<trkpt lat="52.98049" lon="6.55934">
				<ele>12.77</ele>
			</trkpt>
			<trkpt lat="52.98049" lon="6.55934">
				<ele>13.15</ele>
			</trkpt>
			<trkpt lat="52.98041" lon="6.55956">
				<ele>13.15</ele>
			</trkpt>
			<trkpt lat="52.98001" lon="6.55922">
				<ele>11.69</ele>
			</trkpt>
			<trkpt lat="52.97989" lon="6.55962">
				<ele>17.18</ele>
			</trkpt>
			<trkpt lat="52.97976" lon="6.55972">
				<ele>15.62</ele>
			</trkpt>
			<trkpt lat="52.97966" lon="6.56002">
				<ele>19.22</ele>
			</trkpt>
			<trkpt lat="52.97943" lon="6.55985">
				<ele>10.93</ele>
			</trkpt>
		</trkseg>
	</trk>
</gpx>