<?xml version="1.0" encoding="UTF-8" standalone="no" ?>
<gpx xmlns="http://www.topografix.com/GPX/1/1"
		xmlns:gpxx="http://www.garmin.com/xmlschemas/GpxExtensions/v3"
		xmlns:gpxtpx="http://www.garmin.com/xmlschemas/TrackPointExtension/v1"
		xmlns:xsi="http://www.w3.org/2001/XMLSchema-instance"
		xsi:schemaLocation="http://www.topografix.com/GPX/1/1 http://www.topografix.com/GPX/1/1/gpx.xsd http://www.garmin.com/xmlschemas/GpxExtensions/v3 http://www.garmin.com/xmlschemas/GpxExtensionsv3.xsd http://www.garmin.com/xmlschemas/TrackPointExtension/v1 http://www.garmin.com/xmlschemas/TrackPointExtensionv1.xsd"
		creator="Gravelmap.com"
		version="1.1">

	<metadata>
		<name><![CDATA[Gravel Route: Dirty Kanzelled]]></name>
		<desc><![CDATA[]]></desc>
		<link href="http://www.gravelmap.com/route/79688">
			<text><![CDATA[Gravel Route: Dirty Kanzelled]]></text>
		</link>
		<time>2020-05-24T08:32:19-04:00</time>
	</metadata>

	<trk>
		<name><![CDATA[Gravel Route: Dirty Kanzelled]]></name>
		<desc><![CDATA[]]></desc>
		<link href="http://www.gravelmap.com/route/79688">
			<text><![CDATA[Gravel Route: Dirty Kanzelled]]></text>
		</link>
		<trkseg>
			<trkpt lat="52.97918" lon="6.55966">
				<ele>14.68</ele>
			</trkpt>
			<trkpt lat="52.9794" lon="6.55983">
				<ele>14.68</ele>
			</trkpt>
			<trkpt lat="52.97982" lon="6.56016">
				<ele>14.68</ele>
			</trkpt>
			<trkpt lat="52.98001" lon="6.55922">
				<ele>14.68</ele>
			</trkpt>
			<trkpt lat="52.98041" lon="6.55956">
				<ele>14.37</ele>
			</trkpt>
			<trkpt lat="52.98052" lon="6.55928">
				<ele>14.37</ele>
			</trkpt>
			<trkpt lat="52.97973" lon="6.55109">
				<ele>14.37</ele>
			</trkpt>
			<trkpt lat="52.97852" lon="6.55061">
				<ele>14.37</ele>
			</trkpt>
			<trkpt lat="52.97798" lon="6.54967">
				<ele>15.13</ele>
			</trkpt>
			<trkpt lat="52.9782" lon="6.54876">
				<ele>15.13</ele>
			</trkpt>
			<trkpt lat="52.97718" lon="6.54793">
				<ele>15.13</ele>
			</trkpt>
			<trkpt lat="52.97423" lon="6.54432">
				<ele>15.13</ele>
			</trkpt>
			<trkpt lat="52.96679" lon="6.53453">
				<ele>10.89</ele>
			</trkpt>
			<trkpt lat="52.96672" lon="6.53486">
				<ele>10.89</ele>
			</trkpt>
			<trkpt lat="52.96598" lon="6.53504">
				<ele>10.89</ele>
			</trkpt>
			<trkpt lat="52.96359" lon="6.53769">
				<ele>10.89</ele>
			</trkpt>
			<trkpt lat="52.96102" lon="6.53965">
				<ele>9.26</ele>
			</trkpt>
			<trkpt lat="52.96055" lon="6.53959">
				<ele>9.26</ele>
			</trkpt>
			<trkpt lat="52.96031" lon="6.53839">
				<ele>9.26</ele>
			</trkpt>
			<trkpt lat="52.95818" lon="6.53405">
				<ele>9.26</ele>
			</trkpt>
			<trkpt lat="52.9576" lon="6.53187">
				<ele>10.08</ele>
			</trkpt>
			<trkpt lat="52.95469" lon="6.52614">
				<ele>10.08</ele>
			</trkpt>
			<trkpt lat="52.95469" lon="6.52614">
				<ele>10.08</ele>
			</trkpt>
			<trkpt lat="52.94668" lon="6.52434">
				<ele>10.08</ele>
			</trkpt>
			<trkpt lat="52.94157" lon="6.52561">
				<ele>11.91</ele>
			</trkpt>
			<trkpt lat="52.94067" lon="6.52599">
				<ele>11.91</ele>
			</trkpt>
			<trkpt lat="52.94067" lon="6.52599">
				<ele>11.91</ele>
			</trkpt>
			<trkpt lat="52.93847" lon="6.52717">
				<ele>11.91</ele>
			</trkpt>
			<trkpt lat="52.93165" lon="6.52854">
				<ele>13</ele>
			</trkpt>
			<trkpt lat="52.93112" lon="6.52918">
				<ele>13</ele>
			</trkpt>
			<trkpt lat="52.92982" lon="6.5325">
				<ele>13</ele>
			</trkpt>
			<trkpt lat="52.92849" lon="6.53409">
				<ele>13</ele>
			</trkpt>
			<trkpt lat="52.92633" lon="6.53332">
				<ele>10.34</ele>
			</trkpt>
			<trkpt lat="52.92616" lon="6.53368">
				<ele>10.34</ele>
			</trkpt>
			<trkpt lat="52.92522" lon="6.53371">
				<ele>10.34</ele>
			</trkpt>
			<trkpt lat="52.925" lon="6.53491">
				<ele>10.34</ele>
			</trkpt>
			<trkpt lat="52.92394" lon="6.53541">
				<ele>12</ele>
			</trkpt>
			<trkpt lat="52.92334" lon="6.53649">
				<ele>12</ele>
			</trkpt>
			<trkpt lat="52.92263" lon="6.53715">
				<ele>12</ele>
			</trkpt>
			<trkpt lat="52.92281" lon="6.53804">
				<ele>12</ele>
			</trkpt>
			<trkpt lat="52.9224" lon="6.53959">
				<ele>11.45</ele>
			</trkpt>
			<trkpt lat="52.92263" lon="6.54156">
				<ele>11.45</ele>
			</trkpt>
			<trkpt lat="52.92226" lon="6.54413">
				<ele>11.45</ele>
			</trkpt>
			<trkpt lat="52.92201" lon="6.54467">
				<ele>11.45</ele>
			</trkpt>
			<trkpt lat="52.92192" lon="6.54623">
				<ele>11</ele>
			</trkpt>
			<trkpt lat="52.92192" lon="6.54623">
				<ele>11</ele>
			</trkpt>
			<trkpt lat="52.92184" lon="6.54663">
				<ele>11</ele>
			</trkpt>
			<trkpt lat="52.92191" lon="6.54835">
				<ele>11</ele>
			</trkpt>
			<trkpt lat="52.92177" lon="6.55154">
				<ele>17.48</ele>
			</trkpt>
			<trkpt lat="52.92191" lon="6.5595">
				<ele>17.48</ele>
			</trkpt>
			<trkpt lat="52.92257" lon="6.56648">
				<ele>17.48</ele>
			</trkpt>
			<trkpt lat="52.92254" lon="6.56769">
				<ele>17.48</ele>
			</trkpt>
			<trkpt lat="52.92234" lon="6.56918">
				<ele>22.44</ele>
			</trkpt>
			<trkpt lat="52.92234" lon="6.56918">
				<ele>22.44</ele>
			</trkpt>
			<trkpt lat="52.92188" lon="6.57104">
				<ele>22.44</ele>
			</trkpt>
			<trkpt lat="52.92221" lon="6.57181">
				<ele>22.44</ele>
			</trkpt>
			<trkpt lat="52.92172" lon="6.5724">
				<ele>17.84</ele>
			</trkpt>
			<trkpt lat="52.92138" lon="6.57339">
				<ele>17.84</ele>
			</trkpt>
			<trkpt lat="52.92055" lon="6.57706">
				<ele>17.84</ele>
			</trkpt>
			<trkpt lat="52.92015" lon="6.58028">
				<ele>17.84</ele>
			</trkpt>
			<trkpt lat="52.91985" lon="6.58458">
				<ele>19.85</ele>
			</trkpt>
			<trkpt lat="52.91809" lon="6.58934">
				<ele>19.85</ele>
			</trkpt>
			<trkpt lat="52.91766" lon="6.59101">
				<ele>19.85</ele>
			</trkpt>
			<trkpt lat="52.91735" lon="6.59303">
				<ele>19.85</ele>
			</trkpt>
			<trkpt lat="52.91742" lon="6.60011">
				<ele>24.53</ele>
			</trkpt>
			<trkpt lat="52.91783" lon="6.60033">
				<ele>24.53</ele>
			</trkpt>
			<trkpt lat="52.91838" lon="6.60138">
				<ele>24.53</ele>
			</trkpt>
			<trkpt lat="52.9183" lon="6.60271">
				<ele>18.24</ele>
			</trkpt>
			<trkpt lat="52.91842" lon="6.604">
				<ele>18.24</ele>
			</trkpt>
			<trkpt lat="52.91992" lon="6.60416">
				<ele>18.24</ele>
			</trkpt>
			<trkpt lat="52.91992" lon="6.60416">
				<ele>18.24</ele>
			</trkpt>
			<trkpt lat="52.92011" lon="6.60413">
				<ele>20.87</ele>
			</trkpt>
			<trkpt lat="52.9201" lon="6.61006">
				<ele>20.87</ele>
			</trkpt>
			<trkpt lat="52.92003" lon="6.61057">
				<ele>20.87</ele>
			</trkpt>
			<trkpt lat="52.91921" lon="6.6132">
				<ele>20.87</ele>
			</trkpt>
			<trkpt lat="52.917" lon="6.61748">
				<ele>22.82</ele>
			</trkpt>
			<trkpt lat="52.917" lon="6.61748">
				<ele>22.82</ele>
			</trkpt>
			<trkpt lat="52.91289" lon="6.62537">
				<ele>22.82</ele>
			</trkpt>
			<trkpt lat="52.91283" lon="6.62591">
				<ele>22.82</ele>
			</trkpt>
			<trkpt lat="52.91246" lon="6.6333">
				<ele>22.6</ele>
			</trkpt>
			<trkpt lat="52.91246" lon="6.6333">
				<ele>22.6</ele>
			</trkpt>
			<trkpt lat="52.91235" lon="6.63335">
				<ele>22.6</ele>
			</trkpt>
			<trkpt lat="52.9119" lon="6.6417">
				<ele>22.6</ele>
			</trkpt>
			<trkpt lat="52.91099" lon="6.65121">
				<ele>25.67</ele>
			</trkpt>
			<trkpt lat="52.9106" lon="6.65463">
				<ele>25.67</ele>
			</trkpt>
			<trkpt lat="52.91049" lon="6.65495">
				<ele>25.67</ele>
			</trkpt>
			<trkpt lat="52.91052" lon="6.65551">
				<ele>25.67</ele>
			</trkpt>
			<trkpt lat="52.9094" lon="6.66639">
				<ele>26.28</ele>
			</trkpt>
			<trkpt lat="52.90926" lon="6.66677">
				<ele>26.28</ele>
			</trkpt>
			<trkpt lat="52.90807" lon="6.66653">
				<ele>26.28</ele>
			</trkpt>
			<trkpt lat="52.9061" lon="6.66568">
				<ele>26.28</ele>
			</trkpt>
			<trkpt lat="52.9061" lon="6.66568">
				<ele>24.5</ele>
			</trkpt>
			<trkpt lat="52.90389" lon="6.66995">
				<ele>24.5</ele>
			</trkpt>
			<trkpt lat="52.90276" lon="6.67154">
				<ele>24.5</ele>
			</trkpt>
			<trkpt lat="52.90298" lon="6.67201">
				<ele>24.5</ele>
			</trkpt>
			<trkpt lat="52.90298" lon="6.67201">
				<ele>28.15</ele>
			</trkpt>
			<trkpt lat="52.90276" lon="6.67154">
				<ele>28.15</ele>
			</trkpt>
			<trkpt lat="52.90401" lon="6.67196">
				<ele>28.15</ele>
			</trkpt>
			<trkpt lat="52.90669" lon="6.67159">
				<ele>28.15</ele>
			</trkpt>
			<trkpt lat="52.90866" lon="6.66799">
				<ele>21.26</ele>
			</trkpt>
			<trkpt lat="52.91495" lon="6.67964">
				<ele>21.26</ele>
			</trkpt>
			<trkpt lat="52.91495" lon="6.67964">
				<ele>21.26</ele>
			</trkpt>
			<trkpt lat="52.91676" lon="6.68065">
				<ele>21.26</ele>
			</trkpt>
			<trkpt lat="52.91821" lon="6.68438">
				<ele>25.65</ele>
			</trkpt>
			<trkpt lat="52.92019" lon="6.68895">
				<ele>25.65</ele>
			</trkpt>
			<trkpt lat="52.91989" lon="6.68925">
				<ele>25.65</ele>
			</trkpt>
			<trkpt lat="52.92081" lon="6.69457">
				<ele>25.65</ele>
			</trkpt>
			<trkpt lat="52.9225" lon="6.70198">
				<ele>29.54</ele>
			</trkpt>
			<trkpt lat="52.92492" lon="6.70756">
				<ele>29.54</ele>
			</trkpt>
			<trkpt lat="52.92498" lon="6.70786">
				<ele>29.54</ele>
			</trkpt>
			<trkpt lat="52.9249" lon="6.70848">
				<ele>29.54</ele>
			</trkpt>
			<trkpt lat="52.9249" lon="6.70848">
				<ele>26.86</ele>
			</trkpt>
			<trkpt lat="52.9246" lon="6.71689">
				<ele>26.86</ele>
			</trkpt>
			<trkpt lat="52.92908" lon="6.71763">
				<ele>26.86</ele>
			</trkpt>
			<trkpt lat="52.93096" lon="6.71754">
				<ele>26.86</ele>
			</trkpt>
			<trkpt lat="52.93136" lon="6.72478">
				<ele>20.07</ele>
			</trkpt>
			<trkpt lat="52.93229" lon="6.73599">
				<ele>20.07</ele>
			</trkpt>
			<trkpt lat="52.93129" lon="6.73618">
				<ele>20.07</ele>
			</trkpt>
			<trkpt lat="52.9312" lon="6.73632">
				<ele>20.07</ele>
			</trkpt>
			<trkpt lat="52.93162" lon="6.73683">
				<ele>31.64</ele>
			</trkpt>
			<trkpt lat="52.93176" lon="6.73816">
				<ele>31.64</ele>
			</trkpt>
			<trkpt lat="52.93192" lon="6.73872">
				<ele>31.64</ele>
			</trkpt>
			<trkpt lat="52.93223" lon="6.73903">
				<ele>31.64</ele>
			</trkpt>
			<trkpt lat="52.93296" lon="6.73902">
				<ele>25.46</ele>
			</trkpt>
			<trkpt lat="52.93336" lon="6.74867">
				<ele>25.46</ele>
			</trkpt>
			<trkpt lat="52.93404" lon="6.74905">
				<ele>25.46</ele>
			</trkpt>
			<trkpt lat="52.93346" lon="6.7508">
				<ele>25.46</ele>
			</trkpt>
			<trkpt lat="52.93379" lon="6.75125">
				<ele>25</ele>
			</trkpt>
			<trkpt lat="52.93379" lon="6.75125">
				<ele>25</ele>
			</trkpt>
			<trkpt lat="52.93541" lon="6.75277">
				<ele>25</ele>
			</trkpt>
			<trkpt lat="52.94134" lon="6.75187">
				<ele>31.98</ele>
			</trkpt>
			<trkpt lat="52.94624" lon="6.74814">
				<ele>31.98</ele>
			</trkpt>
			<trkpt lat="52.94813" lon="6.74574">
				<ele>31.98</ele>
			</trkpt>
			<trkpt lat="52.95603" lon="6.7442">
				<ele>31.98</ele>
			</trkpt>
			<trkpt lat="52.9647" lon="6.74097">
				<ele>28.79</ele>
			</trkpt>
			<trkpt lat="52.96583" lon="6.7393">
				<ele>28.79</ele>
			</trkpt>
			<trkpt lat="52.96688" lon="6.73535">
				<ele>28.79</ele>
			</trkpt>
			<trkpt lat="52.97192" lon="6.73336">
				<ele>28.79</ele>
			</trkpt>
			<trkpt lat="52.9721" lon="6.73413">
				<ele>19.75</ele>
			</trkpt>
			<trkpt lat="52.9721" lon="6.73413">
				<ele>19.75</ele>
			</trkpt>
			<trkpt lat="52.97353" lon="6.73986">
				<ele>19.75</ele>
			</trkpt>
			<trkpt lat="52.97639" lon="6.75187">
				<ele>19.75</ele>
			</trkpt>
			<trkpt lat="52.97668" lon="6.75173">
				<ele>22.42</ele>
			</trkpt>
			<trkpt lat="52.97668" lon="6.75173">
				<ele>22.42</ele>
			</trkpt>
			<trkpt lat="52.98198" lon="6.74975">
				<ele>22.42</ele>
			</trkpt>
			<trkpt lat="52.99367" lon="6.74155">
				<ele>22.42</ele>
			</trkpt>
			<trkpt lat="52.99373" lon="6.74194">
				<ele>26.83</ele>
			</trkpt>
			<trkpt lat="52.99458" lon="6.74152">
				<ele>26.83</ele>
			</trkpt>
			<trkpt lat="52.99458" lon="6.74152">
				<ele>26.83</ele>
			</trkpt>
			<trkpt lat="52.99464" lon="6.7415">
				<ele>26.83</ele>
			</trkpt>
			<trkpt lat="52.99475" lon="6.74121">
				<ele>16.93</ele>
			</trkpt>
			<trkpt lat="52.9948" lon="6.74114">
				<ele>16.93</ele>
			</trkpt>
			<trkpt lat="52.99491" lon="6.74115">
				<ele>16.93</ele>
			</trkpt>
			<trkpt lat="52.99422" lon="6.7373">
				<ele>16.93</ele>
			</trkpt>
			<trkpt lat="52.99422" lon="6.7373">
				<ele>24.45</ele>
			</trkpt>
			<trkpt lat="52.99299" lon="6.73062">
				<ele>24.45</ele>
			</trkpt>
			<trkpt lat="52.9923" lon="6.72709">
				<ele>24.45</ele>
			</trkpt>
			<trkpt lat="52.99227" lon="6.72664">
				<ele>24.45</ele>
			</trkpt>
			<trkpt lat="52.99211" lon="6.72647">
				<ele>27.64</ele>
			</trkpt>
			<trkpt lat="52.99211" lon="6.72647">
				<ele>27.64</ele>
			</trkpt>
			<trkpt lat="52.99148" lon="6.72597">
				<ele>27.64</ele>
			</trkpt>
			<trkpt lat="52.98856" lon="6.72687">
				<ele>27.64</ele>
			</trkpt>
			<trkpt lat="52.98637" lon="6.72181">
				<ele>20.31</ele>
			</trkpt>
			<trkpt lat="52.99135" lon="6.70693">
				<ele>20.31</ele>
			</trkpt>
			<trkpt lat="52.99273" lon="6.69933">
				<ele>20.31</ele>
			</trkpt>
			<trkpt lat="52.99102" lon="6.6922">
				<ele>20.31</ele>
			</trkpt>
			<trkpt lat="52.99014" lon="6.68701">
				<ele>22.11</ele>
			</trkpt>
			<trkpt lat="52.9962" lon="6.68666">
				<ele>22.11</ele>
			</trkpt>
			<trkpt lat="52.99906" lon="6.68564">
				<ele>22.11</ele>
			</trkpt>
			<trkpt lat="52.9989" lon="6.68426">
				<ele>22.11</ele>
			</trkpt>
			<trkpt lat="53.00016" lon="6.68407">
				<ele>23.21</ele>
			</trkpt>
			<trkpt lat="53.00044" lon="6.68146">
				<ele>23.21</ele>
			</trkpt>
			<trkpt lat="53.00276" lon="6.68096">
				<ele>23.21</ele>
			</trkpt>
			<trkpt lat="53.00277" lon="6.67804">
				<ele>23.21</ele>
			</trkpt>
			<trkpt lat="53.00277" lon="6.67804">
				<ele>19.62</ele>
			</trkpt>
			<trkpt lat="52.99877" lon="6.67976">
				<ele>19.62</ele>
			</trkpt>
			<trkpt lat="52.99673" lon="6.68039">
				<ele>19.62</ele>
			</trkpt>
			<trkpt lat="52.99502" lon="6.67469">
				<ele>19.62</ele>
			</trkpt>
			<trkpt lat="52.99418" lon="6.67143">
				<ele>18.64</ele>
			</trkpt>
			<trkpt lat="52.99417" lon="6.67103">
				<ele>18.64</ele>
			</trkpt>
			<trkpt lat="52.99456" lon="6.67084">
				<ele>18.64</ele>
			</trkpt>
			<trkpt lat="52.99466" lon="6.6705">
				<ele>18.64</ele>
			</trkpt>
			<trkpt lat="52.99452" lon="6.6701">
				<ele>26.92</ele>
			</trkpt>
			<trkpt lat="52.99458" lon="6.66971">
				<ele>26.92</ele>
			</trkpt>
			<trkpt lat="52.99316" lon="6.66188">
				<ele>26.92</ele>
			</trkpt>
			<trkpt lat="52.99518" lon="6.6616">
				<ele>26.92</ele>
			</trkpt>
			<trkpt lat="53.00063" lon="6.65716">
				<ele>26.43</ele>
			</trkpt>
			<trkpt lat="53.00063" lon="6.65716">
				<ele>26.43</ele>
			</trkpt>
			<trkpt lat="53.00042" lon="6.65731">
				<ele>26.43</ele>
			</trkpt>
			<trkpt lat="53.002" lon="6.65586">
				<ele>26.43</ele>
			</trkpt>
			<trkpt lat="53.00265" lon="6.65426">
				<ele>27.38</ele>
			</trkpt>
			<trkpt lat="53.00275" lon="6.64886">
				<ele>27.38</ele>
			</trkpt>
			<trkpt lat="53.00248" lon="6.64577">
				<ele>27.38</ele>
			</trkpt>
			<trkpt lat="53.00287" lon="6.64406">
				<ele>24.64</ele>
			</trkpt>
			<trkpt lat="53.00233" lon="6.64243">
				<ele>24.64</ele>
			</trkpt>
			<trkpt lat="53.0025" lon="6.64218">
				<ele>24.64</ele>
			</trkpt>
			<trkpt lat="53.004" lon="6.64257">
				<ele>24.64</ele>
			</trkpt>
			<trkpt lat="53.00467" lon="6.64383">
				<ele>30.56</ele>
			</trkpt>
			<trkpt lat="53.00492" lon="6.64386">
				<ele>30.56</ele>
			</trkpt>
			<trkpt lat="53.00706" lon="6.64217">
				<ele>30.56</ele>
			</trkpt>
			<trkpt lat="53.00778" lon="6.64217">
				<ele>30.56</ele>
			</trkpt>
			<trkpt lat="53.00852" lon="6.6403">
				<ele>26.45</ele>
			</trkpt>
			<trkpt lat="53.0095" lon="6.63928">
				<ele>26.45</ele>
			</trkpt>
			<trkpt lat="53.01055" lon="6.6389">
				<ele>26.45</ele>
			</trkpt>
			<trkpt lat="53.01147" lon="6.639">
				<ele>26.45</ele>
			</trkpt>
			<trkpt lat="53.01392" lon="6.64069">
				<ele>25.26</ele>
			</trkpt>
			<trkpt lat="53.01631" lon="6.64043">
				<ele>25.26</ele>
			</trkpt>
			<trkpt lat="53.01821" lon="6.6407">
				<ele>25.26</ele>
			</trkpt>
			<trkpt lat="53.01968" lon="6.64193">
				<ele>25.26</ele>
			</trkpt>
			<trkpt lat="53.02116" lon="6.6423">
				<ele>26</ele>
			</trkpt>
			<trkpt lat="53.02198" lon="6.6419">
				<ele>26</ele>
			</trkpt>
			<trkpt lat="53.02326" lon="6.63921">
				<ele>26</ele>
			</trkpt>
			<trkpt lat="53.02392" lon="6.63904">
				<ele>26</ele>
			</trkpt>
			<trkpt lat="53.02376" lon="6.63926">
				<ele>26.41</ele>
			</trkpt>
			<trkpt lat="53.02376" lon="6.63926">
				<ele>26.41</ele>
			</trkpt>
			<trkpt lat="53.0238" lon="6.63911">
				<ele>26.41</ele>
			</trkpt>
			<trkpt lat="53.02399" lon="6.639">
				<ele>26.41</ele>
			</trkpt>
			<trkpt lat="53.02346" lon="6.63635">
				<ele>25.45</ele>
			</trkpt>
			<trkpt lat="53.02307" lon="6.63461">
				<ele>25.45</ele>
			</trkpt>
			<trkpt lat="53.02291" lon="6.63374">
				<ele>25.45</ele>
			</trkpt>
			<trkpt lat="53.02289" lon="6.63354">
				<ele>25.45</ele>
			</trkpt>
			<trkpt lat="53.02319" lon="6.63365">
				<ele>22.43</ele>
			</trkpt>
			<trkpt lat="53.02319" lon="6.63365">
				<ele>22.43</ele>
			</trkpt>
			<trkpt lat="53.02409" lon="6.63421">
				<ele>22.43</ele>
			</trkpt>
			<trkpt lat="53.02437" lon="6.63447">
				<ele>22.43</ele>
			</trkpt>
			<trkpt lat="53.02483" lon="6.63506">
				<ele>19.57</ele>
			</trkpt>
			<trkpt lat="53.0263" lon="6.63606">
				<ele>19.57</ele>
			</trkpt>
			<trkpt lat="53.02766" lon="6.63579">
				<ele>19.57</ele>
			</trkpt>
			<trkpt lat="53.02918" lon="6.634">
				<ele>19.57</ele>
			</trkpt>
			<trkpt lat="53.02947" lon="6.63385">
				<ele>16.77</ele>
			</trkpt>
			<trkpt lat="53.02953" lon="6.63369">
				<ele>16.77</ele>
			</trkpt>
			<trkpt lat="53.02953" lon="6.63369">
				<ele>16.77</ele>
			</trkpt>
			<trkpt lat="53.02998" lon="6.63798">
				<ele>16.77</ele>
			</trkpt>
			<trkpt lat="53.03075" lon="6.63975">
				<ele>17.52</ele>
			</trkpt>
			<trkpt lat="53.0318" lon="6.64015">
				<ele>17.52</ele>
			</trkpt>
			<trkpt lat="53.03563" lon="6.64399">
				<ele>17.52</ele>
			</trkpt>
			<trkpt lat="53.03605" lon="6.64409">
				<ele>17.52</ele>
			</trkpt>
			<trkpt lat="53.03608" lon="6.6456">
				<ele>15.03</ele>
			</trkpt>
			<trkpt lat="53.03524" lon="6.64578">
				<ele>15.03</ele>
			</trkpt>
			<trkpt lat="53.03515" lon="6.64955">
				<ele>15.03</ele>
			</trkpt>
			<trkpt lat="53.03598" lon="6.65144">
				<ele>15.03</ele>
			</trkpt>
			<trkpt lat="53.03562" lon="6.65644">
				<ele>19.23</ele>
			</trkpt>
			<trkpt lat="53.03588" lon="6.6589">
				<ele>19.23</ele>
			</trkpt>
			<trkpt lat="53.03639" lon="6.66012">
				<ele>19.23</ele>
			</trkpt>
			<trkpt lat="53.03628" lon="6.6621">
				<ele>19.23</ele>
			</trkpt>
			<trkpt lat="53.03593" lon="6.66274">
				<ele>14</ele>
			</trkpt>
			<trkpt lat="53.03659" lon="6.66417">
				<ele>14</ele>
			</trkpt>
			<trkpt lat="53.03688" lon="6.66669">
				<ele>14</ele>
			</trkpt>
			<trkpt lat="53.0375" lon="6.67957">
				<ele>14</ele>
			</trkpt>
			<trkpt lat="53.03975" lon="6.69022">
				<ele>13.01</ele>
			</trkpt>
			<trkpt lat="53.04084" lon="6.69372">
				<ele>13.01</ele>
			</trkpt>
			<trkpt lat="53.04108" lon="6.69581">
				<ele>13.01</ele>
			</trkpt>
			<trkpt lat="53.04199" lon="6.69836">
				<ele>13.01</ele>
			</trkpt>
			<trkpt lat="53.04241" lon="6.69857">
				<ele>12</ele>
			</trkpt>
			<trkpt lat="53.04264" lon="6.69938">
				<ele>12</ele>
			</trkpt>
			<trkpt lat="53.04328" lon="6.69946">
				<ele>12</ele>
			</trkpt>
			<trkpt lat="53.04387" lon="6.69887">
				<ele>10.16</ele>
			</trkpt>
			<trkpt lat="53.04421" lon="6.69931">
				<ele>10.16</ele>
			</trkpt>
			<trkpt lat="53.04463" lon="6.70021">
				<ele>10.16</ele>
			</trkpt>
			<trkpt lat="53.04541" lon="6.70362">
				<ele>10.16</ele>
			</trkpt>
			<trkpt lat="53.04655" lon="6.70378">
				<ele>8.61</ele>
			</trkpt>
			<trkpt lat="53.04827" lon="6.70328">
				<ele>8.61</ele>
			</trkpt>
			<trkpt lat="53.04827" lon="6.70328">
				<ele>8.61</ele>
			</trkpt>
			<trkpt lat="53.06046" lon="6.69876">
				<ele>8.61</ele>
			</trkpt>
			<trkpt lat="53.06064" lon="6.6994">
				<ele>7.51</ele>
			</trkpt>
			<trkpt lat="53.06064" lon="6.6994">
				<ele>7.51</ele>
			</trkpt>
			<trkpt lat="53.06045" lon="6.69865">
				<ele>7.51</ele>
			</trkpt>
			<trkpt lat="53.06084" lon="6.69642">
				<ele>7.51</ele>
			</trkpt>
			<trkpt lat="53.0601" lon="6.69515">
				<ele>9.61</ele>
			</trkpt>
			<trkpt lat="53.0595" lon="6.69393">
				<ele>9.61</ele>
			</trkpt>
			<trkpt lat="53.05931" lon="6.69061">
				<ele>9.61</ele>
			</trkpt>
			<trkpt lat="53.05979" lon="6.68853">
				<ele>9.61</ele>
			</trkpt>
			<trkpt lat="53.05982" lon="6.68832">
				<ele>12.81</ele>
			</trkpt>
			<trkpt lat="53.05977" lon="6.68794">
				<ele>12.81</ele>
			</trkpt>
			<trkpt lat="53.05995" lon="6.68769">
				<ele>12.81</ele>
			</trkpt>
			<trkpt lat="53.05999" lon="6.68715">
				<ele>12.81</ele>
			</trkpt>
			<trkpt lat="53.05995" lon="6.68668">
				<ele>12.96</ele>
			</trkpt>
			<trkpt lat="53.05961" lon="6.68515">
				<ele>12.96</ele>
			</trkpt>
			<trkpt lat="53.05961" lon="6.68515">
				<ele>12.96</ele>
			</trkpt>
			<trkpt lat="53.05936" lon="6.68428">
				<ele>12.96</ele>
			</trkpt>
			<trkpt lat="53.06297" lon="6.67804">
				<ele>12.63</ele>
			</trkpt>
			<trkpt lat="53.06415" lon="6.6767">
				<ele>12.63</ele>
			</trkpt>
			<trkpt lat="53.06415" lon="6.6767">
				<ele>12.63</ele>
			</trkpt>
			<trkpt lat="53.06446" lon="6.67636">
				<ele>12.63</ele>
			</trkpt>
			<trkpt lat="53.06439" lon="6.67674">
				<ele>10.26</ele>
			</trkpt>
			<trkpt lat="53.06433" lon="6.67731">
				<ele>10.26</ele>
			</trkpt>
			<trkpt lat="53.06429" lon="6.67846">
				<ele>10.26</ele>
			</trkpt>
			<trkpt lat="53.06431" lon="6.67882">
				<ele>10.26</ele>
			</trkpt>
			<trkpt lat="53.06435" lon="6.67894">
				<ele>9.55</ele>
			</trkpt>
			<trkpt lat="53.06504" lon="6.67988">
				<ele>9.55</ele>
			</trkpt>
			<trkpt lat="53.06513" lon="6.68008">
				<ele>9.55</ele>
			</trkpt>
			<trkpt lat="53.0654" lon="6.68413">
				<ele>9.55</ele>
			</trkpt>
			<trkpt lat="53.06526" lon="6.68452">
				<ele>10</ele>
			</trkpt>
			<trkpt lat="53.06556" lon="6.68485">
				<ele>10</ele>
			</trkpt>
			<trkpt lat="53.06692" lon="6.68676">
				<ele>10</ele>
			</trkpt>
			<trkpt lat="53.06694" lon="6.68679">
				<ele>10</ele>
			</trkpt>
			<trkpt lat="53.06696" lon="6.68675">
				<ele>9.73</ele>
			</trkpt>
			<trkpt lat="53.0671" lon="6.6867">
				<ele>9.73</ele>
			</trkpt>
			<trkpt lat="53.0671" lon="6.6867">
				<ele>9.73</ele>
			</trkpt>
			<trkpt lat="53.06987" lon="6.68418">
				<ele>9.73</ele>
			</trkpt>
			<trkpt lat="53.07262" lon="6.68181">
				<ele>5.74</ele>
			</trkpt>
			<trkpt lat="53.0728" lon="6.68151">
				<ele>5.74</ele>
			</trkpt>
			<trkpt lat="53.07315" lon="6.67684">
				<ele>5.74</ele>
			</trkpt>
			<trkpt lat="53.07333" lon="6.67557">
				<ele>5.74</ele>
			</trkpt>
			<trkpt lat="53.07299" lon="6.6731">
				<ele>6.82</ele>
			</trkpt>
			<trkpt lat="53.07277" lon="6.67222">
				<ele>6.82</ele>
			</trkpt>
			<trkpt lat="53.07261" lon="6.67038">
				<ele>6.82</ele>
			</trkpt>
			<trkpt lat="53.07261" lon="6.67038">
				<ele>6.82</ele>
			</trkpt>
			<trkpt lat="53.07247" lon="6.66982">
				<ele>4.11</ele>
			</trkpt>
			<trkpt lat="53.07248" lon="6.66946">
				<ele>4.11</ele>
			</trkpt>
			<trkpt lat="53.07238" lon="6.66833">
				<ele>4.11</ele>
			</trkpt>
			<trkpt lat="53.0724" lon="6.66821">
				<ele>4.11</ele>
			</trkpt>
			<trkpt lat="53.07225" lon="6.66816">
				<ele>5.59</ele>
			</trkpt>
			<trkpt lat="53.07208" lon="6.66817">
				<ele>5.59</ele>
			</trkpt>
			<trkpt lat="53.07186" lon="6.66825">
				<ele>5.59</ele>
			</trkpt>
			<trkpt lat="53.07183" lon="6.66809">
				<ele>5.59</ele>
			</trkpt>
			<trkpt lat="53.07184" lon="6.66797">
				<ele>6.41</ele>
			</trkpt>
			<trkpt lat="53.07281" lon="6.66551">
				<ele>6.41</ele>
			</trkpt>
			<trkpt lat="53.07372" lon="6.66341">
				<ele>6.41</ele>
			</trkpt>
			<trkpt lat="53.07427" lon="6.66249">
				<ele>9.06</ele>
			</trkpt>
			<trkpt lat="53.07441" lon="6.66262">
				<ele>9.06</ele>
			</trkpt>
			<trkpt lat="53.07441" lon="6.66262">
				<ele>9.06</ele>
			</trkpt>
			<trkpt lat="53.07427" lon="6.66249">
				<ele>9.06</ele>
			</trkpt>
			<trkpt lat="53.07428" lon="6.66186">
				<ele>10.72</ele>
			</trkpt>
			<trkpt lat="53.0742" lon="6.66166">
				<ele>10.72</ele>
			</trkpt>
			<trkpt lat="53.07418" lon="6.65877">
				<ele>10.72</ele>
			</trkpt>
			<trkpt lat="53.0741" lon="6.65834">
				<ele>10.72</ele>
			</trkpt>
			<trkpt lat="53.07417" lon="6.65818">
				<ele>9</ele>
			</trkpt>
			<trkpt lat="53.07402" lon="6.64994">
				<ele>9</ele>
			</trkpt>
			<trkpt lat="53.0736" lon="6.64571">
				<ele>9</ele>
			</trkpt>
			<trkpt lat="53.0736" lon="6.64571">
				<ele>9</ele>
			</trkpt>
			<trkpt lat="53.07534" lon="6.64414">
				<ele>8.29</ele>
			</trkpt>
			<trkpt lat="53.07598" lon="6.64315">
				<ele>8.29</ele>
			</trkpt>
			<trkpt lat="53.07824" lon="6.64455">
				<ele>8.29</ele>
			</trkpt>
			<trkpt lat="53.0827" lon="6.64211">
				<ele>8.29</ele>
			</trkpt>
			<trkpt lat="53.08505" lon="6.65346">
				<ele>9.54</ele>
			</trkpt>
			<trkpt lat="53.08629" lon="6.65688">
				<ele>9.54</ele>
			</trkpt>
			<trkpt lat="53.08656" lon="6.65836">
				<ele>9.54</ele>
			</trkpt>
			<trkpt lat="53.08751" lon="6.6609">
				<ele>9.54</ele>
			</trkpt>
			<trkpt lat="53.08957" lon="6.66793">
				<ele>15.29</ele>
			</trkpt>
			<trkpt lat="53.09039" lon="6.67111">
				<ele>15.29</ele>
			</trkpt>
			<trkpt lat="53.09098" lon="6.67531">
				<ele>15.29</ele>
			</trkpt>
			<trkpt lat="53.09525" lon="6.67412">
				<ele>15.29</ele>
			</trkpt>
			<trkpt lat="53.09554" lon="6.67591">
				<ele>16.4</ele>
			</trkpt>
			<trkpt lat="53.09723" lon="6.67528">
				<ele>16.4</ele>
			</trkpt>
			<trkpt lat="53.09754" lon="6.67555">
				<ele>16.4</ele>
			</trkpt>
			<trkpt lat="53.09761" lon="6.67624">
				<ele>16.4</ele>
			</trkpt>
			<trkpt lat="53.09761" lon="6.67624">
				<ele>16.09</ele>
			</trkpt>
			<trkpt lat="53.09841" lon="6.67926">
				<ele>16.09</ele>
			</trkpt>
			<trkpt lat="53.09848" lon="6.67922">
				<ele>16.09</ele>
			</trkpt>
			<trkpt lat="53.09848" lon="6.67922">
				<ele>16.09</ele>
			</trkpt>
			<trkpt lat="53.10076" lon="6.67807">
				<ele>16.23</ele>
			</trkpt>
			<trkpt lat="53.10521" lon="6.67439">
				<ele>16.23</ele>
			</trkpt>
			<trkpt lat="53.10658" lon="6.67376">
				<ele>16.23</ele>
			</trkpt>
			<trkpt lat="53.10828" lon="6.67244">
				<ele>16.23</ele>
			</trkpt>
			<trkpt lat="53.10963" lon="6.67196">
				<ele>18.88</ele>
			</trkpt>
			<trkpt lat="53.11131" lon="6.67037">
				<ele>18.88</ele>
			</trkpt>
			<trkpt lat="53.11413" lon="6.6685">
				<ele>18.88</ele>
			</trkpt>
			<trkpt lat="53.11539" lon="6.6678">
				<ele>18.88</ele>
			</trkpt>
			<trkpt lat="53.11746" lon="6.6676">
				<ele>14.43</ele>
			</trkpt>
			<trkpt lat="53.11746" lon="6.6676">
				<ele>14.43</ele>
			</trkpt>
			<trkpt lat="53.11774" lon="6.6676">
				<ele>14.43</ele>
			</trkpt>
			<trkpt lat="53.11625" lon="6.66142">
				<ele>14.43</ele>
			</trkpt>
			<trkpt lat="53.11561" lon="6.65929">
				<ele>12.46</ele>
			</trkpt>
			<trkpt lat="53.1154" lon="6.65916">
				<ele>12.46</ele>
			</trkpt>
			<trkpt lat="53.115" lon="6.65918">
				<ele>12.46</ele>
			</trkpt>
			<trkpt lat="53.11396" lon="6.65994">
				<ele>12.46</ele>
			</trkpt>
			<trkpt lat="53.11342" lon="6.65802">
				<ele>12.68</ele>
			</trkpt>
			<trkpt lat="53.11304" lon="6.65696">
				<ele>12.68</ele>
			</trkpt>
			<trkpt lat="53.11293" lon="6.65683">
				<ele>12.68</ele>
			</trkpt>
			<trkpt lat="53.11259" lon="6.6567">
				<ele>12.68</ele>
			</trkpt>
			<trkpt lat="53.11229" lon="6.65685">
				<ele>14.92</ele>
			</trkpt>
			<trkpt lat="53.11229" lon="6.65685">
				<ele>14.92</ele>
			</trkpt>
			<trkpt lat="53.11203" lon="6.65702">
				<ele>14.92</ele>
			</trkpt>
			<trkpt lat="53.11193" lon="6.65698">
				<ele>14.92</ele>
			</trkpt>
			<trkpt lat="53.11187" lon="6.65678">
				<ele>9.25</ele>
			</trkpt>
			<trkpt lat="53.11178" lon="6.65673">
				<ele>9.25</ele>
			</trkpt>
			<trkpt lat="53.1113" lon="6.65706">
				<ele>9.25</ele>
			</trkpt>
			<trkpt lat="53.11125" lon="6.65698">
				<ele>9.25</ele>
			</trkpt>
			<trkpt lat="53.11122" lon="6.65679">
				<ele>11.52</ele>
			</trkpt>
			<trkpt lat="53.1112" lon="6.65532">
				<ele>11.52</ele>
			</trkpt>
			<trkpt lat="53.11114" lon="6.65495">
				<ele>11.52</ele>
			</trkpt>
			<trkpt lat="53.11117" lon="6.65442">
				<ele>7</ele>
			</trkpt>
			<trkpt lat="53.11119" lon="6.65423">
				<ele>7</ele>
			</trkpt>
			<trkpt lat="53.11127" lon="6.65395">
				<ele>7</ele>
			</trkpt>
			<trkpt lat="53.11156" lon="6.65377">
				<ele>7</ele>
			</trkpt>
			<trkpt lat="53.11156" lon="6.65377">
				<ele>4.54</ele>
			</trkpt>
			<trkpt lat="53.1131" lon="6.65306">
				<ele>4.54</ele>
			</trkpt>
			<trkpt lat="53.11392" lon="6.65249">
				<ele>4.54</ele>
			</trkpt>
			<trkpt lat="53.11442" lon="6.6524">
				<ele>4.54</ele>
			</trkpt>
			<trkpt lat="53.12042" lon="6.64962">
				<ele>4.08</ele>
			</trkpt>
			<trkpt lat="53.12164" lon="6.64977">
				<ele>4.08</ele>
			</trkpt>
			<trkpt lat="53.12166" lon="6.64996">
				<ele>4.08</ele>
			</trkpt>
			<trkpt lat="53.12166" lon="6.64996">
				<ele>4.08</ele>
			</trkpt>
			<trkpt lat="53.12137" lon="6.648">
				<ele>5.4</ele>
			</trkpt>
			<trkpt lat="53.12016" lon="6.63827">
				<ele>5.4</ele>
			</trkpt>
			<trkpt lat="53.12029" lon="6.63813">
				<ele>5.4</ele>
			</trkpt>
			<trkpt lat="53.12065" lon="6.63831">
				<ele>5.4</ele>
			</trkpt>
			<trkpt lat="53.12065" lon="6.63831">
				<ele>1.77</ele>
			</trkpt>
			<trkpt lat="53.12293" lon="6.63971">
				<ele>1.77</ele>
			</trkpt>
			<trkpt lat="53.12869" lon="6.64909">
				<ele>1.77</ele>
			</trkpt>
			<trkpt lat="53.12858" lon="6.64892">
				<ele>1.77</ele>
			</trkpt>
			<trkpt lat="53.12858" lon="6.64892">
				<ele>4.39</ele>
			</trkpt>
			<trkpt lat="53.12895" lon="6.64951">
				<ele>4.39</ele>
			</trkpt>
			<trkpt lat="53.12919" lon="6.64978">
				<ele>4.39</ele>
			</trkpt>
			<trkpt lat="53.12941" lon="6.65024">
				<ele>4.39</ele>
			</trkpt>
			<trkpt lat="53.13077" lon="6.64812">
				<ele>10.63</ele>
			</trkpt>
			<trkpt lat="53.13091" lon="6.64783">
				<ele>10.63</ele>
			</trkpt>
			<trkpt lat="53.1309" lon="6.64776">
				<ele>10.63</ele>
			</trkpt>
			<trkpt lat="53.13097" lon="6.64768">
				<ele>10.63</ele>
			</trkpt>
			<trkpt lat="53.13104" lon="6.64766">
				<ele>11.92</ele>
			</trkpt>
			<trkpt lat="53.13177" lon="6.64651">
				<ele>11.92</ele>
			</trkpt>
			<trkpt lat="53.13177" lon="6.64651">
				<ele>11.92</ele>
			</trkpt>
			<trkpt lat="53.13288" lon="6.64478">
				<ele>11.92</ele>
			</trkpt>
			<trkpt lat="53.13313" lon="6.64523">
				<ele>9</ele>
			</trkpt>
			<trkpt lat="53.13354" lon="6.64465">
				<ele>9</ele>
			</trkpt>
			<trkpt lat="53.13354" lon="6.64465">
				<ele>9</ele>
			</trkpt>
			<trkpt lat="53.13313" lon="6.64523">
				<ele>9</ele>
			</trkpt>
			<trkpt lat="53.13294" lon="6.64488">
				<ele>6</ele>
			</trkpt>
			<trkpt lat="53.13431" lon="6.6428">
				<ele>6</ele>
			</trkpt>
			<trkpt lat="53.13551" lon="6.64128">
				<ele>6</ele>
			</trkpt>
			<trkpt lat="53.13557" lon="6.64114">
				<ele>6</ele>
			</trkpt>
			<trkpt lat="53.13587" lon="6.64082">
				<ele>6.3</ele>
			</trkpt>
			<trkpt lat="53.13683" lon="6.63967">
				<ele>6.3</ele>
			</trkpt>
			<trkpt lat="53.13683" lon="6.63967">
				<ele>6.3</ele>
			</trkpt>
			<trkpt lat="53.13673" lon="6.63979">
				<ele>6.3</ele>
			</trkpt>
			<trkpt lat="53.13676" lon="6.64036">
				<ele>7</ele>
			</trkpt>
			<trkpt lat="53.13681" lon="6.6405">
				<ele>7</ele>
			</trkpt>
			<trkpt lat="53.13677" lon="6.64103">
				<ele>7</ele>
			</trkpt>
			<trkpt lat="53.13679" lon="6.64111">
				<ele>7</ele>
			</trkpt>
			<trkpt lat="53.1368" lon="6.64173">
				<ele>6.31</ele>
			</trkpt>
			<trkpt lat="53.13672" lon="6.6423">
				<ele>6.31</ele>
			</trkpt>
			<trkpt lat="53.13695" lon="6.64401">
				<ele>6.31</ele>
			</trkpt>
			<trkpt lat="53.13704" lon="6.64439">
				<ele>6.31</ele>
			</trkpt>
			<trkpt lat="53.13718" lon="6.64467">
				<ele>7.8</ele>
			</trkpt>
			<trkpt lat="53.13741" lon="6.645">
				<ele>7.8</ele>
			</trkpt>
			<trkpt lat="53.13763" lon="6.64521">
				<ele>7.8</ele>
			</trkpt>
			<trkpt lat="53.13788" lon="6.64535">
				<ele>7.8</ele>
			</trkpt>
			<trkpt lat="53.13862" lon="6.64547">
				<ele>5.99</ele>
			</trkpt>
			<trkpt lat="53.13866" lon="6.64551">
				<ele>5.99</ele>
			</trkpt>
			<trkpt lat="53.13872" lon="6.64567">
				<ele>5.99</ele>
			</trkpt>
			<trkpt lat="53.13881" lon="6.64655">
				<ele>5.99</ele>
			</trkpt>
			<trkpt lat="53.13885" lon="6.64675">
				<ele>6.9</ele>
			</trkpt>
			<trkpt lat="53.13931" lon="6.64822">
				<ele>6.9</ele>
			</trkpt>
			<trkpt lat="53.13931" lon="6.64822">
				<ele>6.9</ele>
			</trkpt>
			<trkpt lat="53.13928" lon="6.64811">
				<ele>10.41</ele>
			</trkpt>
			<trkpt lat="53.13999" lon="6.64813">
				<ele>10.41</ele>
			</trkpt>
			<trkpt lat="53.14033" lon="6.64756">
				<ele>10.41</ele>
			</trkpt>
			<trkpt lat="53.14039" lon="6.64673">
				<ele>10.41</ele>
			</trkpt>
			<trkpt lat="53.14143" lon="6.64546">
				<ele>7.01</ele>
			</trkpt>
			<trkpt lat="53.14182" lon="6.64512">
				<ele>7.01</ele>
			</trkpt>
			<trkpt lat="53.14247" lon="6.64484">
				<ele>7.01</ele>
			</trkpt>
			<trkpt lat="53.14403" lon="6.64331">
				<ele>7.01</ele>
			</trkpt>
			<trkpt lat="53.14403" lon="6.64331">
				<ele>12</ele>
			</trkpt>
			<trkpt lat="53.14416" lon="6.64321">
				<ele>12</ele>
			</trkpt>
			<trkpt lat="53.14519" lon="6.64353">
				<ele>12</ele>
			</trkpt>
			<trkpt lat="53.14601" lon="6.64332">
				<ele>12</ele>
			</trkpt>
			<trkpt lat="53.14742" lon="6.64239">
				<ele>4.86</ele>
			</trkpt>
			<trkpt lat="53.1494" lon="6.64058">
				<ele>4.86</ele>
			</trkpt>
			<trkpt lat="53.15022" lon="6.64017">
				<ele>4.86</ele>
			</trkpt>
			<trkpt lat="53.15077" lon="6.6402">
				<ele>4.86</ele>
			</trkpt>
			<trkpt lat="53.15185" lon="6.6408">
				<ele>2.61</ele>
			</trkpt>
			<trkpt lat="53.15344" lon="6.64027">
				<ele>2.61</ele>
			</trkpt>
			<trkpt lat="53.1535" lon="6.64009">
				<ele>2.61</ele>
			</trkpt>
			<trkpt lat="53.15342" lon="6.63996">
				<ele>2.61</ele>
			</trkpt>
			<trkpt lat="53.15342" lon="6.63996">
				<ele>2</ele>
			</trkpt>
			<trkpt lat="53.15292" lon="6.63846">
				<ele>2</ele>
			</trkpt>
			<trkpt lat="53.1522" lon="6.63808">
				<ele>2</ele>
			</trkpt>
			<trkpt lat="53.15093" lon="6.6368">
				<ele>2</ele>
			</trkpt>
			<trkpt lat="53.15083" lon="6.63657">
				<ele>7.55</ele>
			</trkpt>
			<trkpt lat="53.15063" lon="6.63549">
				<ele>7.55</ele>
			</trkpt>
			<trkpt lat="53.15049" lon="6.63523">
				<ele>7.55</ele>
			</trkpt>
			<trkpt lat="53.14809" lon="6.63389">
				<ele>7.55</ele>
			</trkpt>
			<trkpt lat="53.14731" lon="6.63373">
				<ele>10.55</ele>
			</trkpt>
			<trkpt lat="53.14731" lon="6.63373">
				<ele>10.55</ele>
			</trkpt>
			<trkpt lat="53.14703" lon="6.63368">
				<ele>10.55</ele>
			</trkpt>
			<trkpt lat="53.14703" lon="6.63214">
				<ele>10.55</ele>
			</trkpt>
			<trkpt lat="53.14835" lon="6.63203">
				<ele>5.87</ele>
			</trkpt>
			<trkpt lat="53.14871" lon="6.63181">
				<ele>5.87</ele>
			</trkpt>
			<trkpt lat="53.1504" lon="6.63005">
				<ele>5.87</ele>
			</trkpt>
			<trkpt lat="53.15073" lon="6.62984">
				<ele>5.87</ele>
			</trkpt>
			<trkpt lat="53.15134" lon="6.62906">
				<ele>3.45</ele>
			</trkpt>
			<trkpt lat="53.15153" lon="6.62895">
				<ele>3.45</ele>
			</trkpt>
			<trkpt lat="53.15153" lon="6.62895">
				<ele>3.45</ele>
			</trkpt>
			<trkpt lat="53.15038" lon="6.62538">
				<ele>3.45</ele>
			</trkpt>
			<trkpt lat="53.15008" lon="6.6238">
				<ele>2.57</ele>
			</trkpt>
			<trkpt lat="53.14969" lon="6.62405">
				<ele>2.57</ele>
			</trkpt>
			<trkpt lat="53.14935" lon="6.62422">
				<ele>2.57</ele>
			</trkpt>
			<trkpt lat="53.14843" lon="6.62442">
				<ele>2.57</ele>
			</trkpt>
			<trkpt lat="53.14843" lon="6.62403">
				<ele>3.04</ele>
			</trkpt>
			<trkpt lat="53.14843" lon="6.62403">
				<ele>3.04</ele>
			</trkpt>
			<trkpt lat="53.14845" lon="6.62283">
				<ele>3.04</ele>
			</trkpt>
			<trkpt lat="53.14843" lon="6.62179">
				<ele>3.04</ele>
			</trkpt>
			<trkpt lat="53.14827" lon="6.61749">
				<ele>2.41</ele>
			</trkpt>
			<trkpt lat="53.14822" lon="6.61686">
				<ele>2.41</ele>
			</trkpt>
			<trkpt lat="53.14825" lon="6.61678">
				<ele>2.41</ele>
			</trkpt>
			<trkpt lat="53.14832" lon="6.61672">
				<ele>2.41</ele>
			</trkpt>
			<trkpt lat="53.14894" lon="6.61659">
				<ele>6.14</ele>
			</trkpt>
			<trkpt lat="53.14969" lon="6.61652">
				<ele>6.14</ele>
			</trkpt>
			<trkpt lat="53.15028" lon="6.61607">
				<ele>6.14</ele>
			</trkpt>
			<trkpt lat="53.1502" lon="6.61546">
				<ele>6.14</ele>
			</trkpt>
			<trkpt lat="53.15075" lon="6.61504">
				<ele>2.11</ele>
			</trkpt>
			<trkpt lat="53.15082" lon="6.61534">
				<ele>2.11</ele>
			</trkpt>
			<trkpt lat="53.15082" lon="6.61534">
				<ele>2.11</ele>
			</trkpt>
			<trkpt lat="53.15075" lon="6.61504">
				<ele>2.11</ele>
			</trkpt>
			<trkpt lat="53.15092" lon="6.61491">
				<ele>3.55</ele>
			</trkpt>
			<trkpt lat="53.15081" lon="6.61452">
				<ele>3.55</ele>
			</trkpt>
			<trkpt lat="53.15057" lon="6.61301">
				<ele>3.55</ele>
			</trkpt>
			<trkpt lat="53.15042" lon="6.6119">
				<ele>2.36</ele>
			</trkpt>
			<trkpt lat="53.1503" lon="6.61183">
				<ele>2.36</ele>
			</trkpt>
			<trkpt lat="53.14877" lon="6.61183">
				<ele>2.36</ele>
			</trkpt>
			<trkpt lat="53.14877" lon="6.61183">
				<ele>2.36</ele>
			</trkpt>
			<trkpt lat="53.14736" lon="6.61184">
				<ele>1.88</ele>
			</trkpt>
			<trkpt lat="53.1467" lon="6.61203">
				<ele>1.88</ele>
			</trkpt>
			<trkpt lat="53.14144" lon="6.61598">
				<ele>1.88</ele>
			</trkpt>
			<trkpt lat="53.14144" lon="6.61598">
				<ele>1.88</ele>
			</trkpt>
			<trkpt lat="53.1412" lon="6.61623">
				<ele>0</ele>
			</trkpt>
			<trkpt lat="53.14027" lon="6.61181">
				<ele>0</ele>
			</trkpt>
			<trkpt lat="53.14008" lon="6.6092">
				<ele>0</ele>
			</trkpt>
			<trkpt lat="53.13997" lon="6.60657">
				<ele>0</ele>
			</trkpt>
			<trkpt lat="53.13936" lon="6.60381">
				<ele>0</ele>
			</trkpt>
			<trkpt lat="53.14257" lon="6.60182">
				<ele>0</ele>
			</trkpt>
			<trkpt lat="53.14371" lon="6.60151">
				<ele>0</ele>
			</trkpt>
			<trkpt lat="53.14438" lon="6.60149">
				<ele>0</ele>
			</trkpt>
			<trkpt lat="53.14504" lon="6.60166">
				<ele>2.97</ele>
			</trkpt>
			<trkpt lat="53.1453" lon="6.60059">
				<ele>2.97</ele>
			</trkpt>
			<trkpt lat="53.14554" lon="6.60004">
				<ele>2.97</ele>
			</trkpt>
			<trkpt lat="53.14577" lon="6.59981">
				<ele>2.97</ele>
			</trkpt>
			<trkpt lat="53.1471" lon="6.59904">
				<ele>-1.92</ele>
			</trkpt>
			<trkpt lat="53.1471" lon="6.59904">
				<ele>-1.92</ele>
			</trkpt>
			<trkpt lat="53.14752" lon="6.59879">
				<ele>-1.92</ele>
			</trkpt>
			<trkpt lat="53.14757" lon="6.59866">
				<ele>-1.92</ele>
			</trkpt>
			<trkpt lat="53.14717" lon="6.59665">
				<ele>-2</ele>
			</trkpt>
			<trkpt lat="53.14892" lon="6.59565">
				<ele>-2</ele>
			</trkpt>
			<trkpt lat="53.15211" lon="6.5926">
				<ele>-2</ele>
			</trkpt>
			<trkpt lat="53.15411" lon="6.5904">
				<ele>-2</ele>
			</trkpt>
			<trkpt lat="53.15333" lon="6.58853">
				<ele>-1.31</ele>
			</trkpt>
			<trkpt lat="53.15333" lon="6.58853">
				<ele>-1.31</ele>
			</trkpt>
			<trkpt lat="53.1522" lon="6.58585">
				<ele>-1.31</ele>
			</trkpt>
			<trkpt lat="53.15177" lon="6.5838">
				<ele>-1.31</ele>
			</trkpt>
			<trkpt lat="53.15117" lon="6.58069">
				<ele>-0.93</ele>
			</trkpt>
			<trkpt lat="53.15117" lon="6.58069">
				<ele>-0.93</ele>
			</trkpt>
			<trkpt lat="53.15106" lon="6.58015">
				<ele>-0.93</ele>
			</trkpt>
			<trkpt lat="53.15105" lon="6.58002">
				<ele>-0.93</ele>
			</trkpt>
			<trkpt lat="53.15107" lon="6.57994">
				<ele>1.77</ele>
			</trkpt>
			<trkpt lat="53.15113" lon="6.57987">
				<ele>1.77</ele>
			</trkpt>
			<trkpt lat="53.15166" lon="6.57957">
				<ele>1.77</ele>
			</trkpt>
			<trkpt lat="53.15176" lon="6.57948">
				<ele>1.77</ele>
			</trkpt>
			<trkpt lat="53.15169" lon="6.57928">
				<ele>4</ele>
			</trkpt>
			<trkpt lat="53.15165" lon="6.57897">
				<ele>4</ele>
			</trkpt>
			<trkpt lat="53.15154" lon="6.57582">
				<ele>4</ele>
			</trkpt>
			<trkpt lat="53.15143" lon="6.57397">
				<ele>4</ele>
			</trkpt>
			<trkpt lat="53.15164" lon="6.57398">
				<ele>3.77</ele>
			</trkpt>
			<trkpt lat="53.15164" lon="6.57398">
				<ele>3.77</ele>
			</trkpt>
			<trkpt lat="53.15143" lon="6.57397">
				<ele>3.77</ele>
			</trkpt>
			<trkpt lat="53.15133" lon="6.57387">
				<ele>3.77</ele>
			</trkpt>
			<trkpt lat="53.15107" lon="6.57393">
				<ele>2</ele>
			</trkpt>
			<trkpt lat="53.15093" lon="6.57388">
				<ele>2</ele>
			</trkpt>
			<trkpt lat="53.15067" lon="6.57108">
				<ele>2</ele>
			</trkpt>
			<trkpt lat="53.15055" lon="6.57067">
				<ele>2</ele>
			</trkpt>
			<trkpt lat="53.1505" lon="6.56969">
				<ele>0</ele>
			</trkpt>
			<trkpt lat="53.15019" lon="6.5697">
				<ele>0</ele>
			</trkpt>
			<trkpt lat="53.1502" lon="6.56758">
				<ele>0</ele>
			</trkpt>
			<trkpt lat="53.15133" lon="6.56749">
				<ele>0</ele>
			</trkpt>
			<trkpt lat="53.15173" lon="6.56724">
				<ele>-0.51</ele>
			</trkpt>
			<trkpt lat="53.15188" lon="6.56706">
				<ele>-0.51</ele>
			</trkpt>
			<trkpt lat="53.15186" lon="6.56604">
				<ele>-0.51</ele>
			</trkpt>
			<trkpt lat="53.15195" lon="6.56574">
				<ele>-0.51</ele>
			</trkpt>
			<trkpt lat="53.15161" lon="6.56556">
				<ele>-2.6</ele>
			</trkpt>
			<trkpt lat="53.15143" lon="6.56538">
				<ele>-2.6</ele>
			</trkpt>
			<trkpt lat="53.15112" lon="6.5647">
				<ele>-2.6</ele>
			</trkpt>
			<trkpt lat="53.15103" lon="6.56424">
				<ele>-1.73</ele>
			</trkpt>
			<trkpt lat="53.15099" lon="6.56286">
				<ele>-1.73</ele>
			</trkpt>
			<trkpt lat="53.15109" lon="6.56253">
				<ele>-1.73</ele>
			</trkpt>
			<trkpt lat="53.1514" lon="6.56201">
				<ele>-1.73</ele>
			</trkpt>
			<trkpt lat="53.15152" lon="6.56151">
				<ele>2.33</ele>
			</trkpt>
			<trkpt lat="53.15054" lon="6.55712">
				<ele>2.33</ele>
			</trkpt>
			<trkpt lat="53.15067" lon="6.55696">
				<ele>2.33</ele>
			</trkpt>
			<trkpt lat="53.15067" lon="6.55696">
				<ele>2.33</ele>
			</trkpt>
			<trkpt lat="53.15054" lon="6.55712">
				<ele>-1</ele>
			</trkpt>
			<trkpt lat="53.15044" lon="6.5567">
				<ele>-1</ele>
			</trkpt>
			<trkpt lat="53.15192" lon="6.55516">
				<ele>-1</ele>
			</trkpt>
			<trkpt lat="53.15357" lon="6.55284">
				<ele>-1</ele>
			</trkpt>
			<trkpt lat="53.15491" lon="6.55152">
				<ele>2.42</ele>
			</trkpt>
			<trkpt lat="53.15573" lon="6.55059">
				<ele>2.42</ele>
			</trkpt>
			<trkpt lat="53.1565" lon="6.55011">
				<ele>2.42</ele>
			</trkpt>
			<trkpt lat="53.15614" lon="6.5477">
				<ele>2.42</ele>
			</trkpt>
			<trkpt lat="53.15627" lon="6.54125">
				<ele>2.75</ele>
			</trkpt>
			<trkpt lat="53.1562" lon="6.54111">
				<ele>2.75</ele>
			</trkpt>
			<trkpt lat="53.15618" lon="6.54029">
				<ele>2.75</ele>
			</trkpt>
			<trkpt lat="53.15594" lon="6.53837">
				<ele>2.75</ele>
			</trkpt>
			<trkpt lat="53.15545" lon="6.53824">
				<ele>3.1</ele>
			</trkpt>
			<trkpt lat="53.15545" lon="6.53824">
				<ele>3.1</ele>
			</trkpt>
			<trkpt lat="53.15476" lon="6.53798">
				<ele>3.1</ele>
			</trkpt>
			<trkpt lat="53.15331" lon="6.53663">
				<ele>3.1</ele>
			</trkpt>
			<trkpt lat="53.15295" lon="6.5365">
				<ele>1.94</ele>
			</trkpt>
			<trkpt lat="53.1512" lon="6.5371">
				<ele>1.94</ele>
			</trkpt>
			<trkpt lat="53.14863" lon="6.53838">
				<ele>1.94</ele>
			</trkpt>
			<trkpt lat="53.14831" lon="6.53858">
				<ele>1.94</ele>
			</trkpt>
			<trkpt lat="53.14791" lon="6.5392">
				<ele>2.41</ele>
			</trkpt>
			<trkpt lat="53.14716" lon="6.54118">
				<ele>2.41</ele>
			</trkpt>
			<trkpt lat="53.14365" lon="6.54212">
				<ele>2.41</ele>
			</trkpt>
			<trkpt lat="53.1427" lon="6.54269">
				<ele>2.41</ele>
			</trkpt>
			<trkpt lat="53.14264" lon="6.54297">
				<ele>1.92</ele>
			</trkpt>
			<trkpt lat="53.14276" lon="6.54469">
				<ele>1.92</ele>
			</trkpt>
			<trkpt lat="53.14276" lon="6.54469">
				<ele>1.92</ele>
			</trkpt>
			<trkpt lat="53.1428" lon="6.54528">
				<ele>1.92</ele>
			</trkpt>
			<trkpt lat="53.14016" lon="6.54577">
				<ele>2</ele>
			</trkpt>
			<trkpt lat="53.14009" lon="6.54522">
				<ele>2</ele>
			</trkpt>
			<trkpt lat="53.13999" lon="6.54515">
				<ele>2</ele>
			</trkpt>
			<trkpt lat="53.13936" lon="6.54049">
				<ele>2</ele>
			</trkpt>
			<trkpt lat="53.13877" lon="6.53837">
				<ele>3.82</ele>
			</trkpt>
			<trkpt lat="53.13875" lon="6.53735">
				<ele>3.82</ele>
			</trkpt>
			<trkpt lat="53.13884" lon="6.53681">
				<ele>3.82</ele>
			</trkpt>
			<trkpt lat="53.13909" lon="6.53615">
				<ele>3.82</ele>
			</trkpt>
			<trkpt lat="53.13978" lon="6.535">
				<ele>1.5</ele>
			</trkpt>
			<trkpt lat="53.13994" lon="6.5337">
				<ele>1.5</ele>
			</trkpt>
			<trkpt lat="53.13971" lon="6.53275">
				<ele>1.5</ele>
			</trkpt>
			<trkpt lat="53.13866" lon="6.53038">
				<ele>1.5</ele>
			</trkpt>
			<trkpt lat="53.13851" lon="6.52934">
				<ele>1</ele>
			</trkpt>
			<trkpt lat="53.13846" lon="6.52857">
				<ele>1</ele>
			</trkpt>
			<trkpt lat="53.13863" lon="6.52712">
				<ele>1</ele>
			</trkpt>
			<trkpt lat="53.13861" lon="6.5264">
				<ele>1</ele>
			</trkpt>
			<trkpt lat="53.13752" lon="6.51769">
				<ele>0.35</ele>
			</trkpt>
			<trkpt lat="53.13767" lon="6.51537">
				<ele>0.35</ele>
			</trkpt>
			<trkpt lat="53.13816" lon="6.51382">
				<ele>0.35</ele>
			</trkpt>
			<trkpt lat="53.13818" lon="6.51295">
				<ele>0.35</ele>
			</trkpt>
			<trkpt lat="53.13825" lon="6.5129">
				<ele>0.53</ele>
			</trkpt>
			<trkpt lat="53.13808" lon="6.51218">
				<ele>0.53</ele>
			</trkpt>
			<trkpt lat="53.1378" lon="6.51243">
				<ele>0.53</ele>
			</trkpt>
			<trkpt lat="53.13768" lon="6.51169">
				<ele>0.53</ele>
			</trkpt>
			<trkpt lat="53.13768" lon="6.51169">
				<ele>9.93</ele>
			</trkpt>
			<trkpt lat="53.13625" lon="6.49899">
				<ele>9.93</ele>
			</trkpt>
			<trkpt lat="53.13631" lon="6.49862">
				<ele>9.93</ele>
			</trkpt>
			<trkpt lat="53.13644" lon="6.49834">
				<ele>11.97</ele>
			</trkpt>
			<trkpt lat="53.13715" lon="6.49778">
				<ele>11.97</ele>
			</trkpt>
			<trkpt lat="53.13777" lon="6.49761">
				<ele>11.97</ele>
			</trkpt>
			<trkpt lat="53.13777" lon="6.49761">
				<ele>11.97</ele>
			</trkpt>
			<trkpt lat="53.13775" lon="6.4955">
				<ele>3.39</ele>
			</trkpt>
			<trkpt lat="53.13838" lon="6.49425">
				<ele>3.39</ele>
			</trkpt>
			<trkpt lat="53.13741" lon="6.48933">
				<ele>3.39</ele>
			</trkpt>
			<trkpt lat="53.13915" lon="6.48866">
				<ele>3.39</ele>
			</trkpt>
			<trkpt lat="53.13794" lon="6.46415">
				<ele>8</ele>
			</trkpt>
			<trkpt lat="53.1337" lon="6.46196">
				<ele>8</ele>
			</trkpt>
			<trkpt lat="53.12853" lon="6.45654">
				<ele>8</ele>
			</trkpt>
			<trkpt lat="53.12677" lon="6.45559">
				<ele>8</ele>
			</trkpt>
			<trkpt lat="53.12488" lon="6.45545">
				<ele>3.92</ele>
			</trkpt>
			<trkpt lat="53.12412" lon="6.44863">
				<ele>3.92</ele>
			</trkpt>
			<trkpt lat="53.12295" lon="6.446">
				<ele>3.92</ele>
			</trkpt>
			<trkpt lat="53.12473" lon="6.44413">
				<ele>3.92</ele>
			</trkpt>
			<trkpt lat="53.12216" lon="6.43531">
				<ele>3.99</ele>
			</trkpt>
			<trkpt lat="53.12296" lon="6.43461">
				<ele>3.99</ele>
			</trkpt>
			<trkpt lat="53.12364" lon="6.42864">
				<ele>3.99</ele>
			</trkpt>
			<trkpt lat="53.12407" lon="6.42811">
				<ele>3.99</ele>
			</trkpt>
			<trkpt lat="53.12407" lon="6.42811">
				<ele>3.79</ele>
			</trkpt>
			<trkpt lat="53.12406" lon="6.42822">
				<ele>3.79</ele>
			</trkpt>
			<trkpt lat="53.12387" lon="6.42832">
				<ele>3.79</ele>
			</trkpt>
			<trkpt lat="53.12342" lon="6.42573">
				<ele>3.79</ele>
			</trkpt>
			<trkpt lat="53.12327" lon="6.42518">
				<ele>7.18</ele>
			</trkpt>
			<trkpt lat="53.12317" lon="6.42502">
				<ele>7.18</ele>
			</trkpt>
			<trkpt lat="53.12139" lon="6.42305">
				<ele>7.18</ele>
			</trkpt>
			<trkpt lat="53.1198" lon="6.42113">
				<ele>7.18</ele>
			</trkpt>
			<trkpt lat="53.1198" lon="6.42113">
				<ele>5.81</ele>
			</trkpt>
			<trkpt lat="53.11952" lon="6.42079">
				<ele>5.81</ele>
			</trkpt>
			<trkpt lat="53.11961" lon="6.42065">
				<ele>5.81</ele>
			</trkpt>
			<trkpt lat="53.12585" lon="6.41421">
				<ele>5.81</ele>
			</trkpt>
			<trkpt lat="53.12595" lon="6.41397">
				<ele>5.42</ele>
			</trkpt>
			<trkpt lat="53.12629" lon="6.41366">
				<ele>5.42</ele>
			</trkpt>
			<trkpt lat="53.12642" lon="6.41446">
				<ele>5.42</ele>
			</trkpt>
			<trkpt lat="53.127" lon="6.41424">
				<ele>5.42</ele>
			</trkpt>
			<trkpt lat="53.12692" lon="6.41374">
				<ele>3.66</ele>
			</trkpt>
			<trkpt lat="53.12668" lon="6.41369">
				<ele>3.66</ele>
			</trkpt>
			<trkpt lat="53.12655" lon="6.41298">
				<ele>3.66</ele>
			</trkpt>
			<trkpt lat="53.12655" lon="6.41298">
				<ele>3.66</ele>
			</trkpt>
			<trkpt lat="53.12662" lon="6.41321">
				<ele>3.75</ele>
			</trkpt>
			<trkpt lat="53.12668" lon="6.41369">
				<ele>3.75</ele>
			</trkpt>
			<trkpt lat="53.12692" lon="6.41374">
				<ele>3.75</ele>
			</trkpt>
			<trkpt lat="53.12695" lon="6.41381">
				<ele>3.75</ele>
			</trkpt>
			<trkpt lat="53.127" lon="6.41424">
				<ele>2</ele>
			</trkpt>
			<trkpt lat="53.12642" lon="6.41446">
				<ele>2</ele>
			</trkpt>
			<trkpt lat="53.12619" lon="6.41306">
				<ele>2</ele>
			</trkpt>
			<trkpt lat="53.12605" lon="6.41255">
				<ele>2</ele>
			</trkpt>
			<trkpt lat="53.12594" lon="6.41232">
				<ele>4</ele>
			</trkpt>
			<trkpt lat="53.12465" lon="6.41049">
				<ele>4</ele>
			</trkpt>
			<trkpt lat="53.12328" lon="6.40869">
				<ele>4</ele>
			</trkpt>
			<trkpt lat="53.12328" lon="6.40869">
				<ele>4</ele>
			</trkpt>
			<trkpt lat="53.12311" lon="6.40841">
				<ele>5.83</ele>
			</trkpt>
			<trkpt lat="53.11822" lon="6.4138">
				<ele>5.83</ele>
			</trkpt>
			<trkpt lat="53.11822" lon="6.4138">
				<ele>5.83</ele>
			</trkpt>
			<trkpt lat="53.11762" lon="6.41439">
				<ele>5.83</ele>
			</trkpt>
			<trkpt lat="53.11726" lon="6.41488">
				<ele>5.04</ele>
			</trkpt>
			<trkpt lat="53.1163" lon="6.41259">
				<ele>5.04</ele>
			</trkpt>
			<trkpt lat="53.11618" lon="6.41255">
				<ele>5.04</ele>
			</trkpt>
			<trkpt lat="53.1161" lon="6.41233">
				<ele>5.04</ele>
			</trkpt>
			<trkpt lat="53.11698" lon="6.41137">
				<ele>2.04</ele>
			</trkpt>
			<trkpt lat="53.11698" lon="6.41137">
				<ele>2.04</ele>
			</trkpt>
			<trkpt lat="53.11246" lon="6.41622">
				<ele>2.04</ele>
			</trkpt>
			<trkpt lat="53.11215" lon="6.41666">
				<ele>4</ele>
			</trkpt>
			<trkpt lat="53.11195" lon="6.4174">
				<ele>4</ele>
			</trkpt>
			<trkpt lat="53.11172" lon="6.41878">
				<ele>4</ele>
			</trkpt>
			<trkpt lat="53.11173" lon="6.4191">
				<ele>4</ele>
			</trkpt>
			<trkpt lat="53.11148" lon="6.42099">
				<ele>1.97</ele>
			</trkpt>
			<trkpt lat="53.11155" lon="6.42128">
				<ele>1.97</ele>
			</trkpt>
			<trkpt lat="53.11237" lon="6.42304">
				<ele>1.97</ele>
			</trkpt>
			<trkpt lat="53.1125" lon="6.42344">
				<ele>1.97</ele>
			</trkpt>
			<trkpt lat="53.11242" lon="6.42363">
				<ele>2.8</ele>
			</trkpt>
			<trkpt lat="53.11242" lon="6.42363">
				<ele>2.8</ele>
			</trkpt>
			<trkpt lat="53.1124" lon="6.42371">
				<ele>2.8</ele>
			</trkpt>
			<trkpt lat="53.11243" lon="6.42386">
				<ele>2.8</ele>
			</trkpt>
			<trkpt lat="53.11254" lon="6.42427">
				<ele>3.59</ele>
			</trkpt>
			<trkpt lat="53.11276" lon="6.4256">
				<ele>3.59</ele>
			</trkpt>
			<trkpt lat="53.11284" lon="6.42618">
				<ele>3.59</ele>
			</trkpt>
			<trkpt lat="53.11284" lon="6.42641">
				<ele>3.59</ele>
			</trkpt>
			<trkpt lat="53.11228" lon="6.42989">
				<ele>5.22</ele>
			</trkpt>
			<trkpt lat="53.11122" lon="6.43235">
				<ele>5.22</ele>
			</trkpt>
			<trkpt lat="53.11154" lon="6.43283">
				<ele>5.22</ele>
			</trkpt>
			<trkpt lat="53.11154" lon="6.43283">
				<ele>5.22</ele>
			</trkpt>
			<trkpt lat="53.11122" lon="6.43235">
				<ele>5.64</ele>
			</trkpt>
			<trkpt lat="53.11228" lon="6.42989">
				<ele>5.64</ele>
			</trkpt>
			<trkpt lat="53.11284" lon="6.43152">
				<ele>5.64</ele>
			</trkpt>
			<trkpt lat="53.11283" lon="6.43229">
				<ele>5.64</ele>
			</trkpt>
			<trkpt lat="53.11463" lon="6.43577">
				<ele>5.22</ele>
			</trkpt>
			<trkpt lat="53.115" lon="6.43615">
				<ele>5.22</ele>
			</trkpt>
			<trkpt lat="53.11407" lon="6.44099">
				<ele>5.22</ele>
			</trkpt>
			<trkpt lat="53.11411" lon="6.4415">
				<ele>5.22</ele>
			</trkpt>
			<trkpt lat="53.11443" lon="6.44171">
				<ele>5.02</ele>
			</trkpt>
			<trkpt lat="53.11443" lon="6.44171">
				<ele>5.02</ele>
			</trkpt>
			<trkpt lat="53.11418" lon="6.44155">
				<ele>5.02</ele>
			</trkpt>
			<trkpt lat="53.11415" lon="6.44171">
				<ele>5.02</ele>
			</trkpt>
			<trkpt lat="53.11356" lon="6.44282">
				<ele>11.78</ele>
			</trkpt>
			<trkpt lat="53.11328" lon="6.4431">
				<ele>11.78</ele>
			</trkpt>
			<trkpt lat="53.11301" lon="6.44381">
				<ele>11.78</ele>
			</trkpt>
			<trkpt lat="53.11402" lon="6.44482">
				<ele>11.78</ele>
			</trkpt>
			<trkpt lat="53.11404" lon="6.4451">
				<ele>9.84</ele>
			</trkpt>
			<trkpt lat="53.11386" lon="6.44636">
				<ele>9.84</ele>
			</trkpt>
			<trkpt lat="53.11383" lon="6.4481">
				<ele>9.84</ele>
			</trkpt>
			<trkpt lat="53.11362" lon="6.44855">
				<ele>9.84</ele>
			</trkpt>
			<trkpt lat="53.1146" lon="6.44976">
				<ele>17.15</ele>
			</trkpt>
			<trkpt lat="53.11488" lon="6.45047">
				<ele>17.15</ele>
			</trkpt>
			<trkpt lat="53.11515" lon="6.45165">
				<ele>17.15</ele>
			</trkpt>
			<trkpt lat="53.11514" lon="6.45308">
				<ele>17.15</ele>
			</trkpt>
			<trkpt lat="53.11523" lon="6.45362">
				<ele>14.39</ele>
			</trkpt>
			<trkpt lat="53.11537" lon="6.45396">
				<ele>14.39</ele>
			</trkpt>
			<trkpt lat="53.11524" lon="6.45421">
				<ele>14.39</ele>
			</trkpt>
			<trkpt lat="53.11447" lon="6.45512">
				<ele>14.39</ele>
			</trkpt>
			<trkpt lat="53.11386" lon="6.45496">
				<ele>13</ele>
			</trkpt>
			<trkpt lat="53.11386" lon="6.45496">
				<ele>13</ele>
			</trkpt>
			<trkpt lat="53.11184" lon="6.45439">
				<ele>13</ele>
			</trkpt>
			<trkpt lat="53.11008" lon="6.45065">
				<ele>13</ele>
			</trkpt>
			<trkpt lat="53.10833" lon="6.44515">
				<ele>14</ele>
			</trkpt>
			<trkpt lat="53.10823" lon="6.44506">
				<ele>14</ele>
			</trkpt>
			<trkpt lat="53.10821" lon="6.4427">
				<ele>14</ele>
			</trkpt>
			<trkpt lat="53.10839" lon="6.44222">
				<ele>14</ele>
			</trkpt>
			<trkpt lat="53.10791" lon="6.44105">
				<ele>7.89</ele>
			</trkpt>
			<trkpt lat="53.1091" lon="6.4394">
				<ele>7.89</ele>
			</trkpt>
			<trkpt lat="53.10938" lon="6.43733">
				<ele>7.89</ele>
			</trkpt>
			<trkpt lat="53.10871" lon="6.43618">
				<ele>7.89</ele>
			</trkpt>
			<trkpt lat="53.10848" lon="6.43527">
				<ele>9.49</ele>
			</trkpt>
			<trkpt lat="53.10851" lon="6.43484">
				<ele>9.49</ele>
			</trkpt>
			<trkpt lat="53.10894" lon="6.43427">
				<ele>9.49</ele>
			</trkpt>
			<trkpt lat="53.10897" lon="6.43138">
				<ele>11</ele>
			</trkpt>
			<trkpt lat="53.10798" lon="6.42896">
				<ele>11</ele>
			</trkpt>
			<trkpt lat="53.10798" lon="6.42896">
				<ele>11</ele>
			</trkpt>
			<trkpt lat="53.10771" lon="6.42833">
				<ele>11</ele>
			</trkpt>
			<trkpt lat="53.10756" lon="6.42825">
				<ele>12.17</ele>
			</trkpt>
			<trkpt lat="53.1049" lon="6.43034">
				<ele>12.17</ele>
			</trkpt>
			<trkpt lat="53.10359" lon="6.43053">
				<ele>12.17</ele>
			</trkpt>
			<trkpt lat="53.10305" lon="6.43082">
				<ele>12.17</ele>
			</trkpt>
			<trkpt lat="53.10171" lon="6.43212">
				<ele>12.88</ele>
			</trkpt>
			<trkpt lat="53.09921" lon="6.43266">
				<ele>12.88</ele>
			</trkpt>
			<trkpt lat="53.09816" lon="6.43305">
				<ele>12.88</ele>
			</trkpt>
			<trkpt lat="53.09788" lon="6.43339">
				<ele>12.88</ele>
			</trkpt>
			<trkpt lat="53.0949" lon="6.4398">
				<ele>14.56</ele>
			</trkpt>
			<trkpt lat="53.09619" lon="6.4408">
				<ele>14.56</ele>
			</trkpt>
			<trkpt lat="53.09627" lon="6.44101">
				<ele>14.56</ele>
			</trkpt>
			<trkpt lat="53.09556" lon="6.44405">
				<ele>14.56</ele>
			</trkpt>
			<trkpt lat="53.09504" lon="6.44556">
				<ele>7.15</ele>
			</trkpt>
			<trkpt lat="53.0951" lon="6.44576">
				<ele>7.15</ele>
			</trkpt>
			<trkpt lat="53.09449" lon="6.4474">
				<ele>7.15</ele>
			</trkpt>
			<trkpt lat="53.09488" lon="6.44858">
				<ele>7.15</ele>
			</trkpt>
			<trkpt lat="53.09499" lon="6.4494">
				<ele>9.18</ele>
			</trkpt>
			<trkpt lat="53.09428" lon="6.45434">
				<ele>9.18</ele>
			</trkpt>
			<trkpt lat="53.0943" lon="6.45602">
				<ele>9.18</ele>
			</trkpt>
			<trkpt lat="53.0941" lon="6.45722">
				<ele>9.18</ele>
			</trkpt>
			<trkpt lat="53.0941" lon="6.45722">
				<ele>7.77</ele>
			</trkpt>
			<trkpt lat="53.09403" lon="6.45773">
				<ele>7.77</ele>
			</trkpt>
			<trkpt lat="53.09396" lon="6.45794">
				<ele>7.77</ele>
			</trkpt>
			<trkpt lat="53.09351" lon="6.45855">
				<ele>7.77</ele>
			</trkpt>
			<trkpt lat="53.09305" lon="6.45905">
				<ele>4.46</ele>
			</trkpt>
			<trkpt lat="53.09279" lon="6.45939">
				<ele>4.46</ele>
			</trkpt>
			<trkpt lat="53.09262" lon="6.45968">
				<ele>4.46</ele>
			</trkpt>
			<trkpt lat="53.09238" lon="6.46034">
				<ele>4.46</ele>
			</trkpt>
			<trkpt lat="53.09218" lon="6.46067">
				<ele>4.08</ele>
			</trkpt>
			<trkpt lat="53.09215" lon="6.46081">
				<ele>4.08</ele>
			</trkpt>
			<trkpt lat="53.09217" lon="6.46168">
				<ele>4.08</ele>
			</trkpt>
			<trkpt lat="53.09215" lon="6.46316">
				<ele>4.08</ele>
			</trkpt>
			<trkpt lat="53.09198" lon="6.46367">
				<ele>4.99</ele>
			</trkpt>
			<trkpt lat="53.09161" lon="6.46448">
				<ele>4.99</ele>
			</trkpt>
			<trkpt lat="53.09157" lon="6.46462">
				<ele>4.99</ele>
			</trkpt>
			<trkpt lat="53.09153" lon="6.46566">
				<ele>4.99</ele>
			</trkpt>
			<trkpt lat="53.09151" lon="6.46585">
				<ele>4</ele>
			</trkpt>
			<trkpt lat="53.09146" lon="6.46599">
				<ele>4</ele>
			</trkpt>
			<trkpt lat="53.09137" lon="6.46615">
				<ele>4</ele>
			</trkpt>
			<trkpt lat="53.09098" lon="6.46661">
				<ele>4</ele>
			</trkpt>
			<trkpt lat="53.09077" lon="6.46708">
				<ele>3.58</ele>
			</trkpt>
			<trkpt lat="53.09077" lon="6.46708">
				<ele>3.58</ele>
			</trkpt>
			<trkpt lat="53.09058" lon="6.46746">
				<ele>3.58</ele>
			</trkpt>
			<trkpt lat="53.08904" lon="6.4657">
				<ele>3.58</ele>
			</trkpt>
			<trkpt lat="53.08899" lon="6.46556">
				<ele>5.71</ele>
			</trkpt>
			<trkpt lat="53.08881" lon="6.46555">
				<ele>5.71</ele>
			</trkpt>
			<trkpt lat="53.0882" lon="6.46572">
				<ele>5.71</ele>
			</trkpt>
			<trkpt lat="53.08525" lon="6.46693">
				<ele>5.71</ele>
			</trkpt>
			<trkpt lat="53.0849" lon="6.46701">
				<ele>8.57</ele>
			</trkpt>
			<trkpt lat="53.08419" lon="6.46648">
				<ele>8.57</ele>
			</trkpt>
			<trkpt lat="53.08369" lon="6.46554">
				<ele>8.57</ele>
			</trkpt>
			<trkpt lat="53.08363" lon="6.46502">
				<ele>8.57</ele>
			</trkpt>
			<trkpt lat="53.08363" lon="6.46502">
				<ele>7.95</ele>
			</trkpt>
			<trkpt lat="53.08369" lon="6.46323">
				<ele>7.95</ele>
			</trkpt>
			<trkpt lat="53.08453" lon="6.46174">
				<ele>7.95</ele>
			</trkpt>
			<trkpt lat="53.08421" lon="6.45823">
				<ele>7.95</ele>
			</trkpt>
			<trkpt lat="53.0834" lon="6.45413">
				<ele>17.14</ele>
			</trkpt>
			<trkpt lat="53.08334" lon="6.45218">
				<ele>17.14</ele>
			</trkpt>
			<trkpt lat="53.08429" lon="6.44604">
				<ele>17.14</ele>
			</trkpt>
			<trkpt lat="53.07839" lon="6.43379">
				<ele>10.74</ele>
			</trkpt>
			<trkpt lat="53.07839" lon="6.43379">
				<ele>10.74</ele>
			</trkpt>
			<trkpt lat="53.07633" lon="6.43871">
				<ele>10.74</ele>
			</trkpt>
			<trkpt lat="53.07461" lon="6.4416">
				<ele>10.74</ele>
			</trkpt>
			<trkpt lat="53.07396" lon="6.44582">
				<ele>6.03</ele>
			</trkpt>
			<trkpt lat="53.06913" lon="6.4498">
				<ele>6.03</ele>
			</trkpt>
			<trkpt lat="53.06885" lon="6.4502">
				<ele>6.03</ele>
			</trkpt>
			<trkpt lat="53.06886" lon="6.44991">
				<ele>6.03</ele>
			</trkpt>
			<trkpt lat="53.06886" lon="6.44991">
				<ele>12.52</ele>
			</trkpt>
			<trkpt lat="53.06854" lon="6.45047">
				<ele>12.52</ele>
			</trkpt>
			<trkpt lat="53.06798" lon="6.45062">
				<ele>12.52</ele>
			</trkpt>
			<trkpt lat="53.06767" lon="6.4562">
				<ele>12.52</ele>
			</trkpt>
			<trkpt lat="53.06791" lon="6.45638">
				<ele>9.01</ele>
			</trkpt>
			<trkpt lat="53.06862" lon="6.4644">
				<ele>9.01</ele>
			</trkpt>
			<trkpt lat="53.06735" lon="6.46582">
				<ele>9.01</ele>
			</trkpt>
			<trkpt lat="53.0695" lon="6.4721">
				<ele>9.01</ele>
			</trkpt>
			<trkpt lat="53.07912" lon="6.48784">
				<ele>14.36</ele>
			</trkpt>
			<trkpt lat="53.07948" lon="6.48788">
				<ele>14.36</ele>
			</trkpt>
			<trkpt lat="53.08002" lon="6.48878">
				<ele>14.36</ele>
			</trkpt>
			<trkpt lat="53.0812" lon="6.49156">
				<ele>14.36</ele>
			</trkpt>
			<trkpt lat="53.08162" lon="6.49588">
				<ele>9.06</ele>
			</trkpt>
			<trkpt lat="53.08529" lon="6.51208">
				<ele>9.06</ele>
			</trkpt>
			<trkpt lat="53.08627" lon="6.51577">
				<ele>9.06</ele>
			</trkpt>
			<trkpt lat="53.08925" lon="6.52298">
				<ele>9.06</ele>
			</trkpt>
			<trkpt lat="53.09228" lon="6.53378">
				<ele>6</ele>
			</trkpt>
			<trkpt lat="53.0919" lon="6.53416">
				<ele>6</ele>
			</trkpt>
			<trkpt lat="53.0919" lon="6.53416">
				<ele>6</ele>
			</trkpt>
			<trkpt lat="53.09148" lon="6.53387">
				<ele>6</ele>
			</trkpt>
			<trkpt lat="53.0912" lon="6.53384">
				<ele>7.91</ele>
			</trkpt>
			<trkpt lat="53.08941" lon="6.53525">
				<ele>7.91</ele>
			</trkpt>
			<trkpt lat="53.08893" lon="6.53552">
				<ele>7.91</ele>
			</trkpt>
			<trkpt lat="53.08762" lon="6.53601">
				<ele>7.91</ele>
			</trkpt>
			<trkpt lat="53.08488" lon="6.53773">
				<ele>10.94</ele>
			</trkpt>
			<trkpt lat="53.08488" lon="6.53773">
				<ele>10.94</ele>
			</trkpt>
			<trkpt lat="53.08507" lon="6.53761">
				<ele>10.94</ele>
			</trkpt>
			<trkpt lat="53.08146" lon="6.52547">
				<ele>10.94</ele>
			</trkpt>
			<trkpt lat="53.08146" lon="6.52547">
				<ele>11.46</ele>
			</trkpt>
			<trkpt lat="53.0813" lon="6.52526">
				<ele>11.46</ele>
			</trkpt>
			<trkpt lat="53.0811" lon="6.52521">
				<ele>11.46</ele>
			</trkpt>
			<trkpt lat="53.08111" lon="6.52511">
				<ele>11.46</ele>
			</trkpt>
			<trkpt lat="53.08118" lon="6.52502">
				<ele>9.59</ele>
			</trkpt>
			<trkpt lat="53.08294" lon="6.52373">
				<ele>9.59</ele>
			</trkpt>
			<trkpt lat="53.08294" lon="6.52373">
				<ele>9.59</ele>
			</trkpt>
			<trkpt lat="53.08297" lon="6.52368">
				<ele>9.59</ele>
			</trkpt>
			<trkpt lat="53.08298" lon="6.52353">
				<ele>10</ele>
			</trkpt>
			<trkpt lat="53.08262" lon="6.52275">
				<ele>10</ele>
			</trkpt>
			<trkpt lat="53.08243" lon="6.52217">
				<ele>10</ele>
			</trkpt>
			<trkpt lat="53.08155" lon="6.51876">
				<ele>10</ele>
			</trkpt>
			<trkpt lat="53.08153" lon="6.51874">
				<ele>10</ele>
			</trkpt>
			<trkpt lat="53.08071" lon="6.5156">
				<ele>10</ele>
			</trkpt>
			<trkpt lat="53.08071" lon="6.5156">
				<ele>10</ele>
			</trkpt>
			<trkpt lat="53.08062" lon="6.5154">
				<ele>10</ele>
			</trkpt>
			<trkpt lat="53.07807" lon="6.51747">
				<ele>10.93</ele>
			</trkpt>
			<trkpt lat="53.07807" lon="6.51747">
				<ele>10.93</ele>
			</trkpt>
			<trkpt lat="53.07722" lon="6.51815">
				<ele>10.93</ele>
			</trkpt>
			<trkpt lat="53.07508" lon="6.51147">
				<ele>10.93</ele>
			</trkpt>
			<trkpt lat="53.07508" lon="6.51147">
				<ele>10.56</ele>
			</trkpt>
			<trkpt lat="53.07496" lon="6.51108">
				<ele>10.56</ele>
			</trkpt>
			<trkpt lat="53.07447" lon="6.51178">
				<ele>10.56</ele>
			</trkpt>
			<trkpt lat="53.0743" lon="6.51214">
				<ele>10.56</ele>
			</trkpt>
			<trkpt lat="53.07418" lon="6.5122">
				<ele>9.64</ele>
			</trkpt>
			<trkpt lat="53.07356" lon="6.51153">
				<ele>9.64</ele>
			</trkpt>
			<trkpt lat="53.07255" lon="6.5111">
				<ele>9.64</ele>
			</trkpt>
			<trkpt lat="53.07131" lon="6.51004">
				<ele>9.33</ele>
			</trkpt>
			<trkpt lat="53.06948" lon="6.5113">
				<ele>9.33</ele>
			</trkpt>
			<trkpt lat="53.06948" lon="6.5113">
				<ele>9.33</ele>
			</trkpt>
			<trkpt lat="53.06924" lon="6.5114">
				<ele>9.33</ele>
			</trkpt>
			<trkpt lat="53.06914" lon="6.51138">
				<ele>10.5</ele>
			</trkpt>
			<trkpt lat="53.06893" lon="6.51122">
				<ele>10.5</ele>
			</trkpt>
			<trkpt lat="53.0688" lon="6.511">
				<ele>10.5</ele>
			</trkpt>
			<trkpt lat="53.06877" lon="6.51084">
				<ele>10.5</ele>
			</trkpt>
			<trkpt lat="53.06876" lon="6.51009">
				<ele>13.24</ele>
			</trkpt>
			<trkpt lat="53.06867" lon="6.50926">
				<ele>13.24</ele>
			</trkpt>
			<trkpt lat="53.06872" lon="6.50901">
				<ele>13.24</ele>
			</trkpt>
			<trkpt lat="53.06872" lon="6.50885">
				<ele>13.24</ele>
			</trkpt>
			<trkpt lat="53.06842" lon="6.50709">
				<ele>10.37</ele>
			</trkpt>
			<trkpt lat="53.06835" lon="6.50702">
				<ele>10.37</ele>
			</trkpt>
			<trkpt lat="53.06825" lon="6.50658">
				<ele>10.37</ele>
			</trkpt>
			<trkpt lat="53.06825" lon="6.50658">
				<ele>10.37</ele>
			</trkpt>
			<trkpt lat="53.06835" lon="6.50702">
				<ele>10.51</ele>
			</trkpt>
			<trkpt lat="53.06844" lon="6.50698">
				<ele>10.51</ele>
			</trkpt>
			<trkpt lat="53.06982" lon="6.5056">
				<ele>10.51</ele>
			</trkpt>
			<trkpt lat="53.07102" lon="6.50367">
				<ele>10.51</ele>
			</trkpt>
			<trkpt lat="53.07197" lon="6.50177">
				<ele>9</ele>
			</trkpt>
			<trkpt lat="53.07215" lon="6.50229">
				<ele>9</ele>
			</trkpt>
			<trkpt lat="53.07215" lon="6.50229">
				<ele>9</ele>
			</trkpt>
			<trkpt lat="53.07148" lon="6.50036">
				<ele>9</ele>
			</trkpt>
			<trkpt lat="53.07135" lon="6.50018">
				<ele>9</ele>
			</trkpt>
			<trkpt lat="53.06912" lon="6.50086">
				<ele>9</ele>
			</trkpt>
			<trkpt lat="53.06708" lon="6.49989">
				<ele>9</ele>
			</trkpt>
			<trkpt lat="53.06708" lon="6.49989">
				<ele>9</ele>
			</trkpt>
			<trkpt lat="53.06679" lon="6.49974">
				<ele>8.95</ele>
			</trkpt>
			<trkpt lat="53.06678" lon="6.4998">
				<ele>8.95</ele>
			</trkpt>
			<trkpt lat="53.06835" lon="6.50702">
				<ele>8.95</ele>
			</trkpt>
			<trkpt lat="53.06815" lon="6.50693">
				<ele>8.95</ele>
			</trkpt>
			<trkpt lat="53.06653" lon="6.50692">
				<ele>10.24</ele>
			</trkpt>
			<trkpt lat="53.06653" lon="6.50692">
				<ele>10.24</ele>
			</trkpt>
			<trkpt lat="53.06242" lon="6.5069">
				<ele>10.24</ele>
			</trkpt>
			<trkpt lat="53.06225" lon="6.50671">
				<ele>10.24</ele>
			</trkpt>
			<trkpt lat="53.06163" lon="6.50561">
				<ele>11.26</ele>
			</trkpt>
			<trkpt lat="53.06106" lon="6.50392">
				<ele>11.26</ele>
			</trkpt>
			<trkpt lat="53.06106" lon="6.50392">
				<ele>11.26</ele>
			</trkpt>
			<trkpt lat="53.061" lon="6.50382">
				<ele>11.26</ele>
			</trkpt>
			<trkpt lat="53.06067" lon="6.50278">
				<ele>11.3</ele>
			</trkpt>
			<trkpt lat="53.06056" lon="6.50267">
				<ele>11.3</ele>
			</trkpt>
			<trkpt lat="53.06053" lon="6.50291">
				<ele>11.3</ele>
			</trkpt>
			<trkpt lat="53.06045" lon="6.50317">
				<ele>11.3</ele>
			</trkpt>
			<trkpt lat="53.05834" lon="6.50819">
				<ele>6.01</ele>
			</trkpt>
			<trkpt lat="53.05816" lon="6.50878">
				<ele>6.01</ele>
			</trkpt>
			<trkpt lat="53.05809" lon="6.50868">
				<ele>6.01</ele>
			</trkpt>
			<trkpt lat="53.05801" lon="6.50832">
				<ele>6.01</ele>
			</trkpt>
			<trkpt lat="53.05798" lon="6.50794">
				<ele>10.72</ele>
			</trkpt>
			<trkpt lat="53.05798" lon="6.50794">
				<ele>10.72</ele>
			</trkpt>
			<trkpt lat="53.05794" lon="6.50641">
				<ele>10.72</ele>
			</trkpt>
			<trkpt lat="53.05784" lon="6.5052">
				<ele>10.72</ele>
			</trkpt>
			<trkpt lat="53.05705" lon="6.50221">
				<ele>7.01</ele>
			</trkpt>
			<trkpt lat="53.0563" lon="6.49988">
				<ele>7.01</ele>
			</trkpt>
			<trkpt lat="53.0563" lon="6.49988">
				<ele>7.01</ele>
			</trkpt>
			<trkpt lat="53.05589" lon="6.49866">
				<ele>7.01</ele>
			</trkpt>
			<trkpt lat="53.05046" lon="6.5007">
				<ele>9.27</ele>
			</trkpt>
			<trkpt lat="53.04956" lon="6.50169">
				<ele>9.27</ele>
			</trkpt>
			<trkpt lat="53.04956" lon="6.50169">
				<ele>9.27</ele>
			</trkpt>
			<trkpt lat="53.04649" lon="6.50517">
				<ele>9.27</ele>
			</trkpt>
			<trkpt lat="53.04634" lon="6.50507">
				<ele>5.11</ele>
			</trkpt>
			<trkpt lat="53.04634" lon="6.50507">
				<ele>5.11</ele>
			</trkpt>
			<trkpt lat="53.03928" lon="6.50045">
				<ele>5.11</ele>
			</trkpt>
			<trkpt lat="53.03928" lon="6.50045">
				<ele>9.17</ele>
			</trkpt>
			<trkpt lat="53.03837" lon="6.49994">
				<ele>9.17</ele>
			</trkpt>
			<trkpt lat="53.03088" lon="6.50348">
				<ele>9.17</ele>
			</trkpt>
			<trkpt lat="53.03103" lon="6.50398">
				<ele>9.17</ele>
			</trkpt>
			<trkpt lat="53.03103" lon="6.50398">
				<ele>5</ele>
			</trkpt>
			<trkpt lat="53.03235" lon="6.5083">
				<ele>5</ele>
			</trkpt>
			<trkpt lat="53.03285" lon="6.51003">
				<ele>5</ele>
			</trkpt>
			<trkpt lat="53.03285" lon="6.51003">
				<ele>5</ele>
			</trkpt>
			<trkpt lat="53.0375" lon="6.52917">
				<ele>9.57</ele>
			</trkpt>
			<trkpt lat="53.04253" lon="6.53232">
				<ele>9.57</ele>
			</trkpt>
			<trkpt lat="53.04284" lon="6.53325">
				<ele>9.57</ele>
			</trkpt>
			<trkpt lat="53.04339" lon="6.53997">
				<ele>9.57</ele>
			</trkpt>
			<trkpt lat="53.04512" lon="6.54338">
				<ele>8.41</ele>
			</trkpt>
			<trkpt lat="53.04545" lon="6.54356">
				<ele>8.41</ele>
			</trkpt>
			<trkpt lat="53.04597" lon="6.54593">
				<ele>8.41</ele>
			</trkpt>
			<trkpt lat="53.04698" lon="6.54738">
				<ele>8.41</ele>
			</trkpt>
			<trkpt lat="53.04739" lon="6.5473">
				<ele>8</ele>
			</trkpt>
			<trkpt lat="53.04753" lon="6.54762">
				<ele>8</ele>
			</trkpt>
			<trkpt lat="53.0472" lon="6.5489">
				<ele>8</ele>
			</trkpt>
			<trkpt lat="53.04714" lon="6.55115">
				<ele>8</ele>
			</trkpt>
			<trkpt lat="53.04519" lon="6.57245">
				<ele>7.8</ele>
			</trkpt>
			<trkpt lat="53.0449" lon="6.57237">
				<ele>7.8</ele>
			</trkpt>
			<trkpt lat="53.04486" lon="6.5727">
				<ele>7.8</ele>
			</trkpt>
			<trkpt lat="53.05361" lon="6.57534">
				<ele>7.8</ele>
			</trkpt>
			<trkpt lat="53.05911" lon="6.57618">
				<ele>6.39</ele>
			</trkpt>
			<trkpt lat="53.05896" lon="6.5803">
				<ele>6.39</ele>
			</trkpt>
			<trkpt lat="53.05968" lon="6.58648">
				<ele>6.39</ele>
			</trkpt>
			<trkpt lat="53.05968" lon="6.58648">
				<ele>6.39</ele>
			</trkpt>
			<trkpt lat="53.05961" lon="6.58671">
				<ele>11.97</ele>
			</trkpt>
			<trkpt lat="53.0581" lon="6.58756">
				<ele>11.97</ele>
			</trkpt>
			<trkpt lat="53.05798" lon="6.58772">
				<ele>11.97</ele>
			</trkpt>
			<trkpt lat="53.05797" lon="6.58798">
				<ele>11.97</ele>
			</trkpt>
			<trkpt lat="53.06077" lon="6.60025">
				<ele>12</ele>
			</trkpt>
			<trkpt lat="53.06082" lon="6.60042">
				<ele>12</ele>
			</trkpt>
			<trkpt lat="53.06177" lon="6.60112">
				<ele>12</ele>
			</trkpt>
			<trkpt lat="53.06186" lon="6.6013">
				<ele>12</ele>
			</trkpt>
			<trkpt lat="53.06152" lon="6.6016">
				<ele>11.88</ele>
			</trkpt>
			<trkpt lat="53.06152" lon="6.6016">
				<ele>11.88</ele>
			</trkpt>
			<trkpt lat="53.05502" lon="6.60579">
				<ele>11.88</ele>
			</trkpt>
			<trkpt lat="53.04751" lon="6.60804">
				<ele>11.88</ele>
			</trkpt>
			<trkpt lat="53.03716" lon="6.60675">
				<ele>15.93</ele>
			</trkpt>
			<trkpt lat="53.03038" lon="6.60204">
				<ele>15.93</ele>
			</trkpt>
			<trkpt lat="53.0288" lon="6.60468">
				<ele>15.93</ele>
			</trkpt>
			<trkpt lat="53.02251" lon="6.60614">
				<ele>15.93</ele>
			</trkpt>
			<trkpt lat="53.01906" lon="6.60435">
				<ele>11.12</ele>
			</trkpt>
			<trkpt lat="53.01615" lon="6.60786">
				<ele>11.12</ele>
			</trkpt>
			<trkpt lat="53.01125" lon="6.61006">
				<ele>11.12</ele>
			</trkpt>
			<trkpt lat="52.99933" lon="6.58869">
				<ele>11.12</ele>
			</trkpt>
			<trkpt lat="52.99766" lon="6.58099">
				<ele>11</ele>
			</trkpt>
			<trkpt lat="52.99542" lon="6.58169">
				<ele>11</ele>
			</trkpt>
			<trkpt lat="52.99027" lon="6.5789">
				<ele>11</ele>
			</trkpt>
			<trkpt lat="52.98573" lon="6.57196">
				<ele>11</ele>
			</trkpt>
			<trkpt lat="52.98478" lon="6.56877">
				<ele>12.03</ele>
			</trkpt>
			<trkpt lat="52.98166" lon="6.56761">
				<ele>12.03</ele>
			</trkpt>
			<trkpt lat="52.98208" lon="6.56447">
				<ele>12.03</ele>
			</trkpt>
			<trkpt lat="52.98146" lon="6.56365">
				<ele>12.03</ele>
			</trkpt>
			<trkpt lat="52.98229" lon="6.56124">
				<ele>10.94</ele>
			</trkpt>
			<trkpt lat="52.98001" lon="6.55922">
				<ele>10.94</ele>
			</trkpt>
			<trkpt lat="52.9794" lon="6.55983">
				<ele>10.94</ele>
			</trkpt>
		</trkseg>
	</trk>
</gpx>