<?xml version="1.0" encoding="UTF-8"?>
<gpx version="1.1" creator="https://www.hammerhead.io" xmlns:xsi="http://www.w3.org/2001/XMLSchema-instance" xmlns="http://www.topografix.com/GPX/1/1" xsi:schemaLocation="http://www.topografix.com/GPX/1/1 http://www.topografix.com/GPX/1/1/gpx.xsd"><metadata><name>Nationaal-Park-Dwingelderveld-en-Boswachterij-Ruinen</name><time>0001-01-01T00:00:00Z</time></metadata><trk><name>Nationaal-Park-Dwingelderveld-en-Boswachterij-Ruinen</name><trkseg><trkpt lat="52.82" lon="6.36705"></trkpt><trkpt lat="52.81994" lon="6.36681"></trkpt><trkpt lat="52.82015" lon="6.36663"></trkpt><trkpt lat="52.82126" lon="6.36816"></trkpt><trkpt lat="52.82131" lon="6.36821"></trkpt><trkpt lat="52.82136" lon="6.3683"></trkpt><trkpt lat="52.82142" lon="6.36849"></trkpt><trkpt lat="52.82158" lon="6.36873"></trkpt><trkpt lat="52.82165" lon="6.36879"></trkpt><trkpt lat="52.8244" lon="6.36973"></trkpt><trkpt lat="52.82512" lon="6.36996"></trkpt><trkpt lat="52.82517" lon="6.36996"></trkpt><trkpt lat="52.82532" lon="6.37334"></trkpt><trkpt lat="52.8255" lon="6.37561"></trkpt><trkpt lat="52.82553" lon="6.37616"></trkpt><trkpt lat="52.82566" lon="6.3832"></trkpt><trkpt lat="52.82565" lon="6.3874"></trkpt><trkpt lat="52.82571" lon="6.39127"></trkpt><trkpt lat="52.82568" lon="6.39157"></trkpt><trkpt lat="52.82562" lon="6.39186"></trkpt><trkpt lat="52.82551" lon="6.39217"></trkpt><trkpt lat="52.82545" lon="6.39228"></trkpt><trkpt lat="52.8252" lon="6.39196"></trkpt><trkpt lat="52.82494" lon="6.3917"></trkpt><trkpt lat="52.82462" lon="6.39156"></trkpt><trkpt lat="52.82421" lon="6.39141"></trkpt><trkpt lat="52.82415" lon="6.39137"></trkpt><trkpt lat="52.82384" lon="6.39132"></trkpt><trkpt lat="52.82309" lon="6.39131"></trkpt><trkpt lat="52.82297" lon="6.39133"></trkpt><trkpt lat="52.82282" lon="6.39142"></trkpt><trkpt lat="52.82267" lon="6.39163"></trkpt><trkpt lat="52.8224" lon="6.39217"></trkpt><trkpt lat="52.82204" lon="6.39283"></trkpt><trkpt lat="52.82194" lon="6.39298"></trkpt><trkpt lat="52.82174" lon="6.3932"></trkpt><trkpt lat="52.82144" lon="6.39342"></trkpt><trkpt lat="52.82117" lon="6.39356"></trkpt><trkpt lat="52.82076" lon="6.39371"></trkpt><trkpt lat="52.8201" lon="6.39392"></trkpt><trkpt lat="52.81956" lon="6.39406"></trkpt><trkpt lat="52.81905" lon="6.39417"></trkpt><trkpt lat="52.81896" lon="6.39416"></trkpt><trkpt lat="52.8189" lon="6.39418"></trkpt><trkpt lat="52.81883" lon="6.39424"></trkpt><trkpt lat="52.81714" lon="6.39476"></trkpt><trkpt lat="52.8164" lon="6.39505"></trkpt><trkpt lat="52.8161" lon="6.3952"></trkpt><trkpt lat="52.81526" lon="6.39568"></trkpt><trkpt lat="52.81491" lon="6.39591"></trkpt><trkpt lat="52.81469" lon="6.39608"></trkpt><trkpt lat="52.81428" lon="6.39645"></trkpt><trkpt lat="52.81345" lon="6.3973"></trkpt><trkpt lat="52.81332" lon="6.39746"></trkpt><trkpt lat="52.81282" lon="6.39837"></trkpt><trkpt lat="52.81275" lon="6.39843"></trkpt><trkpt lat="52.80532" lon="6.41278"></trkpt><trkpt lat="52.80511" lon="6.41319"></trkpt><trkpt lat="52.80497" lon="6.4135"></trkpt><trkpt lat="52.80487" lon="6.41361"></trkpt><trkpt lat="52.80478" lon="6.41377"></trkpt><trkpt lat="52.80225" lon="6.41859"></trkpt><trkpt lat="52.79991" lon="6.42299"></trkpt><trkpt lat="52.79584" lon="6.43018"></trkpt><trkpt lat="52.79576" lon="6.43037"></trkpt><trkpt lat="52.79473" lon="6.43221"></trkpt><trkpt lat="52.79471" lon="6.43233"></trkpt><trkpt lat="52.79461" lon="6.43252"></trkpt><trkpt lat="52.79446" lon="6.43266"></trkpt><trkpt lat="52.79438" lon="6.4327"></trkpt><trkpt lat="52.79177" lon="6.4338"></trkpt><trkpt lat="52.79132" lon="6.43395"></trkpt><trkpt lat="52.79116" lon="6.43395"></trkpt><trkpt lat="52.79082" lon="6.43387"></trkpt><trkpt lat="52.789" lon="6.43336"></trkpt><trkpt lat="52.78492" lon="6.4322"></trkpt><trkpt lat="52.78468" lon="6.43214"></trkpt><trkpt lat="52.78459" lon="6.43214"></trkpt><trkpt lat="52.78454" lon="6.43215"></trkpt><trkpt lat="52.78443" lon="6.43221"></trkpt><trkpt lat="52.78431" lon="6.43237"></trkpt><trkpt lat="52.78424" lon="6.43251"></trkpt><trkpt lat="52.78416" lon="6.4327"></trkpt><trkpt lat="52.78413" lon="6.43287"></trkpt><trkpt lat="52.7841" lon="6.43446"></trkpt><trkpt lat="52.78407" lon="6.43809"></trkpt><trkpt lat="52.78402" lon="6.4384"></trkpt><trkpt lat="52.78395" lon="6.43857"></trkpt><trkpt lat="52.78384" lon="6.43871"></trkpt><trkpt lat="52.78366" lon="6.43885"></trkpt><trkpt lat="52.78082" lon="6.43988"></trkpt><trkpt lat="52.7806" lon="6.43999"></trkpt><trkpt lat="52.7804" lon="6.4402"></trkpt><trkpt lat="52.77791" lon="6.44388"></trkpt><trkpt lat="52.77777" lon="6.44406"></trkpt><trkpt lat="52.77764" lon="6.44419"></trkpt><trkpt lat="52.77737" lon="6.4444"></trkpt><trkpt lat="52.77698" lon="6.44465"></trkpt><trkpt lat="52.77705" lon="6.44483"></trkpt><trkpt lat="52.7771" lon="6.44521"></trkpt><trkpt lat="52.77707" lon="6.44572"></trkpt><trkpt lat="52.77702" lon="6.44586"></trkpt><trkpt lat="52.77697" lon="6.44593"></trkpt><trkpt lat="52.7769" lon="6.44601"></trkpt><trkpt lat="52.77675" lon="6.44613"></trkpt><trkpt lat="52.77678" lon="6.44632"></trkpt><trkpt lat="52.77682" lon="6.44791"></trkpt><trkpt lat="52.77654" lon="6.44794"></trkpt><trkpt lat="52.77582" lon="6.44796"></trkpt><trkpt lat="52.77563" lon="6.44802"></trkpt><trkpt lat="52.77553" lon="6.44809"></trkpt><trkpt lat="52.77502" lon="6.44872"></trkpt><trkpt lat="52.77461" lon="6.44928"></trkpt><trkpt lat="52.77405" lon="6.44996"></trkpt><trkpt lat="52.77379" lon="6.45015"></trkpt><trkpt lat="52.77346" lon="6.45027"></trkpt><trkpt lat="52.7725" lon="6.45055"></trkpt><trkpt lat="52.77214" lon="6.45063"></trkpt><trkpt lat="52.7719" lon="6.45071"></trkpt><trkpt lat="52.7707" lon="6.45123"></trkpt><trkpt lat="52.77038" lon="6.45131"></trkpt><trkpt lat="52.77057" lon="6.45229"></trkpt><trkpt lat="52.77059" lon="6.45248"></trkpt><trkpt lat="52.77059" lon="6.45289"></trkpt><trkpt lat="52.77056" lon="6.45313"></trkpt><trkpt lat="52.77039" lon="6.45377"></trkpt><trkpt lat="52.77025" lon="6.45446"></trkpt><trkpt lat="52.77023" lon="6.45465"></trkpt><trkpt lat="52.77024" lon="6.45528"></trkpt><trkpt lat="52.77031" lon="6.45644"></trkpt><trkpt lat="52.77045" lon="6.4579"></trkpt><trkpt lat="52.77061" lon="6.45932"></trkpt><trkpt lat="52.77082" lon="6.4604"></trkpt><trkpt lat="52.77084" lon="6.46078"></trkpt><trkpt lat="52.7708" lon="6.46118"></trkpt><trkpt lat="52.7707" lon="6.4617"></trkpt><trkpt lat="52.77042" lon="6.46263"></trkpt><trkpt lat="52.77039" lon="6.46278"></trkpt><trkpt lat="52.76988" lon="6.46732"></trkpt><trkpt lat="52.76975" lon="6.46854"></trkpt><trkpt lat="52.76973" lon="6.46896"></trkpt><trkpt lat="52.76974" lon="6.46953"></trkpt><trkpt lat="52.77035" lon="6.48124"></trkpt><trkpt lat="52.77082" lon="6.49058"></trkpt><trkpt lat="52.77082" lon="6.49103"></trkpt><trkpt lat="52.77092" lon="6.49262"></trkpt><trkpt lat="52.77091" lon="6.49295"></trkpt><trkpt lat="52.77066" lon="6.4945"></trkpt><trkpt lat="52.76983" lon="6.49993"></trkpt><trkpt lat="52.7694" lon="6.50296"></trkpt><trkpt lat="52.76925" lon="6.50348"></trkpt><trkpt lat="52.76944" lon="6.50382"></trkpt><trkpt lat="52.76949" lon="6.50395"></trkpt><trkpt lat="52.76954" lon="6.50415"></trkpt><trkpt lat="52.76987" lon="6.50563"></trkpt><trkpt lat="52.76996" lon="6.50649"></trkpt><trkpt lat="52.76994" lon="6.50656"></trkpt><trkpt lat="52.76958" lon="6.50686"></trkpt><trkpt lat="52.76939" lon="6.50711"></trkpt><trkpt lat="52.76908" lon="6.50777"></trkpt><trkpt lat="52.76899" lon="6.50786"></trkpt><trkpt lat="52.7677" lon="6.50883"></trkpt><trkpt lat="52.7639" lon="6.51154"></trkpt><trkpt lat="52.76205" lon="6.51284"></trkpt><trkpt lat="52.76245" lon="6.51432"></trkpt><trkpt lat="52.76409" lon="6.52058"></trkpt><trkpt lat="52.76468" lon="6.52277"></trkpt><trkpt lat="52.76624" lon="6.52875"></trkpt><trkpt lat="52.76562" lon="6.52919"></trkpt><trkpt lat="52.76544" lon="6.52934"></trkpt><trkpt lat="52.76527" lon="6.52955"></trkpt><trkpt lat="52.76514" lon="6.52988"></trkpt><trkpt lat="52.76511" lon="6.53005"></trkpt><trkpt lat="52.76508" lon="6.531"></trkpt><trkpt lat="52.76502" lon="6.53123"></trkpt><trkpt lat="52.76496" lon="6.53139"></trkpt><trkpt lat="52.76486" lon="6.53156"></trkpt><trkpt lat="52.76473" lon="6.53171"></trkpt><trkpt lat="52.75715" lon="6.53715"></trkpt><trkpt lat="52.75873" lon="6.54319"></trkpt><trkpt lat="52.75878" lon="6.54369"></trkpt><trkpt lat="52.75877" lon="6.54407"></trkpt><trkpt lat="52.75868" lon="6.5456"></trkpt><trkpt lat="52.7587" lon="6.54597"></trkpt><trkpt lat="52.75873" lon="6.54619"></trkpt><trkpt lat="52.75882" lon="6.5465"></trkpt><trkpt lat="52.75944" lon="6.5477"></trkpt><trkpt lat="52.75955" lon="6.54794"></trkpt><trkpt lat="52.75962" lon="6.54817"></trkpt><trkpt lat="52.75966" lon="6.54842"></trkpt><trkpt lat="52.75967" lon="6.5487"></trkpt><trkpt lat="52.75964" lon="6.54926"></trkpt><trkpt lat="52.75939" lon="6.55272"></trkpt><trkpt lat="52.75942" lon="6.55334"></trkpt><trkpt lat="52.75947" lon="6.55368"></trkpt><trkpt lat="52.75962" lon="6.55425"></trkpt><trkpt lat="52.75982" lon="6.55472"></trkpt><trkpt lat="52.76005" lon="6.5551"></trkpt><trkpt lat="52.76028" lon="6.55542"></trkpt><trkpt lat="52.76064" lon="6.55598"></trkpt><trkpt lat="52.76074" lon="6.55615"></trkpt><trkpt lat="52.76083" lon="6.55634"></trkpt><trkpt lat="52.76091" lon="6.55653"></trkpt><trkpt lat="52.76102" lon="6.5569"></trkpt><trkpt lat="52.76108" lon="6.55714"></trkpt><trkpt lat="52.76114" lon="6.55756"></trkpt><trkpt lat="52.76115" lon="6.55811"></trkpt><trkpt lat="52.76112" lon="6.55883"></trkpt><trkpt lat="52.76102" lon="6.56036"></trkpt><trkpt lat="52.76102" lon="6.56088"></trkpt><trkpt lat="52.76109" lon="6.56157"></trkpt><trkpt lat="52.76112" lon="6.56174"></trkpt><trkpt lat="52.76119" lon="6.56204"></trkpt><trkpt lat="52.76147" lon="6.56292"></trkpt><trkpt lat="52.7616" lon="6.56354"></trkpt><trkpt lat="52.76163" lon="6.56399"></trkpt><trkpt lat="52.76165" lon="6.5648"></trkpt><trkpt lat="52.76174" lon="6.56495"></trkpt><trkpt lat="52.76188" lon="6.5703"></trkpt><trkpt lat="52.76189" lon="6.57045"></trkpt><trkpt lat="52.76192" lon="6.57059"></trkpt><trkpt lat="52.76197" lon="6.5707"></trkpt><trkpt lat="52.7621" lon="6.57088"></trkpt><trkpt lat="52.76225" lon="6.571"></trkpt><trkpt lat="52.76778" lon="6.57432"></trkpt><trkpt lat="52.76788" lon="6.57439"></trkpt><trkpt lat="52.76807" lon="6.57461"></trkpt><trkpt lat="52.76825" lon="6.57489"></trkpt><trkpt lat="52.76944" lon="6.57689"></trkpt><trkpt lat="52.77056" lon="6.57881"></trkpt><trkpt lat="52.77095" lon="6.57954"></trkpt><trkpt lat="52.77118" lon="6.58009"></trkpt><trkpt lat="52.77129" lon="6.58047"></trkpt><trkpt lat="52.77144" lon="6.58113"></trkpt><trkpt lat="52.7716" lon="6.58211"></trkpt><trkpt lat="52.77161" lon="6.58294"></trkpt><trkpt lat="52.77167" lon="6.58313"></trkpt><trkpt lat="52.77162" lon="6.58348"></trkpt><trkpt lat="52.77178" lon="6.58352"></trkpt><trkpt lat="52.77279" lon="6.58397"></trkpt><trkpt lat="52.77898" lon="6.58676"></trkpt><trkpt lat="52.77913" lon="6.58678"></trkpt><trkpt lat="52.77928" lon="6.58686"></trkpt><trkpt lat="52.77974" lon="6.58724"></trkpt><trkpt lat="52.78047" lon="6.58796"></trkpt><trkpt lat="52.78097" lon="6.5883"></trkpt><trkpt lat="52.78141" lon="6.58853"></trkpt><trkpt lat="52.78189" lon="6.58865"></trkpt><trkpt lat="52.78237" lon="6.58869"></trkpt><trkpt lat="52.78258" lon="6.58879"></trkpt><trkpt lat="52.78275" lon="6.58882"></trkpt><trkpt lat="52.78845" lon="6.58873"></trkpt><trkpt lat="52.78862" lon="6.58881"></trkpt><trkpt lat="52.78861" lon="6.58854"></trkpt><trkpt lat="52.78863" lon="6.58817"></trkpt><trkpt lat="52.7887" lon="6.58781"></trkpt><trkpt lat="52.7887" lon="6.58761"></trkpt><trkpt lat="52.78808" lon="6.57936"></trkpt><trkpt lat="52.78807" lon="6.57907"></trkpt><trkpt lat="52.78809" lon="6.57638"></trkpt><trkpt lat="52.7882" lon="6.57572"></trkpt><trkpt lat="52.78955" lon="6.57111"></trkpt><trkpt lat="52.7899" lon="6.5698"></trkpt><trkpt lat="52.79212" lon="6.56099"></trkpt><trkpt lat="52.79219" lon="6.5606"></trkpt><trkpt lat="52.79221" lon="6.5604"></trkpt><trkpt lat="52.79221" lon="6.56021"></trkpt><trkpt lat="52.79219" lon="6.56011"></trkpt><trkpt lat="52.79203" lon="6.55951"></trkpt><trkpt lat="52.792" lon="6.55922"></trkpt><trkpt lat="52.792" lon="6.55897"></trkpt><trkpt lat="52.79201" lon="6.55862"></trkpt><trkpt lat="52.79248" lon="6.5511"></trkpt><trkpt lat="52.79248" lon="6.55092"></trkpt><trkpt lat="52.79246" lon="6.55072"></trkpt><trkpt lat="52.79195" lon="6.54811"></trkpt><trkpt lat="52.79187" lon="6.54762"></trkpt><trkpt lat="52.79188" lon="6.54697"></trkpt><trkpt lat="52.79208" lon="6.54274"></trkpt><trkpt lat="52.792" lon="6.5424"></trkpt><trkpt lat="52.79207" lon="6.54225"></trkpt><trkpt lat="52.79213" lon="6.542"></trkpt><trkpt lat="52.79215" lon="6.54156"></trkpt><trkpt lat="52.79215" lon="6.54107"></trkpt><trkpt lat="52.79213" lon="6.54059"></trkpt><trkpt lat="52.79203" lon="6.53882"></trkpt><trkpt lat="52.79197" lon="6.53855"></trkpt><trkpt lat="52.79168" lon="6.53792"></trkpt><trkpt lat="52.79155" lon="6.53748"></trkpt><trkpt lat="52.79159" lon="6.5371"></trkpt><trkpt lat="52.79228" lon="6.53502"></trkpt><trkpt lat="52.79236" lon="6.53486"></trkpt><trkpt lat="52.79244" lon="6.53476"></trkpt><trkpt lat="52.79257" lon="6.53465"></trkpt><trkpt lat="52.79286" lon="6.53446"></trkpt><trkpt lat="52.79261" lon="6.53335"></trkpt><trkpt lat="52.79252" lon="6.53309"></trkpt><trkpt lat="52.79236" lon="6.53284"></trkpt><trkpt lat="52.7922" lon="6.53264"></trkpt><trkpt lat="52.79203" lon="6.53254"></trkpt><trkpt lat="52.79189" lon="6.53248"></trkpt><trkpt lat="52.79187" lon="6.53002"></trkpt><trkpt lat="52.79189" lon="6.52962"></trkpt><trkpt lat="52.792" lon="6.52874"></trkpt><trkpt lat="52.79212" lon="6.52817"></trkpt><trkpt lat="52.79214" lon="6.52784"></trkpt><trkpt lat="52.7921" lon="6.52751"></trkpt><trkpt lat="52.79205" lon="6.52728"></trkpt><trkpt lat="52.79196" lon="6.52706"></trkpt><trkpt lat="52.79174" lon="6.52664"></trkpt><trkpt lat="52.79151" lon="6.52627"></trkpt><trkpt lat="52.79139" lon="6.52613"></trkpt><trkpt lat="52.79091" lon="6.5257"></trkpt><trkpt lat="52.79086" lon="6.52557"></trkpt><trkpt lat="52.79085" lon="6.52544"></trkpt><trkpt lat="52.79088" lon="6.52528"></trkpt><trkpt lat="52.79108" lon="6.52474"></trkpt><trkpt lat="52.79111" lon="6.52459"></trkpt><trkpt lat="52.79111" lon="6.52449"></trkpt><trkpt lat="52.79104" lon="6.52428"></trkpt><trkpt lat="52.791" lon="6.52419"></trkpt><trkpt lat="52.79094" lon="6.52414"></trkpt><trkpt lat="52.79035" lon="6.52386"></trkpt><trkpt lat="52.79024" lon="6.52383"></trkpt><trkpt lat="52.79017" lon="6.52386"></trkpt><trkpt lat="52.7901" lon="6.52392"></trkpt><trkpt lat="52.79" lon="6.52409"></trkpt><trkpt lat="52.78973" lon="6.52468"></trkpt><trkpt lat="52.7896" lon="6.52493"></trkpt><trkpt lat="52.78958" lon="6.52504"></trkpt><trkpt lat="52.78959" lon="6.52518"></trkpt><trkpt lat="52.78966" lon="6.52533"></trkpt><trkpt lat="52.79004" lon="6.52585"></trkpt><trkpt lat="52.79012" lon="6.52594"></trkpt><trkpt lat="52.79022" lon="6.52612"></trkpt><trkpt lat="52.79024" lon="6.52622"></trkpt><trkpt lat="52.79021" lon="6.52641"></trkpt><trkpt lat="52.79015" lon="6.52651"></trkpt><trkpt lat="52.79009" lon="6.52654"></trkpt><trkpt lat="52.78955" lon="6.5264"></trkpt><trkpt lat="52.78948" lon="6.5264"></trkpt><trkpt lat="52.7894" lon="6.52642"></trkpt><trkpt lat="52.78934" lon="6.52646"></trkpt><trkpt lat="52.7893" lon="6.52651"></trkpt><trkpt lat="52.78924" lon="6.52668"></trkpt><trkpt lat="52.78914" lon="6.52734"></trkpt><trkpt lat="52.78911" lon="6.52744"></trkpt><trkpt lat="52.78902" lon="6.52768"></trkpt><trkpt lat="52.7886" lon="6.52859"></trkpt><trkpt lat="52.78857" lon="6.52867"></trkpt><trkpt lat="52.78855" lon="6.52883"></trkpt><trkpt lat="52.78859" lon="6.52897"></trkpt><trkpt lat="52.78868" lon="6.52911"></trkpt><trkpt lat="52.78924" lon="6.52804"></trkpt><trkpt lat="52.78931" lon="6.52794"></trkpt><trkpt lat="52.78938" lon="6.52792"></trkpt><trkpt lat="52.78943" lon="6.52795"></trkpt><trkpt lat="52.78948" lon="6.52802"></trkpt><trkpt lat="52.79" lon="6.52885"></trkpt><trkpt lat="52.79009" lon="6.52891"></trkpt><trkpt lat="52.79015" lon="6.52892"></trkpt><trkpt lat="52.7902" lon="6.52891"></trkpt><trkpt lat="52.79049" lon="6.5287"></trkpt><trkpt lat="52.79057" lon="6.52867"></trkpt><trkpt lat="52.79064" lon="6.52868"></trkpt><trkpt lat="52.79071" lon="6.52873"></trkpt><trkpt lat="52.79108" lon="6.5294"></trkpt><trkpt lat="52.79115" lon="6.52946"></trkpt><trkpt lat="52.79122" lon="6.52949"></trkpt><trkpt lat="52.7913" lon="6.52948"></trkpt><trkpt lat="52.79138" lon="6.52944"></trkpt><trkpt lat="52.79144" lon="6.52938"></trkpt><trkpt lat="52.79149" lon="6.52929"></trkpt><trkpt lat="52.79151" lon="6.52919"></trkpt><trkpt lat="52.79152" lon="6.52895"></trkpt><trkpt lat="52.79138" lon="6.52855"></trkpt><trkpt lat="52.79146" lon="6.52845"></trkpt><trkpt lat="52.79153" lon="6.52841"></trkpt><trkpt lat="52.79158" lon="6.52842"></trkpt><trkpt lat="52.79165" lon="6.52846"></trkpt><trkpt lat="52.792" lon="6.52874"></trkpt><trkpt lat="52.79189" lon="6.52962"></trkpt><trkpt lat="52.79187" lon="6.53002"></trkpt><trkpt lat="52.79188" lon="6.53126"></trkpt><trkpt lat="52.79249" lon="6.53114"></trkpt><trkpt lat="52.79263" lon="6.53105"></trkpt><trkpt lat="52.79272" lon="6.53096"></trkpt><trkpt lat="52.79297" lon="6.53054"></trkpt><trkpt lat="52.79312" lon="6.53036"></trkpt><trkpt lat="52.79365" lon="6.53006"></trkpt><trkpt lat="52.79407" lon="6.52973"></trkpt><trkpt lat="52.79474" lon="6.52901"></trkpt><trkpt lat="52.79481" lon="6.52887"></trkpt><trkpt lat="52.79484" lon="6.52866"></trkpt><trkpt lat="52.79492" lon="6.5284"></trkpt><trkpt lat="52.79502" lon="6.52823"></trkpt><trkpt lat="52.79562" lon="6.5276"></trkpt><trkpt lat="52.79589" lon="6.52729"></trkpt><trkpt lat="52.79613" lon="6.52708"></trkpt><trkpt lat="52.79645" lon="6.52687"></trkpt><trkpt lat="52.79678" lon="6.5265"></trkpt><trkpt lat="52.79684" lon="6.52638"></trkpt><trkpt lat="52.79689" lon="6.52606"></trkpt><trkpt lat="52.79693" lon="6.52594"></trkpt><trkpt lat="52.79733" lon="6.52549"></trkpt><trkpt lat="52.79768" lon="6.52534"></trkpt><trkpt lat="52.79775" lon="6.52526"></trkpt><trkpt lat="52.79785" lon="6.52495"></trkpt><trkpt lat="52.79793" lon="6.52483"></trkpt><trkpt lat="52.7985" lon="6.52421"></trkpt><trkpt lat="52.79866" lon="6.52406"></trkpt><trkpt lat="52.79872" lon="6.52393"></trkpt><trkpt lat="52.79873" lon="6.52386"></trkpt><trkpt lat="52.7987" lon="6.52371"></trkpt><trkpt lat="52.79711" lon="6.5197"></trkpt><trkpt lat="52.79713" lon="6.51959"></trkpt><trkpt lat="52.79722" lon="6.51943"></trkpt><trkpt lat="52.79726" lon="6.51932"></trkpt><trkpt lat="52.7972" lon="6.51802"></trkpt><trkpt lat="52.79667" lon="6.51669"></trkpt><trkpt lat="52.79434" lon="6.51482"></trkpt><trkpt lat="52.79418" lon="6.51472"></trkpt><trkpt lat="52.79373" lon="6.51435"></trkpt><trkpt lat="52.79368" lon="6.51432"></trkpt><trkpt lat="52.79355" lon="6.51435"></trkpt><trkpt lat="52.79351" lon="6.51435"></trkpt><trkpt lat="52.79348" lon="6.51433"></trkpt><trkpt lat="52.79333" lon="6.51413"></trkpt><trkpt lat="52.79325" lon="6.51382"></trkpt><trkpt lat="52.79318" lon="6.51368"></trkpt><trkpt lat="52.79216" lon="6.51259"></trkpt><trkpt lat="52.79104" lon="6.51136"></trkpt><trkpt lat="52.79024" lon="6.51044"></trkpt><trkpt lat="52.79018" lon="6.51032"></trkpt><trkpt lat="52.79011" lon="6.51004"></trkpt><trkpt lat="52.79011" lon="6.50974"></trkpt><trkpt lat="52.79007" lon="6.50949"></trkpt><trkpt lat="52.79005" lon="6.50894"></trkpt><trkpt lat="52.79007" lon="6.50873"></trkpt><trkpt lat="52.7902" lon="6.50796"></trkpt><trkpt lat="52.79028" lon="6.50769"></trkpt><trkpt lat="52.79074" lon="6.50653"></trkpt><trkpt lat="52.7908" lon="6.50644"></trkpt><trkpt lat="52.79091" lon="6.50633"></trkpt><trkpt lat="52.791" lon="6.50617"></trkpt><trkpt lat="52.79216" lon="6.50329"></trkpt><trkpt lat="52.79242" lon="6.50272"></trkpt><trkpt lat="52.79245" lon="6.50257"></trkpt><trkpt lat="52.79296" lon="6.5013"></trkpt><trkpt lat="52.79298" lon="6.50113"></trkpt><trkpt lat="52.79296" lon="6.50095"></trkpt><trkpt lat="52.79298" lon="6.50066"></trkpt><trkpt lat="52.79305" lon="6.50055"></trkpt><trkpt lat="52.79314" lon="6.50052"></trkpt><trkpt lat="52.79319" lon="6.50046"></trkpt><trkpt lat="52.79334" lon="6.50012"></trkpt><trkpt lat="52.79345" lon="6.50002"></trkpt><trkpt lat="52.79358" lon="6.49985"></trkpt><trkpt lat="52.79384" lon="6.49917"></trkpt><trkpt lat="52.79434" lon="6.49753"></trkpt><trkpt lat="52.79447" lon="6.49725"></trkpt><trkpt lat="52.79494" lon="6.49576"></trkpt><trkpt lat="52.79498" lon="6.4955"></trkpt><trkpt lat="52.79574" lon="6.49299"></trkpt><trkpt lat="52.79586" lon="6.49279"></trkpt><trkpt lat="52.79617" lon="6.49132"></trkpt><trkpt lat="52.79617" lon="6.49104"></trkpt><trkpt lat="52.7969" lon="6.48749"></trkpt><trkpt lat="52.79698" lon="6.48734"></trkpt><trkpt lat="52.79715" lon="6.48657"></trkpt><trkpt lat="52.79716" lon="6.48644"></trkpt><trkpt lat="52.79715" lon="6.48622"></trkpt><trkpt lat="52.79831" lon="6.48004"></trkpt><trkpt lat="52.79836" lon="6.47995"></trkpt><trkpt lat="52.79839" lon="6.47985"></trkpt><trkpt lat="52.79893" lon="6.47715"></trkpt><trkpt lat="52.79907" lon="6.47673"></trkpt><trkpt lat="52.80029" lon="6.4707"></trkpt><trkpt lat="52.80054" lon="6.46984"></trkpt><trkpt lat="52.80078" lon="6.46925"></trkpt><trkpt lat="52.80101" lon="6.46878"></trkpt><trkpt lat="52.80127" lon="6.46837"></trkpt><trkpt lat="52.80156" lon="6.46798"></trkpt><trkpt lat="52.8021" lon="6.46745"></trkpt><trkpt lat="52.80247" lon="6.4672"></trkpt><trkpt lat="52.80292" lon="6.46699"></trkpt><trkpt lat="52.80338" lon="6.46688"></trkpt><trkpt lat="52.8039" lon="6.46686"></trkpt><trkpt lat="52.80442" lon="6.46696"></trkpt><trkpt lat="52.80987" lon="6.46827"></trkpt><trkpt lat="52.81004" lon="6.46827"></trkpt><trkpt lat="52.81032" lon="6.46824"></trkpt><trkpt lat="52.81372" lon="6.46774"></trkpt><trkpt lat="52.8138" lon="6.46772"></trkpt><trkpt lat="52.81398" lon="6.46762"></trkpt><trkpt lat="52.81403" lon="6.46752"></trkpt><trkpt lat="52.81404" lon="6.46744"></trkpt><trkpt lat="52.81407" lon="6.46738"></trkpt><trkpt lat="52.81426" lon="6.46736"></trkpt><trkpt lat="52.81421" lon="6.46626"></trkpt><trkpt lat="52.81421" lon="6.46574"></trkpt><trkpt lat="52.81423" lon="6.46544"></trkpt><trkpt lat="52.81429" lon="6.46497"></trkpt><trkpt lat="52.81441" lon="6.46437"></trkpt><trkpt lat="52.81454" lon="6.46393"></trkpt><trkpt lat="52.8147" lon="6.46349"></trkpt><trkpt lat="52.8151" lon="6.46255"></trkpt><trkpt lat="52.81561" lon="6.46146"></trkpt><trkpt lat="52.81575" lon="6.46127"></trkpt><trkpt lat="52.81601" lon="6.46087"></trkpt><trkpt lat="52.81621" lon="6.46064"></trkpt><trkpt lat="52.81655" lon="6.46033"></trkpt><trkpt lat="52.81769" lon="6.45944"></trkpt><trkpt lat="52.81785" lon="6.45929"></trkpt><trkpt lat="52.81823" lon="6.45886"></trkpt><trkpt lat="52.81847" lon="6.45866"></trkpt><trkpt lat="52.81852" lon="6.45857"></trkpt><trkpt lat="52.81854" lon="6.4585"></trkpt><trkpt lat="52.81855" lon="6.4583"></trkpt><trkpt lat="52.81862" lon="6.45801"></trkpt><trkpt lat="52.81842" lon="6.4579"></trkpt><trkpt lat="52.81839" lon="6.45787"></trkpt><trkpt lat="52.81837" lon="6.45782"></trkpt><trkpt lat="52.81835" lon="6.45775"></trkpt><trkpt lat="52.81835" lon="6.45763"></trkpt><trkpt lat="52.81822" lon="6.45719"></trkpt><trkpt lat="52.81822" lon="6.4563"></trkpt><trkpt lat="52.81819" lon="6.45607"></trkpt><trkpt lat="52.81814" lon="6.4559"></trkpt><trkpt lat="52.81803" lon="6.45575"></trkpt><trkpt lat="52.81799" lon="6.45567"></trkpt><trkpt lat="52.81793" lon="6.45548"></trkpt><trkpt lat="52.81787" lon="6.45541"></trkpt><trkpt lat="52.81774" lon="6.45535"></trkpt><trkpt lat="52.81771" lon="6.45532"></trkpt><trkpt lat="52.8177" lon="6.45515"></trkpt><trkpt lat="52.81777" lon="6.45476"></trkpt><trkpt lat="52.81775" lon="6.45463"></trkpt><trkpt lat="52.81748" lon="6.45424"></trkpt><trkpt lat="52.81738" lon="6.45419"></trkpt><trkpt lat="52.81725" lon="6.45418"></trkpt><trkpt lat="52.81706" lon="6.45411"></trkpt><trkpt lat="52.81672" lon="6.4541"></trkpt><trkpt lat="52.81659" lon="6.45408"></trkpt><trkpt lat="52.81651" lon="6.45409"></trkpt><trkpt lat="52.81636" lon="6.45399"></trkpt><trkpt lat="52.81571" lon="6.45347"></trkpt><trkpt lat="52.81546" lon="6.45334"></trkpt><trkpt lat="52.81511" lon="6.45319"></trkpt><trkpt lat="52.81373" lon="6.44925"></trkpt><trkpt lat="52.81285" lon="6.44711"></trkpt><trkpt lat="52.81276" lon="6.44685"></trkpt><trkpt lat="52.8122" lon="6.44292"></trkpt><trkpt lat="52.81216" lon="6.44273"></trkpt><trkpt lat="52.81182" lon="6.44018"></trkpt><trkpt lat="52.81179" lon="6.43872"></trkpt><trkpt lat="52.81177" lon="6.43513"></trkpt><trkpt lat="52.81276" lon="6.4328"></trkpt><trkpt lat="52.81358" lon="6.4308"></trkpt><trkpt lat="52.81497" lon="6.42754"></trkpt><trkpt lat="52.8148" lon="6.42503"></trkpt><trkpt lat="52.81452" lon="6.42185"></trkpt><trkpt lat="52.81439" lon="6.41994"></trkpt><trkpt lat="52.81415" lon="6.41681"></trkpt><trkpt lat="52.81411" lon="6.41638"></trkpt><trkpt lat="52.81409" lon="6.41634"></trkpt><trkpt lat="52.81409" lon="6.41621"></trkpt><trkpt lat="52.81388" lon="6.41376"></trkpt><trkpt lat="52.81373" lon="6.41121"></trkpt><trkpt lat="52.81364" lon="6.41031"></trkpt><trkpt lat="52.81364" lon="6.41009"></trkpt><trkpt lat="52.8133" lon="6.40578"></trkpt><trkpt lat="52.81317" lon="6.40484"></trkpt><trkpt lat="52.81227" lon="6.39945"></trkpt><trkpt lat="52.81227" lon="6.39936"></trkpt><trkpt lat="52.81184" lon="6.39666"></trkpt><trkpt lat="52.81102" lon="6.39177"></trkpt><trkpt lat="52.81072" lon="6.38975"></trkpt><trkpt lat="52.81042" lon="6.38808"></trkpt><trkpt lat="52.81021" lon="6.38673"></trkpt><trkpt lat="52.8101" lon="6.38632"></trkpt><trkpt lat="52.80971" lon="6.38376"></trkpt><trkpt lat="52.80954" lon="6.3822"></trkpt><trkpt lat="52.80909" lon="6.37924"></trkpt><trkpt lat="52.80907" lon="6.37902"></trkpt><trkpt lat="52.80903" lon="6.37883"></trkpt><trkpt lat="52.80888" lon="6.37846"></trkpt><trkpt lat="52.80873" lon="6.37752"></trkpt><trkpt lat="52.80778" lon="6.37083"></trkpt><trkpt lat="52.8078" lon="6.3707"></trkpt><trkpt lat="52.80795" lon="6.37025"></trkpt><trkpt lat="52.80875" lon="6.36716"></trkpt><trkpt lat="52.80896" lon="6.36617"></trkpt><trkpt lat="52.80905" lon="6.3657"></trkpt><trkpt lat="52.80958" lon="6.36184"></trkpt><trkpt lat="52.80973" lon="6.36102"></trkpt><trkpt lat="52.81025" lon="6.35911"></trkpt><trkpt lat="52.8117" lon="6.35555"></trkpt><trkpt lat="52.81169" lon="6.35558"></trkpt><trkpt lat="52.81193" lon="6.35576"></trkpt><trkpt lat="52.81256" lon="6.35617"></trkpt><trkpt lat="52.81272" lon="6.35633"></trkpt><trkpt lat="52.81304" lon="6.35673"></trkpt><trkpt lat="52.81356" lon="6.35747"></trkpt><trkpt lat="52.81487" lon="6.35927"></trkpt><trkpt lat="52.81664" lon="6.3618"></trkpt><trkpt lat="52.81921" lon="6.36535"></trkpt><trkpt lat="52.81939" lon="6.36564"></trkpt><trkpt lat="52.81944" lon="6.36567"></trkpt><trkpt lat="52.81949" lon="6.36576"></trkpt><trkpt lat="52.81955" lon="6.36581"></trkpt><trkpt lat="52.81961" lon="6.36591"></trkpt><trkpt lat="52.82" lon="6.36644"></trkpt><trkpt lat="52.82021" lon="6.3667"></trkpt><trkpt lat="52.8203" lon="6.36685"></trkpt><trkpt lat="52.82111" lon="6.36794"></trkpt><trkpt lat="52.82126" lon="6.36816"></trkpt><trkpt lat="52.82131" lon="6.36821"></trkpt><trkpt lat="52.82136" lon="6.3683"></trkpt><trkpt lat="52.82142" lon="6.36849"></trkpt><trkpt lat="52.82158" lon="6.36873"></trkpt><trkpt lat="52.82165" lon="6.36879"></trkpt><trkpt lat="52.8244" lon="6.36973"></trkpt><trkpt lat="52.82512" lon="6.36996"></trkpt><trkpt lat="52.82548" lon="6.36995"></trkpt><trkpt lat="52.82612" lon="6.36989"></trkpt><trkpt lat="52.8285" lon="6.36964"></trkpt><trkpt lat="52.82863" lon="6.3696"></trkpt><trkpt lat="52.82871" lon="6.36956"></trkpt><trkpt lat="52.82995" lon="6.36869"></trkpt><trkpt lat="52.82996" lon="6.36852"></trkpt><trkpt lat="52.83164" lon="6.36736"></trkpt><trkpt lat="52.83293" lon="6.3665"></trkpt><trkpt lat="52.83361" lon="6.36607"></trkpt><trkpt lat="52.83373" lon="6.36597"></trkpt><trkpt lat="52.83428" lon="6.3654"></trkpt><trkpt lat="52.8345" lon="6.36584"></trkpt><trkpt lat="52.8346" lon="6.36599"></trkpt><trkpt lat="52.83468" lon="6.36603"></trkpt><trkpt lat="52.8348" lon="6.36603"></trkpt><trkpt lat="52.83513" lon="6.36584"></trkpt><trkpt lat="52.8353" lon="6.36578"></trkpt><trkpt lat="52.83601" lon="6.36563"></trkpt><trkpt lat="52.83635" lon="6.36552"></trkpt><trkpt lat="52.83655" lon="6.36543"></trkpt><trkpt lat="52.83692" lon="6.36522"></trkpt><trkpt lat="52.83715" lon="6.36506"></trkpt><trkpt lat="52.83725" lon="6.36497"></trkpt><trkpt lat="52.83738" lon="6.36483"></trkpt><trkpt lat="52.8375" lon="6.36467"></trkpt><trkpt lat="52.83762" lon="6.36444"></trkpt><trkpt lat="52.83769" lon="6.36427"></trkpt><trkpt lat="52.83788" lon="6.36374"></trkpt><trkpt lat="52.8379" lon="6.36377"></trkpt><trkpt lat="52.83794" lon="6.36378"></trkpt><trkpt lat="52.83808" lon="6.36359"></trkpt><trkpt lat="52.83815" lon="6.36352"></trkpt><trkpt lat="52.83819" lon="6.3635"></trkpt><trkpt lat="52.83831" lon="6.36344"></trkpt><trkpt lat="52.83858" lon="6.36339"></trkpt><trkpt lat="52.83885" lon="6.3634"></trkpt><trkpt lat="52.8389" lon="6.36346"></trkpt><trkpt lat="52.83897" lon="6.36365"></trkpt><trkpt lat="52.83902" lon="6.36368"></trkpt><trkpt lat="52.83912" lon="6.36371"></trkpt><trkpt lat="52.83928" lon="6.36373"></trkpt><trkpt lat="52.83936" lon="6.3637"></trkpt><trkpt lat="52.83947" lon="6.3636"></trkpt><trkpt lat="52.83955" lon="6.36342"></trkpt><trkpt lat="52.83958" lon="6.36331"></trkpt><trkpt lat="52.83958" lon="6.36323"></trkpt><trkpt lat="52.83962" lon="6.36313"></trkpt><trkpt lat="52.84016" lon="6.36188"></trkpt><trkpt lat="52.84026" lon="6.36169"></trkpt><trkpt lat="52.84039" lon="6.36157"></trkpt><trkpt lat="52.84047" lon="6.36152"></trkpt><trkpt lat="52.84087" lon="6.36135"></trkpt><trkpt lat="52.84109" lon="6.36123"></trkpt><trkpt lat="52.84119" lon="6.36114"></trkpt><trkpt lat="52.84183" lon="6.36046"></trkpt><trkpt lat="52.84253" lon="6.35976"></trkpt><trkpt lat="52.84263" lon="6.35964"></trkpt><trkpt lat="52.84346" lon="6.3582"></trkpt><trkpt lat="52.84356" lon="6.358"></trkpt><trkpt lat="52.8438" lon="6.35725"></trkpt><trkpt lat="52.84391" lon="6.35681"></trkpt><trkpt lat="52.84479" lon="6.35727"></trkpt><trkpt lat="52.84502" lon="6.35735"></trkpt><trkpt lat="52.84514" lon="6.35735"></trkpt><trkpt lat="52.84546" lon="6.3573"></trkpt><trkpt lat="52.84618" lon="6.35713"></trkpt><trkpt lat="52.84676" lon="6.3569"></trkpt><trkpt lat="52.84683" lon="6.35683"></trkpt><trkpt lat="52.84795" lon="6.35797"></trkpt><trkpt lat="52.84811" lon="6.35818"></trkpt><trkpt lat="52.84841" lon="6.35863"></trkpt><trkpt lat="52.8496" lon="6.36069"></trkpt><trkpt lat="52.84994" lon="6.36013"></trkpt><trkpt lat="52.85005" lon="6.35997"></trkpt><trkpt lat="52.8502" lon="6.3598"></trkpt><trkpt lat="52.85036" lon="6.35968"></trkpt><trkpt lat="52.85057" lon="6.35956"></trkpt><trkpt lat="52.85075" lon="6.3595"></trkpt><trkpt lat="52.85096" lon="6.35946"></trkpt><trkpt lat="52.85118" lon="6.35948"></trkpt><trkpt lat="52.85133" lon="6.35954"></trkpt><trkpt lat="52.85158" lon="6.35961"></trkpt><trkpt lat="52.85309" lon="6.36019"></trkpt><trkpt lat="52.85325" lon="6.36027"></trkpt><trkpt lat="52.85359" lon="6.36035"></trkpt><trkpt lat="52.85396" lon="6.36033"></trkpt><trkpt lat="52.85434" lon="6.36025"></trkpt><trkpt lat="52.85489" lon="6.36017"></trkpt><trkpt lat="52.85501" lon="6.36022"></trkpt><trkpt lat="52.85521" lon="6.36043"></trkpt><trkpt lat="52.85567" lon="6.36106"></trkpt><trkpt lat="52.85573" lon="6.36111"></trkpt><trkpt lat="52.85591" lon="6.36117"></trkpt><trkpt lat="52.85682" lon="6.36127"></trkpt><trkpt lat="52.85861" lon="6.36153"></trkpt><trkpt lat="52.85885" lon="6.36157"></trkpt><trkpt lat="52.85907" lon="6.36169"></trkpt><trkpt lat="52.85923" lon="6.36183"></trkpt><trkpt lat="52.85936" lon="6.36197"></trkpt><trkpt lat="52.85961" lon="6.3623"></trkpt><trkpt lat="52.86085" lon="6.36443"></trkpt><trkpt lat="52.86107" lon="6.36483"></trkpt><trkpt lat="52.86131" lon="6.36506"></trkpt><trkpt lat="52.86203" lon="6.36561"></trkpt><trkpt lat="52.86426" lon="6.36743"></trkpt><trkpt lat="52.86639" lon="6.3697"></trkpt><trkpt lat="52.86667" lon="6.37017"></trkpt><trkpt lat="52.86855" lon="6.37358"></trkpt><trkpt lat="52.86862" lon="6.37359"></trkpt><trkpt lat="52.86875" lon="6.37357"></trkpt><trkpt lat="52.86938" lon="6.3731"></trkpt><trkpt lat="52.87059" lon="6.37226"></trkpt><trkpt lat="52.87226" lon="6.37106"></trkpt><trkpt lat="52.87269" lon="6.37078"></trkpt><trkpt lat="52.87297" lon="6.3704"></trkpt><trkpt lat="52.87323" lon="6.37079"></trkpt><trkpt lat="52.87347" lon="6.37109"></trkpt><trkpt lat="52.87373" lon="6.37134"></trkpt><trkpt lat="52.87404" lon="6.37154"></trkpt><trkpt lat="52.87448" lon="6.37175"></trkpt><trkpt lat="52.87526" lon="6.37206"></trkpt><trkpt lat="52.8756" lon="6.37217"></trkpt><trkpt lat="52.87587" lon="6.37223"></trkpt><trkpt lat="52.87658" lon="6.37233"></trkpt><trkpt lat="52.87785" lon="6.37232"></trkpt><trkpt lat="52.87848" lon="6.37224"></trkpt><trkpt lat="52.87973" lon="6.37185"></trkpt><trkpt lat="52.88021" lon="6.37173"></trkpt><trkpt lat="52.88046" lon="6.37172"></trkpt><trkpt lat="52.88067" lon="6.37173"></trkpt><trkpt lat="52.88098" lon="6.3718"></trkpt><trkpt lat="52.88134" lon="6.37196"></trkpt><trkpt lat="52.88164" lon="6.37217"></trkpt><trkpt lat="52.88194" lon="6.37246"></trkpt><trkpt lat="52.88262" lon="6.37335"></trkpt><trkpt lat="52.88295" lon="6.37375"></trkpt><trkpt lat="52.88326" lon="6.37409"></trkpt><trkpt lat="52.88366" lon="6.37447"></trkpt><trkpt lat="52.88398" lon="6.37473"></trkpt><trkpt lat="52.88511" lon="6.37554"></trkpt><trkpt lat="52.88599" lon="6.37625"></trkpt><trkpt lat="52.88662" lon="6.37689"></trkpt><trkpt lat="52.88688" lon="6.37721"></trkpt><trkpt lat="52.88711" lon="6.37757"></trkpt><trkpt lat="52.88811" lon="6.37935"></trkpt><trkpt lat="52.88841" lon="6.3798"></trkpt><trkpt lat="52.88877" lon="6.38022"></trkpt><trkpt lat="52.8902" lon="6.38171"></trkpt><trkpt lat="52.89132" lon="6.38281"></trkpt><trkpt lat="52.89531" lon="6.38658"></trkpt><trkpt lat="52.89647" lon="6.3877"></trkpt><trkpt lat="52.89825" lon="6.38958"></trkpt><trkpt lat="52.89921" lon="6.39063"></trkpt><trkpt lat="52.90178" lon="6.39339"></trkpt><trkpt lat="52.90197" lon="6.39355"></trkpt><trkpt lat="52.90254" lon="6.39171"></trkpt><trkpt lat="52.90247" lon="6.39167"></trkpt><trkpt lat="52.90242" lon="6.39159"></trkpt><trkpt lat="52.9024" lon="6.39147"></trkpt><trkpt lat="52.9043" lon="6.38544"></trkpt><trkpt lat="52.90436" lon="6.38532"></trkpt><trkpt lat="52.90447" lon="6.38516"></trkpt><trkpt lat="52.90458" lon="6.38483"></trkpt><trkpt lat="52.90471" lon="6.38458"></trkpt><trkpt lat="52.90501" lon="6.38346"></trkpt><trkpt lat="52.90578" lon="6.38098"></trkpt><trkpt lat="52.90603" lon="6.38023"></trkpt><trkpt lat="52.90606" lon="6.37989"></trkpt><trkpt lat="52.90666" lon="6.37799"></trkpt><trkpt lat="52.90677" lon="6.37778"></trkpt><trkpt lat="52.90711" lon="6.37666"></trkpt><trkpt lat="52.90765" lon="6.37563"></trkpt><trkpt lat="52.90782" lon="6.37523"></trkpt><trkpt lat="52.90837" lon="6.37353"></trkpt><trkpt lat="52.90838" lon="6.37338"></trkpt><trkpt lat="52.90832" lon="6.37338"></trkpt><trkpt lat="52.90828" lon="6.37334"></trkpt><trkpt lat="52.9081" lon="6.37306"></trkpt><trkpt lat="52.90805" lon="6.37303"></trkpt><trkpt lat="52.90795" lon="6.37303"></trkpt><trkpt lat="52.90787" lon="6.37307"></trkpt><trkpt lat="52.90779" lon="6.37314"></trkpt><trkpt lat="52.90719" lon="6.37375"></trkpt><trkpt lat="52.90705" lon="6.37384"></trkpt><trkpt lat="52.9069" lon="6.3739"></trkpt><trkpt lat="52.90677" lon="6.37389"></trkpt><trkpt lat="52.90665" lon="6.37383"></trkpt><trkpt lat="52.90655" lon="6.37375"></trkpt><trkpt lat="52.90644" lon="6.37365"></trkpt><trkpt lat="52.90611" lon="6.37342"></trkpt><trkpt lat="52.90599" lon="6.3733"></trkpt><trkpt lat="52.90583" lon="6.37303"></trkpt><trkpt lat="52.90574" lon="6.37276"></trkpt><trkpt lat="52.90571" lon="6.37271"></trkpt><trkpt lat="52.90487" lon="6.37149"></trkpt><trkpt lat="52.90438" lon="6.371"></trkpt><trkpt lat="52.90427" lon="6.37086"></trkpt><trkpt lat="52.90424" lon="6.3708"></trkpt><trkpt lat="52.90419" lon="6.37067"></trkpt><trkpt lat="52.90358" lon="6.36791"></trkpt><trkpt lat="52.90342" lon="6.36725"></trkpt><trkpt lat="52.90285" lon="6.36574"></trkpt><trkpt lat="52.90271" lon="6.36545"></trkpt><trkpt lat="52.90258" lon="6.36532"></trkpt><trkpt lat="52.90251" lon="6.36528"></trkpt><trkpt lat="52.90236" lon="6.36526"></trkpt><trkpt lat="52.90226" lon="6.3653"></trkpt><trkpt lat="52.90202" lon="6.36548"></trkpt><trkpt lat="52.90185" lon="6.36556"></trkpt><trkpt lat="52.90168" lon="6.36553"></trkpt><trkpt lat="52.90164" lon="6.3655"></trkpt><trkpt lat="52.90156" lon="6.36537"></trkpt><trkpt lat="52.90086" lon="6.3648"></trkpt><trkpt lat="52.90077" lon="6.36476"></trkpt><trkpt lat="52.90014" lon="6.36426"></trkpt><trkpt lat="52.89931" lon="6.36357"></trkpt><trkpt lat="52.89919" lon="6.36342"></trkpt><trkpt lat="52.89638" lon="6.36109"></trkpt><trkpt lat="52.89633" lon="6.36107"></trkpt><trkpt lat="52.89626" lon="6.36107"></trkpt><trkpt lat="52.89615" lon="6.36103"></trkpt><trkpt lat="52.89531" lon="6.36034"></trkpt><trkpt lat="52.89524" lon="6.36026"></trkpt><trkpt lat="52.89511" lon="6.36006"></trkpt><trkpt lat="52.89454" lon="6.35957"></trkpt><trkpt lat="52.89446" lon="6.3594"></trkpt><trkpt lat="52.89431" lon="6.359"></trkpt><trkpt lat="52.89408" lon="6.35832"></trkpt><trkpt lat="52.89386" lon="6.3576"></trkpt><trkpt lat="52.89376" lon="6.35734"></trkpt><trkpt lat="52.89346" lon="6.35665"></trkpt><trkpt lat="52.89298" lon="6.35574"></trkpt><trkpt lat="52.89296" lon="6.35561"></trkpt><trkpt lat="52.89297" lon="6.35548"></trkpt><trkpt lat="52.89319" lon="6.35419"></trkpt><trkpt lat="52.89336" lon="6.35282"></trkpt><trkpt lat="52.89339" lon="6.35206"></trkpt><trkpt lat="52.89335" lon="6.35059"></trkpt><trkpt lat="52.89335" lon="6.35007"></trkpt><trkpt lat="52.89331" lon="6.3494"></trkpt><trkpt lat="52.89335" lon="6.34918"></trkpt><trkpt lat="52.89334" lon="6.3491"></trkpt><trkpt lat="52.8933" lon="6.34903"></trkpt><trkpt lat="52.89324" lon="6.34898"></trkpt><trkpt lat="52.89291" lon="6.3488"></trkpt><trkpt lat="52.89284" lon="6.34874"></trkpt><trkpt lat="52.89198" lon="6.34767"></trkpt><trkpt lat="52.8919" lon="6.34756"></trkpt><trkpt lat="52.89184" lon="6.34744"></trkpt><trkpt lat="52.89131" lon="6.34516"></trkpt><trkpt lat="52.89121" lon="6.34461"></trkpt><trkpt lat="52.8912" lon="6.34442"></trkpt><trkpt lat="52.89124" lon="6.34418"></trkpt><trkpt lat="52.89125" lon="6.34401"></trkpt><trkpt lat="52.89119" lon="6.34186"></trkpt><trkpt lat="52.89112" lon="6.34113"></trkpt><trkpt lat="52.89108" lon="6.34087"></trkpt><trkpt lat="52.89063" lon="6.33825"></trkpt><trkpt lat="52.89035" lon="6.33666"></trkpt><trkpt lat="52.89032" lon="6.33655"></trkpt><trkpt lat="52.89012" lon="6.33604"></trkpt><trkpt lat="52.88956" lon="6.33438"></trkpt><trkpt lat="52.88901" lon="6.33274"></trkpt><trkpt lat="52.88866" lon="6.33196"></trkpt><trkpt lat="52.88858" lon="6.33155"></trkpt><trkpt lat="52.88854" lon="6.33142"></trkpt><trkpt lat="52.88841" lon="6.33116"></trkpt><trkpt lat="52.88832" lon="6.33105"></trkpt><trkpt lat="52.88821" lon="6.33095"></trkpt><trkpt lat="52.88809" lon="6.33092"></trkpt><trkpt lat="52.88769" lon="6.33097"></trkpt><trkpt lat="52.88755" lon="6.33097"></trkpt><trkpt lat="52.88745" lon="6.33092"></trkpt><trkpt lat="52.88737" lon="6.33084"></trkpt><trkpt lat="52.88732" lon="6.33069"></trkpt><trkpt lat="52.88733" lon="6.33053"></trkpt><trkpt lat="52.88821" lon="6.32681"></trkpt><trkpt lat="52.8882" lon="6.32662"></trkpt><trkpt lat="52.88801" lon="6.32549"></trkpt><trkpt lat="52.88791" lon="6.32431"></trkpt><trkpt lat="52.88787" lon="6.32317"></trkpt><trkpt lat="52.88771" lon="6.3203"></trkpt><trkpt lat="52.88763" lon="6.31993"></trkpt><trkpt lat="52.88751" lon="6.31955"></trkpt><trkpt lat="52.88745" lon="6.31942"></trkpt><trkpt lat="52.88732" lon="6.31922"></trkpt><trkpt lat="52.88735" lon="6.31912"></trkpt><trkpt lat="52.88725" lon="6.31861"></trkpt><trkpt lat="52.88735" lon="6.31912"></trkpt><trkpt lat="52.88732" lon="6.31922"></trkpt><trkpt lat="52.88715" lon="6.31898"></trkpt><trkpt lat="52.88694" lon="6.31863"></trkpt><trkpt lat="52.88672" lon="6.31838"></trkpt><trkpt lat="52.88666" lon="6.3186"></trkpt><trkpt lat="52.8864" lon="6.31911"></trkpt><trkpt lat="52.88633" lon="6.31921"></trkpt><trkpt lat="52.88619" lon="6.31935"></trkpt><trkpt lat="52.88593" lon="6.3198"></trkpt><trkpt lat="52.88567" lon="6.32021"></trkpt><trkpt lat="52.88552" lon="6.3204"></trkpt><trkpt lat="52.88541" lon="6.32051"></trkpt><trkpt lat="52.88516" lon="6.32096"></trkpt><trkpt lat="52.8849" lon="6.32125"></trkpt><trkpt lat="52.88438" lon="6.32206"></trkpt><trkpt lat="52.8843" lon="6.32232"></trkpt><trkpt lat="52.88422" lon="6.32247"></trkpt><trkpt lat="52.8839" lon="6.32295"></trkpt><trkpt lat="52.8838" lon="6.32321"></trkpt><trkpt lat="52.88367" lon="6.32346"></trkpt><trkpt lat="52.88346" lon="6.32371"></trkpt><trkpt lat="52.8833" lon="6.32382"></trkpt><trkpt lat="52.88293" lon="6.32401"></trkpt><trkpt lat="52.88261" lon="6.32421"></trkpt><trkpt lat="52.88255" lon="6.32422"></trkpt><trkpt lat="52.88246" lon="6.32419"></trkpt><trkpt lat="52.88225" lon="6.32403"></trkpt><trkpt lat="52.88143" lon="6.32381"></trkpt><trkpt lat="52.88107" lon="6.32391"></trkpt><trkpt lat="52.88083" lon="6.32384"></trkpt><trkpt lat="52.88058" lon="6.32369"></trkpt><trkpt lat="52.88038" lon="6.3236"></trkpt><trkpt lat="52.87826" lon="6.32291"></trkpt><trkpt lat="52.87775" lon="6.323"></trkpt><trkpt lat="52.87735" lon="6.3228"></trkpt><trkpt lat="52.87715" lon="6.32275"></trkpt><trkpt lat="52.87645" lon="6.32263"></trkpt><trkpt lat="52.87629" lon="6.32257"></trkpt><trkpt lat="52.87619" lon="6.32251"></trkpt><trkpt lat="52.87598" lon="6.32232"></trkpt><trkpt lat="52.87581" lon="6.32222"></trkpt><trkpt lat="52.87487" lon="6.32193"></trkpt><trkpt lat="52.87477" lon="6.32187"></trkpt><trkpt lat="52.87468" lon="6.32185"></trkpt><trkpt lat="52.87452" lon="6.32178"></trkpt><trkpt lat="52.87222" lon="6.32108"></trkpt><trkpt lat="52.87198" lon="6.32108"></trkpt><trkpt lat="52.87182" lon="6.32104"></trkpt><trkpt lat="52.87161" lon="6.32097"></trkpt><trkpt lat="52.87058" lon="6.32055"></trkpt><trkpt lat="52.87027" lon="6.32059"></trkpt><trkpt lat="52.87018" lon="6.32056"></trkpt><trkpt lat="52.87007" lon="6.32047"></trkpt><trkpt lat="52.87001" lon="6.32044"></trkpt><trkpt lat="52.86972" lon="6.32043"></trkpt><trkpt lat="52.86953" lon="6.32038"></trkpt><trkpt lat="52.86922" lon="6.32025"></trkpt><trkpt lat="52.86888" lon="6.32016"></trkpt><trkpt lat="52.86874" lon="6.32009"></trkpt><trkpt lat="52.86853" lon="6.31992"></trkpt><trkpt lat="52.86828" lon="6.31963"></trkpt><trkpt lat="52.86796" lon="6.3195"></trkpt><trkpt lat="52.86772" lon="6.31931"></trkpt><trkpt lat="52.86753" lon="6.31925"></trkpt><trkpt lat="52.86728" lon="6.31922"></trkpt><trkpt lat="52.86701" lon="6.31921"></trkpt><trkpt lat="52.86689" lon="6.31912"></trkpt><trkpt lat="52.86673" lon="6.31905"></trkpt><trkpt lat="52.86662" lon="6.31892"></trkpt><trkpt lat="52.86631" lon="6.31892"></trkpt><trkpt lat="52.86613" lon="6.31896"></trkpt><trkpt lat="52.86563" lon="6.31913"></trkpt><trkpt lat="52.86508" lon="6.31939"></trkpt><trkpt lat="52.86466" lon="6.31964"></trkpt><trkpt lat="52.86459" lon="6.31967"></trkpt><trkpt lat="52.86442" lon="6.31971"></trkpt><trkpt lat="52.86435" lon="6.31975"></trkpt><trkpt lat="52.86426" lon="6.31985"></trkpt><trkpt lat="52.8641" lon="6.31997"></trkpt><trkpt lat="52.86396" lon="6.32001"></trkpt><trkpt lat="52.86372" lon="6.32017"></trkpt><trkpt lat="52.86362" lon="6.32022"></trkpt><trkpt lat="52.86345" lon="6.32026"></trkpt><trkpt lat="52.8633" lon="6.3204"></trkpt><trkpt lat="52.86307" lon="6.32046"></trkpt><trkpt lat="52.86289" lon="6.32043"></trkpt><trkpt lat="52.86284" lon="6.32044"></trkpt><trkpt lat="52.86257" lon="6.32068"></trkpt><trkpt lat="52.86243" lon="6.32072"></trkpt><trkpt lat="52.86177" lon="6.32108"></trkpt><trkpt lat="52.86167" lon="6.32112"></trkpt><trkpt lat="52.86161" lon="6.3211"></trkpt><trkpt lat="52.86154" lon="6.32101"></trkpt><trkpt lat="52.86138" lon="6.32099"></trkpt><trkpt lat="52.8612" lon="6.32105"></trkpt><trkpt lat="52.86049" lon="6.32122"></trkpt><trkpt lat="52.86023" lon="6.32124"></trkpt><trkpt lat="52.85993" lon="6.3212"></trkpt><trkpt lat="52.85982" lon="6.32123"></trkpt><trkpt lat="52.85976" lon="6.32123"></trkpt><trkpt lat="52.85888" lon="6.32106"></trkpt><trkpt lat="52.8582" lon="6.3209"></trkpt><trkpt lat="52.85725" lon="6.32072"></trkpt><trkpt lat="52.85673" lon="6.3206"></trkpt><trkpt lat="52.85659" lon="6.32053"></trkpt><trkpt lat="52.85653" lon="6.32056"></trkpt><trkpt lat="52.85649" lon="6.32056"></trkpt><trkpt lat="52.85644" lon="6.32052"></trkpt><trkpt lat="52.85646" lon="6.32042"></trkpt><trkpt lat="52.8565" lon="6.32032"></trkpt><trkpt lat="52.85622" lon="6.32003"></trkpt><trkpt lat="52.85571" lon="6.31944"></trkpt><trkpt lat="52.85552" lon="6.31928"></trkpt><trkpt lat="52.85547" lon="6.31926"></trkpt><trkpt lat="52.85525" lon="6.31925"></trkpt><trkpt lat="52.85501" lon="6.31929"></trkpt><trkpt lat="52.8547" lon="6.31884"></trkpt><trkpt lat="52.85461" lon="6.31873"></trkpt><trkpt lat="52.85362" lon="6.31767"></trkpt><trkpt lat="52.85369" lon="6.3172"></trkpt><trkpt lat="52.85345" lon="6.31702"></trkpt><trkpt lat="52.85292" lon="6.31656"></trkpt><trkpt lat="52.85233" lon="6.31622"></trkpt><trkpt lat="52.8519" lon="6.31602"></trkpt><trkpt lat="52.85095" lon="6.31587"></trkpt><trkpt lat="52.85022" lon="6.31548"></trkpt><trkpt lat="52.85015" lon="6.31547"></trkpt><trkpt lat="52.84986" lon="6.3153"></trkpt><trkpt lat="52.84947" lon="6.31513"></trkpt><trkpt lat="52.84909" lon="6.31501"></trkpt><trkpt lat="52.84886" lon="6.31497"></trkpt><trkpt lat="52.84871" lon="6.31499"></trkpt><trkpt lat="52.84846" lon="6.3151"></trkpt><trkpt lat="52.84676" lon="6.3161"></trkpt><trkpt lat="52.84657" lon="6.31618"></trkpt><trkpt lat="52.84637" lon="6.31622"></trkpt><trkpt lat="52.84616" lon="6.31624"></trkpt><trkpt lat="52.84596" lon="6.31621"></trkpt><trkpt lat="52.8458" lon="6.31616"></trkpt><trkpt lat="52.84494" lon="6.31562"></trkpt><trkpt lat="52.84147" lon="6.31349"></trkpt><trkpt lat="52.84037" lon="6.31283"></trkpt><trkpt lat="52.84018" lon="6.31268"></trkpt><trkpt lat="52.84005" lon="6.31254"></trkpt><trkpt lat="52.83972" lon="6.31215"></trkpt><trkpt lat="52.83906" lon="6.31128"></trkpt><trkpt lat="52.83872" lon="6.31087"></trkpt><trkpt lat="52.83854" lon="6.31073"></trkpt><trkpt lat="52.83822" lon="6.3107"></trkpt><trkpt lat="52.83774" lon="6.31074"></trkpt><trkpt lat="52.83741" lon="6.3108"></trkpt><trkpt lat="52.83715" lon="6.31079"></trkpt><trkpt lat="52.83614" lon="6.31062"></trkpt><trkpt lat="52.83601" lon="6.31058"></trkpt><trkpt lat="52.83591" lon="6.31049"></trkpt><trkpt lat="52.83584" lon="6.31039"></trkpt><trkpt lat="52.83473" lon="6.30873"></trkpt><trkpt lat="52.83458" lon="6.30861"></trkpt><trkpt lat="52.83408" lon="6.30843"></trkpt><trkpt lat="52.83382" lon="6.30836"></trkpt><trkpt lat="52.83326" lon="6.3083"></trkpt><trkpt lat="52.83164" lon="6.30829"></trkpt><trkpt lat="52.83141" lon="6.30827"></trkpt><trkpt lat="52.83116" lon="6.3082"></trkpt><trkpt lat="52.82998" lon="6.30777"></trkpt><trkpt lat="52.82992" lon="6.30777"></trkpt><trkpt lat="52.82937" lon="6.30732"></trkpt><trkpt lat="52.82923" lon="6.30724"></trkpt><trkpt lat="52.82903" lon="6.30731"></trkpt><trkpt lat="52.82889" lon="6.30738"></trkpt><trkpt lat="52.82841" lon="6.30768"></trkpt><trkpt lat="52.82639" lon="6.30859"></trkpt><trkpt lat="52.82615" lon="6.30875"></trkpt><trkpt lat="52.82603" lon="6.30898"></trkpt><trkpt lat="52.82547" lon="6.31019"></trkpt><trkpt lat="52.82451" lon="6.31238"></trkpt><trkpt lat="52.82443" lon="6.31262"></trkpt><trkpt lat="52.82438" lon="6.31261"></trkpt><trkpt lat="52.82428" lon="6.3127"></trkpt><trkpt lat="52.82423" lon="6.31294"></trkpt><trkpt lat="52.8242" lon="6.31302"></trkpt><trkpt lat="52.82379" lon="6.31383"></trkpt><trkpt lat="52.82377" lon="6.3139"></trkpt><trkpt lat="52.82376" lon="6.31425"></trkpt><trkpt lat="52.82387" lon="6.31515"></trkpt><trkpt lat="52.82401" lon="6.31609"></trkpt><trkpt lat="52.82402" lon="6.31667"></trkpt><trkpt lat="52.82397" lon="6.31721"></trkpt><trkpt lat="52.82384" lon="6.31779"></trkpt><trkpt lat="52.82327" lon="6.31935"></trkpt><trkpt lat="52.82282" lon="6.32072"></trkpt><trkpt lat="52.82259" lon="6.3216"></trkpt><trkpt lat="52.8225" lon="6.32178"></trkpt><trkpt lat="52.82242" lon="6.32189"></trkpt><trkpt lat="52.82227" lon="6.32202"></trkpt><trkpt lat="52.82219" lon="6.32206"></trkpt><trkpt lat="52.82198" lon="6.32213"></trkpt><trkpt lat="52.8217" lon="6.32218"></trkpt><trkpt lat="52.82147" lon="6.32219"></trkpt><trkpt lat="52.82135" lon="6.32218"></trkpt><trkpt lat="52.82091" lon="6.32208"></trkpt><trkpt lat="52.82077" lon="6.32207"></trkpt><trkpt lat="52.82061" lon="6.32209"></trkpt><trkpt lat="52.82033" lon="6.3221"></trkpt><trkpt lat="52.81971" lon="6.32232"></trkpt><trkpt lat="52.81956" lon="6.32242"></trkpt><trkpt lat="52.81921" lon="6.32272"></trkpt><trkpt lat="52.81855" lon="6.32332"></trkpt><trkpt lat="52.81836" lon="6.32352"></trkpt><trkpt lat="52.81696" lon="6.32546"></trkpt><trkpt lat="52.81638" lon="6.32624"></trkpt><trkpt lat="52.81607" lon="6.32672"></trkpt><trkpt lat="52.81597" lon="6.32692"></trkpt><trkpt lat="52.81576" lon="6.32751"></trkpt><trkpt lat="52.81567" lon="6.3279"></trkpt><trkpt lat="52.81563" lon="6.32819"></trkpt><trkpt lat="52.81561" lon="6.32855"></trkpt><trkpt lat="52.81559" lon="6.33044"></trkpt><trkpt lat="52.81561" lon="6.33148"></trkpt><trkpt lat="52.81572" lon="6.33207"></trkpt><trkpt lat="52.81586" lon="6.33234"></trkpt><trkpt lat="52.81597" lon="6.33245"></trkpt><trkpt lat="52.8166" lon="6.33296"></trkpt><trkpt lat="52.81677" lon="6.33313"></trkpt><trkpt lat="52.8169" lon="6.33332"></trkpt><trkpt lat="52.81701" lon="6.33356"></trkpt><trkpt lat="52.81709" lon="6.33391"></trkpt><trkpt lat="52.81713" lon="6.33421"></trkpt><trkpt lat="52.81734" lon="6.33614"></trkpt><trkpt lat="52.81736" lon="6.33647"></trkpt><trkpt lat="52.81736" lon="6.33682"></trkpt><trkpt lat="52.81728" lon="6.33805"></trkpt><trkpt lat="52.8173" lon="6.33828"></trkpt><trkpt lat="52.81736" lon="6.33862"></trkpt><trkpt lat="52.81736" lon="6.33875"></trkpt><trkpt lat="52.81742" lon="6.33885"></trkpt><trkpt lat="52.81778" lon="6.33994"></trkpt><trkpt lat="52.81786" lon="6.34029"></trkpt><trkpt lat="52.81802" lon="6.34085"></trkpt><trkpt lat="52.81828" lon="6.34193"></trkpt><trkpt lat="52.81836" lon="6.34218"></trkpt><trkpt lat="52.81849" lon="6.34247"></trkpt><trkpt lat="52.81887" lon="6.34291"></trkpt><trkpt lat="52.81949" lon="6.34368"></trkpt><trkpt lat="52.82215" lon="6.34685"></trkpt><trkpt lat="52.82236" lon="6.34704"></trkpt><trkpt lat="52.82257" lon="6.3472"></trkpt><trkpt lat="52.82301" lon="6.34739"></trkpt><trkpt lat="52.82309" lon="6.34744"></trkpt><trkpt lat="52.82317" lon="6.34752"></trkpt><trkpt lat="52.82326" lon="6.34763"></trkpt><trkpt lat="52.82452" lon="6.34964"></trkpt><trkpt lat="52.82474" lon="6.34993"></trkpt><trkpt lat="52.82482" lon="6.35001"></trkpt><trkpt lat="52.82477" lon="6.35005"></trkpt><trkpt lat="52.82469" lon="6.3502"></trkpt><trkpt lat="52.82402" lon="6.35117"></trkpt><trkpt lat="52.82022" lon="6.3551"></trkpt><trkpt lat="52.82017" lon="6.3552"></trkpt><trkpt lat="52.82013" lon="6.3584"></trkpt><trkpt lat="52.82011" lon="6.3589"></trkpt><trkpt lat="52.81991" lon="6.3615"></trkpt><trkpt lat="52.81991" lon="6.36169"></trkpt><trkpt lat="52.81996" lon="6.36182"></trkpt><trkpt lat="52.81999" lon="6.36195"></trkpt><trkpt lat="52.82117" lon="6.36771"></trkpt><trkpt lat="52.82118" lon="6.36777"></trkpt><trkpt lat="52.82114" lon="6.36788"></trkpt><trkpt lat="52.82017" lon="6.36656"></trkpt><trkpt lat="52.82017" lon="6.36634"></trkpt><trkpt lat="52.82006" lon="6.36585"></trkpt></trkseg></trk></gpx>