<?xml version="1.0" encoding="UTF-8" standalone="no" ?>
<gpx xmlns="http://www.topografix.com/GPX/1/1"
		xmlns:gpxx="http://www.garmin.com/xmlschemas/GpxExtensions/v3"
		xmlns:gpxtpx="http://www.garmin.com/xmlschemas/TrackPointExtension/v1"
		xmlns:xsi="http://www.w3.org/2001/XMLSchema-instance"
		xsi:schemaLocation="http://www.topografix.com/GPX/1/1 http://www.topografix.com/GPX/1/1/gpx.xsd http://www.garmin.com/xmlschemas/GpxExtensions/v3 http://www.garmin.com/xmlschemas/GpxExtensionsv3.xsd http://www.garmin.com/xmlschemas/TrackPointExtension/v1 http://www.garmin.com/xmlschemas/TrackPointExtensionv1.xsd"
		creator="Gravelmap.com"
		version="1.1">

	<metadata>
		<name><![CDATA[Gravel Route: Vanaf Fochterloerveen]]></name>
		<desc><![CDATA[]]></desc>
		<link href="http://www.gravelmap.com/route/129105">
			<text><![CDATA[Gravel Route: Vanaf Fochterloerveen]]></text>
		</link>
		<time>2022-10-21T09:57:58-04:00</time>
	</metadata>

	<trk>
		<name><![CDATA[Gravel Route: Vanaf Fochterloerveen]]></name>
		<desc><![CDATA[]]></desc>
		<link href="http://www.gravelmap.com/route/129105">
			<text><![CDATA[Gravel Route: Vanaf Fochterloerveen]]></text>
		</link>
		<trkseg>
			<trkpt lat="53.00511" lon="6.48815">
				<ele>13.86</ele>
			</trkpt>
			<trkpt lat="53.00509" lon="6.48803">
				<ele>13.86</ele>
			</trkpt>
			<trkpt lat="53.00526" lon="6.48796">
				<ele>11.87</ele>
			</trkpt>
			<trkpt lat="53.00463" lon="6.48548">
				<ele>11.87</ele>
			</trkpt>
			<trkpt lat="52.99227" lon="6.439">
				<ele>11.13</ele>
			</trkpt>
			<trkpt lat="52.99227" lon="6.439">
				<ele>11.13</ele>
			</trkpt>
			<trkpt lat="52.99233" lon="6.43921">
				<ele>11.62</ele>
			</trkpt>
			<trkpt lat="52.99316" lon="6.43623">
				<ele>11.62</ele>
			</trkpt>
			<trkpt lat="52.99446" lon="6.43564">
				<ele>12.11</ele>
			</trkpt>
			<trkpt lat="52.99957" lon="6.43961">
				<ele>10.88</ele>
			</trkpt>
			<trkpt lat="53.00072" lon="6.43906">
				<ele>10.88</ele>
			</trkpt>
			<trkpt lat="53.00312" lon="6.44593">
				<ele>13.68</ele>
			</trkpt>
			<trkpt lat="53.01303" lon="6.43635">
				<ele>13.68</ele>
			</trkpt>
			<trkpt lat="53.01303" lon="6.43635">
				<ele>13.25</ele>
			</trkpt>
			<trkpt lat="53.01458" lon="6.4349">
				<ele>13.25</ele>
			</trkpt>
			<trkpt lat="53.01432" lon="6.42702">
				<ele>15.73</ele>
			</trkpt>
			<trkpt lat="53.01407" lon="6.42644">
				<ele>14.31</ele>
			</trkpt>
			<trkpt lat="53.01343" lon="6.42714">
				<ele>14.31</ele>
			</trkpt>
			<trkpt lat="53.01325" lon="6.42685">
				<ele>14.4</ele>
			</trkpt>
			<trkpt lat="53.01417" lon="6.42596">
				<ele>14.4</ele>
			</trkpt>
			<trkpt lat="53.01424" lon="6.42476">
				<ele>13.69</ele>
			</trkpt>
			<trkpt lat="53.01435" lon="6.42448">
				<ele>13.69</ele>
			</trkpt>
			<trkpt lat="53.01599" lon="6.42337">
				<ele>14.52</ele>
			</trkpt>
			<trkpt lat="53.01929" lon="6.41476">
				<ele>15.07</ele>
			</trkpt>
			<trkpt lat="53.02094" lon="6.40989">
				<ele>15.07</ele>
			</trkpt>
			<trkpt lat="53.01959" lon="6.40861">
				<ele>16.83</ele>
			</trkpt>
			<trkpt lat="53.01959" lon="6.40861">
				<ele>16.83</ele>
			</trkpt>
			<trkpt lat="53.00376" lon="6.39365">
				<ele>11.25</ele>
			</trkpt>
			<trkpt lat="53.00326" lon="6.3884">
				<ele>11.25</ele>
			</trkpt>
			<trkpt lat="53.00239" lon="6.38466">
				<ele>14.7</ele>
			</trkpt>
			<trkpt lat="53.00201" lon="6.38403">
				<ele>11.25</ele>
			</trkpt>
			<trkpt lat="53.00097" lon="6.38322">
				<ele>11.25</ele>
			</trkpt>
			<trkpt lat="52.99547" lon="6.38136">
				<ele>10.71</ele>
			</trkpt>
			<trkpt lat="52.99429" lon="6.38001">
				<ele>10.71</ele>
			</trkpt>
			<trkpt lat="52.99429" lon="6.38001">
				<ele>12.4</ele>
			</trkpt>
			<trkpt lat="52.97993" lon="6.36626">
				<ele>12.4</ele>
			</trkpt>
			<trkpt lat="52.97282" lon="6.36097">
				<ele>17.87</ele>
			</trkpt>
			<trkpt lat="52.96829" lon="6.35646">
				<ele>11.8</ele>
			</trkpt>
			<trkpt lat="52.96754" lon="6.35497">
				<ele>11.8</ele>
			</trkpt>
			<trkpt lat="52.96575" lon="6.34659">
				<ele>14.84</ele>
			</trkpt>
			<trkpt lat="52.96269" lon="6.34751">
				<ele>14.84</ele>
			</trkpt>
			<trkpt lat="52.96133" lon="6.34715">
				<ele>15.31</ele>
			</trkpt>
			<trkpt lat="52.95746" lon="6.34134">
				<ele>15.31</ele>
			</trkpt>
			<trkpt lat="52.95611" lon="6.34068">
				<ele>21.91</ele>
			</trkpt>
			<trkpt lat="52.95432" lon="6.33835">
				<ele>18.69</ele>
			</trkpt>
			<trkpt lat="52.95379" lon="6.3363">
				<ele>18.69</ele>
			</trkpt>
			<trkpt lat="52.9548" lon="6.32942">
				<ele>16.8</ele>
			</trkpt>
			<trkpt lat="52.95542" lon="6.31734">
				<ele>16.8</ele>
			</trkpt>
			<trkpt lat="52.95451" lon="6.31257">
				<ele>16.43</ele>
			</trkpt>
			<trkpt lat="52.95407" lon="6.31235">
				<ele>16.43</ele>
			</trkpt>
			<trkpt lat="52.95407" lon="6.31235">
				<ele>12.67</ele>
			</trkpt>
			<trkpt lat="52.95296" lon="6.31253">
				<ele>13.93</ele>
			</trkpt>
			<trkpt lat="52.95003" lon="6.31163">
				<ele>13.93</ele>
			</trkpt>
			<trkpt lat="52.94919" lon="6.31036">
				<ele>23.45</ele>
			</trkpt>
			<trkpt lat="52.94854" lon="6.31031">
				<ele>23.45</ele>
			</trkpt>
			<trkpt lat="52.94791" lon="6.30983">
				<ele>18.63</ele>
			</trkpt>
			<trkpt lat="52.94709" lon="6.30848">
				<ele>18.63</ele>
			</trkpt>
			<trkpt lat="52.9457" lon="6.30767">
				<ele>15.79</ele>
			</trkpt>
			<trkpt lat="52.94336" lon="6.30959">
				<ele>15.79</ele>
			</trkpt>
			<trkpt lat="52.94244" lon="6.31118">
				<ele>14.58</ele>
			</trkpt>
			<trkpt lat="52.94124" lon="6.31131">
				<ele>16</ele>
			</trkpt>
			<trkpt lat="52.94058" lon="6.31095">
				<ele>16</ele>
			</trkpt>
			<trkpt lat="52.93724" lon="6.31236">
				<ele>11.14</ele>
			</trkpt>
			<trkpt lat="52.93465" lon="6.31284">
				<ele>11.14</ele>
			</trkpt>
			<trkpt lat="52.93465" lon="6.31284">
				<ele>11.33</ele>
			</trkpt>
			<trkpt lat="52.93415" lon="6.31294">
				<ele>11.33</ele>
			</trkpt>
			<trkpt lat="52.93362" lon="6.31369">
				<ele>11.9</ele>
			</trkpt>
			<trkpt lat="52.93324" lon="6.31356">
				<ele>12.36</ele>
			</trkpt>
			<trkpt lat="52.93181" lon="6.31523">
				<ele>12.36</ele>
			</trkpt>
			<trkpt lat="52.93076" lon="6.31699">
				<ele>12.96</ele>
			</trkpt>
			<trkpt lat="52.93037" lon="6.31816">
				<ele>12.96</ele>
			</trkpt>
			<trkpt lat="52.92734" lon="6.31981">
				<ele>12.5</ele>
			</trkpt>
			<trkpt lat="52.92457" lon="6.32242">
				<ele>12.5</ele>
			</trkpt>
			<trkpt lat="52.92243" lon="6.32725">
				<ele>12.28</ele>
			</trkpt>
			<trkpt lat="52.92042" lon="6.33102">
				<ele>12.75</ele>
			</trkpt>
			<trkpt lat="52.91704" lon="6.33581">
				<ele>12.75</ele>
			</trkpt>
			<trkpt lat="52.91684" lon="6.33659">
				<ele>11.38</ele>
			</trkpt>
			<trkpt lat="52.916" lon="6.3372">
				<ele>11.38</ele>
			</trkpt>
			<trkpt lat="52.916" lon="6.3372">
				<ele>10.56</ele>
			</trkpt>
			<trkpt lat="52.91595" lon="6.33755">
				<ele>10.56</ele>
			</trkpt>
			<trkpt lat="52.91553" lon="6.3383">
				<ele>10.51</ele>
			</trkpt>
			<trkpt lat="52.91542" lon="6.33904">
				<ele>9</ele>
			</trkpt>
			<trkpt lat="52.91477" lon="6.34018">
				<ele>9</ele>
			</trkpt>
			<trkpt lat="52.9146" lon="6.34105">
				<ele>8</ele>
			</trkpt>
			<trkpt lat="52.91432" lon="6.34175">
				<ele>8</ele>
			</trkpt>
			<trkpt lat="52.91398" lon="6.34242">
				<ele>7.3</ele>
			</trkpt>
			<trkpt lat="52.91356" lon="6.34285">
				<ele>7.3</ele>
			</trkpt>
			<trkpt lat="52.91342" lon="6.34384">
				<ele>7.59</ele>
			</trkpt>
			<trkpt lat="52.91281" lon="6.34484">
				<ele>8.24</ele>
			</trkpt>
			<trkpt lat="52.91267" lon="6.34544">
				<ele>8.24</ele>
			</trkpt>
			<trkpt lat="52.91239" lon="6.34591">
				<ele>9</ele>
			</trkpt>
			<trkpt lat="52.91242" lon="6.34773">
				<ele>9</ele>
			</trkpt>
			<trkpt lat="52.91204" lon="6.34888">
				<ele>9.95</ele>
			</trkpt>
			<trkpt lat="52.91124" lon="6.35074">
				<ele>9.95</ele>
			</trkpt>
			<trkpt lat="52.91041" lon="6.35179">
				<ele>8.87</ele>
			</trkpt>
			<trkpt lat="52.90867" lon="6.34999">
				<ele>9</ele>
			</trkpt>
			<trkpt lat="52.90665" lon="6.34761">
				<ele>9</ele>
			</trkpt>
			<trkpt lat="52.90524" lon="6.3454">
				<ele>7.53</ele>
			</trkpt>
			<trkpt lat="52.90131" lon="6.33804">
				<ele>7.53</ele>
			</trkpt>
			<trkpt lat="52.90122" lon="6.33817">
				<ele>7.04</ele>
			</trkpt>
			<trkpt lat="52.90122" lon="6.33817">
				<ele>7.04</ele>
			</trkpt>
			<trkpt lat="52.88942" lon="6.35465">
				<ele>7.08</ele>
			</trkpt>
			<trkpt lat="52.88677" lon="6.35561">
				<ele>7.52</ele>
			</trkpt>
			<trkpt lat="52.8841" lon="6.35753">
				<ele>7.52</ele>
			</trkpt>
			<trkpt lat="52.88264" lon="6.35583">
				<ele>7.33</ele>
			</trkpt>
			<trkpt lat="52.88264" lon="6.35583">
				<ele>7.33</ele>
			</trkpt>
			<trkpt lat="52.8813" lon="6.35485">
				<ele>8</ele>
			</trkpt>
			<trkpt lat="52.88066" lon="6.35383">
				<ele>8</ele>
			</trkpt>
			<trkpt lat="52.87919" lon="6.35408">
				<ele>8.61</ele>
			</trkpt>
			<trkpt lat="52.87528" lon="6.35686">
				<ele>8.89</ele>
			</trkpt>
			<trkpt lat="52.87435" lon="6.3569">
				<ele>8.89</ele>
			</trkpt>
			<trkpt lat="52.87373" lon="6.3563">
				<ele>9.42</ele>
			</trkpt>
			<trkpt lat="52.87204" lon="6.35577">
				<ele>9.42</ele>
			</trkpt>
			<trkpt lat="52.8697" lon="6.35421">
				<ele>10.97</ele>
			</trkpt>
			<trkpt lat="52.86928" lon="6.35467">
				<ele>10.97</ele>
			</trkpt>
			<trkpt lat="52.86808" lon="6.35496">
				<ele>11.64</ele>
			</trkpt>
			<trkpt lat="52.86782" lon="6.35579">
				<ele>11.64</ele>
			</trkpt>
			<trkpt lat="52.8677" lon="6.3576">
				<ele>9.57</ele>
			</trkpt>
			<trkpt lat="52.86542" lon="6.35629">
				<ele>9.99</ele>
			</trkpt>
			<trkpt lat="52.86324" lon="6.35362">
				<ele>9.99</ele>
			</trkpt>
			<trkpt lat="52.86343" lon="6.35395">
				<ele>8.52</ele>
			</trkpt>
			<trkpt lat="52.86343" lon="6.35395">
				<ele>8.52</ele>
			</trkpt>
			<trkpt lat="52.86324" lon="6.35362">
				<ele>9.15</ele>
			</trkpt>
			<trkpt lat="52.86269" lon="6.35518">
				<ele>9.15</ele>
			</trkpt>
			<trkpt lat="52.86603" lon="6.35938">
				<ele>9.37</ele>
			</trkpt>
			<trkpt lat="52.86848" lon="6.36125">
				<ele>13.53</ele>
			</trkpt>
			<trkpt lat="52.86919" lon="6.36222">
				<ele>13.53</ele>
			</trkpt>
			<trkpt lat="52.87297" lon="6.3704">
				<ele>17.15</ele>
			</trkpt>
			<trkpt lat="52.87269" lon="6.37078">
				<ele>17.15</ele>
			</trkpt>
			<trkpt lat="52.87388" lon="6.37274">
				<ele>16.72</ele>
			</trkpt>
			<trkpt lat="52.87685" lon="6.37305">
				<ele>16.72</ele>
			</trkpt>
			<trkpt lat="52.87991" lon="6.37273">
				<ele>14.8</ele>
			</trkpt>
			<trkpt lat="52.88141" lon="6.37315">
				<ele>11.74</ele>
			</trkpt>
			<trkpt lat="52.88603" lon="6.37694">
				<ele>11.74</ele>
			</trkpt>
			<trkpt lat="52.88704" lon="6.37903">
				<ele>10.99</ele>
			</trkpt>
			<trkpt lat="52.88992" lon="6.38205">
				<ele>10.99</ele>
			</trkpt>
			<trkpt lat="52.88895" lon="6.38496">
				<ele>9.4</ele>
			</trkpt>
			<trkpt lat="52.88794" lon="6.38716">
				<ele>9.4</ele>
			</trkpt>
			<trkpt lat="52.88794" lon="6.38716">
				<ele>9.28</ele>
			</trkpt>
			<trkpt lat="52.88677" lon="6.38958">
				<ele>11.61</ele>
			</trkpt>
			<trkpt lat="52.88536" lon="6.38855">
				<ele>11.61</ele>
			</trkpt>
			<trkpt lat="52.88314" lon="6.39365">
				<ele>14.94</ele>
			</trkpt>
			<trkpt lat="52.8831" lon="6.39393">
				<ele>14.94</ele>
			</trkpt>
			<trkpt lat="52.88352" lon="6.39586">
				<ele>15.38</ele>
			</trkpt>
			<trkpt lat="52.8837" lon="6.3988">
				<ele>15.38</ele>
			</trkpt>
			<trkpt lat="52.88314" lon="6.39997">
				<ele>15.17</ele>
			</trkpt>
			<trkpt lat="52.88244" lon="6.40048">
				<ele>17.34</ele>
			</trkpt>
			<trkpt lat="52.88095" lon="6.40286">
				<ele>17.34</ele>
			</trkpt>
			<trkpt lat="52.88066" lon="6.40428">
				<ele>22.97</ele>
			</trkpt>
			<trkpt lat="52.88073" lon="6.40484">
				<ele>22.97</ele>
			</trkpt>
			<trkpt lat="52.88115" lon="6.40554">
				<ele>17.57</ele>
			</trkpt>
			<trkpt lat="52.88139" lon="6.40572">
				<ele>17.57</ele>
			</trkpt>
			<trkpt lat="52.88154" lon="6.40622">
				<ele>24.28</ele>
			</trkpt>
			<trkpt lat="52.88141" lon="6.40672">
				<ele>23.68</ele>
			</trkpt>
			<trkpt lat="52.881" lon="6.40726">
				<ele>23.68</ele>
			</trkpt>
			<trkpt lat="52.88098" lon="6.40745">
				<ele>18.37</ele>
			</trkpt>
			<trkpt lat="52.88103" lon="6.40774">
				<ele>18.37</ele>
			</trkpt>
			<trkpt lat="52.88137" lon="6.40795">
				<ele>8.64</ele>
			</trkpt>
			<trkpt lat="52.88139" lon="6.40838">
				<ele>8.64</ele>
			</trkpt>
			<trkpt lat="52.88105" lon="6.40874">
				<ele>8.19</ele>
			</trkpt>
			<trkpt lat="52.88098" lon="6.40903">
				<ele>12.37</ele>
			</trkpt>
			<trkpt lat="52.881" lon="6.40939">
				<ele>12.37</ele>
			</trkpt>
			<trkpt lat="52.88129" lon="6.41001">
				<ele>18.88</ele>
			</trkpt>
			<trkpt lat="52.88129" lon="6.41001">
				<ele>18.88</ele>
			</trkpt>
			<trkpt lat="52.88144" lon="6.4103">
				<ele>18.33</ele>
			</trkpt>
			<trkpt lat="52.88146" lon="6.41046">
				<ele>18.33</ele>
			</trkpt>
			<trkpt lat="52.88146" lon="6.41073">
				<ele>21</ele>
			</trkpt>
			<trkpt lat="52.88152" lon="6.41127">
				<ele>19.76</ele>
			</trkpt>
			<trkpt lat="52.8815" lon="6.41148">
				<ele>19.76</ele>
			</trkpt>
			<trkpt lat="52.88154" lon="6.41177">
				<ele>10.55</ele>
			</trkpt>
			<trkpt lat="52.88154" lon="6.41208">
				<ele>10.55</ele>
			</trkpt>
			<trkpt lat="52.88144" lon="6.41227">
				<ele>20.73</ele>
			</trkpt>
			<trkpt lat="52.88114" lon="6.41317">
				<ele>20.73</ele>
			</trkpt>
			<trkpt lat="52.88111" lon="6.41339">
				<ele>17.93</ele>
			</trkpt>
			<trkpt lat="52.88112" lon="6.41394">
				<ele>17.93</ele>
			</trkpt>
			<trkpt lat="52.88109" lon="6.41405">
				<ele>22.41</ele>
			</trkpt>
			<trkpt lat="52.88095" lon="6.41427">
				<ele>18.53</ele>
			</trkpt>
			<trkpt lat="52.88035" lon="6.41429">
				<ele>18.53</ele>
			</trkpt>
			<trkpt lat="52.88013" lon="6.41465">
				<ele>20.93</ele>
			</trkpt>
			<trkpt lat="52.87976" lon="6.41534">
				<ele>20.93</ele>
			</trkpt>
			<trkpt lat="52.87958" lon="6.41561">
				<ele>21.87</ele>
			</trkpt>
			<trkpt lat="52.87951" lon="6.41552">
				<ele>21.87</ele>
			</trkpt>
			<trkpt lat="52.87951" lon="6.41552">
				<ele>18.57</ele>
			</trkpt>
			<trkpt lat="52.88334" lon="6.42329">
				<ele>21.19</ele>
			</trkpt>
			<trkpt lat="52.88661" lon="6.41861">
				<ele>21.19</ele>
			</trkpt>
			<trkpt lat="52.88853" lon="6.41782">
				<ele>18.95</ele>
			</trkpt>
			<trkpt lat="52.89023" lon="6.42153">
				<ele>18.95</ele>
			</trkpt>
			<trkpt lat="52.88789" lon="6.4228">
				<ele>19.55</ele>
			</trkpt>
			<trkpt lat="52.88621" lon="6.42453">
				<ele>19.55</ele>
			</trkpt>
			<trkpt lat="52.88592" lon="6.42568">
				<ele>18.29</ele>
			</trkpt>
			<trkpt lat="52.88649" lon="6.43211">
				<ele>16.82</ele>
			</trkpt>
			<trkpt lat="52.88921" lon="6.43809">
				<ele>16.82</ele>
			</trkpt>
			<trkpt lat="52.89011" lon="6.44186">
				<ele>17.19</ele>
			</trkpt>
			<trkpt lat="52.88757" lon="6.44429">
				<ele>17.19</ele>
			</trkpt>
			<trkpt lat="52.88472" lon="6.4482">
				<ele>18.44</ele>
			</trkpt>
			<trkpt lat="52.88541" lon="6.45156">
				<ele>18.44</ele>
			</trkpt>
			<trkpt lat="52.89035" lon="6.46705">
				<ele>21.63</ele>
			</trkpt>
			<trkpt lat="52.89145" lon="6.47443">
				<ele>17.06</ele>
			</trkpt>
			<trkpt lat="52.89388" lon="6.4847">
				<ele>17.06</ele>
			</trkpt>
			<trkpt lat="52.89495" lon="6.49229">
				<ele>14.45</ele>
			</trkpt>
			<trkpt lat="52.89575" lon="6.49473">
				<ele>14.45</ele>
			</trkpt>
			<trkpt lat="52.89607" lon="6.49804">
				<ele>13.89</ele>
			</trkpt>
			<trkpt lat="52.89744" lon="6.49712">
				<ele>13.89</ele>
			</trkpt>
			<trkpt lat="52.89869" lon="6.50112">
				<ele>10.97</ele>
			</trkpt>
			<trkpt lat="52.90134" lon="6.50086">
				<ele>9.71</ele>
			</trkpt>
			<trkpt lat="52.90356" lon="6.50382">
				<ele>9.71</ele>
			</trkpt>
			<trkpt lat="52.90449" lon="6.50644">
				<ele>8.71</ele>
			</trkpt>
			<trkpt lat="52.90951" lon="6.51424">
				<ele>8.71</ele>
			</trkpt>
			<trkpt lat="52.91034" lon="6.51403">
				<ele>9.54</ele>
			</trkpt>
			<trkpt lat="52.91013" lon="6.51541">
				<ele>9.54</ele>
			</trkpt>
			<trkpt lat="52.91088" lon="6.51635">
				<ele>10</ele>
			</trkpt>
			<trkpt lat="52.91055" lon="6.51904">
				<ele>10.04</ele>
			</trkpt>
			<trkpt lat="52.9108" lon="6.52125">
				<ele>10.04</ele>
			</trkpt>
			<trkpt lat="52.91289" lon="6.52692">
				<ele>9.45</ele>
			</trkpt>
			<trkpt lat="52.91482" lon="6.53011">
				<ele>9.45</ele>
			</trkpt>
			<trkpt lat="52.92092" lon="6.53114">
				<ele>9.98</ele>
			</trkpt>
			<trkpt lat="52.92849" lon="6.53409">
				<ele>9.98</ele>
			</trkpt>
			<trkpt lat="52.92982" lon="6.5325">
				<ele>10.99</ele>
			</trkpt>
			<trkpt lat="52.93165" lon="6.52854">
				<ele>11.19</ele>
			</trkpt>
			<trkpt lat="52.93847" lon="6.52717">
				<ele>11.19</ele>
			</trkpt>
			<trkpt lat="52.9406" lon="6.52604">
				<ele>11.2</ele>
			</trkpt>
			<trkpt lat="52.9406" lon="6.52604">
				<ele>11.2</ele>
			</trkpt>
			<trkpt lat="52.94157" lon="6.52561">
				<ele>11.98</ele>
			</trkpt>
			<trkpt lat="52.94668" lon="6.52434">
				<ele>11.98</ele>
			</trkpt>
			<trkpt lat="52.95467" lon="6.52611">
				<ele>10.72</ele>
			</trkpt>
			<trkpt lat="52.95457" lon="6.52565">
				<ele>10.32</ele>
			</trkpt>
			<trkpt lat="52.95457" lon="6.52565">
				<ele>10.32</ele>
			</trkpt>
			<trkpt lat="52.95462" lon="6.52595">
				<ele>10.74</ele>
			</trkpt>
			<trkpt lat="52.95467" lon="6.52611">
				<ele>10.74</ele>
			</trkpt>
			<trkpt lat="52.95614" lon="6.529">
				<ele>9.41</ele>
			</trkpt>
			<trkpt lat="52.95614" lon="6.529">
				<ele>9.41</ele>
			</trkpt>
			<trkpt lat="52.9563" lon="6.52931">
				<ele>11.07</ele>
			</trkpt>
			<trkpt lat="52.95627" lon="6.52939">
				<ele>11.07</ele>
			</trkpt>
			<trkpt lat="52.95588" lon="6.52973">
				<ele>9.38</ele>
			</trkpt>
			<trkpt lat="52.95569" lon="6.53017">
				<ele>11.47</ele>
			</trkpt>
			<trkpt lat="52.95507" lon="6.53074">
				<ele>11.47</ele>
			</trkpt>
			<trkpt lat="52.95497" lon="6.53092">
				<ele>11.63</ele>
			</trkpt>
			<trkpt lat="52.95496" lon="6.53103">
				<ele>11.63</ele>
			</trkpt>
			<trkpt lat="52.9552" lon="6.53531">
				<ele>12</ele>
			</trkpt>
			<trkpt lat="52.95516" lon="6.53549">
				<ele>12</ele>
			</trkpt>
			<trkpt lat="52.95476" lon="6.53669">
				<ele>16.21</ele>
			</trkpt>
			<trkpt lat="52.95392" lon="6.53978">
				<ele>15.56</ele>
			</trkpt>
			<trkpt lat="52.95384" lon="6.53995">
				<ele>15.56</ele>
			</trkpt>
			<trkpt lat="52.95374" lon="6.53998">
				<ele>15.9</ele>
			</trkpt>
			<trkpt lat="52.95287" lon="6.53967">
				<ele>15.9</ele>
			</trkpt>
			<trkpt lat="52.95276" lon="6.53967">
				<ele>12.49</ele>
			</trkpt>
			<trkpt lat="52.95276" lon="6.53967">
				<ele>12.49</ele>
			</trkpt>
			<trkpt lat="52.95242" lon="6.54095">
				<ele>11.66</ele>
			</trkpt>
			<trkpt lat="52.95097" lon="6.54138">
				<ele>11.06</ele>
			</trkpt>
			<trkpt lat="52.94429" lon="6.5389">
				<ele>11.06</ele>
			</trkpt>
			<trkpt lat="52.94347" lon="6.54577">
				<ele>10</ele>
			</trkpt>
			<trkpt lat="52.94354" lon="6.54711">
				<ele>10</ele>
			</trkpt>
			<trkpt lat="52.94953" lon="6.54681">
				<ele>10.11</ele>
			</trkpt>
			<trkpt lat="52.95139" lon="6.5499">
				<ele>10.11</ele>
			</trkpt>
			<trkpt lat="52.95482" lon="6.5513">
				<ele>11.76</ele>
			</trkpt>
			<trkpt lat="52.95447" lon="6.55301">
				<ele>10.93</ele>
			</trkpt>
			<trkpt lat="52.95477" lon="6.55461">
				<ele>10.93</ele>
			</trkpt>
			<trkpt lat="52.9566" lon="6.55758">
				<ele>10</ele>
			</trkpt>
			<trkpt lat="52.9614" lon="6.55935">
				<ele>10</ele>
			</trkpt>
			<trkpt lat="52.96118" lon="6.56016">
				<ele>9</ele>
			</trkpt>
			<trkpt lat="52.96062" lon="6.56058">
				<ele>9</ele>
			</trkpt>
			<trkpt lat="52.96051" lon="6.56461">
				<ele>9.9</ele>
			</trkpt>
			<trkpt lat="52.96051" lon="6.56461">
				<ele>10</ele>
			</trkpt>
			<trkpt lat="52.96198" lon="6.56473">
				<ele>10</ele>
			</trkpt>
			<trkpt lat="52.96506" lon="6.56227">
				<ele>11.19</ele>
			</trkpt>
			<trkpt lat="52.96507" lon="6.5626">
				<ele>11.19</ele>
			</trkpt>
			<trkpt lat="52.96507" lon="6.5626">
				<ele>9</ele>
			</trkpt>
			<trkpt lat="52.96512" lon="6.56481">
				<ele>9</ele>
			</trkpt>
			<trkpt lat="52.96508" lon="6.56607">
				<ele>9.13</ele>
			</trkpt>
			<trkpt lat="52.96531" lon="6.56713">
				<ele>10</ele>
			</trkpt>
			<trkpt lat="52.96549" lon="6.56776">
				<ele>10</ele>
			</trkpt>
			<trkpt lat="52.96549" lon="6.56776">
				<ele>12.12</ele>
			</trkpt>
			<trkpt lat="52.96562" lon="6.56815">
				<ele>12.12</ele>
			</trkpt>
			<trkpt lat="52.96812" lon="6.56623">
				<ele>12.2</ele>
			</trkpt>
			<trkpt lat="52.96855" lon="6.56294">
				<ele>12.2</ele>
			</trkpt>
			<trkpt lat="52.96869" lon="6.56272">
				<ele>11.78</ele>
			</trkpt>
			<trkpt lat="52.96919" lon="6.56287">
				<ele>13</ele>
			</trkpt>
			<trkpt lat="52.96928" lon="6.56305">
				<ele>13</ele>
			</trkpt>
			<trkpt lat="52.96925" lon="6.56432">
				<ele>11.5</ele>
			</trkpt>
			<trkpt lat="52.96956" lon="6.56557">
				<ele>11.5</ele>
			</trkpt>
			<trkpt lat="52.96952" lon="6.56588">
				<ele>12.84</ele>
			</trkpt>
			<trkpt lat="52.96907" lon="6.56427">
				<ele>12.84</ele>
			</trkpt>
			<trkpt lat="52.96908" lon="6.56297">
				<ele>14.31</ele>
			</trkpt>
			<trkpt lat="52.96949" lon="6.56076">
				<ele>14.31</ele>
			</trkpt>
			<trkpt lat="52.97051" lon="6.55812">
				<ele>13</ele>
			</trkpt>
			<trkpt lat="52.97073" lon="6.55556">
				<ele>12.69</ele>
			</trkpt>
			<trkpt lat="52.97415" lon="6.5561">
				<ele>12.69</ele>
			</trkpt>
			<trkpt lat="52.97477" lon="6.55597">
				<ele>12.86</ele>
			</trkpt>
			<trkpt lat="52.97544" lon="6.55641">
				<ele>12.86</ele>
			</trkpt>
			<trkpt lat="52.97584" lon="6.55646">
				<ele>13.08</ele>
			</trkpt>
			<trkpt lat="52.97581" lon="6.55566">
				<ele>13.08</ele>
			</trkpt>
			<trkpt lat="52.97592" lon="6.55558">
				<ele>14</ele>
			</trkpt>
			<trkpt lat="52.97678" lon="6.55596">
				<ele>15</ele>
			</trkpt>
			<trkpt lat="52.97699" lon="6.55589">
				<ele>15</ele>
			</trkpt>
			<trkpt lat="52.9771" lon="6.55553">
				<ele>13</ele>
			</trkpt>
			<trkpt lat="52.97724" lon="6.5496">
				<ele>13</ele>
			</trkpt>
			<trkpt lat="52.97772" lon="6.54832">
				<ele>15.22</ele>
			</trkpt>
			<trkpt lat="52.97821" lon="6.54879">
				<ele>15.22</ele>
			</trkpt>
			<trkpt lat="52.97815" lon="6.54918">
				<ele>13</ele>
			</trkpt>
			<trkpt lat="52.97815" lon="6.54918">
				<ele>13.45</ele>
			</trkpt>
			<trkpt lat="52.97823" lon="6.54924">
				<ele>13.45</ele>
			</trkpt>
			<trkpt lat="52.97829" lon="6.54922">
				<ele>14.06</ele>
			</trkpt>
			<trkpt lat="52.97874" lon="6.54881">
				<ele>14.06</ele>
			</trkpt>
			<trkpt lat="52.97905" lon="6.54885">
				<ele>14.56</ele>
			</trkpt>
			<trkpt lat="52.97917" lon="6.54876">
				<ele>14.56</ele>
			</trkpt>
			<trkpt lat="52.97932" lon="6.54821">
				<ele>15.77</ele>
			</trkpt>
			<trkpt lat="52.97952" lon="6.54762">
				<ele>19.33</ele>
			</trkpt>
			<trkpt lat="52.97962" lon="6.54721">
				<ele>19.33</ele>
			</trkpt>
			<trkpt lat="52.97976" lon="6.5464">
				<ele>17</ele>
			</trkpt>
			<trkpt lat="52.97977" lon="6.54565">
				<ele>17</ele>
			</trkpt>
			<trkpt lat="52.97982" lon="6.54551">
				<ele>14.58</ele>
			</trkpt>
			<trkpt lat="52.97982" lon="6.54551">
				<ele>14.58</ele>
			</trkpt>
			<trkpt lat="52.97987" lon="6.54546">
				<ele>14.09</ele>
			</trkpt>
			<trkpt lat="52.97985" lon="6.5452">
				<ele>16.28</ele>
			</trkpt>
			<trkpt lat="52.97989" lon="6.545">
				<ele>16.28</ele>
			</trkpt>
			<trkpt lat="52.98025" lon="6.54458">
				<ele>17.37</ele>
			</trkpt>
			<trkpt lat="52.98037" lon="6.54414">
				<ele>17.37</ele>
			</trkpt>
			<trkpt lat="52.97983" lon="6.54344">
				<ele>15.13</ele>
			</trkpt>
			<trkpt lat="52.97943" lon="6.54308">
				<ele>15.13</ele>
			</trkpt>
			<trkpt lat="52.97918" lon="6.5422">
				<ele>15.98</ele>
			</trkpt>
			<trkpt lat="52.97934" lon="6.54187">
				<ele>13.45</ele>
			</trkpt>
			<trkpt lat="52.97996" lon="6.54116">
				<ele>13.45</ele>
			</trkpt>
			<trkpt lat="52.98063" lon="6.53878">
				<ele>12.02</ele>
			</trkpt>
			<trkpt lat="52.98214" lon="6.53808">
				<ele>12.02</ele>
			</trkpt>
			<trkpt lat="52.98221" lon="6.53791">
				<ele>11</ele>
			</trkpt>
			<trkpt lat="52.98239" lon="6.53674">
				<ele>11</ele>
			</trkpt>
			<trkpt lat="52.98247" lon="6.5367">
				<ele>11</ele>
			</trkpt>
			<trkpt lat="52.98252" lon="6.53642">
				<ele>11.17</ele>
			</trkpt>
			<trkpt lat="52.98264" lon="6.53625">
				<ele>11.17</ele>
			</trkpt>
			<trkpt lat="52.98264" lon="6.53591">
				<ele>11.03</ele>
			</trkpt>
			<trkpt lat="52.98269" lon="6.53583">
				<ele>11.03</ele>
			</trkpt>
			<trkpt lat="52.98311" lon="6.53588">
				<ele>11.49</ele>
			</trkpt>
			<trkpt lat="52.98333" lon="6.53559">
				<ele>11.49</ele>
			</trkpt>
			<trkpt lat="52.98329" lon="6.53529">
				<ele>11</ele>
			</trkpt>
			<trkpt lat="52.98315" lon="6.53503">
				<ele>10</ele>
			</trkpt>
			<trkpt lat="52.98295" lon="6.53432">
				<ele>10</ele>
			</trkpt>
			<trkpt lat="52.983" lon="6.53314">
				<ele>9.54</ele>
			</trkpt>
			<trkpt lat="52.98312" lon="6.53266">
				<ele>9.54</ele>
			</trkpt>
			<trkpt lat="52.98304" lon="6.53226">
				<ele>9.21</ele>
			</trkpt>
			<trkpt lat="52.98307" lon="6.53115">
				<ele>9.21</ele>
			</trkpt>
			<trkpt lat="52.98299" lon="6.53037">
				<ele>9.85</ele>
			</trkpt>
			<trkpt lat="52.98282" lon="6.53012">
				<ele>9.85</ele>
			</trkpt>
			<trkpt lat="52.98276" lon="6.52954">
				<ele>10</ele>
			</trkpt>
			<trkpt lat="52.98286" lon="6.52857">
				<ele>12.07</ele>
			</trkpt>
			<trkpt lat="52.98286" lon="6.52814">
				<ele>12.07</ele>
			</trkpt>
			<trkpt lat="52.98255" lon="6.52644">
				<ele>10.08</ele>
			</trkpt>
			<trkpt lat="52.98239" lon="6.5259">
				<ele>10.08</ele>
			</trkpt>
			<trkpt lat="52.9832" lon="6.5251">
				<ele>10.38</ele>
			</trkpt>
			<trkpt lat="52.98414" lon="6.52472">
				<ele>10.38</ele>
			</trkpt>
			<trkpt lat="52.98426" lon="6.52459">
				<ele>10.5</ele>
			</trkpt>
			<trkpt lat="52.98448" lon="6.52407">
				<ele>9.3</ele>
			</trkpt>
			<trkpt lat="52.985" lon="6.5242">
				<ele>9.3</ele>
			</trkpt>
			<trkpt lat="52.98501" lon="6.52371">
				<ele>10.82</ele>
			</trkpt>
			<trkpt lat="52.98485" lon="6.52381">
				<ele>10.82</ele>
			</trkpt>
			<trkpt lat="52.9847" lon="6.52376">
				<ele>11.54</ele>
			</trkpt>
			<trkpt lat="52.9847" lon="6.52376">
				<ele>11.54</ele>
			</trkpt>
			<trkpt lat="52.98481" lon="6.52381">
				<ele>11</ele>
			</trkpt>
			<trkpt lat="52.98489" lon="6.5238">
				<ele>11</ele>
			</trkpt>
			<trkpt lat="52.98529" lon="6.52345">
				<ele>11</ele>
			</trkpt>
			<trkpt lat="52.98568" lon="6.52324">
				<ele>11.33</ele>
			</trkpt>
			<trkpt lat="52.98582" lon="6.52305">
				<ele>11.33</ele>
			</trkpt>
			<trkpt lat="52.98588" lon="6.52289">
				<ele>10.39</ele>
			</trkpt>
			<trkpt lat="52.98595" lon="6.52247">
				<ele>10.39</ele>
			</trkpt>
			<trkpt lat="52.98594" lon="6.52221">
				<ele>10.48</ele>
			</trkpt>
			<trkpt lat="52.98591" lon="6.52202">
				<ele>11</ele>
			</trkpt>
			<trkpt lat="52.98575" lon="6.52158">
				<ele>11</ele>
			</trkpt>
			<trkpt lat="52.98574" lon="6.52146">
				<ele>12.67</ele>
			</trkpt>
			<trkpt lat="52.98578" lon="6.52114">
				<ele>12.67</ele>
			</trkpt>
			<trkpt lat="52.98578" lon="6.521">
				<ele>11.81</ele>
			</trkpt>
			<trkpt lat="52.98553" lon="6.52066">
				<ele>11.81</ele>
			</trkpt>
			<trkpt lat="52.98543" lon="6.52044">
				<ele>10.8</ele>
			</trkpt>
			<trkpt lat="52.98536" lon="6.52013">
				<ele>11</ele>
			</trkpt>
			<trkpt lat="52.98535" lon="6.51973">
				<ele>11</ele>
			</trkpt>
			<trkpt lat="52.9854" lon="6.51906">
				<ele>10.41</ele>
			</trkpt>
			<trkpt lat="52.98534" lon="6.51849">
				<ele>10.41</ele>
			</trkpt>
			<trkpt lat="52.98488" lon="6.51734">
				<ele>10.04</ele>
			</trkpt>
			<trkpt lat="52.98486" lon="6.51706">
				<ele>10.04</ele>
			</trkpt>
			<trkpt lat="52.98489" lon="6.51694">
				<ele>11.02</ele>
			</trkpt>
			<trkpt lat="52.98503" lon="6.51668">
				<ele>11</ele>
			</trkpt>
			<trkpt lat="52.98511" lon="6.51633">
				<ele>11</ele>
			</trkpt>
			<trkpt lat="52.98511" lon="6.51609">
				<ele>14.39</ele>
			</trkpt>
			<trkpt lat="52.98506" lon="6.51563">
				<ele>14.39</ele>
			</trkpt>
			<trkpt lat="52.98507" lon="6.51533">
				<ele>13.08</ele>
			</trkpt>
			<trkpt lat="52.98507" lon="6.51533">
				<ele>13.08</ele>
			</trkpt>
			<trkpt lat="52.98508" lon="6.51527">
				<ele>11.54</ele>
			</trkpt>
			<trkpt lat="52.98493" lon="6.51516">
				<ele>13.12</ele>
			</trkpt>
			<trkpt lat="52.98465" lon="6.51485">
				<ele>13.12</ele>
			</trkpt>
			<trkpt lat="52.98333" lon="6.51383">
				<ele>14.09</ele>
			</trkpt>
			<trkpt lat="52.98321" lon="6.51356">
				<ele>14.09</ele>
			</trkpt>
			<trkpt lat="52.98319" lon="6.51359">
				<ele>10.4</ele>
			</trkpt>
			<trkpt lat="52.98319" lon="6.51359">
				<ele>10.4</ele>
			</trkpt>
			<trkpt lat="52.98334" lon="6.51299">
				<ele>9.64</ele>
			</trkpt>
			<trkpt lat="52.98326" lon="6.51258">
				<ele>9.17</ele>
			</trkpt>
			<trkpt lat="52.98315" lon="6.51254">
				<ele>9.17</ele>
			</trkpt>
			<trkpt lat="52.98303" lon="6.5119">
				<ele>12.58</ele>
			</trkpt>
			<trkpt lat="52.98291" lon="6.51051">
				<ele>12.58</ele>
			</trkpt>
			<trkpt lat="52.98291" lon="6.51051">
				<ele>12.72</ele>
			</trkpt>
			<trkpt lat="52.98291" lon="6.51041">
				<ele>12.72</ele>
			</trkpt>
			<trkpt lat="52.98148" lon="6.51221">
				<ele>12.5</ele>
			</trkpt>
			<trkpt lat="52.98143" lon="6.5124">
				<ele>12.5</ele>
			</trkpt>
			<trkpt lat="52.98137" lon="6.51243">
				<ele>12.76</ele>
			</trkpt>
			<trkpt lat="52.98121" lon="6.51235">
				<ele>11</ele>
			</trkpt>
			<trkpt lat="52.98141" lon="6.51126">
				<ele>11</ele>
			</trkpt>
			<trkpt lat="52.98141" lon="6.51089">
				<ele>11.33</ele>
			</trkpt>
			<trkpt lat="52.98138" lon="6.51057">
				<ele>11.33</ele>
			</trkpt>
			<trkpt lat="52.98134" lon="6.51033">
				<ele>13.08</ele>
			</trkpt>
			<trkpt lat="52.98022" lon="6.50578">
				<ele>13.08</ele>
			</trkpt>
			<trkpt lat="52.98012" lon="6.50565">
				<ele>12</ele>
			</trkpt>
			<trkpt lat="52.98005" lon="6.50537">
				<ele>12.57</ele>
			</trkpt>
			<trkpt lat="52.98006" lon="6.50514">
				<ele>12.57</ele>
			</trkpt>
			<trkpt lat="52.97999" lon="6.5048">
				<ele>10.77</ele>
			</trkpt>
			<trkpt lat="52.97991" lon="6.50319">
				<ele>10.77</ele>
			</trkpt>
			<trkpt lat="52.97981" lon="6.50264">
				<ele>12.13</ele>
			</trkpt>
			<trkpt lat="52.97966" lon="6.50193">
				<ele>12.13</ele>
			</trkpt>
			<trkpt lat="52.9798" lon="6.50183">
				<ele>13.25</ele>
			</trkpt>
			<trkpt lat="52.9798" lon="6.50183">
				<ele>13.52</ele>
			</trkpt>
			<trkpt lat="52.98009" lon="6.50163">
				<ele>13.52</ele>
			</trkpt>
			<trkpt lat="52.98035" lon="6.50151">
				<ele>13.96</ele>
			</trkpt>
			<trkpt lat="52.98119" lon="6.50096">
				<ele>13.96</ele>
			</trkpt>
			<trkpt lat="52.98113" lon="6.50043">
				<ele>13.9</ele>
			</trkpt>
			<trkpt lat="52.98062" lon="6.49809">
				<ele>13.9</ele>
			</trkpt>
			<trkpt lat="52.98062" lon="6.49799">
				<ele>13.16</ele>
			</trkpt>
			<trkpt lat="52.98064" lon="6.49789">
				<ele>14.53</ele>
			</trkpt>
			<trkpt lat="52.98124" lon="6.49666">
				<ele>14.53</ele>
			</trkpt>
			<trkpt lat="52.9814" lon="6.4964">
				<ele>15.83</ele>
			</trkpt>
			<trkpt lat="52.98137" lon="6.49616">
				<ele>15.83</ele>
			</trkpt>
			<trkpt lat="52.9814" lon="6.49606">
				<ele>13</ele>
			</trkpt>
			<trkpt lat="52.98153" lon="6.4959">
				<ele>13</ele>
			</trkpt>
			<trkpt lat="52.982" lon="6.49517">
				<ele>13</ele>
			</trkpt>
			<trkpt lat="52.98223" lon="6.4946">
				<ele>13.57</ele>
			</trkpt>
			<trkpt lat="52.98223" lon="6.4946">
				<ele>13.57</ele>
			</trkpt>
			<trkpt lat="52.98231" lon="6.49435">
				<ele>12.26</ele>
			</trkpt>
			<trkpt lat="52.98229" lon="6.49414">
				<ele>12.26</ele>
			</trkpt>
			<trkpt lat="52.98181" lon="6.49356">
				<ele>9.53</ele>
			</trkpt>
			<trkpt lat="52.98267" lon="6.49139">
				<ele>9.53</ele>
			</trkpt>
			<trkpt lat="52.98279" lon="6.49139">
				<ele>11</ele>
			</trkpt>
			<trkpt lat="52.9829" lon="6.49189">
				<ele>11.33</ele>
			</trkpt>
			<trkpt lat="52.9833" lon="6.49243">
				<ele>11.33</ele>
			</trkpt>
			<trkpt lat="52.98361" lon="6.49316">
				<ele>11.52</ele>
			</trkpt>
			<trkpt lat="52.98373" lon="6.49315">
				<ele>11.52</ele>
			</trkpt>
			<trkpt lat="52.98651" lon="6.48606">
				<ele>12</ele>
			</trkpt>
			<trkpt lat="52.98651" lon="6.48606">
				<ele>12</ele>
			</trkpt>
			<trkpt lat="52.98658" lon="6.48586">
				<ele>9</ele>
			</trkpt>
			<trkpt lat="52.99063" lon="6.49024">
				<ele>11.98</ele>
			</trkpt>
			<trkpt lat="52.99161" lon="6.49226">
				<ele>11.98</ele>
			</trkpt>
			<trkpt lat="52.99214" lon="6.49191">
				<ele>11.93</ele>
			</trkpt>
			<trkpt lat="52.99276" lon="6.49252">
				<ele>11.93</ele>
			</trkpt>
			<trkpt lat="52.99296" lon="6.49191">
				<ele>13.45</ele>
			</trkpt>
			<trkpt lat="52.99401" lon="6.49198">
				<ele>13.45</ele>
			</trkpt>
			<trkpt lat="53.00457" lon="6.48822">
				<ele>12.62</ele>
			</trkpt>
		</trkseg>
	</trk>
</gpx>