<?xml version="1.0" encoding="UTF-8" standalone="no" ?>
<gpx xmlns="http://www.topografix.com/GPX/1/1"
		xmlns:gpxx="http://www.garmin.com/xmlschemas/GpxExtensions/v3"
		xmlns:gpxtpx="http://www.garmin.com/xmlschemas/TrackPointExtension/v1"
		xmlns:xsi="http://www.w3.org/2001/XMLSchema-instance"
		xsi:schemaLocation="http://www.topografix.com/GPX/1/1 http://www.topografix.com/GPX/1/1/gpx.xsd http://www.garmin.com/xmlschemas/GpxExtensions/v3 http://www.garmin.com/xmlschemas/GpxExtensionsv3.xsd http://www.garmin.com/xmlschemas/TrackPointExtension/v1 http://www.garmin.com/xmlschemas/TrackPointExtensionv1.xsd"
		creator="Gravelmap.com"
		version="1.1">

	<metadata>
		<name><![CDATA[Singletrack Route: Gravelride]]></name>
		<desc><![CDATA[Paved and singletrack ]]></desc>
		<link href="http://www.gravelmap.com/route/98911">
			<text><![CDATA[Singletrack Route: Gravelride]]></text>
		</link>
		<time>2021-01-25T09:11:23-05:00</time>
	</metadata>

	<trk>
		<name><![CDATA[Singletrack Route: Gravelride]]></name>
		<desc><![CDATA[Paved and singletrack ]]></desc>
		<link href="http://www.gravelmap.com/route/98911">
			<text><![CDATA[Singletrack Route: Gravelride]]></text>
		</link>
		<trkseg>
			<trkpt lat="52.69542" lon="6.20322">
				<ele>0.75</ele>
			</trkpt>
			<trkpt lat="52.69532" lon="6.20386">
				<ele>0.75</ele>
			</trkpt>
			<trkpt lat="52.69526" lon="6.20439">
				<ele>0.75</ele>
			</trkpt>
			<trkpt lat="52.69528" lon="6.2046">
				<ele>0.75</ele>
			</trkpt>
			<trkpt lat="52.69541" lon="6.20497">
				<ele>0.75</ele>
			</trkpt>
			<trkpt lat="52.69565" lon="6.20559">
				<ele>0.2</ele>
			</trkpt>
			<trkpt lat="52.69576" lon="6.20559">
				<ele>0.2</ele>
			</trkpt>
			<trkpt lat="52.69588" lon="6.2055">
				<ele>0.2</ele>
			</trkpt>
			<trkpt lat="52.69646" lon="6.20488">
				<ele>0.2</ele>
			</trkpt>
			<trkpt lat="52.6966" lon="6.20488">
				<ele>0.83</ele>
			</trkpt>
			<trkpt lat="52.6979" lon="6.20522">
				<ele>0.83</ele>
			</trkpt>
			<trkpt lat="52.69815" lon="6.20534">
				<ele>0.83</ele>
			</trkpt>
			<trkpt lat="52.69842" lon="6.20644">
				<ele>0.83</ele>
			</trkpt>
			<trkpt lat="52.69851" lon="6.20687">
				<ele>0</ele>
			</trkpt>
			<trkpt lat="52.69868" lon="6.20757">
				<ele>0</ele>
			</trkpt>
			<trkpt lat="52.69879" lon="6.20786">
				<ele>0</ele>
			</trkpt>
			<trkpt lat="52.69905" lon="6.20798">
				<ele>0</ele>
			</trkpt>
			<trkpt lat="52.69967" lon="6.20796">
				<ele>0.26</ele>
			</trkpt>
			<trkpt lat="52.70016" lon="6.20789">
				<ele>0.26</ele>
			</trkpt>
			<trkpt lat="52.70047" lon="6.20782">
				<ele>0.26</ele>
			</trkpt>
			<trkpt lat="52.70062" lon="6.20801">
				<ele>0.26</ele>
			</trkpt>
			<trkpt lat="52.70073" lon="6.20802">
				<ele>1.66</ele>
			</trkpt>
			<trkpt lat="52.70085" lon="6.20799">
				<ele>1.66</ele>
			</trkpt>
			<trkpt lat="52.70096" lon="6.20807">
				<ele>1.66</ele>
			</trkpt>
			<trkpt lat="52.70106" lon="6.20879">
				<ele>1.66</ele>
			</trkpt>
			<trkpt lat="52.70057" lon="6.20914">
				<ele>1.66</ele>
			</trkpt>
			<trkpt lat="52.70048" lon="6.20944">
				<ele>0.95</ele>
			</trkpt>
			<trkpt lat="52.70047" lon="6.20967">
				<ele>0.95</ele>
			</trkpt>
			<trkpt lat="52.70047" lon="6.20984">
				<ele>0.95</ele>
			</trkpt>
			<trkpt lat="52.70162" lon="6.20993">
				<ele>0.95</ele>
			</trkpt>
			<trkpt lat="52.70247" lon="6.20988">
				<ele>0.83</ele>
			</trkpt>
			<trkpt lat="52.70275" lon="6.20975">
				<ele>0.83</ele>
			</trkpt>
			<trkpt lat="52.70292" lon="6.20954">
				<ele>0.83</ele>
			</trkpt>
			<trkpt lat="52.70326" lon="6.20895">
				<ele>0.83</ele>
			</trkpt>
			<trkpt lat="52.70344" lon="6.20884">
				<ele>1.21</ele>
			</trkpt>
			<trkpt lat="52.70367" lon="6.20883">
				<ele>1.21</ele>
			</trkpt>
			<trkpt lat="52.70375" lon="6.20905">
				<ele>1.21</ele>
			</trkpt>
			<trkpt lat="52.70372" lon="6.20948">
				<ele>1.21</ele>
			</trkpt>
			<trkpt lat="52.70373" lon="6.21026">
				<ele>1.76</ele>
			</trkpt>
			<trkpt lat="52.70419" lon="6.21059">
				<ele>1.76</ele>
			</trkpt>
			<trkpt lat="52.7044" lon="6.21064">
				<ele>1.76</ele>
			</trkpt>
			<trkpt lat="52.70478" lon="6.21061">
				<ele>1.76</ele>
			</trkpt>
			<trkpt lat="52.70485" lon="6.21073">
				<ele>0.98</ele>
			</trkpt>
			<trkpt lat="52.7048" lon="6.21089">
				<ele>0.98</ele>
			</trkpt>
			<trkpt lat="52.70472" lon="6.21131">
				<ele>0.98</ele>
			</trkpt>
			<trkpt lat="52.70358" lon="6.21552">
				<ele>0.98</ele>
			</trkpt>
			<trkpt lat="52.70322" lon="6.21691">
				<ele>2.23</ele>
			</trkpt>
			<trkpt lat="52.7031" lon="6.21756">
				<ele>2.23</ele>
			</trkpt>
			<trkpt lat="52.70309" lon="6.21799">
				<ele>2.23</ele>
			</trkpt>
			<trkpt lat="52.7029" lon="6.21813">
				<ele>2.23</ele>
			</trkpt>
			<trkpt lat="52.70287" lon="6.21838">
				<ele>2.23</ele>
			</trkpt>
			<trkpt lat="52.70291" lon="6.21857">
				<ele>-0.75</ele>
			</trkpt>
			<trkpt lat="52.703" lon="6.21921">
				<ele>-0.75</ele>
			</trkpt>
			<trkpt lat="52.70302" lon="6.21979">
				<ele>-0.75</ele>
			</trkpt>
			<trkpt lat="52.70292" lon="6.22253">
				<ele>-0.75</ele>
			</trkpt>
			<trkpt lat="52.70295" lon="6.22369">
				<ele>0</ele>
			</trkpt>
			<trkpt lat="52.70303" lon="6.22458">
				<ele>0</ele>
			</trkpt>
			<trkpt lat="52.70314" lon="6.22525">
				<ele>0</ele>
			</trkpt>
			<trkpt lat="52.70321" lon="6.22558">
				<ele>0</ele>
			</trkpt>
			<trkpt lat="52.70343" lon="6.22645">
				<ele>0.31</ele>
			</trkpt>
			<trkpt lat="52.70375" lon="6.22736">
				<ele>0.31</ele>
			</trkpt>
			<trkpt lat="52.70409" lon="6.22809">
				<ele>0.31</ele>
			</trkpt>
			<trkpt lat="52.70446" lon="6.22875">
				<ele>0.31</ele>
			</trkpt>
			<trkpt lat="52.70475" lon="6.22921">
				<ele>0</ele>
			</trkpt>
			<trkpt lat="52.70602" lon="6.23149">
				<ele>0</ele>
			</trkpt>
			<trkpt lat="52.70639" lon="6.23221">
				<ele>0</ele>
			</trkpt>
			<trkpt lat="52.70649" lon="6.23262">
				<ele>0</ele>
			</trkpt>
			<trkpt lat="52.70655" lon="6.23319">
				<ele>2</ele>
			</trkpt>
			<trkpt lat="52.70652" lon="6.23398">
				<ele>2</ele>
			</trkpt>
			<trkpt lat="52.70639" lon="6.23452">
				<ele>2</ele>
			</trkpt>
			<trkpt lat="52.70612" lon="6.23531">
				<ele>2</ele>
			</trkpt>
			<trkpt lat="52.70583" lon="6.23624">
				<ele>2.8</ele>
			</trkpt>
			<trkpt lat="52.70572" lon="6.23668">
				<ele>2.8</ele>
			</trkpt>
			<trkpt lat="52.70564" lon="6.23737">
				<ele>2.8</ele>
			</trkpt>
			<trkpt lat="52.70565" lon="6.23806">
				<ele>2.8</ele>
			</trkpt>
			<trkpt lat="52.70578" lon="6.23885">
				<ele>2.8</ele>
			</trkpt>
			<trkpt lat="52.7063" lon="6.24097">
				<ele>1</ele>
			</trkpt>
			<trkpt lat="52.70632" lon="6.24128">
				<ele>1</ele>
			</trkpt>
			<trkpt lat="52.70647" lon="6.24166">
				<ele>1</ele>
			</trkpt>
			<trkpt lat="52.7076" lon="6.24638">
				<ele>1</ele>
			</trkpt>
			<trkpt lat="52.70799" lon="6.24793">
				<ele>3</ele>
			</trkpt>
			<trkpt lat="52.70803" lon="6.24815">
				<ele>3</ele>
			</trkpt>
			<trkpt lat="52.70804" lon="6.24833">
				<ele>3</ele>
			</trkpt>
			<trkpt lat="52.70763" lon="6.24872">
				<ele>3</ele>
			</trkpt>
			<trkpt lat="52.70728" lon="6.24912">
				<ele>1.29</ele>
			</trkpt>
			<trkpt lat="52.70687" lon="6.24977">
				<ele>1.29</ele>
			</trkpt>
			<trkpt lat="52.70664" lon="6.25037">
				<ele>1.29</ele>
			</trkpt>
			<trkpt lat="52.70639" lon="6.25096">
				<ele>1.29</ele>
			</trkpt>
			<trkpt lat="52.70539" lon="6.25266">
				<ele>0.57</ele>
			</trkpt>
			<trkpt lat="52.70529" lon="6.25297">
				<ele>0.57</ele>
			</trkpt>
			<trkpt lat="52.70521" lon="6.25316">
				<ele>0.57</ele>
			</trkpt>
			<trkpt lat="52.70512" lon="6.2533">
				<ele>0.57</ele>
			</trkpt>
			<trkpt lat="52.70503" lon="6.25338">
				<ele>2.41</ele>
			</trkpt>
			<trkpt lat="52.70452" lon="6.25329">
				<ele>2.41</ele>
			</trkpt>
			<trkpt lat="52.70448" lon="6.25344">
				<ele>2.41</ele>
			</trkpt>
			<trkpt lat="52.7045" lon="6.25441">
				<ele>2.41</ele>
			</trkpt>
			<trkpt lat="52.70442" lon="6.25484">
				<ele>2.41</ele>
			</trkpt>
			<trkpt lat="52.70423" lon="6.25533">
				<ele>1.41</ele>
			</trkpt>
			<trkpt lat="52.70368" lon="6.25636">
				<ele>1.41</ele>
			</trkpt>
			<trkpt lat="52.70356" lon="6.25651">
				<ele>1.41</ele>
			</trkpt>
			<trkpt lat="52.70006" lon="6.25881">
				<ele>1.41</ele>
			</trkpt>
			<trkpt lat="52.69442" lon="6.26243">
				<ele>1</ele>
			</trkpt>
			<trkpt lat="52.69332" lon="6.26315">
				<ele>1</ele>
			</trkpt>
			<trkpt lat="52.69088" lon="6.26471">
				<ele>1</ele>
			</trkpt>
			<trkpt lat="52.69028" lon="6.26503">
				<ele>1</ele>
			</trkpt>
			<trkpt lat="52.69019" lon="6.2653">
				<ele>1</ele>
			</trkpt>
			<trkpt lat="52.69014" lon="6.26679">
				<ele>1</ele>
			</trkpt>
			<trkpt lat="52.69006" lon="6.26772">
				<ele>1</ele>
			</trkpt>
			<trkpt lat="52.6899" lon="6.26893">
				<ele>1</ele>
			</trkpt>
			<trkpt lat="52.6899" lon="6.26928">
				<ele>1.17</ele>
			</trkpt>
			<trkpt lat="52.69012" lon="6.26973">
				<ele>1.17</ele>
			</trkpt>
			<trkpt lat="52.69083" lon="6.27067">
				<ele>1.17</ele>
			</trkpt>
			<trkpt lat="52.69111" lon="6.27101">
				<ele>1.17</ele>
			</trkpt>
			<trkpt lat="52.69138" lon="6.27103">
				<ele>2.69</ele>
			</trkpt>
			<trkpt lat="52.69234" lon="6.27067">
				<ele>2.69</ele>
			</trkpt>
			<trkpt lat="52.6925" lon="6.27083">
				<ele>2.69</ele>
			</trkpt>
			<trkpt lat="52.69255" lon="6.27104">
				<ele>2.69</ele>
			</trkpt>
			<trkpt lat="52.69298" lon="6.27247">
				<ele>3.69</ele>
			</trkpt>
			<trkpt lat="52.69316" lon="6.27297">
				<ele>3.69</ele>
			</trkpt>
			<trkpt lat="52.69353" lon="6.27351">
				<ele>3.69</ele>
			</trkpt>
			<trkpt lat="52.69423" lon="6.27421">
				<ele>3.69</ele>
			</trkpt>
			<trkpt lat="52.69454" lon="6.27473">
				<ele>3.69</ele>
			</trkpt>
			<trkpt lat="52.69486" lon="6.27534">
				<ele>1.43</ele>
			</trkpt>
			<trkpt lat="52.69515" lon="6.27569">
				<ele>1.43</ele>
			</trkpt>
			<trkpt lat="52.69549" lon="6.27585">
				<ele>1.43</ele>
			</trkpt>
			<trkpt lat="52.6967" lon="6.27607">
				<ele>1.43</ele>
			</trkpt>
			<trkpt lat="52.69792" lon="6.27634">
				<ele>1.15</ele>
			</trkpt>
			<trkpt lat="52.6981" lon="6.27651">
				<ele>1.15</ele>
			</trkpt>
			<trkpt lat="52.6985" lon="6.27759">
				<ele>1.15</ele>
			</trkpt>
			<trkpt lat="52.69953" lon="6.28059">
				<ele>1.15</ele>
			</trkpt>
			<trkpt lat="52.70079" lon="6.28416">
				<ele>3</ele>
			</trkpt>
			<trkpt lat="52.70126" lon="6.28541">
				<ele>3</ele>
			</trkpt>
			<trkpt lat="52.70115" lon="6.28568">
				<ele>3</ele>
			</trkpt>
			<trkpt lat="52.70048" lon="6.28627">
				<ele>3</ele>
			</trkpt>
			<trkpt lat="52.69981" lon="6.28689">
				<ele>1.97</ele>
			</trkpt>
			<trkpt lat="52.69876" lon="6.28795">
				<ele>1.97</ele>
			</trkpt>
			<trkpt lat="52.69812" lon="6.28852">
				<ele>1.97</ele>
			</trkpt>
			<trkpt lat="52.69781" lon="6.28865">
				<ele>1.97</ele>
			</trkpt>
			<trkpt lat="52.69772" lon="6.28873">
				<ele>0.56</ele>
			</trkpt>
			<trkpt lat="52.69772" lon="6.28899">
				<ele>0.56</ele>
			</trkpt>
			<trkpt lat="52.69755" lon="6.2893">
				<ele>0.56</ele>
			</trkpt>
			<trkpt lat="52.69726" lon="6.28961">
				<ele>0.56</ele>
			</trkpt>
			<trkpt lat="52.6965" lon="6.29032">
				<ele>1</ele>
			</trkpt>
			<trkpt lat="52.69644" lon="6.29059">
				<ele>1</ele>
			</trkpt>
			<trkpt lat="52.69654" lon="6.29098">
				<ele>1</ele>
			</trkpt>
			<trkpt lat="52.69852" lon="6.29657">
				<ele>1</ele>
			</trkpt>
			<trkpt lat="52.6986" lon="6.29682">
				<ele>1</ele>
			</trkpt>
			<trkpt lat="52.69858" lon="6.29703">
				<ele>1</ele>
			</trkpt>
			<trkpt lat="52.69865" lon="6.29723">
				<ele>1</ele>
			</trkpt>
			<trkpt lat="52.69881" lon="6.29739">
				<ele>1</ele>
			</trkpt>
			<trkpt lat="52.70065" lon="6.3027">
				<ele>1</ele>
			</trkpt>
			<trkpt lat="52.70125" lon="6.30437">
				<ele>0.31</ele>
			</trkpt>
			<trkpt lat="52.70146" lon="6.30511">
				<ele>0.31</ele>
			</trkpt>
			<trkpt lat="52.70156" lon="6.30552">
				<ele>0.31</ele>
			</trkpt>
			<trkpt lat="52.70176" lon="6.30606">
				<ele>0.31</ele>
			</trkpt>
			<trkpt lat="52.70183" lon="6.30617">
				<ele>2.42</ele>
			</trkpt>
			<trkpt lat="52.70363" lon="6.31138">
				<ele>2.42</ele>
			</trkpt>
			<trkpt lat="52.7038" lon="6.31195">
				<ele>2.42</ele>
			</trkpt>
			<trkpt lat="52.70385" lon="6.31277">
				<ele>2.42</ele>
			</trkpt>
			<trkpt lat="52.70391" lon="6.31516">
				<ele>1.72</ele>
			</trkpt>
			<trkpt lat="52.70395" lon="6.31624">
				<ele>1.72</ele>
			</trkpt>
			<trkpt lat="52.70404" lon="6.31632">
				<ele>1.72</ele>
			</trkpt>
			<trkpt lat="52.70429" lon="6.31621">
				<ele>1.72</ele>
			</trkpt>
			<trkpt lat="52.70434" lon="6.31648">
				<ele>2.99</ele>
			</trkpt>
			<trkpt lat="52.70438" lon="6.31784">
				<ele>2.99</ele>
			</trkpt>
			<trkpt lat="52.70447" lon="6.31865">
				<ele>2.99</ele>
			</trkpt>
			<trkpt lat="52.70449" lon="6.31949">
				<ele>2.99</ele>
			</trkpt>
			<trkpt lat="52.70457" lon="6.32031">
				<ele>2.99</ele>
			</trkpt>
			<trkpt lat="52.70549" lon="6.32295">
				<ele>3</ele>
			</trkpt>
			<trkpt lat="52.70562" lon="6.32324">
				<ele>3</ele>
			</trkpt>
			<trkpt lat="52.70575" lon="6.32329">
				<ele>3</ele>
			</trkpt>
			<trkpt lat="52.70589" lon="6.32324">
				<ele>3</ele>
			</trkpt>
			<trkpt lat="52.70608" lon="6.32332">
				<ele>3.74</ele>
			</trkpt>
			<trkpt lat="52.7069" lon="6.32562">
				<ele>3.74</ele>
			</trkpt>
			<trkpt lat="52.70701" lon="6.32588">
				<ele>3.74</ele>
			</trkpt>
			<trkpt lat="52.70721" lon="6.3257">
				<ele>3.74</ele>
			</trkpt>
			<trkpt lat="52.70747" lon="6.32551">
				<ele>2.53</ele>
			</trkpt>
			<trkpt lat="52.70754" lon="6.32564">
				<ele>2.53</ele>
			</trkpt>
			<trkpt lat="52.70806" lon="6.32715">
				<ele>2.53</ele>
			</trkpt>
			<trkpt lat="52.70894" lon="6.32981">
				<ele>2.53</ele>
			</trkpt>
			<trkpt lat="52.71155" lon="6.33731">
				<ele>2</ele>
			</trkpt>
			<trkpt lat="52.71155" lon="6.33778">
				<ele>2</ele>
			</trkpt>
			<trkpt lat="52.71171" lon="6.33781">
				<ele>2</ele>
			</trkpt>
			<trkpt lat="52.71183" lon="6.33793">
				<ele>2</ele>
			</trkpt>
			<trkpt lat="52.71211" lon="6.33876">
				<ele>1.67</ele>
			</trkpt>
			<trkpt lat="52.71301" lon="6.34129">
				<ele>1.67</ele>
			</trkpt>
			<trkpt lat="52.71663" lon="6.35169">
				<ele>1.67</ele>
			</trkpt>
			<trkpt lat="52.71796" lon="6.35557">
				<ele>1.67</ele>
			</trkpt>
			<trkpt lat="52.7183" lon="6.35654">
				<ele>1</ele>
			</trkpt>
			<trkpt lat="52.71867" lon="6.35772">
				<ele>1</ele>
			</trkpt>
			<trkpt lat="52.71874" lon="6.35799">
				<ele>1</ele>
			</trkpt>
			<trkpt lat="52.7189" lon="6.35828">
				<ele>1</ele>
			</trkpt>
			<trkpt lat="52.71917" lon="6.35897">
				<ele>1</ele>
			</trkpt>
			<trkpt lat="52.71976" lon="6.36013">
				<ele>1.53</ele>
			</trkpt>
			<trkpt lat="52.71984" lon="6.36044">
				<ele>1.53</ele>
			</trkpt>
			<trkpt lat="52.72" lon="6.36084">
				<ele>1.53</ele>
			</trkpt>
			<trkpt lat="52.72022" lon="6.36142">
				<ele>1.53</ele>
			</trkpt>
			<trkpt lat="52.72036" lon="6.36164">
				<ele>1.36</ele>
			</trkpt>
			<trkpt lat="52.72051" lon="6.36171">
				<ele>1.36</ele>
			</trkpt>
			<trkpt lat="52.72102" lon="6.36207">
				<ele>1.36</ele>
			</trkpt>
			<trkpt lat="52.72124" lon="6.362">
				<ele>1.36</ele>
			</trkpt>
			<trkpt lat="52.7215" lon="6.36168">
				<ele>2</ele>
			</trkpt>
			<trkpt lat="52.72168" lon="6.36157">
				<ele>2</ele>
			</trkpt>
			<trkpt lat="52.72182" lon="6.36158">
				<ele>2</ele>
			</trkpt>
			<trkpt lat="52.72229" lon="6.36147">
				<ele>2</ele>
			</trkpt>
			<trkpt lat="52.7226" lon="6.36148">
				<ele>3.18</ele>
			</trkpt>
			<trkpt lat="52.72282" lon="6.36144">
				<ele>3.18</ele>
			</trkpt>
			<trkpt lat="52.72304" lon="6.36149">
				<ele>3.18</ele>
			</trkpt>
			<trkpt lat="52.7232" lon="6.36143">
				<ele>3.18</ele>
			</trkpt>
			<trkpt lat="52.72339" lon="6.36129">
				<ele>2.87</ele>
			</trkpt>
			<trkpt lat="52.72359" lon="6.36109">
				<ele>2.87</ele>
			</trkpt>
			<trkpt lat="52.7238" lon="6.36079">
				<ele>2.87</ele>
			</trkpt>
			<trkpt lat="52.72396" lon="6.36081">
				<ele>2.87</ele>
			</trkpt>
			<trkpt lat="52.72407" lon="6.36096">
				<ele>3.72</ele>
			</trkpt>
			<trkpt lat="52.72423" lon="6.36124">
				<ele>3.72</ele>
			</trkpt>
			<trkpt lat="52.72449" lon="6.3614">
				<ele>3.72</ele>
			</trkpt>
			<trkpt lat="52.72478" lon="6.36154">
				<ele>3.72</ele>
			</trkpt>
			<trkpt lat="52.72495" lon="6.3618">
				<ele>3.72</ele>
			</trkpt>
			<trkpt lat="52.72504" lon="6.36199">
				<ele>9.05</ele>
			</trkpt>
			<trkpt lat="52.72526" lon="6.36262">
				<ele>9.05</ele>
			</trkpt>
			<trkpt lat="52.7254" lon="6.36315">
				<ele>9.05</ele>
			</trkpt>
			<trkpt lat="52.72555" lon="6.36389">
				<ele>9.05</ele>
			</trkpt>
			<trkpt lat="52.72561" lon="6.36408">
				<ele>15.27</ele>
			</trkpt>
			<trkpt lat="52.72577" lon="6.36422">
				<ele>15.27</ele>
			</trkpt>
			<trkpt lat="52.72603" lon="6.36437">
				<ele>15.27</ele>
			</trkpt>
			<trkpt lat="52.72638" lon="6.36449">
				<ele>15.27</ele>
			</trkpt>
			<trkpt lat="52.72657" lon="6.36438">
				<ele>12.29</ele>
			</trkpt>
			<trkpt lat="52.72677" lon="6.36443">
				<ele>12.29</ele>
			</trkpt>
			<trkpt lat="52.72685" lon="6.36464">
				<ele>12.29</ele>
			</trkpt>
			<trkpt lat="52.72688" lon="6.36506">
				<ele>12.29</ele>
			</trkpt>
			<trkpt lat="52.72703" lon="6.36545">
				<ele>14.67</ele>
			</trkpt>
			<trkpt lat="52.72725" lon="6.36577">
				<ele>14.67</ele>
			</trkpt>
			<trkpt lat="52.72771" lon="6.36629">
				<ele>14.67</ele>
			</trkpt>
			<trkpt lat="52.72784" lon="6.36639">
				<ele>14.67</ele>
			</trkpt>
			<trkpt lat="52.72811" lon="6.36631">
				<ele>14.47</ele>
			</trkpt>
			<trkpt lat="52.72835" lon="6.36608">
				<ele>14.47</ele>
			</trkpt>
			<trkpt lat="52.72856" lon="6.36601">
				<ele>14.47</ele>
			</trkpt>
			<trkpt lat="52.72873" lon="6.36611">
				<ele>14.47</ele>
			</trkpt>
			<trkpt lat="52.72886" lon="6.36656">
				<ele>14.47</ele>
			</trkpt>
			<trkpt lat="52.72908" lon="6.36679">
				<ele>13.92</ele>
			</trkpt>
			<trkpt lat="52.72916" lon="6.36692">
				<ele>13.92</ele>
			</trkpt>
			<trkpt lat="52.72911" lon="6.36728">
				<ele>13.92</ele>
			</trkpt>
			<trkpt lat="52.72915" lon="6.36758">
				<ele>13.92</ele>
			</trkpt>
			<trkpt lat="52.72918" lon="6.36802">
				<ele>18.49</ele>
			</trkpt>
			<trkpt lat="52.72924" lon="6.3686">
				<ele>18.49</ele>
			</trkpt>
			<trkpt lat="52.72931" lon="6.37011">
				<ele>18.49</ele>
			</trkpt>
			<trkpt lat="52.72928" lon="6.3703">
				<ele>18.49</ele>
			</trkpt>
			<trkpt lat="52.72917" lon="6.37058">
				<ele>18</ele>
			</trkpt>
			<trkpt lat="52.72914" lon="6.37101">
				<ele>18</ele>
			</trkpt>
			<trkpt lat="52.72922" lon="6.37135">
				<ele>18</ele>
			</trkpt>
			<trkpt lat="52.72936" lon="6.37255">
				<ele>18</ele>
			</trkpt>
			<trkpt lat="52.72945" lon="6.37316">
				<ele>18.32</ele>
			</trkpt>
			<trkpt lat="52.72952" lon="6.37349">
				<ele>18.32</ele>
			</trkpt>
			<trkpt lat="52.72954" lon="6.37391">
				<ele>18.32</ele>
			</trkpt>
			<trkpt lat="52.72953" lon="6.37416">
				<ele>18.32</ele>
			</trkpt>
			<trkpt lat="52.72949" lon="6.37438">
				<ele>17</ele>
			</trkpt>
			<trkpt lat="52.72943" lon="6.3746">
				<ele>17</ele>
			</trkpt>
			<trkpt lat="52.72935" lon="6.37502">
				<ele>17</ele>
			</trkpt>
			<trkpt lat="52.72929" lon="6.37521">
				<ele>17</ele>
			</trkpt>
			<trkpt lat="52.72896" lon="6.37578">
				<ele>18.39</ele>
			</trkpt>
			<trkpt lat="52.72895" lon="6.37628">
				<ele>18.39</ele>
			</trkpt>
			<trkpt lat="52.72899" lon="6.37676">
				<ele>18.39</ele>
			</trkpt>
			<trkpt lat="52.72901" lon="6.37718">
				<ele>18.39</ele>
			</trkpt>
			<trkpt lat="52.72892" lon="6.37748">
				<ele>18.39</ele>
			</trkpt>
			<trkpt lat="52.72891" lon="6.37771">
				<ele>12.5</ele>
			</trkpt>
			<trkpt lat="52.72902" lon="6.37811">
				<ele>12.5</ele>
			</trkpt>
			<trkpt lat="52.72925" lon="6.37871">
				<ele>12.5</ele>
			</trkpt>
			<trkpt lat="52.7294" lon="6.37914">
				<ele>12.5</ele>
			</trkpt>
			<trkpt lat="52.72935" lon="6.37941">
				<ele>13.19</ele>
			</trkpt>
			<trkpt lat="52.72934" lon="6.37957">
				<ele>13.19</ele>
			</trkpt>
			<trkpt lat="52.72928" lon="6.37988">
				<ele>13.19</ele>
			</trkpt>
			<trkpt lat="52.7291" lon="6.38075">
				<ele>13.19</ele>
			</trkpt>
			<trkpt lat="52.72893" lon="6.38169">
				<ele>12.23</ele>
			</trkpt>
			<trkpt lat="52.72891" lon="6.38191">
				<ele>12.23</ele>
			</trkpt>
			<trkpt lat="52.72893" lon="6.38221">
				<ele>12.23</ele>
			</trkpt>
			<trkpt lat="52.72903" lon="6.38253">
				<ele>12.23</ele>
			</trkpt>
			<trkpt lat="52.72963" lon="6.38302">
				<ele>18.28</ele>
			</trkpt>
			<trkpt lat="52.72997" lon="6.38332">
				<ele>18.28</ele>
			</trkpt>
			<trkpt lat="52.7303" lon="6.38364">
				<ele>18.28</ele>
			</trkpt>
			<trkpt lat="52.73046" lon="6.38382">
				<ele>18.28</ele>
			</trkpt>
			<trkpt lat="52.73064" lon="6.38418">
				<ele>18.55</ele>
			</trkpt>
			<trkpt lat="52.73114" lon="6.38559">
				<ele>18.55</ele>
			</trkpt>
			<trkpt lat="52.73136" lon="6.38614">
				<ele>18.55</ele>
			</trkpt>
			<trkpt lat="52.73148" lon="6.38637">
				<ele>18.55</ele>
			</trkpt>
			<trkpt lat="52.73158" lon="6.38638">
				<ele>14.63</ele>
			</trkpt>
			<trkpt lat="52.73168" lon="6.3863">
				<ele>14.63</ele>
			</trkpt>
			<trkpt lat="52.7318" lon="6.3863">
				<ele>14.63</ele>
			</trkpt>
			<trkpt lat="52.7321" lon="6.38676">
				<ele>14.63</ele>
			</trkpt>
			<trkpt lat="52.73316" lon="6.38869">
				<ele>14.63</ele>
			</trkpt>
			<trkpt lat="52.73336" lon="6.38901">
				<ele>18.44</ele>
			</trkpt>
			<trkpt lat="52.73368" lon="6.38922">
				<ele>18.44</ele>
			</trkpt>
			<trkpt lat="52.73379" lon="6.38945">
				<ele>18.44</ele>
			</trkpt>
			<trkpt lat="52.73395" lon="6.38959">
				<ele>18.44</ele>
			</trkpt>
			<trkpt lat="52.73421" lon="6.38978">
				<ele>17.82</ele>
			</trkpt>
			<trkpt lat="52.73434" lon="6.39001">
				<ele>17.82</ele>
			</trkpt>
			<trkpt lat="52.73439" lon="6.39016">
				<ele>17.82</ele>
			</trkpt>
			<trkpt lat="52.73448" lon="6.39029">
				<ele>17.82</ele>
			</trkpt>
			<trkpt lat="52.73473" lon="6.39043">
				<ele>12.93</ele>
			</trkpt>
			<trkpt lat="52.73535" lon="6.39062">
				<ele>12.93</ele>
			</trkpt>
			<trkpt lat="52.73569" lon="6.39066">
				<ele>12.93</ele>
			</trkpt>
			<trkpt lat="52.73588" lon="6.39078">
				<ele>12.93</ele>
			</trkpt>
			<trkpt lat="52.73602" lon="6.39108">
				<ele>12.29</ele>
			</trkpt>
			<trkpt lat="52.73613" lon="6.39142">
				<ele>12.29</ele>
			</trkpt>
			<trkpt lat="52.73626" lon="6.39189">
				<ele>12.29</ele>
			</trkpt>
			<trkpt lat="52.73631" lon="6.39215">
				<ele>12.29</ele>
			</trkpt>
			<trkpt lat="52.73638" lon="6.39232">
				<ele>10</ele>
			</trkpt>
			<trkpt lat="52.7372" lon="6.39289">
				<ele>10</ele>
			</trkpt>
			<trkpt lat="52.7374" lon="6.39301">
				<ele>10</ele>
			</trkpt>
			<trkpt lat="52.73786" lon="6.39312">
				<ele>10</ele>
			</trkpt>
			<trkpt lat="52.73836" lon="6.39314">
				<ele>10</ele>
			</trkpt>
			<trkpt lat="52.73883" lon="6.39312">
				<ele>13.25</ele>
			</trkpt>
			<trkpt lat="52.73896" lon="6.39316">
				<ele>13.25</ele>
			</trkpt>
			<trkpt lat="52.73914" lon="6.39346">
				<ele>13.25</ele>
			</trkpt>
			<trkpt lat="52.73928" lon="6.39367">
				<ele>13.25</ele>
			</trkpt>
			<trkpt lat="52.73959" lon="6.3938">
				<ele>11.04</ele>
			</trkpt>
			<trkpt lat="52.7399" lon="6.39399">
				<ele>11.04</ele>
			</trkpt>
			<trkpt lat="52.74023" lon="6.39416">
				<ele>11.04</ele>
			</trkpt>
			<trkpt lat="52.74054" lon="6.39438">
				<ele>11.04</ele>
			</trkpt>
			<trkpt lat="52.74072" lon="6.39457">
				<ele>16.72</ele>
			</trkpt>
			<trkpt lat="52.7409" lon="6.39466">
				<ele>16.72</ele>
			</trkpt>
			<trkpt lat="52.74125" lon="6.39473">
				<ele>16.72</ele>
			</trkpt>
			<trkpt lat="52.74151" lon="6.3949">
				<ele>16.72</ele>
			</trkpt>
			<trkpt lat="52.74175" lon="6.39499">
				<ele>19.54</ele>
			</trkpt>
			<trkpt lat="52.74223" lon="6.39542">
				<ele>19.54</ele>
			</trkpt>
			<trkpt lat="52.74253" lon="6.39578">
				<ele>19.54</ele>
			</trkpt>
			<trkpt lat="52.74271" lon="6.39611">
				<ele>19.54</ele>
			</trkpt>
			<trkpt lat="52.74278" lon="6.3968">
				<ele>20.77</ele>
			</trkpt>
			<trkpt lat="52.74279" lon="6.398">
				<ele>20.77</ele>
			</trkpt>
			<trkpt lat="52.7428" lon="6.39844">
				<ele>20.77</ele>
			</trkpt>
			<trkpt lat="52.74288" lon="6.39863">
				<ele>20.77</ele>
			</trkpt>
			<trkpt lat="52.7441" lon="6.39796">
				<ele>20.95</ele>
			</trkpt>
			<trkpt lat="52.7444" lon="6.39794">
				<ele>20.95</ele>
			</trkpt>
			<trkpt lat="52.74454" lon="6.39788">
				<ele>20.95</ele>
			</trkpt>
			<trkpt lat="52.74465" lon="6.39792">
				<ele>20.95</ele>
			</trkpt>
			<trkpt lat="52.74479" lon="6.39805">
				<ele>20.95</ele>
			</trkpt>
			<trkpt lat="52.74494" lon="6.39801">
				<ele>14</ele>
			</trkpt>
			<trkpt lat="52.74513" lon="6.39789">
				<ele>14</ele>
			</trkpt>
			<trkpt lat="52.74533" lon="6.39798">
				<ele>14</ele>
			</trkpt>
			<trkpt lat="52.74547" lon="6.39846">
				<ele>14</ele>
			</trkpt>
			<trkpt lat="52.74569" lon="6.39916">
				<ele>18.19</ele>
			</trkpt>
			<trkpt lat="52.74577" lon="6.39957">
				<ele>18.19</ele>
			</trkpt>
			<trkpt lat="52.74601" lon="6.40039">
				<ele>18.19</ele>
			</trkpt>
			<trkpt lat="52.74607" lon="6.40056">
				<ele>18.19</ele>
			</trkpt>
			<trkpt lat="52.74616" lon="6.40072">
				<ele>14.61</ele>
			</trkpt>
			<trkpt lat="52.74643" lon="6.40111">
				<ele>14.61</ele>
			</trkpt>
			<trkpt lat="52.74657" lon="6.40135">
				<ele>14.61</ele>
			</trkpt>
			<trkpt lat="52.74671" lon="6.40172">
				<ele>14.61</ele>
			</trkpt>
			<trkpt lat="52.74679" lon="6.40188">
				<ele>11.48</ele>
			</trkpt>
			<trkpt lat="52.74705" lon="6.40228">
				<ele>11.48</ele>
			</trkpt>
			<trkpt lat="52.74713" lon="6.40258">
				<ele>11.48</ele>
			</trkpt>
			<trkpt lat="52.7473" lon="6.40315">
				<ele>11.48</ele>
			</trkpt>
			<trkpt lat="52.74744" lon="6.40378">
				<ele>8.83</ele>
			</trkpt>
			<trkpt lat="52.74759" lon="6.40426">
				<ele>8.83</ele>
			</trkpt>
			<trkpt lat="52.74783" lon="6.40433">
				<ele>8.83</ele>
			</trkpt>
			<trkpt lat="52.74809" lon="6.40425">
				<ele>8.83</ele>
			</trkpt>
			<trkpt lat="52.74822" lon="6.40425">
				<ele>8.16</ele>
			</trkpt>
			<trkpt lat="52.74883" lon="6.40442">
				<ele>8.16</ele>
			</trkpt>
			<trkpt lat="52.7501" lon="6.40472">
				<ele>8.16</ele>
			</trkpt>
			<trkpt lat="52.75025" lon="6.40468">
				<ele>8.16</ele>
			</trkpt>
			<trkpt lat="52.75193" lon="6.40372">
				<ele>8.16</ele>
			</trkpt>
			<trkpt lat="52.75214" lon="6.40365">
				<ele>8.81</ele>
			</trkpt>
			<trkpt lat="52.75227" lon="6.40366">
				<ele>8.81</ele>
			</trkpt>
			<trkpt lat="52.75253" lon="6.4038">
				<ele>8.81</ele>
			</trkpt>
			<trkpt lat="52.75268" lon="6.40392">
				<ele>8.81</ele>
			</trkpt>
			<trkpt lat="52.75293" lon="6.4045">
				<ele>12.42</ele>
			</trkpt>
			<trkpt lat="52.75311" lon="6.40507">
				<ele>12.42</ele>
			</trkpt>
			<trkpt lat="52.75321" lon="6.40555">
				<ele>12.42</ele>
			</trkpt>
			<trkpt lat="52.75332" lon="6.40593">
				<ele>12.42</ele>
			</trkpt>
			<trkpt lat="52.75331" lon="6.40635">
				<ele>14.41</ele>
			</trkpt>
			<trkpt lat="52.75328" lon="6.40652">
				<ele>14.41</ele>
			</trkpt>
			<trkpt lat="52.75317" lon="6.40679">
				<ele>14.41</ele>
			</trkpt>
			<trkpt lat="52.75289" lon="6.40716">
				<ele>14.41</ele>
			</trkpt>
			<trkpt lat="52.75237" lon="6.40773">
				<ele>17.96</ele>
			</trkpt>
			<trkpt lat="52.75192" lon="6.40809">
				<ele>17.96</ele>
			</trkpt>
			<trkpt lat="52.7514" lon="6.40845">
				<ele>17.96</ele>
			</trkpt>
			<trkpt lat="52.75116" lon="6.40866">
				<ele>17.96</ele>
			</trkpt>
			<trkpt lat="52.75106" lon="6.40883">
				<ele>17.61</ele>
			</trkpt>
			<trkpt lat="52.75085" lon="6.4094">
				<ele>17.61</ele>
			</trkpt>
			<trkpt lat="52.75059" lon="6.41002">
				<ele>17.61</ele>
			</trkpt>
			<trkpt lat="52.75034" lon="6.41055">
				<ele>17.61</ele>
			</trkpt>
			<trkpt lat="52.75005" lon="6.41134">
				<ele>11.3</ele>
			</trkpt>
			<trkpt lat="52.74947" lon="6.41261">
				<ele>11.3</ele>
			</trkpt>
			<trkpt lat="52.74896" lon="6.41385">
				<ele>11.3</ele>
			</trkpt>
			<trkpt lat="52.74862" lon="6.41452">
				<ele>11.3</ele>
			</trkpt>
			<trkpt lat="52.74829" lon="6.41499">
				<ele>11.3</ele>
			</trkpt>
			<trkpt lat="52.74761" lon="6.41586">
				<ele>12.38</ele>
			</trkpt>
			<trkpt lat="52.74594" lon="6.41791">
				<ele>12.38</ele>
			</trkpt>
			<trkpt lat="52.74551" lon="6.41853">
				<ele>12.38</ele>
			</trkpt>
			<trkpt lat="52.74646" lon="6.41949">
				<ele>12.38</ele>
			</trkpt>
			<trkpt lat="52.74681" lon="6.41973">
				<ele>15.35</ele>
			</trkpt>
			<trkpt lat="52.7467" lon="6.41956">
				<ele>15.35</ele>
			</trkpt>
			<trkpt lat="52.74664" lon="6.41944">
				<ele>15.35</ele>
			</trkpt>
			<trkpt lat="52.74674" lon="6.41921">
				<ele>15.35</ele>
			</trkpt>
			<trkpt lat="52.74678" lon="6.41902">
				<ele>12.68</ele>
			</trkpt>
			<trkpt lat="52.74684" lon="6.41888">
				<ele>12.68</ele>
			</trkpt>
			<trkpt lat="52.74727" lon="6.41856">
				<ele>12.68</ele>
			</trkpt>
			<trkpt lat="52.74746" lon="6.41848">
				<ele>12.68</ele>
			</trkpt>
			<trkpt lat="52.74769" lon="6.41828">
				<ele>10.51</ele>
			</trkpt>
			<trkpt lat="52.74787" lon="6.41807">
				<ele>10.51</ele>
			</trkpt>
			<trkpt lat="52.74816" lon="6.41767">
				<ele>10.51</ele>
			</trkpt>
			<trkpt lat="52.74883" lon="6.41691">
				<ele>10.51</ele>
			</trkpt>
			<trkpt lat="52.74892" lon="6.41687">
				<ele>11.01</ele>
			</trkpt>
			<trkpt lat="52.74912" lon="6.41688">
				<ele>11.01</ele>
			</trkpt>
			<trkpt lat="52.74939" lon="6.41708">
				<ele>11.01</ele>
			</trkpt>
			<trkpt lat="52.74988" lon="6.41755">
				<ele>11.01</ele>
			</trkpt>
			<trkpt lat="52.75064" lon="6.41862">
				<ele>11.01</ele>
			</trkpt>
			<trkpt lat="52.75107" lon="6.41921">
				<ele>18.04</ele>
			</trkpt>
			<trkpt lat="52.75126" lon="6.41932">
				<ele>18.04</ele>
			</trkpt>
			<trkpt lat="52.75155" lon="6.41929">
				<ele>18.04</ele>
			</trkpt>
			<trkpt lat="52.75195" lon="6.41908">
				<ele>18.04</ele>
			</trkpt>
			<trkpt lat="52.75207" lon="6.41899">
				<ele>12.12</ele>
			</trkpt>
			<trkpt lat="52.75295" lon="6.41792">
				<ele>12.12</ele>
			</trkpt>
			<trkpt lat="52.7531" lon="6.41779">
				<ele>12.12</ele>
			</trkpt>
			<trkpt lat="52.7541" lon="6.41708">
				<ele>12.12</ele>
			</trkpt>
			<trkpt lat="52.75524" lon="6.41636">
				<ele>12.3</ele>
			</trkpt>
			<trkpt lat="52.75545" lon="6.41616">
				<ele>12.3</ele>
			</trkpt>
			<trkpt lat="52.75577" lon="6.41595">
				<ele>12.3</ele>
			</trkpt>
			<trkpt lat="52.75672" lon="6.41526">
				<ele>12.3</ele>
			</trkpt>
			<trkpt lat="52.76358" lon="6.41089">
				<ele>12.37</ele>
			</trkpt>
			<trkpt lat="52.76464" lon="6.41019">
				<ele>12.37</ele>
			</trkpt>
			<trkpt lat="52.76683" lon="6.40881">
				<ele>12.37</ele>
			</trkpt>
			<trkpt lat="52.7674" lon="6.40842">
				<ele>12.37</ele>
			</trkpt>
			<trkpt lat="52.7675" lon="6.40847">
				<ele>14.97</ele>
			</trkpt>
			<trkpt lat="52.76767" lon="6.40913">
				<ele>14.97</ele>
			</trkpt>
			<trkpt lat="52.76781" lon="6.40953">
				<ele>14.97</ele>
			</trkpt>
			<trkpt lat="52.76785" lon="6.40972">
				<ele>14.97</ele>
			</trkpt>
			<trkpt lat="52.76799" lon="6.41066">
				<ele>10.47</ele>
			</trkpt>
			<trkpt lat="52.76816" lon="6.41167">
				<ele>10.47</ele>
			</trkpt>
			<trkpt lat="52.76823" lon="6.4123">
				<ele>10.47</ele>
			</trkpt>
			<trkpt lat="52.76831" lon="6.41278">
				<ele>10.47</ele>
			</trkpt>
			<trkpt lat="52.7686" lon="6.4141">
				<ele>10.47</ele>
			</trkpt>
			<trkpt lat="52.76879" lon="6.41468">
				<ele>8.7</ele>
			</trkpt>
			<trkpt lat="52.76918" lon="6.41544">
				<ele>8.7</ele>
			</trkpt>
			<trkpt lat="52.76948" lon="6.41591">
				<ele>8.7</ele>
			</trkpt>
			<trkpt lat="52.76966" lon="6.41612">
				<ele>8.7</ele>
			</trkpt>
			<trkpt lat="52.76978" lon="6.41637">
				<ele>10.71</ele>
			</trkpt>
			<trkpt lat="52.76987" lon="6.41636">
				<ele>10.71</ele>
			</trkpt>
			<trkpt lat="52.77002" lon="6.41636">
				<ele>10.71</ele>
			</trkpt>
			<trkpt lat="52.77028" lon="6.4164">
				<ele>10.71</ele>
			</trkpt>
			<trkpt lat="52.7707" lon="6.41654">
				<ele>10.06</ele>
			</trkpt>
			<trkpt lat="52.77393" lon="6.41748">
				<ele>10.06</ele>
			</trkpt>
			<trkpt lat="52.77532" lon="6.41785">
				<ele>10.06</ele>
			</trkpt>
			<trkpt lat="52.77607" lon="6.41812">
				<ele>10.06</ele>
			</trkpt>
			<trkpt lat="52.77652" lon="6.4182">
				<ele>10.41</ele>
			</trkpt>
			<trkpt lat="52.77666" lon="6.41818">
				<ele>10.41</ele>
			</trkpt>
			<trkpt lat="52.77682" lon="6.41829">
				<ele>10.41</ele>
			</trkpt>
			<trkpt lat="52.7773" lon="6.41838">
				<ele>10.41</ele>
			</trkpt>
			<trkpt lat="52.77749" lon="6.4185">
				<ele>10.75</ele>
			</trkpt>
			<trkpt lat="52.77789" lon="6.41863">
				<ele>10.75</ele>
			</trkpt>
			<trkpt lat="52.77802" lon="6.41877">
				<ele>10.75</ele>
			</trkpt>
			<trkpt lat="52.77822" lon="6.41884">
				<ele>10.75</ele>
			</trkpt>
			<trkpt lat="52.77858" lon="6.41904">
				<ele>11.03</ele>
			</trkpt>
			<trkpt lat="52.7788" lon="6.41923">
				<ele>11.03</ele>
			</trkpt>
			<trkpt lat="52.77918" lon="6.41963">
				<ele>11.03</ele>
			</trkpt>
			<trkpt lat="52.78012" lon="6.42076">
				<ele>11.03</ele>
			</trkpt>
			<trkpt lat="52.78056" lon="6.42133">
				<ele>11.03</ele>
			</trkpt>
			<trkpt lat="52.78069" lon="6.42139">
				<ele>10.86</ele>
			</trkpt>
			<trkpt lat="52.78093" lon="6.42134">
				<ele>10.86</ele>
			</trkpt>
			<trkpt lat="52.78111" lon="6.42152">
				<ele>10.86</ele>
			</trkpt>
			<trkpt lat="52.78132" lon="6.42173">
				<ele>10.86</ele>
			</trkpt>
			<trkpt lat="52.78194" lon="6.4222">
				<ele>9.93</ele>
			</trkpt>
			<trkpt lat="52.78229" lon="6.4225">
				<ele>9.93</ele>
			</trkpt>
			<trkpt lat="52.78252" lon="6.42278">
				<ele>9.93</ele>
			</trkpt>
			<trkpt lat="52.78277" lon="6.42315">
				<ele>9.93</ele>
			</trkpt>
			<trkpt lat="52.78292" lon="6.42344">
				<ele>11</ele>
			</trkpt>
			<trkpt lat="52.78303" lon="6.42375">
				<ele>11</ele>
			</trkpt>
			<trkpt lat="52.78342" lon="6.42568">
				<ele>11</ele>
			</trkpt>
			<trkpt lat="52.7835" lon="6.42622">
				<ele>11</ele>
			</trkpt>
			<trkpt lat="52.7836" lon="6.42671">
				<ele>14</ele>
			</trkpt>
			<trkpt lat="52.78371" lon="6.4272">
				<ele>14</ele>
			</trkpt>
			<trkpt lat="52.78375" lon="6.42744">
				<ele>14</ele>
			</trkpt>
			<trkpt lat="52.7838" lon="6.42762">
				<ele>14</ele>
			</trkpt>
			<trkpt lat="52.78389" lon="6.42788">
				<ele>21.49</ele>
			</trkpt>
			<trkpt lat="52.78397" lon="6.42829">
				<ele>21.49</ele>
			</trkpt>
			<trkpt lat="52.78402" lon="6.42849">
				<ele>21.49</ele>
			</trkpt>
			<trkpt lat="52.7841" lon="6.42909">
				<ele>21.49</ele>
			</trkpt>
			<trkpt lat="52.78422" lon="6.43026">
				<ele>21.49</ele>
			</trkpt>
			<trkpt lat="52.78443" lon="6.43161">
				<ele>17.24</ele>
			</trkpt>
			<trkpt lat="52.78449" lon="6.43192">
				<ele>17.24</ele>
			</trkpt>
			<trkpt lat="52.78578" lon="6.43244">
				<ele>17.24</ele>
			</trkpt>
			<trkpt lat="52.78662" lon="6.43271">
				<ele>17.24</ele>
			</trkpt>
			<trkpt lat="52.78982" lon="6.43363">
				<ele>20.48</ele>
			</trkpt>
			<trkpt lat="52.7909" lon="6.43396">
				<ele>20.48</ele>
			</trkpt>
			<trkpt lat="52.79117" lon="6.434">
				<ele>20.48</ele>
			</trkpt>
			<trkpt lat="52.7914" lon="6.43395">
				<ele>20.48</ele>
			</trkpt>
			<trkpt lat="52.79416" lon="6.43281">
				<ele>18.49</ele>
			</trkpt>
			<trkpt lat="52.79441" lon="6.43264">
				<ele>18.49</ele>
			</trkpt>
			<trkpt lat="52.79461" lon="6.43226">
				<ele>18.49</ele>
			</trkpt>
			<trkpt lat="52.79748" lon="6.42728">
				<ele>18.49</ele>
			</trkpt>
			<trkpt lat="52.79859" lon="6.42531">
				<ele>19.43</ele>
			</trkpt>
			<trkpt lat="52.8" lon="6.42288">
				<ele>19.43</ele>
			</trkpt>
			<trkpt lat="52.80461" lon="6.41414">
				<ele>19.43</ele>
			</trkpt>
			<trkpt lat="52.80501" lon="6.41344">
				<ele>19.43</ele>
			</trkpt>
			<trkpt lat="52.80524" lon="6.413">
				<ele>15.31</ele>
			</trkpt>
			<trkpt lat="52.80553" lon="6.41251">
				<ele>15.31</ele>
			</trkpt>
			<trkpt lat="52.8073" lon="6.40901">
				<ele>15.31</ele>
			</trkpt>
			<trkpt lat="52.80969" lon="6.40438">
				<ele>15.31</ele>
			</trkpt>
			<trkpt lat="52.81011" lon="6.40361">
				<ele>12.95</ele>
			</trkpt>
			<trkpt lat="52.81077" lon="6.40233">
				<ele>12.95</ele>
			</trkpt>
			<trkpt lat="52.81159" lon="6.40083">
				<ele>12.95</ele>
			</trkpt>
			<trkpt lat="52.81205" lon="6.39996">
				<ele>12.95</ele>
			</trkpt>
			<trkpt lat="52.81243" lon="6.39934">
				<ele>12.95</ele>
			</trkpt>
			<trkpt lat="52.81259" lon="6.39896">
				<ele>11.25</ele>
			</trkpt>
			<trkpt lat="52.81294" lon="6.39835">
				<ele>11.25</ele>
			</trkpt>
			<trkpt lat="52.81319" lon="6.39787">
				<ele>11.25</ele>
			</trkpt>
			<trkpt lat="52.81341" lon="6.39755">
				<ele>11.25</ele>
			</trkpt>
			<trkpt lat="52.81375" lon="6.39716">
				<ele>11.73</ele>
			</trkpt>
			<trkpt lat="52.81446" lon="6.39642">
				<ele>11.73</ele>
			</trkpt>
			<trkpt lat="52.8155" lon="6.39563">
				<ele>11.73</ele>
			</trkpt>
			<trkpt lat="52.81619" lon="6.39526">
				<ele>11.73</ele>
			</trkpt>
			<trkpt lat="52.81643" lon="6.39516">
				<ele>10.72</ele>
			</trkpt>
			<trkpt lat="52.81688" lon="6.39494">
				<ele>10.72</ele>
			</trkpt>
			<trkpt lat="52.81719" lon="6.39481">
				<ele>10.72</ele>
			</trkpt>
			<trkpt lat="52.81855" lon="6.39435">
				<ele>10.72</ele>
			</trkpt>
			<trkpt lat="52.81956" lon="6.39413">
				<ele>17.1</ele>
			</trkpt>
			<trkpt lat="52.81992" lon="6.39401">
				<ele>17.1</ele>
			</trkpt>
			<trkpt lat="52.8202" lon="6.39395">
				<ele>17.1</ele>
			</trkpt>
			<trkpt lat="52.82087" lon="6.3937">
				<ele>17.1</ele>
			</trkpt>
			<trkpt lat="52.82122" lon="6.39352">
				<ele>11.69</ele>
			</trkpt>
			<trkpt lat="52.82147" lon="6.39334">
				<ele>11.69</ele>
			</trkpt>
			<trkpt lat="52.8218" lon="6.393">
				<ele>11.69</ele>
			</trkpt>
			<trkpt lat="52.82211" lon="6.39255">
				<ele>11.69</ele>
			</trkpt>
			<trkpt lat="52.82173" lon="6.39201">
				<ele>11.1</ele>
			</trkpt>
			<trkpt lat="52.82161" lon="6.3918">
				<ele>11.1</ele>
			</trkpt>
			<trkpt lat="52.82149" lon="6.39142">
				<ele>11.1</ele>
			</trkpt>
			<trkpt lat="52.8214" lon="6.39104">
				<ele>11.1</ele>
			</trkpt>
			<trkpt lat="52.82138" lon="6.39054">
				<ele>11.1</ele>
			</trkpt>
			<trkpt lat="52.82141" lon="6.38977">
				<ele>10.95</ele>
			</trkpt>
			<trkpt lat="52.82136" lon="6.38776">
				<ele>10.95</ele>
			</trkpt>
			<trkpt lat="52.82123" lon="6.38626">
				<ele>10.95</ele>
			</trkpt>
			<trkpt lat="52.82115" lon="6.38503">
				<ele>10.95</ele>
			</trkpt>
			<trkpt lat="52.82104" lon="6.38364">
				<ele>9.02</ele>
			</trkpt>
			<trkpt lat="52.82088" lon="6.38112">
				<ele>9.02</ele>
			</trkpt>
			<trkpt lat="52.8208" lon="6.38028">
				<ele>9.02</ele>
			</trkpt>
			<trkpt lat="52.82079" lon="6.37955">
				<ele>9.02</ele>
			</trkpt>
			<trkpt lat="52.8208" lon="6.37742">
				<ele>9</ele>
			</trkpt>
			<trkpt lat="52.82079" lon="6.37703">
				<ele>9</ele>
			</trkpt>
			<trkpt lat="52.82068" lon="6.3762">
				<ele>9</ele>
			</trkpt>
			<trkpt lat="52.82049" lon="6.37507">
				<ele>9</ele>
			</trkpt>
			<trkpt lat="52.82032" lon="6.37437">
				<ele>10.96</ele>
			</trkpt>
			<trkpt lat="52.82002" lon="6.37339">
				<ele>10.96</ele>
			</trkpt>
			<trkpt lat="52.81994" lon="6.37302">
				<ele>10.96</ele>
			</trkpt>
			<trkpt lat="52.81993" lon="6.37253">
				<ele>10.96</ele>
			</trkpt>
			<trkpt lat="52.81998" lon="6.37194">
				<ele>10.2</ele>
			</trkpt>
			<trkpt lat="52.82015" lon="6.37103">
				<ele>10.2</ele>
			</trkpt>
			<trkpt lat="52.82026" lon="6.37062">
				<ele>10.2</ele>
			</trkpt>
			<trkpt lat="52.82055" lon="6.37003">
				<ele>10.2</ele>
			</trkpt>
			<trkpt lat="52.82079" lon="6.36962">
				<ele>10.2</ele>
			</trkpt>
			<trkpt lat="52.82118" lon="6.3691">
				<ele>9.28</ele>
			</trkpt>
			<trkpt lat="52.82125" lon="6.36897">
				<ele>9.28</ele>
			</trkpt>
			<trkpt lat="52.82136" lon="6.36878">
				<ele>9.28</ele>
			</trkpt>
			<trkpt lat="52.82133" lon="6.36856">
				<ele>9.28</ele>
			</trkpt>
			<trkpt lat="52.82125" lon="6.36841">
				<ele>5.2</ele>
			</trkpt>
			<trkpt lat="52.82073" lon="6.3676">
				<ele>5.2</ele>
			</trkpt>
			<trkpt lat="52.82072" lon="6.36745">
				<ele>5.2</ele>
			</trkpt>
			<trkpt lat="52.82106" lon="6.3679">
				<ele>5.2</ele>
			</trkpt>
			<trkpt lat="52.82098" lon="6.36693">
				<ele>14.02</ele>
			</trkpt>
			<trkpt lat="52.82057" lon="6.36477">
				<ele>14.02</ele>
			</trkpt>
			<trkpt lat="52.82008" lon="6.36236">
				<ele>14.02</ele>
			</trkpt>
			<trkpt lat="52.81998" lon="6.36177">
				<ele>14.02</ele>
			</trkpt>
			<trkpt lat="52.81997" lon="6.3614">
				<ele>7.96</ele>
			</trkpt>
			<trkpt lat="52.82002" lon="6.36045">
				<ele>7.96</ele>
			</trkpt>
			<trkpt lat="52.82021" lon="6.35819">
				<ele>7.96</ele>
			</trkpt>
			<trkpt lat="52.8202" lon="6.35692">
				<ele>7.96</ele>
			</trkpt>
			<trkpt lat="52.82023" lon="6.35545">
				<ele>6.45</ele>
			</trkpt>
			<trkpt lat="52.82032" lon="6.35528">
				<ele>6.45</ele>
			</trkpt>
			<trkpt lat="52.82051" lon="6.35502">
				<ele>6.45</ele>
			</trkpt>
			<trkpt lat="52.8208" lon="6.35467">
				<ele>6.45</ele>
			</trkpt>
			<trkpt lat="52.82123" lon="6.35408">
				<ele>5.73</ele>
			</trkpt>
			<trkpt lat="52.8219" lon="6.35336">
				<ele>5.73</ele>
			</trkpt>
			<trkpt lat="52.82404" lon="6.35116">
				<ele>5.73</ele>
			</trkpt>
			<trkpt lat="52.82424" lon="6.35092">
				<ele>5.73</ele>
			</trkpt>
			<trkpt lat="52.82468" lon="6.35028">
				<ele>5.73</ele>
			</trkpt>
			<trkpt lat="52.82476" lon="6.3501">
				<ele>6.98</ele>
			</trkpt>
			<trkpt lat="52.82468" lon="6.34987">
				<ele>6.98</ele>
			</trkpt>
			<trkpt lat="52.82446" lon="6.34957">
				<ele>6.98</ele>
			</trkpt>
			<trkpt lat="52.82374" lon="6.34842">
				<ele>6.98</ele>
			</trkpt>
			<trkpt lat="52.82322" lon="6.34763">
				<ele>6.49</ele>
			</trkpt>
			<trkpt lat="52.82337" lon="6.34741">
				<ele>6.49</ele>
			</trkpt>
			<trkpt lat="52.82348" lon="6.34724">
				<ele>6.49</ele>
			</trkpt>
			<trkpt lat="52.82355" lon="6.34691">
				<ele>6.49</ele>
			</trkpt>
			<trkpt lat="52.82359" lon="6.34614">
				<ele>7</ele>
			</trkpt>
			<trkpt lat="52.82376" lon="6.34414">
				<ele>7</ele>
			</trkpt>
			<trkpt lat="52.82377" lon="6.34387">
				<ele>7</ele>
			</trkpt>
			<trkpt lat="52.82358" lon="6.34368">
				<ele>7</ele>
			</trkpt>
			<trkpt lat="52.82333" lon="6.34358">
				<ele>5.14</ele>
			</trkpt>
			<trkpt lat="52.82315" lon="6.34346">
				<ele>5.14</ele>
			</trkpt>
			<trkpt lat="52.82306" lon="6.3433">
				<ele>5.14</ele>
			</trkpt>
			<trkpt lat="52.82303" lon="6.34296">
				<ele>5.14</ele>
			</trkpt>
			<trkpt lat="52.82303" lon="6.34221">
				<ele>6.48</ele>
			</trkpt>
			<trkpt lat="52.82305" lon="6.34171">
				<ele>6.48</ele>
			</trkpt>
			<trkpt lat="52.82312" lon="6.34148">
				<ele>6.48</ele>
			</trkpt>
			<trkpt lat="52.82322" lon="6.34129">
				<ele>6.48</ele>
			</trkpt>
			<trkpt lat="52.82377" lon="6.34029">
				<ele>7.32</ele>
			</trkpt>
			<trkpt lat="52.82449" lon="6.33907">
				<ele>7.32</ele>
			</trkpt>
			<trkpt lat="52.82473" lon="6.33854">
				<ele>7.32</ele>
			</trkpt>
			<trkpt lat="52.8248" lon="6.3383">
				<ele>7.32</ele>
			</trkpt>
			<trkpt lat="52.82502" lon="6.3381">
				<ele>7.32</ele>
			</trkpt>
			<trkpt lat="52.82515" lon="6.33796">
				<ele>5.01</ele>
			</trkpt>
			<trkpt lat="52.82541" lon="6.33774">
				<ele>5.01</ele>
			</trkpt>
			<trkpt lat="52.82566" lon="6.33746">
				<ele>5.01</ele>
			</trkpt>
			<trkpt lat="52.82617" lon="6.33698">
				<ele>5.01</ele>
			</trkpt>
			<trkpt lat="52.82659" lon="6.33654">
				<ele>6</ele>
			</trkpt>
			<trkpt lat="52.82687" lon="6.33617">
				<ele>6</ele>
			</trkpt>
			<trkpt lat="52.82707" lon="6.33585">
				<ele>6</ele>
			</trkpt>
			<trkpt lat="52.82704" lon="6.33554">
				<ele>6</ele>
			</trkpt>
			<trkpt lat="52.82672" lon="6.33462">
				<ele>5.72</ele>
			</trkpt>
			<trkpt lat="52.8261" lon="6.33295">
				<ele>5.72</ele>
			</trkpt>
			<trkpt lat="52.82567" lon="6.33197">
				<ele>5.72</ele>
			</trkpt>
			<trkpt lat="52.82481" lon="6.3302">
				<ele>5.72</ele>
			</trkpt>
			<trkpt lat="52.82462" lon="6.33028">
				<ele>4.47</ele>
			</trkpt>
			<trkpt lat="52.8232" lon="6.33182">
				<ele>4.47</ele>
			</trkpt>
			<trkpt lat="52.82301" lon="6.332">
				<ele>4.47</ele>
			</trkpt>
			<trkpt lat="52.82291" lon="6.33197">
				<ele>4.47</ele>
			</trkpt>
			<trkpt lat="52.82286" lon="6.33182">
				<ele>4</ele>
			</trkpt>
			<trkpt lat="52.82275" lon="6.33089">
				<ele>4</ele>
			</trkpt>
			<trkpt lat="52.82081" lon="6.32503">
				<ele>4</ele>
			</trkpt>
			<trkpt lat="52.82079" lon="6.32481">
				<ele>4</ele>
			</trkpt>
			<trkpt lat="52.82089" lon="6.3247">
				<ele>4</ele>
			</trkpt>
			<trkpt lat="52.82137" lon="6.32495">
				<ele>5.1</ele>
			</trkpt>
			<trkpt lat="52.82146" lon="6.32477">
				<ele>5.1</ele>
			</trkpt>
			<trkpt lat="52.82142" lon="6.32461">
				<ele>5.1</ele>
			</trkpt>
			<trkpt lat="52.82136" lon="6.32418">
				<ele>5.1</ele>
			</trkpt>
			<trkpt lat="52.82131" lon="6.32326">
				<ele>6.42</ele>
			</trkpt>
			<trkpt lat="52.82122" lon="6.3224">
				<ele>6.42</ele>
			</trkpt>
			<trkpt lat="52.82124" lon="6.32225">
				<ele>6.42</ele>
			</trkpt>
			<trkpt lat="52.82174" lon="6.32222">
				<ele>6.42</ele>
			</trkpt>
			<trkpt lat="52.82202" lon="6.32215">
				<ele>9.9</ele>
			</trkpt>
			<trkpt lat="52.82233" lon="6.32189">
				<ele>9.9</ele>
			</trkpt>
			<trkpt lat="52.82245" lon="6.32172">
				<ele>9.9</ele>
			</trkpt>
			<trkpt lat="52.82275" lon="6.32089">
				<ele>9.9</ele>
			</trkpt>
			<trkpt lat="52.82298" lon="6.32029">
				<ele>12.13</ele>
			</trkpt>
			<trkpt lat="52.82324" lon="6.31953">
				<ele>12.13</ele>
			</trkpt>
			<trkpt lat="52.8238" lon="6.31809">
				<ele>12.13</ele>
			</trkpt>
			<trkpt lat="52.82399" lon="6.31742">
				<ele>12.13</ele>
			</trkpt>
			<trkpt lat="52.82407" lon="6.31672">
				<ele>7.33</ele>
			</trkpt>
			<trkpt lat="52.82405" lon="6.31611">
				<ele>7.33</ele>
			</trkpt>
			<trkpt lat="52.82385" lon="6.3147">
				<ele>7.33</ele>
			</trkpt>
			<trkpt lat="52.82383" lon="6.31411">
				<ele>7.33</ele>
			</trkpt>
			<trkpt lat="52.82393" lon="6.31381">
				<ele>7.53</ele>
			</trkpt>
			<trkpt lat="52.82413" lon="6.31343">
				<ele>7.53</ele>
			</trkpt>
			<trkpt lat="52.82426" lon="6.31305">
				<ele>7.53</ele>
			</trkpt>
			<trkpt lat="52.82439" lon="6.31271">
				<ele>7.53</ele>
			</trkpt>
			<trkpt lat="52.8245" lon="6.31257">
				<ele>7.53</ele>
			</trkpt>
			<trkpt lat="52.82459" lon="6.31238">
				<ele>9.99</ele>
			</trkpt>
			<trkpt lat="52.8251" lon="6.3112">
				<ele>9.99</ele>
			</trkpt>
			<trkpt lat="52.82542" lon="6.31043">
				<ele>9.99</ele>
			</trkpt>
			<trkpt lat="52.82537" lon="6.31021">
				<ele>9.99</ele>
			</trkpt>
			<trkpt lat="52.82328" lon="6.30909">
				<ele>11.91</ele>
			</trkpt>
			<trkpt lat="52.82275" lon="6.30869">
				<ele>11.91</ele>
			</trkpt>
			<trkpt lat="52.82219" lon="6.30781">
				<ele>11.91</ele>
			</trkpt>
			<trkpt lat="52.8221" lon="6.30762">
				<ele>11.91</ele>
			</trkpt>
			<trkpt lat="52.82206" lon="6.30741">
				<ele>11.43</ele>
			</trkpt>
			<trkpt lat="52.82208" lon="6.30706">
				<ele>11.43</ele>
			</trkpt>
			<trkpt lat="52.82221" lon="6.30663">
				<ele>11.43</ele>
			</trkpt>
			<trkpt lat="52.82226" lon="6.30628">
				<ele>11.43</ele>
			</trkpt>
			<trkpt lat="52.82216" lon="6.30582">
				<ele>9.31</ele>
			</trkpt>
			<trkpt lat="52.822" lon="6.30561">
				<ele>9.31</ele>
			</trkpt>
			<trkpt lat="52.82154" lon="6.30525">
				<ele>9.31</ele>
			</trkpt>
			<trkpt lat="52.82139" lon="6.30483">
				<ele>9.31</ele>
			</trkpt>
			<trkpt lat="52.8214" lon="6.30449">
				<ele>7.6</ele>
			</trkpt>
			<trkpt lat="52.82143" lon="6.30424">
				<ele>7.6</ele>
			</trkpt>
			<trkpt lat="52.82164" lon="6.30326">
				<ele>7.6</ele>
			</trkpt>
			<trkpt lat="52.82258" lon="6.29812">
				<ele>7.6</ele>
			</trkpt>
			<trkpt lat="52.8226" lon="6.29794">
				<ele>4.35</ele>
			</trkpt>
			<trkpt lat="52.82261" lon="6.29731">
				<ele>4.35</ele>
			</trkpt>
			<trkpt lat="52.82254" lon="6.29694">
				<ele>4.35</ele>
			</trkpt>
			<trkpt lat="52.82247" lon="6.29672">
				<ele>4.35</ele>
			</trkpt>
			<trkpt lat="52.82237" lon="6.29652">
				<ele>4.35</ele>
			</trkpt>
			<trkpt lat="52.82227" lon="6.29636">
				<ele>5.7</ele>
			</trkpt>
			<trkpt lat="52.82128" lon="6.29527">
				<ele>5.7</ele>
			</trkpt>
			<trkpt lat="52.82104" lon="6.29497">
				<ele>5.7</ele>
			</trkpt>
			<trkpt lat="52.82097" lon="6.29475">
				<ele>5.7</ele>
			</trkpt>
			<trkpt lat="52.82036" lon="6.28972">
				<ele>5.12</ele>
			</trkpt>
			<trkpt lat="52.82023" lon="6.28841">
				<ele>5.12</ele>
			</trkpt>
			<trkpt lat="52.82021" lon="6.28815">
				<ele>5.12</ele>
			</trkpt>
			<trkpt lat="52.82023" lon="6.28782">
				<ele>5.12</ele>
			</trkpt>
			<trkpt lat="52.82035" lon="6.28719">
				<ele>6.36</ele>
			</trkpt>
			<trkpt lat="52.82037" lon="6.28699">
				<ele>6.36</ele>
			</trkpt>
			<trkpt lat="52.82035" lon="6.28664">
				<ele>6.36</ele>
			</trkpt>
			<trkpt lat="52.82032" lon="6.28634">
				<ele>6.36</ele>
			</trkpt>
			<trkpt lat="52.82026" lon="6.28604">
				<ele>5.11</ele>
			</trkpt>
			<trkpt lat="52.82009" lon="6.28542">
				<ele>5.11</ele>
			</trkpt>
			<trkpt lat="52.81995" lon="6.285">
				<ele>5.11</ele>
			</trkpt>
			<trkpt lat="52.81958" lon="6.28433">
				<ele>5.11</ele>
			</trkpt>
			<trkpt lat="52.81901" lon="6.28326">
				<ele>10.35</ele>
			</trkpt>
			<trkpt lat="52.81871" lon="6.28293">
				<ele>10.35</ele>
			</trkpt>
			<trkpt lat="52.81855" lon="6.28244">
				<ele>10.35</ele>
			</trkpt>
			<trkpt lat="52.81842" lon="6.28188">
				<ele>10.35</ele>
			</trkpt>
			<trkpt lat="52.81842" lon="6.28109">
				<ele>10.35</ele>
			</trkpt>
			<trkpt lat="52.81846" lon="6.28022">
				<ele>6.35</ele>
			</trkpt>
			<trkpt lat="52.81865" lon="6.27991">
				<ele>6.35</ele>
			</trkpt>
			<trkpt lat="52.8195" lon="6.27957">
				<ele>6.35</ele>
			</trkpt>
			<trkpt lat="52.82063" lon="6.27918">
				<ele>6.35</ele>
			</trkpt>
			<trkpt lat="52.82089" lon="6.27908">
				<ele>5.05</ele>
			</trkpt>
			<trkpt lat="52.82122" lon="6.27888">
				<ele>5.05</ele>
			</trkpt>
			<trkpt lat="52.82174" lon="6.27873">
				<ele>5.05</ele>
			</trkpt>
			<trkpt lat="52.82194" lon="6.27864">
				<ele>5.05</ele>
			</trkpt>
			<trkpt lat="52.82201" lon="6.27826">
				<ele>3.24</ele>
			</trkpt>
			<trkpt lat="52.82187" lon="6.27566">
				<ele>3.24</ele>
			</trkpt>
			<trkpt lat="52.82187" lon="6.27474">
				<ele>3.24</ele>
			</trkpt>
			<trkpt lat="52.82186" lon="6.2744">
				<ele>3.24</ele>
			</trkpt>
			<trkpt lat="52.8215" lon="6.27432">
				<ele>4.04</ele>
			</trkpt>
			<trkpt lat="52.82054" lon="6.27445">
				<ele>4.04</ele>
			</trkpt>
			<trkpt lat="52.82007" lon="6.27448">
				<ele>4.04</ele>
			</trkpt>
			<trkpt lat="52.81965" lon="6.27451">
				<ele>4.04</ele>
			</trkpt>
			<trkpt lat="52.81937" lon="6.27406">
				<ele>4</ele>
			</trkpt>
			<trkpt lat="52.81927" lon="6.27383">
				<ele>4</ele>
			</trkpt>
			<trkpt lat="52.81905" lon="6.27333">
				<ele>4</ele>
			</trkpt>
			<trkpt lat="52.81883" lon="6.27271">
				<ele>4</ele>
			</trkpt>
			<trkpt lat="52.8186" lon="6.27152">
				<ele>4.12</ele>
			</trkpt>
			<trkpt lat="52.81825" lon="6.26985">
				<ele>4.12</ele>
			</trkpt>
			<trkpt lat="52.81796" lon="6.26867">
				<ele>4.12</ele>
			</trkpt>
			<trkpt lat="52.81755" lon="6.26668">
				<ele>4.12</ele>
			</trkpt>
			<trkpt lat="52.8174" lon="6.2665">
				<ele>4.12</ele>
			</trkpt>
			<trkpt lat="52.81713" lon="6.26629">
				<ele>3.1</ele>
			</trkpt>
			<trkpt lat="52.8169" lon="6.26603">
				<ele>3.1</ele>
			</trkpt>
			<trkpt lat="52.81627" lon="6.26546">
				<ele>3.1</ele>
			</trkpt>
			<trkpt lat="52.81612" lon="6.26519">
				<ele>3.1</ele>
			</trkpt>
			<trkpt lat="52.81596" lon="6.26516">
				<ele>4.34</ele>
			</trkpt>
			<trkpt lat="52.81526" lon="6.26486">
				<ele>4.34</ele>
			</trkpt>
			<trkpt lat="52.81512" lon="6.26478">
				<ele>4.34</ele>
			</trkpt>
			<trkpt lat="52.81541" lon="6.26483">
				<ele>4.34</ele>
			</trkpt>
			<trkpt lat="52.81582" lon="6.26495">
				<ele>5.14</ele>
			</trkpt>
			<trkpt lat="52.81591" lon="6.26473">
				<ele>5.14</ele>
			</trkpt>
			<trkpt lat="52.81588" lon="6.26454">
				<ele>5.14</ele>
			</trkpt>
			<trkpt lat="52.81587" lon="6.26434">
				<ele>5.14</ele>
			</trkpt>
			<trkpt lat="52.81594" lon="6.26394">
				<ele>6.96</ele>
			</trkpt>
			<trkpt lat="52.81606" lon="6.26362">
				<ele>6.96</ele>
			</trkpt>
			<trkpt lat="52.81628" lon="6.26314">
				<ele>6.96</ele>
			</trkpt>
			<trkpt lat="52.81648" lon="6.26255">
				<ele>6.96</ele>
			</trkpt>
			<trkpt lat="52.81644" lon="6.26206">
				<ele>7.93</ele>
			</trkpt>
			<trkpt lat="52.81607" lon="6.25997">
				<ele>7.93</ele>
			</trkpt>
			<trkpt lat="52.81599" lon="6.25961">
				<ele>7.93</ele>
			</trkpt>
			<trkpt lat="52.81596" lon="6.25939">
				<ele>7.93</ele>
			</trkpt>
			<trkpt lat="52.8162" lon="6.25874">
				<ele>3.61</ele>
			</trkpt>
			<trkpt lat="52.8164" lon="6.2579">
				<ele>3.61</ele>
			</trkpt>
			<trkpt lat="52.81664" lon="6.25704">
				<ele>3.61</ele>
			</trkpt>
			<trkpt lat="52.81711" lon="6.25553">
				<ele>3.61</ele>
			</trkpt>
			<trkpt lat="52.81753" lon="6.25427">
				<ele>3.61</ele>
			</trkpt>
			<trkpt lat="52.8164" lon="6.24964">
				<ele>5.03</ele>
			</trkpt>
			<trkpt lat="52.81622" lon="6.24885">
				<ele>5.03</ele>
			</trkpt>
			<trkpt lat="52.81619" lon="6.24864">
				<ele>5.03</ele>
			</trkpt>
			<trkpt lat="52.8162" lon="6.24845">
				<ele>5.03</ele>
			</trkpt>
			<trkpt lat="52.81613" lon="6.24807">
				<ele>7.67</ele>
			</trkpt>
			<trkpt lat="52.81552" lon="6.24553">
				<ele>7.67</ele>
			</trkpt>
			<trkpt lat="52.8157" lon="6.24541">
				<ele>7.67</ele>
			</trkpt>
			<trkpt lat="52.81661" lon="6.24504">
				<ele>7.67</ele>
			</trkpt>
			<trkpt lat="52.81793" lon="6.24456">
				<ele>11</ele>
			</trkpt>
			<trkpt lat="52.81822" lon="6.24442">
				<ele>11</ele>
			</trkpt>
			<trkpt lat="52.81873" lon="6.24423">
				<ele>11</ele>
			</trkpt>
			<trkpt lat="52.81888" lon="6.24416">
				<ele>11</ele>
			</trkpt>
			<trkpt lat="52.81892" lon="6.244">
				<ele>10.21</ele>
			</trkpt>
			<trkpt lat="52.81887" lon="6.24374">
				<ele>10.21</ele>
			</trkpt>
			<trkpt lat="52.81887" lon="6.24328">
				<ele>10.21</ele>
			</trkpt>
			<trkpt lat="52.81881" lon="6.2422">
				<ele>10.21</ele>
			</trkpt>
			<trkpt lat="52.81871" lon="6.24125">
				<ele>10.66</ele>
			</trkpt>
			<trkpt lat="52.81858" lon="6.24021">
				<ele>10.66</ele>
			</trkpt>
			<trkpt lat="52.81848" lon="6.23977">
				<ele>10.66</ele>
			</trkpt>
			<trkpt lat="52.81822" lon="6.23895">
				<ele>10.66</ele>
			</trkpt>
			<trkpt lat="52.81795" lon="6.23811">
				<ele>9</ele>
			</trkpt>
			<trkpt lat="52.81781" lon="6.23778">
				<ele>9</ele>
			</trkpt>
			<trkpt lat="52.81773" lon="6.23765">
				<ele>9</ele>
			</trkpt>
			<trkpt lat="52.81763" lon="6.23759">
				<ele>9</ele>
			</trkpt>
			<trkpt lat="52.81751" lon="6.23765">
				<ele>9</ele>
			</trkpt>
			<trkpt lat="52.8161" lon="6.23789">
				<ele>10.67</ele>
			</trkpt>
			<trkpt lat="52.81589" lon="6.2378">
				<ele>10.67</ele>
			</trkpt>
			<trkpt lat="52.81554" lon="6.23751">
				<ele>10.67</ele>
			</trkpt>
			<trkpt lat="52.81492" lon="6.23694">
				<ele>10.67</ele>
			</trkpt>
			<trkpt lat="52.8147" lon="6.23671">
				<ele>8.06</ele>
			</trkpt>
			<trkpt lat="52.81461" lon="6.2362">
				<ele>8.06</ele>
			</trkpt>
			<trkpt lat="52.81456" lon="6.23532">
				<ele>8.06</ele>
			</trkpt>
			<trkpt lat="52.81457" lon="6.235">
				<ele>8.06</ele>
			</trkpt>
			<trkpt lat="52.81463" lon="6.23484">
				<ele>9.84</ele>
			</trkpt>
			<trkpt lat="52.81478" lon="6.23462">
				<ele>9.84</ele>
			</trkpt>
			<trkpt lat="52.81501" lon="6.2342">
				<ele>9.84</ele>
			</trkpt>
			<trkpt lat="52.81525" lon="6.23383">
				<ele>9.84</ele>
			</trkpt>
			<trkpt lat="52.81516" lon="6.23178">
				<ele>9.08</ele>
			</trkpt>
			<trkpt lat="52.81505" lon="6.22879">
				<ele>9.08</ele>
			</trkpt>
			<trkpt lat="52.81496" lon="6.22742">
				<ele>9.08</ele>
			</trkpt>
			<trkpt lat="52.81366" lon="6.2246">
				<ele>9.08</ele>
			</trkpt>
			<trkpt lat="52.81332" lon="6.2238">
				<ele>8</ele>
			</trkpt>
			<trkpt lat="52.81308" lon="6.22303">
				<ele>8</ele>
			</trkpt>
			<trkpt lat="52.81274" lon="6.22199">
				<ele>8</ele>
			</trkpt>
			<trkpt lat="52.8125" lon="6.22184">
				<ele>8</ele>
			</trkpt>
			<trkpt lat="52.81234" lon="6.22168">
				<ele>8</ele>
			</trkpt>
			<trkpt lat="52.81196" lon="6.22087">
				<ele>8.51</ele>
			</trkpt>
			<trkpt lat="52.81182" lon="6.22064">
				<ele>8.51</ele>
			</trkpt>
			<trkpt lat="52.81155" lon="6.22059">
				<ele>8.51</ele>
			</trkpt>
			<trkpt lat="52.81132" lon="6.22055">
				<ele>8.51</ele>
			</trkpt>
			<trkpt lat="52.81087" lon="6.22063">
				<ele>8.07</ele>
			</trkpt>
			<trkpt lat="52.81043" lon="6.22073">
				<ele>8.07</ele>
			</trkpt>
			<trkpt lat="52.80968" lon="6.22098">
				<ele>8.07</ele>
			</trkpt>
			<trkpt lat="52.80886" lon="6.22116">
				<ele>8.07</ele>
			</trkpt>
			<trkpt lat="52.8088" lon="6.22081">
				<ele>9.61</ele>
			</trkpt>
			<trkpt lat="52.80857" lon="6.21978">
				<ele>9.61</ele>
			</trkpt>
			<trkpt lat="52.80845" lon="6.2199">
				<ele>9.61</ele>
			</trkpt>
			<trkpt lat="52.8083" lon="6.22005">
				<ele>9.61</ele>
			</trkpt>
			<trkpt lat="52.80789" lon="6.22017">
				<ele>12.37</ele>
			</trkpt>
			<trkpt lat="52.80652" lon="6.22085">
				<ele>12.37</ele>
			</trkpt>
			<trkpt lat="52.80592" lon="6.22123">
				<ele>12.37</ele>
			</trkpt>
			<trkpt lat="52.80513" lon="6.22163">
				<ele>12.37</ele>
			</trkpt>
			<trkpt lat="52.80452" lon="6.222">
				<ele>12.12</ele>
			</trkpt>
			<trkpt lat="52.80396" lon="6.22227">
				<ele>12.12</ele>
			</trkpt>
			<trkpt lat="52.80312" lon="6.22276">
				<ele>12.12</ele>
			</trkpt>
			<trkpt lat="52.80294" lon="6.22264">
				<ele>12.12</ele>
			</trkpt>
			<trkpt lat="52.80275" lon="6.22231">
				<ele>6.83</ele>
			</trkpt>
			<trkpt lat="52.80259" lon="6.22196">
				<ele>6.83</ele>
			</trkpt>
			<trkpt lat="52.80225" lon="6.22127">
				<ele>6.83</ele>
			</trkpt>
			<trkpt lat="52.80098" lon="6.21835">
				<ele>6.83</ele>
			</trkpt>
			<trkpt lat="52.80009" lon="6.21636">
				<ele>6.83</ele>
			</trkpt>
			<trkpt lat="52.79847" lon="6.21261">
				<ele>2.56</ele>
			</trkpt>
			<trkpt lat="52.79756" lon="6.21061">
				<ele>2.56</ele>
			</trkpt>
			<trkpt lat="52.79707" lon="6.20944">
				<ele>2.56</ele>
			</trkpt>
			<trkpt lat="52.79697" lon="6.20924">
				<ele>2.56</ele>
			</trkpt>
			<trkpt lat="52.79683" lon="6.20923">
				<ele>1.04</ele>
			</trkpt>
			<trkpt lat="52.7967" lon="6.20936">
				<ele>1.04</ele>
			</trkpt>
			<trkpt lat="52.79653" lon="6.20976">
				<ele>1.04</ele>
			</trkpt>
			<trkpt lat="52.79588" lon="6.21103">
				<ele>1.04</ele>
			</trkpt>
			<trkpt lat="52.79504" lon="6.21275">
				<ele>0.11</ele>
			</trkpt>
			<trkpt lat="52.79476" lon="6.21326">
				<ele>0.11</ele>
			</trkpt>
			<trkpt lat="52.79447" lon="6.21364">
				<ele>0.11</ele>
			</trkpt>
			<trkpt lat="52.79407" lon="6.21408">
				<ele>0.11</ele>
			</trkpt>
			<trkpt lat="52.7936" lon="6.21441">
				<ele>1.31</ele>
			</trkpt>
			<trkpt lat="52.79265" lon="6.21495">
				<ele>1.31</ele>
			</trkpt>
			<trkpt lat="52.79168" lon="6.21545">
				<ele>1.31</ele>
			</trkpt>
			<trkpt lat="52.79098" lon="6.21588">
				<ele>1.31</ele>
			</trkpt>
			<trkpt lat="52.79072" lon="6.216">
				<ele>2</ele>
			</trkpt>
			<trkpt lat="52.79059" lon="6.21583">
				<ele>2</ele>
			</trkpt>
			<trkpt lat="52.79045" lon="6.21532">
				<ele>2</ele>
			</trkpt>
			<trkpt lat="52.79001" lon="6.21394">
				<ele>2</ele>
			</trkpt>
			<trkpt lat="52.78985" lon="6.21354">
				<ele>1</ele>
			</trkpt>
			<trkpt lat="52.78972" lon="6.21344">
				<ele>1</ele>
			</trkpt>
			<trkpt lat="52.7895" lon="6.21319">
				<ele>1</ele>
			</trkpt>
			<trkpt lat="52.78941" lon="6.21287">
				<ele>1</ele>
			</trkpt>
			<trkpt lat="52.78914" lon="6.21205">
				<ele>1</ele>
			</trkpt>
			<trkpt lat="52.78898" lon="6.212">
				<ele>1.95</ele>
			</trkpt>
			<trkpt lat="52.78837" lon="6.21259">
				<ele>1.95</ele>
			</trkpt>
			<trkpt lat="52.78824" lon="6.21275">
				<ele>1.95</ele>
			</trkpt>
			<trkpt lat="52.78815" lon="6.21294">
				<ele>1.95</ele>
			</trkpt>
			<trkpt lat="52.78767" lon="6.21362">
				<ele>1.38</ele>
			</trkpt>
			<trkpt lat="52.78691" lon="6.21443">
				<ele>1.38</ele>
			</trkpt>
			<trkpt lat="52.78663" lon="6.21466">
				<ele>1.38</ele>
			</trkpt>
			<trkpt lat="52.78637" lon="6.21477">
				<ele>1.38</ele>
			</trkpt>
			<trkpt lat="52.78609" lon="6.21472">
				<ele>0</ele>
			</trkpt>
			<trkpt lat="52.78595" lon="6.21472">
				<ele>0</ele>
			</trkpt>
			<trkpt lat="52.78583" lon="6.21462">
				<ele>0</ele>
			</trkpt>
			<trkpt lat="52.78561" lon="6.21436">
				<ele>0</ele>
			</trkpt>
			<trkpt lat="52.78497" lon="6.21386">
				<ele>0</ele>
			</trkpt>
			<trkpt lat="52.78454" lon="6.21375">
				<ele>0</ele>
			</trkpt>
			<trkpt lat="52.78413" lon="6.21377">
				<ele>0</ele>
			</trkpt>
			<trkpt lat="52.78386" lon="6.21371">
				<ele>0</ele>
			</trkpt>
			<trkpt lat="52.78341" lon="6.21351">
				<ele>0.62</ele>
			</trkpt>
			<trkpt lat="52.78289" lon="6.21342">
				<ele>0.62</ele>
			</trkpt>
			<trkpt lat="52.78265" lon="6.21351">
				<ele>0.62</ele>
			</trkpt>
			<trkpt lat="52.78246" lon="6.21363">
				<ele>0.62</ele>
			</trkpt>
			<trkpt lat="52.78228" lon="6.2137">
				<ele>0.62</ele>
			</trkpt>
			<trkpt lat="52.78127" lon="6.21437">
				<ele>0.99</ele>
			</trkpt>
			<trkpt lat="52.7807" lon="6.21469">
				<ele>0.99</ele>
			</trkpt>
			<trkpt lat="52.78048" lon="6.21477">
				<ele>0.99</ele>
			</trkpt>
			<trkpt lat="52.78029" lon="6.2149">
				<ele>0.99</ele>
			</trkpt>
			<trkpt lat="52.78009" lon="6.21499">
				<ele>1.66</ele>
			</trkpt>
			<trkpt lat="52.77992" lon="6.2148">
				<ele>1.66</ele>
			</trkpt>
			<trkpt lat="52.77928" lon="6.21393">
				<ele>1.66</ele>
			</trkpt>
			<trkpt lat="52.77888" lon="6.21348">
				<ele>1.66</ele>
			</trkpt>
			<trkpt lat="52.77859" lon="6.21267">
				<ele>1</ele>
			</trkpt>
			<trkpt lat="52.77842" lon="6.21233">
				<ele>1</ele>
			</trkpt>
			<trkpt lat="52.77753" lon="6.21131">
				<ele>1</ele>
			</trkpt>
			<trkpt lat="52.77717" lon="6.21101">
				<ele>1</ele>
			</trkpt>
			<trkpt lat="52.77597" lon="6.21044">
				<ele>0.29</ele>
			</trkpt>
			<trkpt lat="52.77548" lon="6.21016">
				<ele>0.29</ele>
			</trkpt>
			<trkpt lat="52.77518" lon="6.21008">
				<ele>0.29</ele>
			</trkpt>
			<trkpt lat="52.77397" lon="6.2095">
				<ele>0.29</ele>
			</trkpt>
			<trkpt lat="52.77359" lon="6.20938">
				<ele>0.07</ele>
			</trkpt>
			<trkpt lat="52.77346" lon="6.20937">
				<ele>0.07</ele>
			</trkpt>
			<trkpt lat="52.77318" lon="6.2094">
				<ele>0.07</ele>
			</trkpt>
			<trkpt lat="52.77305" lon="6.20937">
				<ele>0.07</ele>
			</trkpt>
			<trkpt lat="52.77152" lon="6.20891">
				<ele>1</ele>
			</trkpt>
			<trkpt lat="52.77115" lon="6.20885">
				<ele>1</ele>
			</trkpt>
			<trkpt lat="52.77081" lon="6.20876">
				<ele>1</ele>
			</trkpt>
			<trkpt lat="52.77008" lon="6.20863">
				<ele>1</ele>
			</trkpt>
			<trkpt lat="52.76963" lon="6.20858">
				<ele>1</ele>
			</trkpt>
			<trkpt lat="52.76879" lon="6.20856">
				<ele>1.47</ele>
			</trkpt>
			<trkpt lat="52.76864" lon="6.20853">
				<ele>1.47</ele>
			</trkpt>
			<trkpt lat="52.76851" lon="6.20853">
				<ele>1.47</ele>
			</trkpt>
			<trkpt lat="52.76825" lon="6.20858">
				<ele>1.47</ele>
			</trkpt>
			<trkpt lat="52.76813" lon="6.20863">
				<ele>1.79</ele>
			</trkpt>
			<trkpt lat="52.76762" lon="6.20893">
				<ele>1.79</ele>
			</trkpt>
			<trkpt lat="52.76751" lon="6.20908">
				<ele>1.79</ele>
			</trkpt>
			<trkpt lat="52.76731" lon="6.20944">
				<ele>1.79</ele>
			</trkpt>
			<trkpt lat="52.76701" lon="6.21009">
				<ele>2</ele>
			</trkpt>
			<trkpt lat="52.76677" lon="6.21074">
				<ele>2</ele>
			</trkpt>
			<trkpt lat="52.76633" lon="6.21188">
				<ele>2</ele>
			</trkpt>
			<trkpt lat="52.76511" lon="6.21367">
				<ele>2</ele>
			</trkpt>
			<trkpt lat="52.76427" lon="6.21486">
				<ele>2</ele>
			</trkpt>
			<trkpt lat="52.7626" lon="6.21899">
				<ele>2</ele>
			</trkpt>
			<trkpt lat="52.76198" lon="6.22031">
				<ele>2</ele>
			</trkpt>
			<trkpt lat="52.76179" lon="6.22048">
				<ele>2</ele>
			</trkpt>
			<trkpt lat="52.76163" lon="6.22044">
				<ele>1.78</ele>
			</trkpt>
			<trkpt lat="52.75988" lon="6.21947">
				<ele>1.78</ele>
			</trkpt>
			<trkpt lat="52.75879" lon="6.21877">
				<ele>1.78</ele>
			</trkpt>
			<trkpt lat="52.75825" lon="6.21835">
				<ele>1.78</ele>
			</trkpt>
			<trkpt lat="52.75742" lon="6.21732">
				<ele>1.68</ele>
			</trkpt>
			<trkpt lat="52.75708" lon="6.21705">
				<ele>1.68</ele>
			</trkpt>
			<trkpt lat="52.75673" lon="6.21683">
				<ele>1.68</ele>
			</trkpt>
			<trkpt lat="52.75629" lon="6.21675">
				<ele>1.68</ele>
			</trkpt>
			<trkpt lat="52.75602" lon="6.2168">
				<ele>1.68</ele>
			</trkpt>
			<trkpt lat="52.75493" lon="6.21753">
				<ele>1</ele>
			</trkpt>
			<trkpt lat="52.75424" lon="6.21792">
				<ele>1</ele>
			</trkpt>
			<trkpt lat="52.75349" lon="6.21839">
				<ele>1</ele>
			</trkpt>
			<trkpt lat="52.75256" lon="6.21904">
				<ele>1</ele>
			</trkpt>
			<trkpt lat="52.75194" lon="6.22006">
				<ele>2.36</ele>
			</trkpt>
			<trkpt lat="52.75167" lon="6.2203">
				<ele>2.36</ele>
			</trkpt>
			<trkpt lat="52.7511" lon="6.22055">
				<ele>2.36</ele>
			</trkpt>
			<trkpt lat="52.75071" lon="6.22075">
				<ele>2.36</ele>
			</trkpt>
			<trkpt lat="52.75042" lon="6.22133">
				<ele>1.71</ele>
			</trkpt>
			<trkpt lat="52.75018" lon="6.22133">
				<ele>1.71</ele>
			</trkpt>
			<trkpt lat="52.74978" lon="6.22112">
				<ele>1.71</ele>
			</trkpt>
			<trkpt lat="52.74937" lon="6.221">
				<ele>1.71</ele>
			</trkpt>
			<trkpt lat="52.74882" lon="6.22087">
				<ele>0.78</ele>
			</trkpt>
			<trkpt lat="52.74822" lon="6.22064">
				<ele>0.78</ele>
			</trkpt>
			<trkpt lat="52.74793" lon="6.22035">
				<ele>0.78</ele>
			</trkpt>
			<trkpt lat="52.74774" lon="6.2204">
				<ele>0.78</ele>
			</trkpt>
			<trkpt lat="52.74758" lon="6.22064">
				<ele>0.9</ele>
			</trkpt>
			<trkpt lat="52.74728" lon="6.22113">
				<ele>0.9</ele>
			</trkpt>
			<trkpt lat="52.74164" lon="6.2315">
				<ele>0.9</ele>
			</trkpt>
			<trkpt lat="52.74125" lon="6.23231">
				<ele>0.9</ele>
			</trkpt>
			<trkpt lat="52.74043" lon="6.23477">
				<ele>0.9</ele>
			</trkpt>
			<trkpt lat="52.74015" lon="6.2353">
				<ele>1.41</ele>
			</trkpt>
			<trkpt lat="52.73982" lon="6.23566">
				<ele>1.41</ele>
			</trkpt>
			<trkpt lat="52.73888" lon="6.23637">
				<ele>1.41</ele>
			</trkpt>
			<trkpt lat="52.73525" lon="6.23921">
				<ele>1.41</ele>
			</trkpt>
			<trkpt lat="52.7347" lon="6.23955">
				<ele>1.36</ele>
			</trkpt>
			<trkpt lat="52.73403" lon="6.23952">
				<ele>1.36</ele>
			</trkpt>
			<trkpt lat="52.73389" lon="6.23956">
				<ele>1.36</ele>
			</trkpt>
			<trkpt lat="52.73302" lon="6.24025">
				<ele>1.36</ele>
			</trkpt>
			<trkpt lat="52.73263" lon="6.24051">
				<ele>1.63</ele>
			</trkpt>
			<trkpt lat="52.73098" lon="6.24176">
				<ele>1.63</ele>
			</trkpt>
			<trkpt lat="52.73083" lon="6.24185">
				<ele>1.63</ele>
			</trkpt>
			<trkpt lat="52.73049" lon="6.2419">
				<ele>1.63</ele>
			</trkpt>
			<trkpt lat="52.73002" lon="6.24189">
				<ele>1.61</ele>
			</trkpt>
			<trkpt lat="52.7297" lon="6.24209">
				<ele>1.61</ele>
			</trkpt>
			<trkpt lat="52.72741" lon="6.24382">
				<ele>1.61</ele>
			</trkpt>
			<trkpt lat="52.72605" lon="6.24492">
				<ele>1.61</ele>
			</trkpt>
			<trkpt lat="52.72485" lon="6.24574">
				<ele>0.6</ele>
			</trkpt>
			<trkpt lat="52.72331" lon="6.24689">
				<ele>0.6</ele>
			</trkpt>
			<trkpt lat="52.72273" lon="6.24728">
				<ele>0.6</ele>
			</trkpt>
			<trkpt lat="52.72237" lon="6.24759">
				<ele>0.6</ele>
			</trkpt>
			<trkpt lat="52.72228" lon="6.24752">
				<ele>2.44</ele>
			</trkpt>
			<trkpt lat="52.72201" lon="6.24668">
				<ele>2.44</ele>
			</trkpt>
			<trkpt lat="52.72161" lon="6.24551">
				<ele>2.44</ele>
			</trkpt>
			<trkpt lat="52.72134" lon="6.24488">
				<ele>2.44</ele>
			</trkpt>
			<trkpt lat="52.72121" lon="6.24453">
				<ele>2.44</ele>
			</trkpt>
			<trkpt lat="52.72109" lon="6.24456">
				<ele>1.01</ele>
			</trkpt>
			<trkpt lat="52.72091" lon="6.2447">
				<ele>1.01</ele>
			</trkpt>
			<trkpt lat="52.72001" lon="6.24521">
				<ele>1.01</ele>
			</trkpt>
			<trkpt lat="52.71575" lon="6.24775">
				<ele>1.01</ele>
			</trkpt>
			<trkpt lat="52.71521" lon="6.24809">
				<ele>1</ele>
			</trkpt>
			<trkpt lat="52.71372" lon="6.24912">
				<ele>1</ele>
			</trkpt>
			<trkpt lat="52.71331" lon="6.24918">
				<ele>1</ele>
			</trkpt>
			<trkpt lat="52.71291" lon="6.24915">
				<ele>1</ele>
			</trkpt>
			<trkpt lat="52.71251" lon="6.24905">
				<ele>1.17</ele>
			</trkpt>
			<trkpt lat="52.71103" lon="6.24892">
				<ele>1.17</ele>
			</trkpt>
			<trkpt lat="52.71046" lon="6.2489">
				<ele>1.17</ele>
			</trkpt>
			<trkpt lat="52.70997" lon="6.24885">
				<ele>1.17</ele>
			</trkpt>
			<trkpt lat="52.70925" lon="6.24828">
				<ele>1</ele>
			</trkpt>
			<trkpt lat="52.70884" lon="6.24819">
				<ele>1</ele>
			</trkpt>
			<trkpt lat="52.70835" lon="6.24825">
				<ele>1</ele>
			</trkpt>
			<trkpt lat="52.7079" lon="6.24846">
				<ele>1</ele>
			</trkpt>
			<trkpt lat="52.7074" lon="6.2489">
				<ele>1.3</ele>
			</trkpt>
			<trkpt lat="52.70708" lon="6.24937">
				<ele>1.3</ele>
			</trkpt>
			<trkpt lat="52.70671" lon="6.25008">
				<ele>1.3</ele>
			</trkpt>
			<trkpt lat="52.70654" lon="6.25061">
				<ele>1.3</ele>
			</trkpt>
			<trkpt lat="52.70645" lon="6.25081">
				<ele>0.31</ele>
			</trkpt>
			<trkpt lat="52.70547" lon="6.25255">
				<ele>0.31</ele>
			</trkpt>
			<trkpt lat="52.70526" lon="6.25303">
				<ele>0.31</ele>
			</trkpt>
			<trkpt lat="52.70507" lon="6.25334">
				<ele>0.31</ele>
			</trkpt>
			<trkpt lat="52.70499" lon="6.2534">
				<ele>0.31</ele>
			</trkpt>
			<trkpt lat="52.70483" lon="6.2534">
				<ele>1.42</ele>
			</trkpt>
			<trkpt lat="52.70473" lon="6.25337">
				<ele>1.42</ele>
			</trkpt>
			<trkpt lat="52.70464" lon="6.25329">
				<ele>1.42</ele>
			</trkpt>
			<trkpt lat="52.70446" lon="6.25333">
				<ele>1.42</ele>
			</trkpt>
			<trkpt lat="52.70445" lon="6.25349">
				<ele>1</ele>
			</trkpt>
			<trkpt lat="52.70447" lon="6.25391">
				<ele>1</ele>
			</trkpt>
			<trkpt lat="52.70445" lon="6.25458">
				<ele>1</ele>
			</trkpt>
			<trkpt lat="52.70434" lon="6.25501">
				<ele>1</ele>
			</trkpt>
			<trkpt lat="52.70406" lon="6.25563">
				<ele>1.26</ele>
			</trkpt>
			<trkpt lat="52.70364" lon="6.2564">
				<ele>1.26</ele>
			</trkpt>
			<trkpt lat="52.70353" lon="6.25654">
				<ele>1.26</ele>
			</trkpt>
			<trkpt lat="52.70286" lon="6.25695">
				<ele>1.26</ele>
			</trkpt>
			<trkpt lat="52.70059" lon="6.25848">
				<ele>2.82</ele>
			</trkpt>
			<trkpt lat="52.69489" lon="6.26215">
				<ele>2.82</ele>
			</trkpt>
			<trkpt lat="52.69356" lon="6.26304">
				<ele>2.82</ele>
			</trkpt>
			<trkpt lat="52.69185" lon="6.2641">
				<ele>2.82</ele>
			</trkpt>
			<trkpt lat="52.69093" lon="6.2647">
				<ele>-0.3</ele>
			</trkpt>
			<trkpt lat="52.69033" lon="6.26502">
				<ele>-0.3</ele>
			</trkpt>
			<trkpt lat="52.69018" lon="6.26485">
				<ele>-0.3</ele>
			</trkpt>
			<trkpt lat="52.69017" lon="6.26188">
				<ele>-0.3</ele>
			</trkpt>
			<trkpt lat="52.69015" lon="6.2608">
				<ele>-0.3</ele>
			</trkpt>
			<trkpt lat="52.69016" lon="6.26015">
				<ele>-0.55</ele>
			</trkpt>
			<trkpt lat="52.69005" lon="6.25266">
				<ele>-0.55</ele>
			</trkpt>
			<trkpt lat="52.68993" lon="6.24748">
				<ele>-0.55</ele>
			</trkpt>
			<trkpt lat="52.68985" lon="6.24499">
				<ele>-0.55</ele>
			</trkpt>
			<trkpt lat="52.6898" lon="6.24389">
				<ele>0.05</ele>
			</trkpt>
			<trkpt lat="52.68979" lon="6.24328">
				<ele>0.05</ele>
			</trkpt>
			<trkpt lat="52.69001" lon="6.2416">
				<ele>0.05</ele>
			</trkpt>
			<trkpt lat="52.69008" lon="6.24064">
				<ele>0.05</ele>
			</trkpt>
			<trkpt lat="52.69037" lon="6.23424">
				<ele>0</ele>
			</trkpt>
			<trkpt lat="52.69037" lon="6.23393">
				<ele>0</ele>
			</trkpt>
			<trkpt lat="52.69034" lon="6.2335">
				<ele>0</ele>
			</trkpt>
			<trkpt lat="52.6903" lon="6.23334">
				<ele>0</ele>
			</trkpt>
			<trkpt lat="52.69013" lon="6.23344">
				<ele>-0.27</ele>
			</trkpt>
			<trkpt lat="52.68996" lon="6.2337">
				<ele>-0.27</ele>
			</trkpt>
			<trkpt lat="52.68948" lon="6.23411">
				<ele>-0.27</ele>
			</trkpt>
			<trkpt lat="52.68928" lon="6.23424">
				<ele>-0.27</ele>
			</trkpt>
			<trkpt lat="52.68915" lon="6.23423">
				<ele>0.12</ele>
			</trkpt>
			<trkpt lat="52.68891" lon="6.23402">
				<ele>0.12</ele>
			</trkpt>
			<trkpt lat="52.68873" lon="6.23352">
				<ele>0.12</ele>
			</trkpt>
			<trkpt lat="52.68866" lon="6.23295">
				<ele>0.12</ele>
			</trkpt>
			<trkpt lat="52.68855" lon="6.23282">
				<ele>0</ele>
			</trkpt>
			<trkpt lat="52.68833" lon="6.23218">
				<ele>0</ele>
			</trkpt>
			<trkpt lat="52.6881" lon="6.23162">
				<ele>0</ele>
			</trkpt>
			<trkpt lat="52.6857" lon="6.22609">
				<ele>0</ele>
			</trkpt>
			<trkpt lat="52.68443" lon="6.22322">
				<ele>0</ele>
			</trkpt>
			<trkpt lat="52.68427" lon="6.22281">
				<ele>0.5</ele>
			</trkpt>
			<trkpt lat="52.6835" lon="6.22104">
				<ele>0.5</ele>
			</trkpt>
			<trkpt lat="52.68273" lon="6.21924">
				<ele>0.5</ele>
			</trkpt>
			<trkpt lat="52.68186" lon="6.21699">
				<ele>0.5</ele>
			</trkpt>
			<trkpt lat="52.68093" lon="6.21449">
				<ele>-1.69</ele>
			</trkpt>
			<trkpt lat="52.68041" lon="6.2132">
				<ele>-1.69</ele>
			</trkpt>
			<trkpt lat="52.68031" lon="6.21302">
				<ele>-1.69</ele>
			</trkpt>
			<trkpt lat="52.67954" lon="6.21121">
				<ele>-1.69</ele>
			</trkpt>
			<trkpt lat="52.67903" lon="6.21006">
				<ele>0.4</ele>
			</trkpt>
			<trkpt lat="52.67791" lon="6.20767">
				<ele>0.4</ele>
			</trkpt>
			<trkpt lat="52.67721" lon="6.20607">
				<ele>0.4</ele>
			</trkpt>
			<trkpt lat="52.67688" lon="6.20526">
				<ele>0.4</ele>
			</trkpt>
			<trkpt lat="52.67669" lon="6.20473">
				<ele>2.58</ele>
			</trkpt>
			<trkpt lat="52.67639" lon="6.20376">
				<ele>2.58</ele>
			</trkpt>
			<trkpt lat="52.67616" lon="6.20284">
				<ele>2.58</ele>
			</trkpt>
			<trkpt lat="52.67594" lon="6.20176">
				<ele>2.58</ele>
			</trkpt>
			<trkpt lat="52.67585" lon="6.20126">
				<ele>3.2</ele>
			</trkpt>
			<trkpt lat="52.67572" lon="6.20013">
				<ele>3.2</ele>
			</trkpt>
			<trkpt lat="52.67558" lon="6.19913">
				<ele>3.2</ele>
			</trkpt>
			<trkpt lat="52.67551" lon="6.19836">
				<ele>3.2</ele>
			</trkpt>
			<trkpt lat="52.67541" lon="6.19798">
				<ele>2.8</ele>
			</trkpt>
			<trkpt lat="52.67538" lon="6.19746">
				<ele>2.8</ele>
			</trkpt>
			<trkpt lat="52.67535" lon="6.19667">
				<ele>2.8</ele>
			</trkpt>
			<trkpt lat="52.67502" lon="6.19341">
				<ele>2.8</ele>
			</trkpt>
			<trkpt lat="52.67489" lon="6.19246">
				<ele>2.8</ele>
			</trkpt>
			<trkpt lat="52.6748" lon="6.19154">
				<ele>1.98</ele>
			</trkpt>
			<trkpt lat="52.67487" lon="6.19107">
				<ele>1.98</ele>
			</trkpt>
			<trkpt lat="52.67479" lon="6.19056">
				<ele>1.98</ele>
			</trkpt>
			<trkpt lat="52.67468" lon="6.18906">
				<ele>1.98</ele>
			</trkpt>
			<trkpt lat="52.67465" lon="6.18828">
				<ele>2.2</ele>
			</trkpt>
			<trkpt lat="52.67464" lon="6.18661">
				<ele>2.2</ele>
			</trkpt>
			<trkpt lat="52.67466" lon="6.18571">
				<ele>2.2</ele>
			</trkpt>
			<trkpt lat="52.67474" lon="6.1844">
				<ele>2.2</ele>
			</trkpt>
			<trkpt lat="52.67489" lon="6.18287">
				<ele>2.01</ele>
			</trkpt>
			<trkpt lat="52.67507" lon="6.18162">
				<ele>2.01</ele>
			</trkpt>
			<trkpt lat="52.67523" lon="6.18075">
				<ele>2.01</ele>
			</trkpt>
			<trkpt lat="52.67553" lon="6.17931">
				<ele>2.01</ele>
			</trkpt>
			<trkpt lat="52.676" lon="6.17724">
				<ele>1.62</ele>
			</trkpt>
			<trkpt lat="52.67636" lon="6.17589">
				<ele>1.62</ele>
			</trkpt>
			<trkpt lat="52.67762" lon="6.17059">
				<ele>1.62</ele>
			</trkpt>
			<trkpt lat="52.67788" lon="6.16947">
				<ele>1.62</ele>
			</trkpt>
			<trkpt lat="52.6781" lon="6.16871">
				<ele>1.55</ele>
			</trkpt>
			<trkpt lat="52.67837" lon="6.16887">
				<ele>1.55</ele>
			</trkpt>
			<trkpt lat="52.67846" lon="6.1689">
				<ele>1.55</ele>
			</trkpt>
			<trkpt lat="52.67855" lon="6.16883">
				<ele>1.55</ele>
			</trkpt>
		</trkseg>
	</trk>
</gpx>