<?xml version="1.0" encoding="UTF-8"?>
<gpx version="1.1" creator="https://www.hammerhead.io" xmlns:xsi="http://www.w3.org/2001/XMLSchema-instance" xmlns="http://www.topografix.com/GPX/1/1" xsi:schemaLocation="http://www.topografix.com/GPX/1/1 http://www.topografix.com/GPX/1/1/gpx.xsd"><metadata><name>Lemelerberg</name><time>0001-01-01T00:00:00Z</time></metadata><trk><name>Lemelerberg</name><trkseg><trkpt lat="52.47612" lon="6.1161"></trkpt><trkpt lat="52.4764" lon="6.11586"></trkpt><trkpt lat="52.47648" lon="6.11577"></trkpt><trkpt lat="52.47709" lon="6.11523"></trkpt><trkpt lat="52.47759" lon="6.11476"></trkpt><trkpt lat="52.478" lon="6.11572"></trkpt><trkpt lat="52.47816" lon="6.11613"></trkpt><trkpt lat="52.47828" lon="6.11637"></trkpt><trkpt lat="52.4784" lon="6.11676"></trkpt><trkpt lat="52.47887" lon="6.11795"></trkpt><trkpt lat="52.47894" lon="6.11807"></trkpt><trkpt lat="52.479" lon="6.11825"></trkpt><trkpt lat="52.47902" lon="6.11838"></trkpt><trkpt lat="52.47943" lon="6.11946"></trkpt><trkpt lat="52.47953" lon="6.11964"></trkpt><trkpt lat="52.47972" lon="6.11984"></trkpt><trkpt lat="52.47983" lon="6.12013"></trkpt><trkpt lat="52.48012" lon="6.11981"></trkpt><trkpt lat="52.48069" lon="6.11922"></trkpt><trkpt lat="52.48206" lon="6.12252"></trkpt><trkpt lat="52.48211" lon="6.1227"></trkpt><trkpt lat="52.48216" lon="6.12293"></trkpt><trkpt lat="52.48219" lon="6.12316"></trkpt><trkpt lat="52.48253" lon="6.12595"></trkpt><trkpt lat="52.48261" lon="6.12594"></trkpt><trkpt lat="52.48274" lon="6.12627"></trkpt><trkpt lat="52.48277" lon="6.12631"></trkpt><trkpt lat="52.48286" lon="6.12636"></trkpt><trkpt lat="52.48296" lon="6.12635"></trkpt><trkpt lat="52.48354" lon="6.12603"></trkpt><trkpt lat="52.48386" lon="6.12826"></trkpt><trkpt lat="52.48387" lon="6.12872"></trkpt><trkpt lat="52.48382" lon="6.12935"></trkpt><trkpt lat="52.4838" lon="6.1298"></trkpt><trkpt lat="52.48382" lon="6.12994"></trkpt><trkpt lat="52.4839" lon="6.13029"></trkpt><trkpt lat="52.48399" lon="6.13048"></trkpt><trkpt lat="52.48437" lon="6.13112"></trkpt><trkpt lat="52.48307" lon="6.13323"></trkpt><trkpt lat="52.48306" lon="6.13338"></trkpt><trkpt lat="52.48359" lon="6.13487"></trkpt><trkpt lat="52.48381" lon="6.13521"></trkpt><trkpt lat="52.48394" lon="6.1358"></trkpt><trkpt lat="52.48399" lon="6.13597"></trkpt><trkpt lat="52.48516" lon="6.13852"></trkpt><trkpt lat="52.48571" lon="6.1399"></trkpt><trkpt lat="52.48585" lon="6.14029"></trkpt><trkpt lat="52.48591" lon="6.1404"></trkpt><trkpt lat="52.48605" lon="6.14057"></trkpt><trkpt lat="52.48731" lon="6.14331"></trkpt><trkpt lat="52.48792" lon="6.14467"></trkpt><trkpt lat="52.48795" lon="6.14475"></trkpt><trkpt lat="52.48803" lon="6.14517"></trkpt><trkpt lat="52.48815" lon="6.14559"></trkpt><trkpt lat="52.48825" lon="6.14596"></trkpt><trkpt lat="52.48829" lon="6.14605"></trkpt><trkpt lat="52.48817" lon="6.14635"></trkpt><trkpt lat="52.48855" lon="6.14684"></trkpt><trkpt lat="52.48822" lon="6.14722"></trkpt><trkpt lat="52.48796" lon="6.14757"></trkpt><trkpt lat="52.4878" lon="6.14782"></trkpt><trkpt lat="52.48766" lon="6.14835"></trkpt><trkpt lat="52.48766" lon="6.14858"></trkpt><trkpt lat="52.48801" lon="6.1499"></trkpt><trkpt lat="52.4881" lon="6.15008"></trkpt><trkpt lat="52.48845" lon="6.15051"></trkpt><trkpt lat="52.48851" lon="6.15066"></trkpt><trkpt lat="52.48853" lon="6.1508"></trkpt><trkpt lat="52.48853" lon="6.15097"></trkpt><trkpt lat="52.4885" lon="6.1512"></trkpt><trkpt lat="52.48847" lon="6.1517"></trkpt><trkpt lat="52.48851" lon="6.15208"></trkpt><trkpt lat="52.48855" lon="6.15231"></trkpt><trkpt lat="52.48862" lon="6.15342"></trkpt><trkpt lat="52.48872" lon="6.15383"></trkpt><trkpt lat="52.48889" lon="6.15427"></trkpt><trkpt lat="52.48906" lon="6.15464"></trkpt><trkpt lat="52.48933" lon="6.15493"></trkpt><trkpt lat="52.48936" lon="6.15499"></trkpt><trkpt lat="52.48949" lon="6.15535"></trkpt><trkpt lat="52.4896" lon="6.1556"></trkpt><trkpt lat="52.48977" lon="6.15581"></trkpt><trkpt lat="52.49013" lon="6.15603"></trkpt><trkpt lat="52.49027" lon="6.15609"></trkpt><trkpt lat="52.49034" lon="6.1561"></trkpt><trkpt lat="52.49042" lon="6.15609"></trkpt><trkpt lat="52.49051" lon="6.15607"></trkpt><trkpt lat="52.49056" lon="6.15604"></trkpt><trkpt lat="52.49062" lon="6.156"></trkpt><trkpt lat="52.49066" lon="6.15594"></trkpt><trkpt lat="52.49072" lon="6.15579"></trkpt><trkpt lat="52.49073" lon="6.15564"></trkpt><trkpt lat="52.49059" lon="6.15484"></trkpt><trkpt lat="52.4912" lon="6.15454"></trkpt><trkpt lat="52.49161" lon="6.15436"></trkpt><trkpt lat="52.49171" lon="6.15473"></trkpt><trkpt lat="52.49172" lon="6.15481"></trkpt><trkpt lat="52.49234" lon="6.16003"></trkpt><trkpt lat="52.49255" lon="6.16191"></trkpt><trkpt lat="52.49257" lon="6.16198"></trkpt><trkpt lat="52.49263" lon="6.16206"></trkpt><trkpt lat="52.49278" lon="6.16215"></trkpt><trkpt lat="52.49284" lon="6.16221"></trkpt><trkpt lat="52.49295" lon="6.16236"></trkpt><trkpt lat="52.49304" lon="6.16253"></trkpt><trkpt lat="52.49313" lon="6.16311"></trkpt><trkpt lat="52.49318" lon="6.1636"></trkpt><trkpt lat="52.49322" lon="6.16373"></trkpt><trkpt lat="52.49315" lon="6.16381"></trkpt><trkpt lat="52.4934" lon="6.1642"></trkpt><trkpt lat="52.4944" lon="6.16567"></trkpt><trkpt lat="52.4945" lon="6.16589"></trkpt><trkpt lat="52.49582" lon="6.16416"></trkpt><trkpt lat="52.49706" lon="6.16263"></trkpt><trkpt lat="52.49757" lon="6.16315"></trkpt><trkpt lat="52.4984" lon="6.16406"></trkpt><trkpt lat="52.49907" lon="6.16484"></trkpt><trkpt lat="52.49996" lon="6.16593"></trkpt><trkpt lat="52.50016" lon="6.1661"></trkpt><trkpt lat="52.50038" lon="6.16622"></trkpt><trkpt lat="52.50055" lon="6.16625"></trkpt><trkpt lat="52.50071" lon="6.16623"></trkpt><trkpt lat="52.501" lon="6.16616"></trkpt><trkpt lat="52.50116" lon="6.16605"></trkpt><trkpt lat="52.50154" lon="6.16575"></trkpt><trkpt lat="52.50174" lon="6.16568"></trkpt><trkpt lat="52.50245" lon="6.16554"></trkpt><trkpt lat="52.50273" lon="6.16544"></trkpt><trkpt lat="52.50296" lon="6.16533"></trkpt><trkpt lat="52.50306" lon="6.16526"></trkpt><trkpt lat="52.50328" lon="6.16502"></trkpt><trkpt lat="52.50359" lon="6.16476"></trkpt><trkpt lat="52.50391" lon="6.16461"></trkpt><trkpt lat="52.50405" lon="6.16451"></trkpt><trkpt lat="52.50416" lon="6.1644"></trkpt><trkpt lat="52.50449" lon="6.16385"></trkpt><trkpt lat="52.50463" lon="6.16359"></trkpt><trkpt lat="52.50525" lon="6.16283"></trkpt><trkpt lat="52.50548" lon="6.16242"></trkpt><trkpt lat="52.50562" lon="6.16207"></trkpt><trkpt lat="52.50573" lon="6.16172"></trkpt><trkpt lat="52.50581" lon="6.16187"></trkpt><trkpt lat="52.50585" lon="6.16205"></trkpt><trkpt lat="52.50605" lon="6.16346"></trkpt><trkpt lat="52.50614" lon="6.16398"></trkpt><trkpt lat="52.50623" lon="6.16426"></trkpt><trkpt lat="52.50639" lon="6.16453"></trkpt><trkpt lat="52.50733" lon="6.16554"></trkpt><trkpt lat="52.50743" lon="6.16567"></trkpt><trkpt lat="52.5075" lon="6.16586"></trkpt><trkpt lat="52.50759" lon="6.1665"></trkpt><trkpt lat="52.50763" lon="6.16668"></trkpt><trkpt lat="52.50822" lon="6.16877"></trkpt><trkpt lat="52.50854" lon="6.16967"></trkpt><trkpt lat="52.50942" lon="6.17359"></trkpt><trkpt lat="52.50944" lon="6.17377"></trkpt><trkpt lat="52.50944" lon="6.17394"></trkpt><trkpt lat="52.50935" lon="6.17413"></trkpt><trkpt lat="52.50926" lon="6.17426"></trkpt><trkpt lat="52.50901" lon="6.17451"></trkpt><trkpt lat="52.50728" lon="6.17609"></trkpt><trkpt lat="52.50726" lon="6.17619"></trkpt><trkpt lat="52.50727" lon="6.17634"></trkpt><trkpt lat="52.50744" lon="6.17727"></trkpt><trkpt lat="52.50751" lon="6.1796"></trkpt><trkpt lat="52.50739" lon="6.18203"></trkpt><trkpt lat="52.50739" lon="6.18237"></trkpt><trkpt lat="52.50743" lon="6.18269"></trkpt><trkpt lat="52.50764" lon="6.18374"></trkpt><trkpt lat="52.50767" lon="6.18404"></trkpt><trkpt lat="52.50767" lon="6.18424"></trkpt><trkpt lat="52.50763" lon="6.18465"></trkpt><trkpt lat="52.50759" lon="6.18482"></trkpt><trkpt lat="52.50716" lon="6.18605"></trkpt><trkpt lat="52.50695" lon="6.18683"></trkpt><trkpt lat="52.50675" lon="6.18771"></trkpt><trkpt lat="52.50653" lon="6.18926"></trkpt><trkpt lat="52.50611" lon="6.19147"></trkpt><trkpt lat="52.50603" lon="6.1924"></trkpt><trkpt lat="52.50596" lon="6.19259"></trkpt><trkpt lat="52.50588" lon="6.19272"></trkpt><trkpt lat="52.50582" lon="6.19279"></trkpt><trkpt lat="52.50571" lon="6.19286"></trkpt><trkpt lat="52.50545" lon="6.1931"></trkpt><trkpt lat="52.50541" lon="6.19316"></trkpt><trkpt lat="52.50533" lon="6.19337"></trkpt><trkpt lat="52.50531" lon="6.19345"></trkpt><trkpt lat="52.50525" lon="6.19404"></trkpt><trkpt lat="52.5052" lon="6.19437"></trkpt><trkpt lat="52.50504" lon="6.19496"></trkpt><trkpt lat="52.50486" lon="6.19547"></trkpt><trkpt lat="52.50471" lon="6.19596"></trkpt><trkpt lat="52.5046" lon="6.19638"></trkpt><trkpt lat="52.50407" lon="6.19903"></trkpt><trkpt lat="52.50405" lon="6.19926"></trkpt><trkpt lat="52.50408" lon="6.19948"></trkpt><trkpt lat="52.50482" lon="6.20244"></trkpt><trkpt lat="52.50485" lon="6.20269"></trkpt><trkpt lat="52.50485" lon="6.20287"></trkpt><trkpt lat="52.50481" lon="6.20377"></trkpt><trkpt lat="52.50484" lon="6.20385"></trkpt><trkpt lat="52.50331" lon="6.20576"></trkpt><trkpt lat="52.50129" lon="6.2082"></trkpt><trkpt lat="52.50132" lon="6.20835"></trkpt><trkpt lat="52.50133" lon="6.20858"></trkpt><trkpt lat="52.50132" lon="6.20886"></trkpt><trkpt lat="52.50146" lon="6.20912"></trkpt><trkpt lat="52.50156" lon="6.20924"></trkpt><trkpt lat="52.5019" lon="6.20952"></trkpt><trkpt lat="52.50562" lon="6.21212"></trkpt><trkpt lat="52.50678" lon="6.21295"></trkpt><trkpt lat="52.50833" lon="6.21402"></trkpt><trkpt lat="52.51139" lon="6.21619"></trkpt><trkpt lat="52.51159" lon="6.2163"></trkpt><trkpt lat="52.51168" lon="6.21633"></trkpt><trkpt lat="52.51166" lon="6.21655"></trkpt><trkpt lat="52.51162" lon="6.21674"></trkpt><trkpt lat="52.51157" lon="6.21702"></trkpt><trkpt lat="52.51153" lon="6.21703"></trkpt><trkpt lat="52.51135" lon="6.21697"></trkpt><trkpt lat="52.51117" lon="6.21693"></trkpt><trkpt lat="52.5111" lon="6.21693"></trkpt><trkpt lat="52.51095" lon="6.21696"></trkpt><trkpt lat="52.51075" lon="6.21705"></trkpt><trkpt lat="52.51056" lon="6.21717"></trkpt><trkpt lat="52.5103" lon="6.21738"></trkpt><trkpt lat="52.51006" lon="6.2176"></trkpt><trkpt lat="52.50997" lon="6.21774"></trkpt><trkpt lat="52.50989" lon="6.21793"></trkpt><trkpt lat="52.50974" lon="6.21842"></trkpt><trkpt lat="52.50963" lon="6.21863"></trkpt><trkpt lat="52.50936" lon="6.21908"></trkpt><trkpt lat="52.50927" lon="6.2193"></trkpt><trkpt lat="52.5089" lon="6.22057"></trkpt><trkpt lat="52.50884" lon="6.22084"></trkpt><trkpt lat="52.50874" lon="6.22152"></trkpt><trkpt lat="52.50874" lon="6.22182"></trkpt><trkpt lat="52.509" lon="6.22298"></trkpt><trkpt lat="52.50907" lon="6.22337"></trkpt><trkpt lat="52.50907" lon="6.22351"></trkpt><trkpt lat="52.50901" lon="6.22385"></trkpt><trkpt lat="52.50881" lon="6.22467"></trkpt><trkpt lat="52.50859" lon="6.2266"></trkpt><trkpt lat="52.50853" lon="6.22684"></trkpt><trkpt lat="52.50834" lon="6.22722"></trkpt><trkpt lat="52.50753" lon="6.22859"></trkpt><trkpt lat="52.50737" lon="6.22892"></trkpt><trkpt lat="52.50725" lon="6.22923"></trkpt><trkpt lat="52.50596" lon="6.23292"></trkpt><trkpt lat="52.50592" lon="6.23311"></trkpt><trkpt lat="52.50591" lon="6.23329"></trkpt><trkpt lat="52.50599" lon="6.23372"></trkpt><trkpt lat="52.50599" lon="6.23389"></trkpt><trkpt lat="52.50594" lon="6.23413"></trkpt><trkpt lat="52.50589" lon="6.23429"></trkpt><trkpt lat="52.50582" lon="6.23444"></trkpt><trkpt lat="52.50555" lon="6.23496"></trkpt><trkpt lat="52.50544" lon="6.23531"></trkpt><trkpt lat="52.50528" lon="6.2359"></trkpt><trkpt lat="52.50507" lon="6.23643"></trkpt><trkpt lat="52.50498" lon="6.23671"></trkpt><trkpt lat="52.5048" lon="6.23743"></trkpt><trkpt lat="52.50474" lon="6.23758"></trkpt><trkpt lat="52.50461" lon="6.23783"></trkpt><trkpt lat="52.50429" lon="6.23831"></trkpt><trkpt lat="52.50418" lon="6.23863"></trkpt><trkpt lat="52.50399" lon="6.23967"></trkpt><trkpt lat="52.50384" lon="6.24026"></trkpt><trkpt lat="52.50369" lon="6.24076"></trkpt><trkpt lat="52.50356" lon="6.24182"></trkpt><trkpt lat="52.50344" lon="6.24304"></trkpt><trkpt lat="52.50325" lon="6.24385"></trkpt><trkpt lat="52.50273" lon="6.2448"></trkpt><trkpt lat="52.50263" lon="6.24503"></trkpt><trkpt lat="52.50254" lon="6.24518"></trkpt><trkpt lat="52.50185" lon="6.24593"></trkpt><trkpt lat="52.50169" lon="6.2463"></trkpt><trkpt lat="52.50155" lon="6.24652"></trkpt><trkpt lat="52.50151" lon="6.24661"></trkpt><trkpt lat="52.50094" lon="6.24898"></trkpt><trkpt lat="52.50094" lon="6.24915"></trkpt><trkpt lat="52.501" lon="6.24953"></trkpt><trkpt lat="52.501" lon="6.2497"></trkpt><trkpt lat="52.50096" lon="6.2498"></trkpt><trkpt lat="52.50092" lon="6.24984"></trkpt><trkpt lat="52.50071" lon="6.24986"></trkpt><trkpt lat="52.50071" lon="6.25003"></trkpt><trkpt lat="52.50065" lon="6.25051"></trkpt><trkpt lat="52.50061" lon="6.25071"></trkpt><trkpt lat="52.50002" lon="6.25276"></trkpt><trkpt lat="52.49991" lon="6.25336"></trkpt><trkpt lat="52.49984" lon="6.254"></trkpt><trkpt lat="52.49981" lon="6.25463"></trkpt><trkpt lat="52.49981" lon="6.25821"></trkpt><trkpt lat="52.49983" lon="6.25855"></trkpt><trkpt lat="52.4998" lon="6.25897"></trkpt><trkpt lat="52.49978" lon="6.25908"></trkpt><trkpt lat="52.49975" lon="6.25916"></trkpt><trkpt lat="52.49966" lon="6.25926"></trkpt><trkpt lat="52.49971" lon="6.25962"></trkpt><trkpt lat="52.49982" lon="6.25975"></trkpt><trkpt lat="52.49995" lon="6.25977"></trkpt><trkpt lat="52.49998" lon="6.25976"></trkpt><trkpt lat="52.50001" lon="6.25971"></trkpt><trkpt lat="52.50003" lon="6.2597"></trkpt><trkpt lat="52.50005" lon="6.25971"></trkpt><trkpt lat="52.50003" lon="6.25989"></trkpt><trkpt lat="52.49998" lon="6.26113"></trkpt><trkpt lat="52.49993" lon="6.2616"></trkpt><trkpt lat="52.49985" lon="6.26197"></trkpt><trkpt lat="52.49941" lon="6.26353"></trkpt><trkpt lat="52.49933" lon="6.26391"></trkpt><trkpt lat="52.49756" lon="6.27023"></trkpt><trkpt lat="52.49727" lon="6.27089"></trkpt><trkpt lat="52.49545" lon="6.27531"></trkpt><trkpt lat="52.49542" lon="6.27557"></trkpt><trkpt lat="52.49538" lon="6.27622"></trkpt><trkpt lat="52.49537" lon="6.27683"></trkpt><trkpt lat="52.49542" lon="6.27734"></trkpt><trkpt lat="52.49551" lon="6.27784"></trkpt><trkpt lat="52.49562" lon="6.27829"></trkpt><trkpt lat="52.49611" lon="6.27966"></trkpt><trkpt lat="52.49623" lon="6.28011"></trkpt><trkpt lat="52.49636" lon="6.28091"></trkpt><trkpt lat="52.4965" lon="6.28285"></trkpt><trkpt lat="52.49655" lon="6.28382"></trkpt><trkpt lat="52.49656" lon="6.28416"></trkpt><trkpt lat="52.49655" lon="6.28478"></trkpt><trkpt lat="52.49651" lon="6.28545"></trkpt><trkpt lat="52.49652" lon="6.28587"></trkpt><trkpt lat="52.49661" lon="6.2872"></trkpt><trkpt lat="52.49671" lon="6.28917"></trkpt><trkpt lat="52.49662" lon="6.28917"></trkpt><trkpt lat="52.49659" lon="6.28929"></trkpt><trkpt lat="52.49657" lon="6.28932"></trkpt><trkpt lat="52.49615" lon="6.28983"></trkpt><trkpt lat="52.496" lon="6.28987"></trkpt><trkpt lat="52.49591" lon="6.28992"></trkpt><trkpt lat="52.49553" lon="6.29039"></trkpt><trkpt lat="52.49443" lon="6.29169"></trkpt><trkpt lat="52.49436" lon="6.29183"></trkpt><trkpt lat="52.49415" lon="6.29203"></trkpt><trkpt lat="52.4936" lon="6.29269"></trkpt><trkpt lat="52.49347" lon="6.2928"></trkpt><trkpt lat="52.49232" lon="6.29415"></trkpt><trkpt lat="52.4891" lon="6.29801"></trkpt><trkpt lat="52.4881" lon="6.29931"></trkpt><trkpt lat="52.48763" lon="6.30005"></trkpt><trkpt lat="52.48744" lon="6.30022"></trkpt><trkpt lat="52.48742" lon="6.3005"></trkpt><trkpt lat="52.48739" lon="6.30069"></trkpt><trkpt lat="52.48674" lon="6.30203"></trkpt><trkpt lat="52.48657" lon="6.30255"></trkpt><trkpt lat="52.48651" lon="6.30282"></trkpt><trkpt lat="52.48643" lon="6.30433"></trkpt><trkpt lat="52.48638" lon="6.30604"></trkpt><trkpt lat="52.48635" lon="6.30638"></trkpt><trkpt lat="52.48628" lon="6.30673"></trkpt><trkpt lat="52.48617" lon="6.30705"></trkpt><trkpt lat="52.48607" lon="6.30727"></trkpt><trkpt lat="52.48526" lon="6.30837"></trkpt><trkpt lat="52.48516" lon="6.30855"></trkpt><trkpt lat="52.48506" lon="6.3089"></trkpt><trkpt lat="52.48503" lon="6.30906"></trkpt><trkpt lat="52.485" lon="6.30938"></trkpt><trkpt lat="52.485" lon="6.31441"></trkpt><trkpt lat="52.48493" lon="6.31506"></trkpt><trkpt lat="52.48492" lon="6.3154"></trkpt><trkpt lat="52.48498" lon="6.3174"></trkpt><trkpt lat="52.48511" lon="6.31984"></trkpt><trkpt lat="52.48511" lon="6.32046"></trkpt><trkpt lat="52.48508" lon="6.32071"></trkpt><trkpt lat="52.485" lon="6.32115"></trkpt><trkpt lat="52.48495" lon="6.32134"></trkpt><trkpt lat="52.48472" lon="6.32217"></trkpt><trkpt lat="52.48447" lon="6.32283"></trkpt><trkpt lat="52.48422" lon="6.32335"></trkpt><trkpt lat="52.48353" lon="6.32447"></trkpt><trkpt lat="52.48348" lon="6.32462"></trkpt><trkpt lat="52.48346" lon="6.32476"></trkpt><trkpt lat="52.48239" lon="6.33566"></trkpt><trkpt lat="52.48239" lon="6.33706"></trkpt><trkpt lat="52.48241" lon="6.33815"></trkpt><trkpt lat="52.48237" lon="6.33843"></trkpt><trkpt lat="52.48193" lon="6.34318"></trkpt><trkpt lat="52.48177" lon="6.34398"></trkpt><trkpt lat="52.48163" lon="6.3453"></trkpt><trkpt lat="52.48157" lon="6.3456"></trkpt><trkpt lat="52.4805" lon="6.34932"></trkpt><trkpt lat="52.47876" lon="6.35549"></trkpt><trkpt lat="52.47848" lon="6.35623"></trkpt><trkpt lat="52.47818" lon="6.35714"></trkpt><trkpt lat="52.47803" lon="6.35764"></trkpt><trkpt lat="52.47764" lon="6.35955"></trkpt><trkpt lat="52.47723" lon="6.36099"></trkpt><trkpt lat="52.47721" lon="6.36112"></trkpt><trkpt lat="52.47724" lon="6.36127"></trkpt><trkpt lat="52.47728" lon="6.36132"></trkpt><trkpt lat="52.47807" lon="6.36197"></trkpt><trkpt lat="52.47812" lon="6.362"></trkpt><trkpt lat="52.47827" lon="6.36203"></trkpt><trkpt lat="52.47836" lon="6.3621"></trkpt><trkpt lat="52.48009" lon="6.36353"></trkpt><trkpt lat="52.48083" lon="6.36412"></trkpt><trkpt lat="52.48087" lon="6.36413"></trkpt><trkpt lat="52.48093" lon="6.36412"></trkpt><trkpt lat="52.48127" lon="6.36401"></trkpt><trkpt lat="52.48195" lon="6.36382"></trkpt><trkpt lat="52.48202" lon="6.36382"></trkpt><trkpt lat="52.48207" lon="6.36386"></trkpt><trkpt lat="52.48211" lon="6.36403"></trkpt><trkpt lat="52.48009" lon="6.36543"></trkpt><trkpt lat="52.48006" lon="6.3653"></trkpt><trkpt lat="52.48006" lon="6.36516"></trkpt><trkpt lat="52.48008" lon="6.36509"></trkpt><trkpt lat="52.4803" lon="6.36468"></trkpt><trkpt lat="52.48032" lon="6.36453"></trkpt><trkpt lat="52.4803" lon="6.36444"></trkpt><trkpt lat="52.48027" lon="6.36438"></trkpt><trkpt lat="52.47857" lon="6.36298"></trkpt><trkpt lat="52.47832" lon="6.36279"></trkpt><trkpt lat="52.47793" lon="6.36257"></trkpt><trkpt lat="52.47733" lon="6.36211"></trkpt><trkpt lat="52.47717" lon="6.36207"></trkpt><trkpt lat="52.4771" lon="6.36208"></trkpt><trkpt lat="52.47703" lon="6.36211"></trkpt><trkpt lat="52.47695" lon="6.36218"></trkpt><trkpt lat="52.47682" lon="6.36242"></trkpt><trkpt lat="52.47662" lon="6.36303"></trkpt><trkpt lat="52.47624" lon="6.36435"></trkpt><trkpt lat="52.47588" lon="6.36533"></trkpt><trkpt lat="52.47527" lon="6.36637"></trkpt><trkpt lat="52.47429" lon="6.36792"></trkpt><trkpt lat="52.47372" lon="6.36898"></trkpt><trkpt lat="52.47338" lon="6.36953"></trkpt><trkpt lat="52.47079" lon="6.37451"></trkpt><trkpt lat="52.47026" lon="6.37577"></trkpt><trkpt lat="52.46947" lon="6.37789"></trkpt><trkpt lat="52.46831" lon="6.3809"></trkpt><trkpt lat="52.46756" lon="6.38293"></trkpt><trkpt lat="52.46662" lon="6.38519"></trkpt><trkpt lat="52.46532" lon="6.38802"></trkpt><trkpt lat="52.4652" lon="6.38797"></trkpt><trkpt lat="52.46514" lon="6.38792"></trkpt><trkpt lat="52.46436" lon="6.38702"></trkpt><trkpt lat="52.46405" lon="6.38664"></trkpt><trkpt lat="52.46393" lon="6.38646"></trkpt><trkpt lat="52.4639" lon="6.38662"></trkpt><trkpt lat="52.4632" lon="6.38867"></trkpt><trkpt lat="52.46316" lon="6.38875"></trkpt><trkpt lat="52.46298" lon="6.38899"></trkpt><trkpt lat="52.46246" lon="6.38933"></trkpt><trkpt lat="52.4614" lon="6.38994"></trkpt><trkpt lat="52.46037" lon="6.39047"></trkpt><trkpt lat="52.45969" lon="6.39088"></trkpt><trkpt lat="52.45899" lon="6.39137"></trkpt><trkpt lat="52.45883" lon="6.39146"></trkpt><trkpt lat="52.45859" lon="6.39172"></trkpt><trkpt lat="52.45846" lon="6.39192"></trkpt><trkpt lat="52.45822" lon="6.39235"></trkpt><trkpt lat="52.45809" lon="6.39263"></trkpt><trkpt lat="52.45764" lon="6.39408"></trkpt><trkpt lat="52.4575" lon="6.39457"></trkpt><trkpt lat="52.45746" lon="6.39495"></trkpt><trkpt lat="52.45742" lon="6.39668"></trkpt><trkpt lat="52.45745" lon="6.39713"></trkpt><trkpt lat="52.45763" lon="6.3982"></trkpt><trkpt lat="52.45765" lon="6.39882"></trkpt><trkpt lat="52.45749" lon="6.40361"></trkpt><trkpt lat="52.45746" lon="6.40399"></trkpt><trkpt lat="52.4574" lon="6.40432"></trkpt><trkpt lat="52.45733" lon="6.40457"></trkpt><trkpt lat="52.45725" lon="6.40478"></trkpt><trkpt lat="52.45706" lon="6.40519"></trkpt><trkpt lat="52.45671" lon="6.40583"></trkpt><trkpt lat="52.45649" lon="6.40628"></trkpt><trkpt lat="52.45641" lon="6.40653"></trkpt><trkpt lat="52.45616" lon="6.40865"></trkpt><trkpt lat="52.45606" lon="6.40917"></trkpt><trkpt lat="52.45583" lon="6.41017"></trkpt><trkpt lat="52.45575" lon="6.41049"></trkpt><trkpt lat="52.45563" lon="6.4108"></trkpt><trkpt lat="52.45537" lon="6.41128"></trkpt><trkpt lat="52.4549" lon="6.41203"></trkpt><trkpt lat="52.45453" lon="6.4127"></trkpt><trkpt lat="52.45402" lon="6.41333"></trkpt><trkpt lat="52.45335" lon="6.41399"></trkpt><trkpt lat="52.45247" lon="6.41491"></trkpt><trkpt lat="52.45235" lon="6.41507"></trkpt><trkpt lat="52.4521" lon="6.41549"></trkpt><trkpt lat="52.45203" lon="6.41556"></trkpt><trkpt lat="52.45179" lon="6.41573"></trkpt><trkpt lat="52.45158" lon="6.41592"></trkpt><trkpt lat="52.45078" lon="6.41688"></trkpt><trkpt lat="52.44931" lon="6.41849"></trkpt><trkpt lat="52.44902" lon="6.41884"></trkpt><trkpt lat="52.44892" lon="6.41898"></trkpt><trkpt lat="52.44882" lon="6.41919"></trkpt><trkpt lat="52.44855" lon="6.42008"></trkpt><trkpt lat="52.44849" lon="6.42022"></trkpt><trkpt lat="52.44838" lon="6.42044"></trkpt><trkpt lat="52.44811" lon="6.42088"></trkpt><trkpt lat="52.44797" lon="6.42104"></trkpt><trkpt lat="52.44764" lon="6.42132"></trkpt><trkpt lat="52.44624" lon="6.4222"></trkpt><trkpt lat="52.44601" lon="6.4224"></trkpt><trkpt lat="52.44592" lon="6.4226"></trkpt><trkpt lat="52.4459" lon="6.42273"></trkpt><trkpt lat="52.44592" lon="6.42321"></trkpt><trkpt lat="52.446" lon="6.42397"></trkpt><trkpt lat="52.44606" lon="6.42438"></trkpt><trkpt lat="52.44602" lon="6.42467"></trkpt><trkpt lat="52.44597" lon="6.4248"></trkpt><trkpt lat="52.44592" lon="6.42491"></trkpt><trkpt lat="52.4457" lon="6.42527"></trkpt><trkpt lat="52.44564" lon="6.42533"></trkpt><trkpt lat="52.44565" lon="6.42535"></trkpt><trkpt lat="52.44549" lon="6.42574"></trkpt><trkpt lat="52.44533" lon="6.42634"></trkpt><trkpt lat="52.4449" lon="6.42734"></trkpt><trkpt lat="52.44343" lon="6.43029"></trkpt><trkpt lat="52.44198" lon="6.43279"></trkpt><trkpt lat="52.44172" lon="6.43317"></trkpt><trkpt lat="52.44147" lon="6.43347"></trkpt><trkpt lat="52.43847" lon="6.43565"></trkpt><trkpt lat="52.43532" lon="6.43786"></trkpt><trkpt lat="52.43495" lon="6.43817"></trkpt><trkpt lat="52.43439" lon="6.43876"></trkpt><trkpt lat="52.43425" lon="6.43885"></trkpt><trkpt lat="52.43379" lon="6.43934"></trkpt><trkpt lat="52.43369" lon="6.43902"></trkpt><trkpt lat="52.43367" lon="6.4389"></trkpt><trkpt lat="52.4337" lon="6.43875"></trkpt><trkpt lat="52.43362" lon="6.43865"></trkpt><trkpt lat="52.4336" lon="6.43851"></trkpt><trkpt lat="52.43361" lon="6.43732"></trkpt><trkpt lat="52.43202" lon="6.42929"></trkpt><trkpt lat="52.43127" lon="6.42559"></trkpt><trkpt lat="52.42994" lon="6.41877"></trkpt><trkpt lat="52.42629" lon="6.40042"></trkpt><trkpt lat="52.4258" lon="6.39789"></trkpt><trkpt lat="52.42572" lon="6.39751"></trkpt><trkpt lat="52.42566" lon="6.39734"></trkpt><trkpt lat="52.42156" lon="6.4044"></trkpt><trkpt lat="52.42147" lon="6.40456"></trkpt><trkpt lat="52.42041" lon="6.40637"></trkpt><trkpt lat="52.41665" lon="6.41279"></trkpt><trkpt lat="52.41437" lon="6.41643"></trkpt><trkpt lat="52.41367" lon="6.41755"></trkpt><trkpt lat="52.41354" lon="6.41774"></trkpt><trkpt lat="52.41407" lon="6.41894"></trkpt><trkpt lat="52.41411" lon="6.41907"></trkpt><trkpt lat="52.41413" lon="6.41918"></trkpt><trkpt lat="52.41412" lon="6.4197"></trkpt><trkpt lat="52.41415" lon="6.42077"></trkpt><trkpt lat="52.41419" lon="6.42283"></trkpt><trkpt lat="52.41312" lon="6.42358"></trkpt><trkpt lat="52.41227" lon="6.42422"></trkpt><trkpt lat="52.41205" lon="6.42437"></trkpt><trkpt lat="52.4118" lon="6.42454"></trkpt><trkpt lat="52.41178" lon="6.42456"></trkpt><trkpt lat="52.41145" lon="6.42478"></trkpt><trkpt lat="52.41078" lon="6.42526"></trkpt><trkpt lat="52.41068" lon="6.42532"></trkpt><trkpt lat="52.41051" lon="6.42545"></trkpt><trkpt lat="52.41033" lon="6.42558"></trkpt><trkpt lat="52.40975" lon="6.42598"></trkpt><trkpt lat="52.4096" lon="6.42609"></trkpt><trkpt lat="52.40943" lon="6.4262"></trkpt><trkpt lat="52.40906" lon="6.42647"></trkpt><trkpt lat="52.40866" lon="6.42675"></trkpt><trkpt lat="52.40723" lon="6.42776"></trkpt><trkpt lat="52.40573" lon="6.42883"></trkpt><trkpt lat="52.40325" lon="6.43088"></trkpt><trkpt lat="52.40277" lon="6.43128"></trkpt><trkpt lat="52.40182" lon="6.43207"></trkpt><trkpt lat="52.40045" lon="6.43319"></trkpt><trkpt lat="52.40021" lon="6.43342"></trkpt><trkpt lat="52.40016" lon="6.4335"></trkpt><trkpt lat="52.40007" lon="6.43369"></trkpt><trkpt lat="52.40003" lon="6.43376"></trkpt><trkpt lat="52.40001" lon="6.43379"></trkpt><trkpt lat="52.39996" lon="6.4339"></trkpt><trkpt lat="52.3994" lon="6.43497"></trkpt><trkpt lat="52.39881" lon="6.43603"></trkpt><trkpt lat="52.39853" lon="6.43647"></trkpt><trkpt lat="52.39834" lon="6.43674"></trkpt><trkpt lat="52.3982" lon="6.43693"></trkpt><trkpt lat="52.3976" lon="6.43772"></trkpt><trkpt lat="52.39651" lon="6.43909"></trkpt><trkpt lat="52.39548" lon="6.44032"></trkpt><trkpt lat="52.39492" lon="6.44104"></trkpt><trkpt lat="52.39481" lon="6.44117"></trkpt><trkpt lat="52.39459" lon="6.44139"></trkpt><trkpt lat="52.39394" lon="6.44204"></trkpt><trkpt lat="52.39283" lon="6.44338"></trkpt><trkpt lat="52.39227" lon="6.44414"></trkpt><trkpt lat="52.39177" lon="6.44451"></trkpt><trkpt lat="52.39097" lon="6.44512"></trkpt><trkpt lat="52.39046" lon="6.44552"></trkpt><trkpt lat="52.39018" lon="6.44574"></trkpt><trkpt lat="52.3899" lon="6.44593"></trkpt><trkpt lat="52.38969" lon="6.44599"></trkpt><trkpt lat="52.38967" lon="6.44589"></trkpt><trkpt lat="52.38964" lon="6.44566"></trkpt><trkpt lat="52.38955" lon="6.44518"></trkpt><trkpt lat="52.38943" lon="6.44462"></trkpt><trkpt lat="52.38919" lon="6.44348"></trkpt><trkpt lat="52.38905" lon="6.44288"></trkpt><trkpt lat="52.38904" lon="6.44282"></trkpt><trkpt lat="52.38867" lon="6.44114"></trkpt><trkpt lat="52.3883" lon="6.43944"></trkpt><trkpt lat="52.38827" lon="6.43928"></trkpt><trkpt lat="52.38822" lon="6.43909"></trkpt><trkpt lat="52.38783" lon="6.43721"></trkpt><trkpt lat="52.38758" lon="6.43605"></trkpt><trkpt lat="52.38759" lon="6.43601"></trkpt><trkpt lat="52.38759" lon="6.43597"></trkpt><trkpt lat="52.38759" lon="6.43593"></trkpt><trkpt lat="52.38758" lon="6.4359"></trkpt><trkpt lat="52.38756" lon="6.4358"></trkpt><trkpt lat="52.38751" lon="6.43556"></trkpt><trkpt lat="52.38746" lon="6.43535"></trkpt><trkpt lat="52.38744" lon="6.43525"></trkpt><trkpt lat="52.38743" lon="6.43523"></trkpt><trkpt lat="52.38742" lon="6.43522"></trkpt><trkpt lat="52.38739" lon="6.43519"></trkpt><trkpt lat="52.38717" lon="6.4342"></trkpt><trkpt lat="52.38688" lon="6.43299"></trkpt><trkpt lat="52.38668" lon="6.43216"></trkpt><trkpt lat="52.38665" lon="6.43201"></trkpt><trkpt lat="52.38657" lon="6.4317"></trkpt><trkpt lat="52.38654" lon="6.43151"></trkpt><trkpt lat="52.38652" lon="6.43127"></trkpt><trkpt lat="52.3865" lon="6.43104"></trkpt><trkpt lat="52.38649" lon="6.43083"></trkpt><trkpt lat="52.38649" lon="6.43061"></trkpt><trkpt lat="52.38649" lon="6.43034"></trkpt><trkpt lat="52.38652" lon="6.42836"></trkpt><trkpt lat="52.38657" lon="6.42621"></trkpt><trkpt lat="52.38669" lon="6.41878"></trkpt><trkpt lat="52.38669" lon="6.41851"></trkpt><trkpt lat="52.38671" lon="6.41696"></trkpt><trkpt lat="52.38677" lon="6.4143"></trkpt><trkpt lat="52.38677" lon="6.41404"></trkpt><trkpt lat="52.38679" lon="6.41376"></trkpt><trkpt lat="52.38685" lon="6.41322"></trkpt><trkpt lat="52.3874" lon="6.40909"></trkpt><trkpt lat="52.3876" lon="6.40765"></trkpt><trkpt lat="52.38804" lon="6.40433"></trkpt><trkpt lat="52.38812" lon="6.4038"></trkpt><trkpt lat="52.38853" lon="6.40078"></trkpt><trkpt lat="52.38905" lon="6.39705"></trkpt><trkpt lat="52.38921" lon="6.39596"></trkpt><trkpt lat="52.3895" lon="6.39389"></trkpt><trkpt lat="52.38959" lon="6.39326"></trkpt><trkpt lat="52.38961" lon="6.39306"></trkpt><trkpt lat="52.38996" lon="6.39054"></trkpt><trkpt lat="52.39018" lon="6.38895"></trkpt><trkpt lat="52.39025" lon="6.38848"></trkpt><trkpt lat="52.39034" lon="6.38786"></trkpt><trkpt lat="52.39042" lon="6.38732"></trkpt><trkpt lat="52.39044" lon="6.38724"></trkpt><trkpt lat="52.39025" lon="6.38712"></trkpt><trkpt lat="52.3901" lon="6.38702"></trkpt><trkpt lat="52.39003" lon="6.38696"></trkpt><trkpt lat="52.38998" lon="6.38689"></trkpt><trkpt lat="52.38994" lon="6.38682"></trkpt><trkpt lat="52.38991" lon="6.38674"></trkpt><trkpt lat="52.38989" lon="6.38664"></trkpt><trkpt lat="52.38968" lon="6.38568"></trkpt><trkpt lat="52.38877" lon="6.38131"></trkpt><trkpt lat="52.38876" lon="6.38127"></trkpt><trkpt lat="52.38875" lon="6.38123"></trkpt><trkpt lat="52.38872" lon="6.38102"></trkpt><trkpt lat="52.38857" lon="6.37998"></trkpt><trkpt lat="52.38795" lon="6.37561"></trkpt><trkpt lat="52.38783" lon="6.3747"></trkpt><trkpt lat="52.3878" lon="6.37453"></trkpt><trkpt lat="52.38761" lon="6.37326"></trkpt><trkpt lat="52.38758" lon="6.373"></trkpt><trkpt lat="52.38757" lon="6.3728"></trkpt><trkpt lat="52.38756" lon="6.3726"></trkpt><trkpt lat="52.38756" lon="6.37217"></trkpt><trkpt lat="52.38756" lon="6.3718"></trkpt><trkpt lat="52.38753" lon="6.37111"></trkpt><trkpt lat="52.3875" lon="6.37055"></trkpt><trkpt lat="52.38747" lon="6.36999"></trkpt><trkpt lat="52.38743" lon="6.36931"></trkpt><trkpt lat="52.38737" lon="6.36808"></trkpt><trkpt lat="52.38737" lon="6.36773"></trkpt><trkpt lat="52.38739" lon="6.3674"></trkpt><trkpt lat="52.38749" lon="6.36651"></trkpt><trkpt lat="52.38771" lon="6.36491"></trkpt><trkpt lat="52.38785" lon="6.36397"></trkpt><trkpt lat="52.38802" lon="6.36313"></trkpt><trkpt lat="52.38808" lon="6.3628"></trkpt><trkpt lat="52.3885" lon="6.36114"></trkpt><trkpt lat="52.38859" lon="6.36061"></trkpt><trkpt lat="52.38861" lon="6.3605"></trkpt><trkpt lat="52.38863" lon="6.36026"></trkpt><trkpt lat="52.38866" lon="6.35904"></trkpt><trkpt lat="52.38867" lon="6.35879"></trkpt><trkpt lat="52.38865" lon="6.35855"></trkpt><trkpt lat="52.38986" lon="6.35749"></trkpt><trkpt lat="52.38998" lon="6.3574"></trkpt><trkpt lat="52.39003" lon="6.35736"></trkpt><trkpt lat="52.3901" lon="6.35732"></trkpt><trkpt lat="52.39018" lon="6.35729"></trkpt><trkpt lat="52.39056" lon="6.35727"></trkpt><trkpt lat="52.39067" lon="6.35726"></trkpt><trkpt lat="52.39078" lon="6.35722"></trkpt><trkpt lat="52.39094" lon="6.35712"></trkpt><trkpt lat="52.39142" lon="6.35676"></trkpt><trkpt lat="52.3919" lon="6.35642"></trkpt><trkpt lat="52.39203" lon="6.35637"></trkpt><trkpt lat="52.39217" lon="6.35633"></trkpt><trkpt lat="52.39235" lon="6.35633"></trkpt><trkpt lat="52.39255" lon="6.35638"></trkpt><trkpt lat="52.39352" lon="6.35683"></trkpt><trkpt lat="52.39361" lon="6.3569"></trkpt><trkpt lat="52.39367" lon="6.35694"></trkpt><trkpt lat="52.39371" lon="6.357"></trkpt><trkpt lat="52.39384" lon="6.35723"></trkpt><trkpt lat="52.39389" lon="6.35718"></trkpt><trkpt lat="52.39392" lon="6.35716"></trkpt><trkpt lat="52.39398" lon="6.35712"></trkpt><trkpt lat="52.39404" lon="6.35711"></trkpt><trkpt lat="52.39411" lon="6.35712"></trkpt><trkpt lat="52.39486" lon="6.3576"></trkpt><trkpt lat="52.39526" lon="6.35781"></trkpt><trkpt lat="52.39605" lon="6.35778"></trkpt><trkpt lat="52.3979" lon="6.3575"></trkpt><trkpt lat="52.39863" lon="6.35738"></trkpt><trkpt lat="52.39934" lon="6.35721"></trkpt><trkpt lat="52.39981" lon="6.35714"></trkpt><trkpt lat="52.40028" lon="6.35713"></trkpt><trkpt lat="52.40117" lon="6.35725"></trkpt><trkpt lat="52.40212" lon="6.35735"></trkpt><trkpt lat="52.4038" lon="6.35793"></trkpt><trkpt lat="52.40387" lon="6.35795"></trkpt><trkpt lat="52.40407" lon="6.358"></trkpt><trkpt lat="52.40408" lon="6.35806"></trkpt><trkpt lat="52.40409" lon="6.35811"></trkpt><trkpt lat="52.40412" lon="6.35815"></trkpt><trkpt lat="52.40415" lon="6.35817"></trkpt><trkpt lat="52.40418" lon="6.35818"></trkpt><trkpt lat="52.40423" lon="6.35816"></trkpt><trkpt lat="52.40427" lon="6.35811"></trkpt><trkpt lat="52.40429" lon="6.35804"></trkpt><trkpt lat="52.40434" lon="6.35807"></trkpt><trkpt lat="52.40437" lon="6.35793"></trkpt><trkpt lat="52.40436" lon="6.35787"></trkpt><trkpt lat="52.40436" lon="6.35781"></trkpt><trkpt lat="52.40431" lon="6.35766"></trkpt><trkpt lat="52.4043" lon="6.35753"></trkpt><trkpt lat="52.4043" lon="6.35739"></trkpt><trkpt lat="52.40435" lon="6.35654"></trkpt><trkpt lat="52.40438" lon="6.35605"></trkpt><trkpt lat="52.40446" lon="6.3547"></trkpt><trkpt lat="52.40455" lon="6.35335"></trkpt><trkpt lat="52.40465" lon="6.35125"></trkpt><trkpt lat="52.40469" lon="6.35052"></trkpt><trkpt lat="52.4047" lon="6.35029"></trkpt><trkpt lat="52.40475" lon="6.34946"></trkpt><trkpt lat="52.40476" lon="6.34931"></trkpt><trkpt lat="52.40475" lon="6.34914"></trkpt><trkpt lat="52.40479" lon="6.34848"></trkpt><trkpt lat="52.40482" lon="6.3482"></trkpt><trkpt lat="52.40485" lon="6.34766"></trkpt><trkpt lat="52.40504" lon="6.34484"></trkpt><trkpt lat="52.40518" lon="6.34241"></trkpt><trkpt lat="52.4052" lon="6.34196"></trkpt><trkpt lat="52.40525" lon="6.3412"></trkpt><trkpt lat="52.40529" lon="6.34048"></trkpt><trkpt lat="52.4054" lon="6.33849"></trkpt><trkpt lat="52.40547" lon="6.33732"></trkpt><trkpt lat="52.40553" lon="6.33702"></trkpt><trkpt lat="52.40555" lon="6.33674"></trkpt><trkpt lat="52.40564" lon="6.33517"></trkpt><trkpt lat="52.40571" lon="6.33362"></trkpt><trkpt lat="52.40573" lon="6.33316"></trkpt><trkpt lat="52.40579" lon="6.33173"></trkpt><trkpt lat="52.40582" lon="6.3312"></trkpt><trkpt lat="52.40584" lon="6.33098"></trkpt><trkpt lat="52.40588" lon="6.33073"></trkpt><trkpt lat="52.40596" lon="6.33024"></trkpt><trkpt lat="52.40597" lon="6.33006"></trkpt><trkpt lat="52.40624" lon="6.32839"></trkpt><trkpt lat="52.40663" lon="6.32599"></trkpt><trkpt lat="52.40674" lon="6.32545"></trkpt><trkpt lat="52.40688" lon="6.32493"></trkpt><trkpt lat="52.40701" lon="6.32457"></trkpt><trkpt lat="52.40754" lon="6.32308"></trkpt><trkpt lat="52.4076" lon="6.3229"></trkpt><trkpt lat="52.40763" lon="6.32273"></trkpt><trkpt lat="52.40803" lon="6.32062"></trkpt><trkpt lat="52.40829" lon="6.31932"></trkpt><trkpt lat="52.40836" lon="6.31895"></trkpt><trkpt lat="52.40836" lon="6.31885"></trkpt><trkpt lat="52.40832" lon="6.31869"></trkpt><trkpt lat="52.40831" lon="6.31862"></trkpt><trkpt lat="52.40832" lon="6.31853"></trkpt><trkpt lat="52.40832" lon="6.3185"></trkpt><trkpt lat="52.40835" lon="6.31843"></trkpt><trkpt lat="52.40841" lon="6.31829"></trkpt><trkpt lat="52.40846" lon="6.3182"></trkpt><trkpt lat="52.40857" lon="6.31798"></trkpt><trkpt lat="52.40853" lon="6.3179"></trkpt><trkpt lat="52.40847" lon="6.31781"></trkpt><trkpt lat="52.4085" lon="6.31767"></trkpt><trkpt lat="52.40855" lon="6.31734"></trkpt><trkpt lat="52.40947" lon="6.31254"></trkpt><trkpt lat="52.4095" lon="6.31248"></trkpt><trkpt lat="52.40987" lon="6.31208"></trkpt><trkpt lat="52.40998" lon="6.31197"></trkpt><trkpt lat="52.41007" lon="6.31188"></trkpt><trkpt lat="52.41017" lon="6.31183"></trkpt><trkpt lat="52.41025" lon="6.31181"></trkpt><trkpt lat="52.41032" lon="6.31182"></trkpt><trkpt lat="52.41038" lon="6.31185"></trkpt><trkpt lat="52.4105" lon="6.31192"></trkpt><trkpt lat="52.41073" lon="6.31218"></trkpt><trkpt lat="52.41087" lon="6.31235"></trkpt><trkpt lat="52.41185" lon="6.31396"></trkpt><trkpt lat="52.41283" lon="6.31559"></trkpt><trkpt lat="52.4129" lon="6.31565"></trkpt><trkpt lat="52.41297" lon="6.31569"></trkpt><trkpt lat="52.41313" lon="6.3157"></trkpt><trkpt lat="52.41323" lon="6.31567"></trkpt><trkpt lat="52.41331" lon="6.3156"></trkpt><trkpt lat="52.41334" lon="6.31554"></trkpt><trkpt lat="52.41349" lon="6.31516"></trkpt><trkpt lat="52.4139" lon="6.31408"></trkpt><trkpt lat="52.414" lon="6.31363"></trkpt><trkpt lat="52.41482" lon="6.31141"></trkpt><trkpt lat="52.41514" lon="6.31054"></trkpt><trkpt lat="52.41534" lon="6.31"></trkpt><trkpt lat="52.41548" lon="6.30958"></trkpt><trkpt lat="52.41555" lon="6.30927"></trkpt><trkpt lat="52.4156" lon="6.30905"></trkpt><trkpt lat="52.41564" lon="6.30896"></trkpt><trkpt lat="52.41569" lon="6.30888"></trkpt><trkpt lat="52.41577" lon="6.30879"></trkpt><trkpt lat="52.41574" lon="6.30864"></trkpt><trkpt lat="52.41572" lon="6.30853"></trkpt><trkpt lat="52.41573" lon="6.30837"></trkpt><trkpt lat="52.41575" lon="6.30824"></trkpt><trkpt lat="52.4159" lon="6.30732"></trkpt><trkpt lat="52.41611" lon="6.30587"></trkpt><trkpt lat="52.41615" lon="6.30561"></trkpt><trkpt lat="52.41624" lon="6.30496"></trkpt><trkpt lat="52.41634" lon="6.30435"></trkpt><trkpt lat="52.41677" lon="6.3014"></trkpt><trkpt lat="52.41706" lon="6.2994"></trkpt><trkpt lat="52.41752" lon="6.29641"></trkpt><trkpt lat="52.41798" lon="6.29332"></trkpt><trkpt lat="52.41875" lon="6.28819"></trkpt><trkpt lat="52.41925" lon="6.28644"></trkpt><trkpt lat="52.4196" lon="6.28523"></trkpt><trkpt lat="52.42027" lon="6.28288"></trkpt><trkpt lat="52.42066" lon="6.28146"></trkpt><trkpt lat="52.4211" lon="6.27991"></trkpt><trkpt lat="52.42144" lon="6.27881"></trkpt><trkpt lat="52.42282" lon="6.2739"></trkpt><trkpt lat="52.42317" lon="6.27262"></trkpt><trkpt lat="52.42411" lon="6.27046"></trkpt><trkpt lat="52.4242" lon="6.27033"></trkpt><trkpt lat="52.42434" lon="6.27019"></trkpt><trkpt lat="52.42506" lon="6.26971"></trkpt><trkpt lat="52.42582" lon="6.26915"></trkpt><trkpt lat="52.4262" lon="6.26887"></trkpt><trkpt lat="52.42639" lon="6.26872"></trkpt><trkpt lat="52.42653" lon="6.26858"></trkpt><trkpt lat="52.42661" lon="6.26847"></trkpt><trkpt lat="52.42666" lon="6.26839"></trkpt><trkpt lat="52.42669" lon="6.26829"></trkpt><trkpt lat="52.4268" lon="6.26799"></trkpt><trkpt lat="52.42693" lon="6.2676"></trkpt><trkpt lat="52.42702" lon="6.26733"></trkpt><trkpt lat="52.42709" lon="6.26711"></trkpt><trkpt lat="52.42781" lon="6.26506"></trkpt><trkpt lat="52.42784" lon="6.26498"></trkpt><trkpt lat="52.42789" lon="6.26491"></trkpt><trkpt lat="52.42794" lon="6.26487"></trkpt><trkpt lat="52.42797" lon="6.26485"></trkpt><trkpt lat="52.42812" lon="6.26482"></trkpt><trkpt lat="52.42831" lon="6.26481"></trkpt><trkpt lat="52.42868" lon="6.2648"></trkpt><trkpt lat="52.42904" lon="6.26479"></trkpt><trkpt lat="52.42939" lon="6.26475"></trkpt><trkpt lat="52.43033" lon="6.26455"></trkpt><trkpt lat="52.43038" lon="6.26454"></trkpt><trkpt lat="52.43044" lon="6.26454"></trkpt><trkpt lat="52.43047" lon="6.26454"></trkpt><trkpt lat="52.4305" lon="6.26455"></trkpt><trkpt lat="52.43055" lon="6.26459"></trkpt><trkpt lat="52.43059" lon="6.26462"></trkpt><trkpt lat="52.43061" lon="6.26456"></trkpt><trkpt lat="52.43062" lon="6.26451"></trkpt><trkpt lat="52.43063" lon="6.26446"></trkpt><trkpt lat="52.43064" lon="6.2644"></trkpt><trkpt lat="52.43064" lon="6.26434"></trkpt><trkpt lat="52.43063" lon="6.26427"></trkpt><trkpt lat="52.42991" lon="6.25546"></trkpt><trkpt lat="52.42979" lon="6.25403"></trkpt><trkpt lat="52.4297" lon="6.25297"></trkpt><trkpt lat="52.42962" lon="6.25215"></trkpt><trkpt lat="52.42959" lon="6.2518"></trkpt><trkpt lat="52.42956" lon="6.25146"></trkpt><trkpt lat="52.4296" lon="6.25069"></trkpt><trkpt lat="52.42962" lon="6.25024"></trkpt><trkpt lat="52.42962" lon="6.24984"></trkpt><trkpt lat="52.42954" lon="6.24875"></trkpt><trkpt lat="52.4295" lon="6.24821"></trkpt><trkpt lat="52.42947" lon="6.24788"></trkpt><trkpt lat="52.42961" lon="6.24786"></trkpt><trkpt lat="52.42965" lon="6.24783"></trkpt><trkpt lat="52.42968" lon="6.24778"></trkpt><trkpt lat="52.4297" lon="6.24775"></trkpt><trkpt lat="52.4297" lon="6.24766"></trkpt><trkpt lat="52.42971" lon="6.24733"></trkpt><trkpt lat="52.4297" lon="6.247"></trkpt><trkpt lat="52.42969" lon="6.24675"></trkpt><trkpt lat="52.42968" lon="6.24649"></trkpt><trkpt lat="52.42967" lon="6.24626"></trkpt><trkpt lat="52.42964" lon="6.24591"></trkpt><trkpt lat="52.42962" lon="6.24563"></trkpt><trkpt lat="52.42958" lon="6.24525"></trkpt><trkpt lat="52.42954" lon="6.24492"></trkpt><trkpt lat="52.42947" lon="6.24447"></trkpt><trkpt lat="52.42939" lon="6.244"></trkpt><trkpt lat="52.42925" lon="6.24331"></trkpt><trkpt lat="52.42923" lon="6.24316"></trkpt><trkpt lat="52.42921" lon="6.24301"></trkpt><trkpt lat="52.4292" lon="6.24288"></trkpt><trkpt lat="52.4292" lon="6.24279"></trkpt><trkpt lat="52.42919" lon="6.24268"></trkpt><trkpt lat="52.42919" lon="6.24256"></trkpt><trkpt lat="52.42919" lon="6.24239"></trkpt><trkpt lat="52.42922" lon="6.24212"></trkpt><trkpt lat="52.42926" lon="6.24191"></trkpt><trkpt lat="52.42931" lon="6.24166"></trkpt><trkpt lat="52.42935" lon="6.24149"></trkpt><trkpt lat="52.4294" lon="6.24135"></trkpt><trkpt lat="52.4295" lon="6.24111"></trkpt><trkpt lat="52.42958" lon="6.24095"></trkpt><trkpt lat="52.42968" lon="6.24079"></trkpt><trkpt lat="52.42973" lon="6.24073"></trkpt><trkpt lat="52.4298" lon="6.24064"></trkpt><trkpt lat="52.42993" lon="6.24052"></trkpt><trkpt lat="52.43021" lon="6.2403"></trkpt><trkpt lat="52.43026" lon="6.24025"></trkpt><trkpt lat="52.43031" lon="6.24023"></trkpt><trkpt lat="52.43074" lon="6.24002"></trkpt><trkpt lat="52.43106" lon="6.23986"></trkpt><trkpt lat="52.43113" lon="6.23983"></trkpt><trkpt lat="52.43148" lon="6.23969"></trkpt><trkpt lat="52.43181" lon="6.23959"></trkpt><trkpt lat="52.43193" lon="6.23956"></trkpt><trkpt lat="52.43214" lon="6.23951"></trkpt><trkpt lat="52.4325" lon="6.23946"></trkpt><trkpt lat="52.43254" lon="6.23945"></trkpt><trkpt lat="52.43268" lon="6.23943"></trkpt><trkpt lat="52.43321" lon="6.23936"></trkpt><trkpt lat="52.43335" lon="6.23932"></trkpt><trkpt lat="52.43346" lon="6.2392"></trkpt><trkpt lat="52.43368" lon="6.23913"></trkpt><trkpt lat="52.43383" lon="6.23905"></trkpt><trkpt lat="52.43399" lon="6.23893"></trkpt><trkpt lat="52.43419" lon="6.23871"></trkpt><trkpt lat="52.43434" lon="6.23849"></trkpt><trkpt lat="52.43437" lon="6.23845"></trkpt><trkpt lat="52.43448" lon="6.23823"></trkpt><trkpt lat="52.43485" lon="6.23718"></trkpt><trkpt lat="52.43501" lon="6.23665"></trkpt><trkpt lat="52.43506" lon="6.2365"></trkpt><trkpt lat="52.43513" lon="6.2362"></trkpt><trkpt lat="52.43515" lon="6.23603"></trkpt><trkpt lat="52.43516" lon="6.23581"></trkpt><trkpt lat="52.43517" lon="6.23557"></trkpt><trkpt lat="52.43516" lon="6.23511"></trkpt><trkpt lat="52.43517" lon="6.23489"></trkpt><trkpt lat="52.43518" lon="6.23479"></trkpt><trkpt lat="52.43519" lon="6.23471"></trkpt><trkpt lat="52.43523" lon="6.23458"></trkpt><trkpt lat="52.43524" lon="6.23452"></trkpt><trkpt lat="52.43529" lon="6.2344"></trkpt><trkpt lat="52.43537" lon="6.23424"></trkpt><trkpt lat="52.43547" lon="6.23408"></trkpt><trkpt lat="52.43554" lon="6.23415"></trkpt><trkpt lat="52.43562" lon="6.23418"></trkpt><trkpt lat="52.4357" lon="6.23416"></trkpt><trkpt lat="52.43575" lon="6.23413"></trkpt><trkpt lat="52.4358" lon="6.2341"></trkpt><trkpt lat="52.43585" lon="6.234"></trkpt><trkpt lat="52.43591" lon="6.23387"></trkpt><trkpt lat="52.43592" lon="6.2338"></trkpt><trkpt lat="52.43593" lon="6.23375"></trkpt><trkpt lat="52.43607" lon="6.23376"></trkpt><trkpt lat="52.43619" lon="6.23376"></trkpt><trkpt lat="52.43623" lon="6.23376"></trkpt><trkpt lat="52.43634" lon="6.23377"></trkpt><trkpt lat="52.43662" lon="6.2338"></trkpt><trkpt lat="52.437" lon="6.23392"></trkpt><trkpt lat="52.43755" lon="6.23414"></trkpt><trkpt lat="52.43888" lon="6.23467"></trkpt><trkpt lat="52.43922" lon="6.23476"></trkpt><trkpt lat="52.43953" lon="6.23484"></trkpt><trkpt lat="52.43988" lon="6.23489"></trkpt><trkpt lat="52.44007" lon="6.23487"></trkpt><trkpt lat="52.44016" lon="6.23478"></trkpt><trkpt lat="52.44031" lon="6.23473"></trkpt><trkpt lat="52.44035" lon="6.23471"></trkpt><trkpt lat="52.44042" lon="6.23468"></trkpt><trkpt lat="52.44048" lon="6.23464"></trkpt><trkpt lat="52.44056" lon="6.23459"></trkpt><trkpt lat="52.44083" lon="6.23427"></trkpt><trkpt lat="52.44104" lon="6.23402"></trkpt><trkpt lat="52.44136" lon="6.23357"></trkpt><trkpt lat="52.4415" lon="6.23337"></trkpt><trkpt lat="52.4436" lon="6.2304"></trkpt><trkpt lat="52.44361" lon="6.23044"></trkpt><trkpt lat="52.44363" lon="6.23049"></trkpt><trkpt lat="52.44366" lon="6.23054"></trkpt><trkpt lat="52.44368" lon="6.23058"></trkpt><trkpt lat="52.44371" lon="6.2306"></trkpt><trkpt lat="52.44374" lon="6.23062"></trkpt><trkpt lat="52.44377" lon="6.23064"></trkpt><trkpt lat="52.44381" lon="6.23064"></trkpt><trkpt lat="52.44384" lon="6.23063"></trkpt><trkpt lat="52.44388" lon="6.23061"></trkpt><trkpt lat="52.44391" lon="6.23058"></trkpt><trkpt lat="52.44395" lon="6.23052"></trkpt><trkpt lat="52.44397" lon="6.23049"></trkpt><trkpt lat="52.44398" lon="6.23045"></trkpt><trkpt lat="52.44399" lon="6.2304"></trkpt><trkpt lat="52.444" lon="6.23035"></trkpt><trkpt lat="52.444" lon="6.2303"></trkpt><trkpt lat="52.444" lon="6.23025"></trkpt><trkpt lat="52.44399" lon="6.2302"></trkpt><trkpt lat="52.44397" lon="6.23012"></trkpt><trkpt lat="52.44394" lon="6.23005"></trkpt><trkpt lat="52.44389" lon="6.23"></trkpt><trkpt lat="52.44408" lon="6.22979"></trkpt><trkpt lat="52.44425" lon="6.22963"></trkpt><trkpt lat="52.44431" lon="6.22958"></trkpt><trkpt lat="52.44435" lon="6.22954"></trkpt><trkpt lat="52.44438" lon="6.22951"></trkpt><trkpt lat="52.44444" lon="6.22948"></trkpt><trkpt lat="52.44452" lon="6.22944"></trkpt><trkpt lat="52.44457" lon="6.2294"></trkpt><trkpt lat="52.44467" lon="6.22932"></trkpt><trkpt lat="52.44475" lon="6.22923"></trkpt><trkpt lat="52.44485" lon="6.22913"></trkpt><trkpt lat="52.44518" lon="6.22881"></trkpt><trkpt lat="52.44528" lon="6.22871"></trkpt><trkpt lat="52.44538" lon="6.22862"></trkpt><trkpt lat="52.44547" lon="6.22855"></trkpt><trkpt lat="52.44555" lon="6.22849"></trkpt><trkpt lat="52.44567" lon="6.22841"></trkpt><trkpt lat="52.44575" lon="6.22837"></trkpt><trkpt lat="52.44586" lon="6.22831"></trkpt><trkpt lat="52.44593" lon="6.22828"></trkpt><trkpt lat="52.44606" lon="6.22824"></trkpt><trkpt lat="52.44621" lon="6.2282"></trkpt><trkpt lat="52.44625" lon="6.22818"></trkpt><trkpt lat="52.44625" lon="6.22808"></trkpt><trkpt lat="52.44626" lon="6.22798"></trkpt><trkpt lat="52.44628" lon="6.22791"></trkpt><trkpt lat="52.4463" lon="6.22785"></trkpt><trkpt lat="52.44633" lon="6.22779"></trkpt><trkpt lat="52.44639" lon="6.22768"></trkpt><trkpt lat="52.44677" lon="6.22722"></trkpt><trkpt lat="52.44739" lon="6.22643"></trkpt><trkpt lat="52.44764" lon="6.22605"></trkpt><trkpt lat="52.44799" lon="6.2255"></trkpt><trkpt lat="52.4483" lon="6.22488"></trkpt><trkpt lat="52.44849" lon="6.22448"></trkpt><trkpt lat="52.44874" lon="6.22395"></trkpt><trkpt lat="52.44879" lon="6.22381"></trkpt><trkpt lat="52.44882" lon="6.22366"></trkpt><trkpt lat="52.44927" lon="6.22109"></trkpt><trkpt lat="52.44953" lon="6.21985"></trkpt><trkpt lat="52.4496" lon="6.21947"></trkpt><trkpt lat="52.44964" lon="6.21908"></trkpt><trkpt lat="52.44968" lon="6.2182"></trkpt><trkpt lat="52.44973" lon="6.21721"></trkpt><trkpt lat="52.44977" lon="6.2164"></trkpt><trkpt lat="52.44978" lon="6.21616"></trkpt><trkpt lat="52.44978" lon="6.21588"></trkpt><trkpt lat="52.44979" lon="6.21552"></trkpt><trkpt lat="52.44981" lon="6.21528"></trkpt><trkpt lat="52.44983" lon="6.21505"></trkpt><trkpt lat="52.44986" lon="6.21474"></trkpt><trkpt lat="52.44991" lon="6.21442"></trkpt><trkpt lat="52.44995" lon="6.21417"></trkpt><trkpt lat="52.44999" lon="6.21398"></trkpt><trkpt lat="52.45002" lon="6.2138"></trkpt><trkpt lat="52.45006" lon="6.21364"></trkpt><trkpt lat="52.45016" lon="6.21329"></trkpt><trkpt lat="52.4502" lon="6.21312"></trkpt><trkpt lat="52.45021" lon="6.21303"></trkpt><trkpt lat="52.45022" lon="6.21296"></trkpt><trkpt lat="52.45022" lon="6.21289"></trkpt><trkpt lat="52.45022" lon="6.21248"></trkpt><trkpt lat="52.45022" lon="6.21206"></trkpt><trkpt lat="52.45022" lon="6.21191"></trkpt><trkpt lat="52.45022" lon="6.21175"></trkpt><trkpt lat="52.45023" lon="6.21162"></trkpt><trkpt lat="52.45025" lon="6.21149"></trkpt><trkpt lat="52.45028" lon="6.21138"></trkpt><trkpt lat="52.45038" lon="6.21102"></trkpt><trkpt lat="52.45066" lon="6.21016"></trkpt><trkpt lat="52.45072" lon="6.20983"></trkpt><trkpt lat="52.45073" lon="6.20941"></trkpt><trkpt lat="52.45069" lon="6.20888"></trkpt><trkpt lat="52.45057" lon="6.2079"></trkpt><trkpt lat="52.45055" lon="6.20775"></trkpt><trkpt lat="52.45053" lon="6.20743"></trkpt><trkpt lat="52.45053" lon="6.20692"></trkpt><trkpt lat="52.45056" lon="6.20646"></trkpt><trkpt lat="52.45061" lon="6.20594"></trkpt><trkpt lat="52.45079" lon="6.20463"></trkpt><trkpt lat="52.45078" lon="6.20445"></trkpt><trkpt lat="52.45073" lon="6.20433"></trkpt><trkpt lat="52.45028" lon="6.20394"></trkpt><trkpt lat="52.45025" lon="6.2039"></trkpt><trkpt lat="52.45023" lon="6.20386"></trkpt><trkpt lat="52.4502" lon="6.2038"></trkpt><trkpt lat="52.45018" lon="6.20373"></trkpt><trkpt lat="52.45017" lon="6.20366"></trkpt><trkpt lat="52.45017" lon="6.20354"></trkpt><trkpt lat="52.45018" lon="6.20342"></trkpt><trkpt lat="52.45055" lon="6.20168"></trkpt><trkpt lat="52.45102" lon="6.19946"></trkpt><trkpt lat="52.45104" lon="6.19936"></trkpt><trkpt lat="52.45105" lon="6.19929"></trkpt><trkpt lat="52.45106" lon="6.19916"></trkpt><trkpt lat="52.45106" lon="6.19903"></trkpt><trkpt lat="52.451" lon="6.19787"></trkpt><trkpt lat="52.45099" lon="6.19767"></trkpt><trkpt lat="52.451" lon="6.19751"></trkpt><trkpt lat="52.45101" lon="6.19737"></trkpt><trkpt lat="52.45102" lon="6.19728"></trkpt><trkpt lat="52.45104" lon="6.1972"></trkpt><trkpt lat="52.45122" lon="6.19628"></trkpt><trkpt lat="52.45157" lon="6.19458"></trkpt><trkpt lat="52.4516" lon="6.19441"></trkpt><trkpt lat="52.45161" lon="6.19427"></trkpt><trkpt lat="52.4517" lon="6.19347"></trkpt><trkpt lat="52.45176" lon="6.19291"></trkpt><trkpt lat="52.45179" lon="6.19272"></trkpt><trkpt lat="52.45181" lon="6.19256"></trkpt><trkpt lat="52.45185" lon="6.19241"></trkpt><trkpt lat="52.45217" lon="6.19139"></trkpt><trkpt lat="52.4522" lon="6.19132"></trkpt><trkpt lat="52.45243" lon="6.19065"></trkpt><trkpt lat="52.45255" lon="6.1903"></trkpt><trkpt lat="52.45263" lon="6.19008"></trkpt><trkpt lat="52.45271" lon="6.18991"></trkpt><trkpt lat="52.45307" lon="6.18945"></trkpt><trkpt lat="52.45324" lon="6.18917"></trkpt><trkpt lat="52.45339" lon="6.18886"></trkpt><trkpt lat="52.45354" lon="6.18855"></trkpt><trkpt lat="52.4538" lon="6.18795"></trkpt><trkpt lat="52.45384" lon="6.18786"></trkpt><trkpt lat="52.45423" lon="6.18691"></trkpt><trkpt lat="52.45465" lon="6.18598"></trkpt><trkpt lat="52.45472" lon="6.18581"></trkpt><trkpt lat="52.45478" lon="6.18563"></trkpt><trkpt lat="52.45484" lon="6.18539"></trkpt><trkpt lat="52.45487" lon="6.18527"></trkpt><trkpt lat="52.45489" lon="6.18511"></trkpt><trkpt lat="52.45491" lon="6.18495"></trkpt><trkpt lat="52.45498" lon="6.18433"></trkpt><trkpt lat="52.45504" lon="6.18382"></trkpt><trkpt lat="52.45512" lon="6.18335"></trkpt><trkpt lat="52.45519" lon="6.18298"></trkpt><trkpt lat="52.45525" lon="6.18272"></trkpt><trkpt lat="52.4553" lon="6.18249"></trkpt><trkpt lat="52.45554" lon="6.18173"></trkpt><trkpt lat="52.45558" lon="6.18159"></trkpt><trkpt lat="52.45586" lon="6.18065"></trkpt><trkpt lat="52.45602" lon="6.18016"></trkpt><trkpt lat="52.45618" lon="6.17968"></trkpt><trkpt lat="52.45622" lon="6.17957"></trkpt><trkpt lat="52.45637" lon="6.17918"></trkpt><trkpt lat="52.45641" lon="6.17907"></trkpt><trkpt lat="52.45645" lon="6.17895"></trkpt><trkpt lat="52.45646" lon="6.17888"></trkpt><trkpt lat="52.45651" lon="6.17864"></trkpt><trkpt lat="52.45653" lon="6.17853"></trkpt><trkpt lat="52.45655" lon="6.17846"></trkpt><trkpt lat="52.45657" lon="6.1784"></trkpt><trkpt lat="52.4566" lon="6.17834"></trkpt><trkpt lat="52.45663" lon="6.1783"></trkpt><trkpt lat="52.45671" lon="6.17819"></trkpt><trkpt lat="52.45683" lon="6.17807"></trkpt><trkpt lat="52.45699" lon="6.17793"></trkpt><trkpt lat="52.4572" lon="6.17775"></trkpt><trkpt lat="52.45731" lon="6.17763"></trkpt><trkpt lat="52.45765" lon="6.17734"></trkpt><trkpt lat="52.45785" lon="6.17713"></trkpt><trkpt lat="52.45805" lon="6.17691"></trkpt><trkpt lat="52.45813" lon="6.17677"></trkpt><trkpt lat="52.45816" lon="6.17669"></trkpt><trkpt lat="52.45819" lon="6.17662"></trkpt><trkpt lat="52.45821" lon="6.17656"></trkpt><trkpt lat="52.45822" lon="6.17649"></trkpt><trkpt lat="52.45846" lon="6.17551"></trkpt><trkpt lat="52.45846" lon="6.17545"></trkpt><trkpt lat="52.45846" lon="6.1754"></trkpt><trkpt lat="52.45846" lon="6.17536"></trkpt><trkpt lat="52.45846" lon="6.17531"></trkpt><trkpt lat="52.45847" lon="6.17526"></trkpt><trkpt lat="52.45848" lon="6.17523"></trkpt><trkpt lat="52.45849" lon="6.1752"></trkpt><trkpt lat="52.45851" lon="6.17517"></trkpt><trkpt lat="52.45854" lon="6.17514"></trkpt><trkpt lat="52.45856" lon="6.1751"></trkpt><trkpt lat="52.45858" lon="6.17508"></trkpt><trkpt lat="52.4586" lon="6.17502"></trkpt><trkpt lat="52.45871" lon="6.1747"></trkpt><trkpt lat="52.45881" lon="6.17437"></trkpt><trkpt lat="52.45886" lon="6.17419"></trkpt><trkpt lat="52.45896" lon="6.17374"></trkpt><trkpt lat="52.45899" lon="6.17358"></trkpt><trkpt lat="52.45902" lon="6.17341"></trkpt><trkpt lat="52.45909" lon="6.17293"></trkpt><trkpt lat="52.45912" lon="6.17268"></trkpt><trkpt lat="52.45917" lon="6.1724"></trkpt><trkpt lat="52.45925" lon="6.17199"></trkpt><trkpt lat="52.45933" lon="6.17162"></trkpt><trkpt lat="52.45939" lon="6.17128"></trkpt><trkpt lat="52.45937" lon="6.17108"></trkpt><trkpt lat="52.45938" lon="6.17098"></trkpt><trkpt lat="52.45939" lon="6.1709"></trkpt><trkpt lat="52.45942" lon="6.17082"></trkpt><trkpt lat="52.45945" lon="6.17074"></trkpt><trkpt lat="52.45948" lon="6.17068"></trkpt><trkpt lat="52.45951" lon="6.17061"></trkpt><trkpt lat="52.45953" lon="6.17052"></trkpt><trkpt lat="52.45955" lon="6.17043"></trkpt><trkpt lat="52.45956" lon="6.17033"></trkpt><trkpt lat="52.45959" lon="6.17011"></trkpt><trkpt lat="52.45965" lon="6.16971"></trkpt><trkpt lat="52.45971" lon="6.16928"></trkpt><trkpt lat="52.45975" lon="6.169"></trkpt><trkpt lat="52.4599" lon="6.16798"></trkpt><trkpt lat="52.4599" lon="6.16789"></trkpt><trkpt lat="52.4599" lon="6.1678"></trkpt><trkpt lat="52.4599" lon="6.16774"></trkpt><trkpt lat="52.45989" lon="6.16767"></trkpt><trkpt lat="52.46005" lon="6.16753"></trkpt><trkpt lat="52.46007" lon="6.1674"></trkpt><trkpt lat="52.46009" lon="6.16725"></trkpt><trkpt lat="52.46013" lon="6.16695"></trkpt><trkpt lat="52.46018" lon="6.16644"></trkpt><trkpt lat="52.4602" lon="6.16617"></trkpt><trkpt lat="52.46022" lon="6.16589"></trkpt><trkpt lat="52.46033" lon="6.16488"></trkpt><trkpt lat="52.46044" lon="6.16302"></trkpt><trkpt lat="52.46049" lon="6.16185"></trkpt><trkpt lat="52.46058" lon="6.15986"></trkpt><trkpt lat="52.46056" lon="6.15907"></trkpt><trkpt lat="52.46066" lon="6.15679"></trkpt><trkpt lat="52.46066" lon="6.15677"></trkpt><trkpt lat="52.46073" lon="6.15623"></trkpt><trkpt lat="52.46076" lon="6.15543"></trkpt><trkpt lat="52.46079" lon="6.1547"></trkpt><trkpt lat="52.46081" lon="6.15436"></trkpt><trkpt lat="52.46084" lon="6.15412"></trkpt><trkpt lat="52.46116" lon="6.15301"></trkpt><trkpt lat="52.46126" lon="6.15264"></trkpt><trkpt lat="52.4613" lon="6.15246"></trkpt><trkpt lat="52.46132" lon="6.15228"></trkpt><trkpt lat="52.46133" lon="6.15208"></trkpt><trkpt lat="52.46132" lon="6.15187"></trkpt><trkpt lat="52.46132" lon="6.15176"></trkpt><trkpt lat="52.46151" lon="6.15166"></trkpt><trkpt lat="52.46172" lon="6.15148"></trkpt><trkpt lat="52.46226" lon="6.15086"></trkpt><trkpt lat="52.46248" lon="6.15056"></trkpt><trkpt lat="52.46273" lon="6.15023"></trkpt><trkpt lat="52.46342" lon="6.14957"></trkpt><trkpt lat="52.46369" lon="6.14937"></trkpt><trkpt lat="52.46448" lon="6.14873"></trkpt><trkpt lat="52.46505" lon="6.14818"></trkpt><trkpt lat="52.46551" lon="6.14762"></trkpt><trkpt lat="52.4659" lon="6.14713"></trkpt><trkpt lat="52.46671" lon="6.14589"></trkpt><trkpt lat="52.46688" lon="6.14558"></trkpt><trkpt lat="52.46705" lon="6.14526"></trkpt><trkpt lat="52.46743" lon="6.14444"></trkpt><trkpt lat="52.46763" lon="6.14398"></trkpt><trkpt lat="52.46778" lon="6.14364"></trkpt><trkpt lat="52.46811" lon="6.14302"></trkpt><trkpt lat="52.46819" lon="6.14288"></trkpt><trkpt lat="52.46808" lon="6.14274"></trkpt><trkpt lat="52.46788" lon="6.14241"></trkpt><trkpt lat="52.46785" lon="6.14235"></trkpt><trkpt lat="52.46781" lon="6.1423"></trkpt><trkpt lat="52.46779" lon="6.14226"></trkpt><trkpt lat="52.46776" lon="6.1422"></trkpt><trkpt lat="52.46774" lon="6.14215"></trkpt><trkpt lat="52.46772" lon="6.14209"></trkpt><trkpt lat="52.46771" lon="6.14205"></trkpt><trkpt lat="52.4677" lon="6.142"></trkpt><trkpt lat="52.4677" lon="6.14192"></trkpt><trkpt lat="52.46771" lon="6.14184"></trkpt><trkpt lat="52.46772" lon="6.14178"></trkpt><trkpt lat="52.46774" lon="6.14172"></trkpt><trkpt lat="52.46781" lon="6.14146"></trkpt><trkpt lat="52.46784" lon="6.14132"></trkpt><trkpt lat="52.46786" lon="6.14125"></trkpt><trkpt lat="52.46787" lon="6.14117"></trkpt><trkpt lat="52.46789" lon="6.14106"></trkpt><trkpt lat="52.4679" lon="6.14098"></trkpt><trkpt lat="52.4679" lon="6.1409"></trkpt><trkpt lat="52.4679" lon="6.14081"></trkpt><trkpt lat="52.4679" lon="6.14074"></trkpt><trkpt lat="52.4679" lon="6.14067"></trkpt><trkpt lat="52.46786" lon="6.1404"></trkpt><trkpt lat="52.46785" lon="6.14027"></trkpt><trkpt lat="52.46784" lon="6.1402"></trkpt><trkpt lat="52.46784" lon="6.14012"></trkpt><trkpt lat="52.46785" lon="6.14005"></trkpt><trkpt lat="52.46785" lon="6.14"></trkpt><trkpt lat="52.46786" lon="6.13995"></trkpt><trkpt lat="52.46787" lon="6.13989"></trkpt><trkpt lat="52.46789" lon="6.13983"></trkpt><trkpt lat="52.468" lon="6.1395"></trkpt><trkpt lat="52.46811" lon="6.13918"></trkpt><trkpt lat="52.46822" lon="6.13885"></trkpt><trkpt lat="52.46825" lon="6.13877"></trkpt><trkpt lat="52.46829" lon="6.13869"></trkpt><trkpt lat="52.46832" lon="6.13863"></trkpt><trkpt lat="52.46836" lon="6.13857"></trkpt><trkpt lat="52.46841" lon="6.13848"></trkpt><trkpt lat="52.46878" lon="6.13804"></trkpt><trkpt lat="52.46882" lon="6.13798"></trkpt><trkpt lat="52.46888" lon="6.13788"></trkpt><trkpt lat="52.46893" lon="6.13779"></trkpt><trkpt lat="52.46898" lon="6.13768"></trkpt><trkpt lat="52.46902" lon="6.13756"></trkpt><trkpt lat="52.46906" lon="6.13742"></trkpt><trkpt lat="52.46908" lon="6.1373"></trkpt><trkpt lat="52.4691" lon="6.13717"></trkpt><trkpt lat="52.4691" lon="6.13709"></trkpt><trkpt lat="52.46911" lon="6.137"></trkpt><trkpt lat="52.46913" lon="6.13588"></trkpt><trkpt lat="52.46913" lon="6.13577"></trkpt><trkpt lat="52.46914" lon="6.13567"></trkpt><trkpt lat="52.46915" lon="6.13556"></trkpt><trkpt lat="52.46916" lon="6.13546"></trkpt><trkpt lat="52.46918" lon="6.13536"></trkpt><trkpt lat="52.46921" lon="6.13528"></trkpt><trkpt lat="52.46923" lon="6.1352"></trkpt><trkpt lat="52.46928" lon="6.13508"></trkpt><trkpt lat="52.46951" lon="6.13449"></trkpt><trkpt lat="52.46955" lon="6.13441"></trkpt><trkpt lat="52.46958" lon="6.13431"></trkpt><trkpt lat="52.46959" lon="6.13427"></trkpt><trkpt lat="52.46961" lon="6.13418"></trkpt><trkpt lat="52.46967" lon="6.13395"></trkpt><trkpt lat="52.46969" lon="6.13384"></trkpt><trkpt lat="52.46971" lon="6.13376"></trkpt><trkpt lat="52.46972" lon="6.13364"></trkpt><trkpt lat="52.46973" lon="6.13353"></trkpt><trkpt lat="52.46974" lon="6.13342"></trkpt><trkpt lat="52.46974" lon="6.13331"></trkpt><trkpt lat="52.46975" lon="6.1332"></trkpt><trkpt lat="52.46976" lon="6.13314"></trkpt><trkpt lat="52.46977" lon="6.13306"></trkpt><trkpt lat="52.4698" lon="6.13297"></trkpt><trkpt lat="52.46986" lon="6.13282"></trkpt><trkpt lat="52.46998" lon="6.13255"></trkpt><trkpt lat="52.47008" lon="6.1323"></trkpt><trkpt lat="52.47023" lon="6.13194"></trkpt><trkpt lat="52.47027" lon="6.13186"></trkpt><trkpt lat="52.47036" lon="6.13165"></trkpt><trkpt lat="52.47038" lon="6.13159"></trkpt><trkpt lat="52.47041" lon="6.13154"></trkpt><trkpt lat="52.47045" lon="6.1315"></trkpt><trkpt lat="52.47049" lon="6.13148"></trkpt><trkpt lat="52.47061" lon="6.13142"></trkpt><trkpt lat="52.47077" lon="6.13135"></trkpt><trkpt lat="52.47092" lon="6.13126"></trkpt><trkpt lat="52.47097" lon="6.13123"></trkpt><trkpt lat="52.47122" lon="6.13104"></trkpt><trkpt lat="52.47153" lon="6.13075"></trkpt><trkpt lat="52.47183" lon="6.13037"></trkpt><trkpt lat="52.4719" lon="6.13027"></trkpt><trkpt lat="52.47199" lon="6.13014"></trkpt><trkpt lat="52.4725" lon="6.1294"></trkpt><trkpt lat="52.47265" lon="6.12918"></trkpt><trkpt lat="52.47281" lon="6.12895"></trkpt><trkpt lat="52.47296" lon="6.12873"></trkpt><trkpt lat="52.47312" lon="6.12852"></trkpt><trkpt lat="52.47322" lon="6.12838"></trkpt><trkpt lat="52.47332" lon="6.12824"></trkpt><trkpt lat="52.47343" lon="6.12808"></trkpt><trkpt lat="52.47334" lon="6.12792"></trkpt><trkpt lat="52.47323" lon="6.12777"></trkpt><trkpt lat="52.47321" lon="6.12771"></trkpt><trkpt lat="52.47302" lon="6.12743"></trkpt><trkpt lat="52.47303" lon="6.12609"></trkpt><trkpt lat="52.47305" lon="6.1246"></trkpt><trkpt lat="52.47306" lon="6.12361"></trkpt><trkpt lat="52.47306" lon="6.12262"></trkpt><trkpt lat="52.47307" lon="6.1225"></trkpt><trkpt lat="52.47307" lon="6.12229"></trkpt><trkpt lat="52.47307" lon="6.12211"></trkpt><trkpt lat="52.47308" lon="6.12114"></trkpt><trkpt lat="52.4731" lon="6.12014"></trkpt><trkpt lat="52.47308" lon="6.11922"></trkpt><trkpt lat="52.47336" lon="6.11914"></trkpt><trkpt lat="52.47354" lon="6.11908"></trkpt><trkpt lat="52.47392" lon="6.11894"></trkpt><trkpt lat="52.47413" lon="6.11888"></trkpt><trkpt lat="52.47421" lon="6.11885"></trkpt><trkpt lat="52.4753" lon="6.11786"></trkpt><trkpt lat="52.47534" lon="6.11782"></trkpt></trkseg></trk></gpx>