<?xml version="1.0" encoding="UTF-8"?>
<gpx version="1.1" creator="https://www.hammerhead.io" xmlns:xsi="http://www.w3.org/2001/XMLSchema-instance" xmlns="http://www.topografix.com/GPX/1/1" xsi:schemaLocation="http://www.topografix.com/GPX/1/1 http://www.topografix.com/GPX/1/1/gpx.xsd"><metadata><name>NoordOost 40k</name><time>0001-01-01T00:00:00Z</time></metadata><trk><name>NoordOost 40k</name><trkseg><trkpt lat="53.22692" lon="6.56067"></trkpt><trkpt lat="53.22676" lon="6.56077"></trkpt><trkpt lat="53.2267" lon="6.5608"></trkpt><trkpt lat="53.22667" lon="6.56083"></trkpt><trkpt lat="53.22663" lon="6.56085"></trkpt><trkpt lat="53.22666" lon="6.5609"></trkpt><trkpt lat="53.22666" lon="6.56092"></trkpt><trkpt lat="53.2267" lon="6.56099"></trkpt><trkpt lat="53.22687" lon="6.56139"></trkpt><trkpt lat="53.22688" lon="6.56141"></trkpt><trkpt lat="53.22689" lon="6.56144"></trkpt><trkpt lat="53.2269" lon="6.56148"></trkpt><trkpt lat="53.22691" lon="6.56151"></trkpt><trkpt lat="53.22694" lon="6.56163"></trkpt><trkpt lat="53.22698" lon="6.5616"></trkpt><trkpt lat="53.22701" lon="6.56157"></trkpt><trkpt lat="53.22707" lon="6.56152"></trkpt><trkpt lat="53.22709" lon="6.56151"></trkpt><trkpt lat="53.22742" lon="6.56126"></trkpt><trkpt lat="53.22751" lon="6.56121"></trkpt><trkpt lat="53.22759" lon="6.56116"></trkpt><trkpt lat="53.22768" lon="6.56111"></trkpt><trkpt lat="53.22841" lon="6.56081"></trkpt><trkpt lat="53.22845" lon="6.5608"></trkpt><trkpt lat="53.22849" lon="6.56079"></trkpt><trkpt lat="53.22855" lon="6.56078"></trkpt><trkpt lat="53.22856" lon="6.56078"></trkpt><trkpt lat="53.22858" lon="6.56077"></trkpt><trkpt lat="53.22859" lon="6.56078"></trkpt><trkpt lat="53.22862" lon="6.5608"></trkpt><trkpt lat="53.22864" lon="6.56081"></trkpt><trkpt lat="53.22879" lon="6.5609"></trkpt><trkpt lat="53.22883" lon="6.56092"></trkpt><trkpt lat="53.22891" lon="6.56101"></trkpt><trkpt lat="53.22921" lon="6.56131"></trkpt><trkpt lat="53.23005" lon="6.56194"></trkpt><trkpt lat="53.23148" lon="6.56299"></trkpt><trkpt lat="53.23151" lon="6.56301"></trkpt><trkpt lat="53.23167" lon="6.56311"></trkpt><trkpt lat="53.23176" lon="6.56319"></trkpt><trkpt lat="53.23184" lon="6.56325"></trkpt><trkpt lat="53.23249" lon="6.56374"></trkpt><trkpt lat="53.23282" lon="6.56398"></trkpt><trkpt lat="53.23283" lon="6.56399"></trkpt><trkpt lat="53.23329" lon="6.56433"></trkpt><trkpt lat="53.23341" lon="6.56443"></trkpt><trkpt lat="53.23385" lon="6.56479"></trkpt><trkpt lat="53.23432" lon="6.56521"></trkpt><trkpt lat="53.23581" lon="6.56622"></trkpt><trkpt lat="53.23588" lon="6.56627"></trkpt><trkpt lat="53.23593" lon="6.56623"></trkpt><trkpt lat="53.23594" lon="6.56626"></trkpt><trkpt lat="53.23596" lon="6.56629"></trkpt><trkpt lat="53.23598" lon="6.56634"></trkpt><trkpt lat="53.2361" lon="6.56598"></trkpt><trkpt lat="53.23613" lon="6.56594"></trkpt><trkpt lat="53.23616" lon="6.56594"></trkpt><trkpt lat="53.23727" lon="6.56677"></trkpt><trkpt lat="53.23764" lon="6.56702"></trkpt><trkpt lat="53.23803" lon="6.56729"></trkpt><trkpt lat="53.2383" lon="6.5675"></trkpt><trkpt lat="53.23856" lon="6.56767"></trkpt><trkpt lat="53.23893" lon="6.56784"></trkpt><trkpt lat="53.23948" lon="6.56816"></trkpt><trkpt lat="53.24029" lon="6.56861"></trkpt><trkpt lat="53.24041" lon="6.56867"></trkpt><trkpt lat="53.24075" lon="6.56888"></trkpt><trkpt lat="53.24112" lon="6.56915"></trkpt><trkpt lat="53.24143" lon="6.56941"></trkpt><trkpt lat="53.24168" lon="6.56964"></trkpt><trkpt lat="53.2419" lon="6.56987"></trkpt><trkpt lat="53.24215" lon="6.57014"></trkpt><trkpt lat="53.24241" lon="6.57045"></trkpt><trkpt lat="53.24317" lon="6.57146"></trkpt><trkpt lat="53.24319" lon="6.57151"></trkpt><trkpt lat="53.2432" lon="6.57156"></trkpt><trkpt lat="53.24321" lon="6.57161"></trkpt><trkpt lat="53.24322" lon="6.57167"></trkpt><trkpt lat="53.24322" lon="6.57176"></trkpt><trkpt lat="53.24321" lon="6.57179"></trkpt><trkpt lat="53.24277" lon="6.57274"></trkpt><trkpt lat="53.24277" lon="6.57275"></trkpt><trkpt lat="53.24277" lon="6.57293"></trkpt><trkpt lat="53.24277" lon="6.57303"></trkpt><trkpt lat="53.24277" lon="6.57322"></trkpt><trkpt lat="53.24279" lon="6.57325"></trkpt><trkpt lat="53.24336" lon="6.57401"></trkpt><trkpt lat="53.24377" lon="6.57454"></trkpt><trkpt lat="53.2441" lon="6.57492"></trkpt><trkpt lat="53.24427" lon="6.57512"></trkpt><trkpt lat="53.24444" lon="6.5753"></trkpt><trkpt lat="53.24467" lon="6.57551"></trkpt><trkpt lat="53.24489" lon="6.57571"></trkpt><trkpt lat="53.24553" lon="6.5763"></trkpt><trkpt lat="53.24693" lon="6.57762"></trkpt><trkpt lat="53.24781" lon="6.57841"></trkpt><trkpt lat="53.24829" lon="6.57887"></trkpt><trkpt lat="53.2489" lon="6.57943"></trkpt><trkpt lat="53.24895" lon="6.57948"></trkpt><trkpt lat="53.24943" lon="6.58001"></trkpt><trkpt lat="53.24978" lon="6.58041"></trkpt><trkpt lat="53.25002" lon="6.58067"></trkpt><trkpt lat="53.25014" lon="6.5808"></trkpt><trkpt lat="53.25054" lon="6.58122"></trkpt><trkpt lat="53.25062" lon="6.58132"></trkpt><trkpt lat="53.25084" lon="6.58155"></trkpt><trkpt lat="53.25085" lon="6.58157"></trkpt><trkpt lat="53.25111" lon="6.58183"></trkpt><trkpt lat="53.252" lon="6.58285"></trkpt><trkpt lat="53.25272" lon="6.5836"></trkpt><trkpt lat="53.25475" lon="6.58588"></trkpt><trkpt lat="53.25535" lon="6.5865"></trkpt><trkpt lat="53.25566" lon="6.58664"></trkpt><trkpt lat="53.25611" lon="6.58685"></trkpt><trkpt lat="53.2565" lon="6.58696"></trkpt><trkpt lat="53.25738" lon="6.58714"></trkpt><trkpt lat="53.2602" lon="6.58773"></trkpt><trkpt lat="53.26039" lon="6.58772"></trkpt><trkpt lat="53.2608" lon="6.58783"></trkpt><trkpt lat="53.26089" lon="6.5879"></trkpt><trkpt lat="53.26096" lon="6.58794"></trkpt><trkpt lat="53.26101" lon="6.58796"></trkpt><trkpt lat="53.26109" lon="6.58796"></trkpt><trkpt lat="53.26136" lon="6.5881"></trkpt><trkpt lat="53.26194" lon="6.58851"></trkpt><trkpt lat="53.26228" lon="6.5888"></trkpt><trkpt lat="53.26242" lon="6.58887"></trkpt><trkpt lat="53.26268" lon="6.58908"></trkpt><trkpt lat="53.26355" lon="6.58982"></trkpt><trkpt lat="53.26367" lon="6.58992"></trkpt><trkpt lat="53.26373" lon="6.59"></trkpt><trkpt lat="53.26373" lon="6.59007"></trkpt><trkpt lat="53.26374" lon="6.59011"></trkpt><trkpt lat="53.26377" lon="6.5902"></trkpt><trkpt lat="53.26383" lon="6.59028"></trkpt><trkpt lat="53.26385" lon="6.5903"></trkpt><trkpt lat="53.26388" lon="6.59032"></trkpt><trkpt lat="53.26388" lon="6.59032"></trkpt><trkpt lat="53.26394" lon="6.59033"></trkpt><trkpt lat="53.26397" lon="6.59034"></trkpt><trkpt lat="53.26408" lon="6.59029"></trkpt><trkpt lat="53.26413" lon="6.59031"></trkpt><trkpt lat="53.26445" lon="6.59055"></trkpt><trkpt lat="53.26528" lon="6.59124"></trkpt><trkpt lat="53.26578" lon="6.59166"></trkpt><trkpt lat="53.2659" lon="6.59176"></trkpt><trkpt lat="53.26655" lon="6.59229"></trkpt><trkpt lat="53.26692" lon="6.59259"></trkpt><trkpt lat="53.26735" lon="6.59294"></trkpt><trkpt lat="53.2674" lon="6.59298"></trkpt><trkpt lat="53.26749" lon="6.59301"></trkpt><trkpt lat="53.26754" lon="6.59304"></trkpt><trkpt lat="53.26757" lon="6.59307"></trkpt><trkpt lat="53.26763" lon="6.59317"></trkpt><trkpt lat="53.26847" lon="6.59386"></trkpt><trkpt lat="53.26921" lon="6.5944"></trkpt><trkpt lat="53.26963" lon="6.59474"></trkpt><trkpt lat="53.26974" lon="6.59483"></trkpt><trkpt lat="53.26976" lon="6.59485"></trkpt><trkpt lat="53.26978" lon="6.59485"></trkpt><trkpt lat="53.2698" lon="6.59485"></trkpt><trkpt lat="53.26983" lon="6.59484"></trkpt><trkpt lat="53.26986" lon="6.59481"></trkpt><trkpt lat="53.26991" lon="6.59473"></trkpt><trkpt lat="53.26997" lon="6.59463"></trkpt><trkpt lat="53.27002" lon="6.59455"></trkpt><trkpt lat="53.27006" lon="6.5945"></trkpt><trkpt lat="53.27008" lon="6.59449"></trkpt><trkpt lat="53.2701" lon="6.59448"></trkpt><trkpt lat="53.27012" lon="6.59449"></trkpt><trkpt lat="53.27014" lon="6.59451"></trkpt><trkpt lat="53.27041" lon="6.59497"></trkpt><trkpt lat="53.27058" lon="6.59521"></trkpt><trkpt lat="53.27086" lon="6.59545"></trkpt><trkpt lat="53.27141" lon="6.59589"></trkpt><trkpt lat="53.2721" lon="6.59646"></trkpt><trkpt lat="53.27253" lon="6.59681"></trkpt><trkpt lat="53.27256" lon="6.59683"></trkpt><trkpt lat="53.27312" lon="6.59729"></trkpt><trkpt lat="53.27379" lon="6.59783"></trkpt><trkpt lat="53.27487" lon="6.59871"></trkpt><trkpt lat="53.27579" lon="6.59946"></trkpt><trkpt lat="53.27677" lon="6.60026"></trkpt><trkpt lat="53.27716" lon="6.60066"></trkpt><trkpt lat="53.27738" lon="6.60097"></trkpt><trkpt lat="53.2775" lon="6.60114"></trkpt><trkpt lat="53.2777" lon="6.60146"></trkpt><trkpt lat="53.27777" lon="6.60161"></trkpt><trkpt lat="53.27792" lon="6.6016"></trkpt><trkpt lat="53.27792" lon="6.60171"></trkpt><trkpt lat="53.27793" lon="6.60187"></trkpt><trkpt lat="53.27793" lon="6.6019"></trkpt><trkpt lat="53.27794" lon="6.60192"></trkpt><trkpt lat="53.27795" lon="6.60194"></trkpt><trkpt lat="53.27797" lon="6.60195"></trkpt><trkpt lat="53.2781" lon="6.60196"></trkpt><trkpt lat="53.27994" lon="6.60154"></trkpt><trkpt lat="53.28156" lon="6.60121"></trkpt><trkpt lat="53.28206" lon="6.6011"></trkpt><trkpt lat="53.28366" lon="6.60066"></trkpt><trkpt lat="53.28438" lon="6.60051"></trkpt><trkpt lat="53.28546" lon="6.60031"></trkpt><trkpt lat="53.28571" lon="6.60026"></trkpt><trkpt lat="53.28598" lon="6.60022"></trkpt><trkpt lat="53.28684" lon="6.59998"></trkpt><trkpt lat="53.28732" lon="6.59982"></trkpt><trkpt lat="53.28944" lon="6.59931"></trkpt><trkpt lat="53.29159" lon="6.59878"></trkpt><trkpt lat="53.2925" lon="6.59854"></trkpt><trkpt lat="53.29323" lon="6.59837"></trkpt><trkpt lat="53.29326" lon="6.59837"></trkpt><trkpt lat="53.29328" lon="6.59836"></trkpt><trkpt lat="53.2933" lon="6.59837"></trkpt><trkpt lat="53.29332" lon="6.59837"></trkpt><trkpt lat="53.29339" lon="6.5984"></trkpt><trkpt lat="53.29342" lon="6.59841"></trkpt><trkpt lat="53.29346" lon="6.59843"></trkpt><trkpt lat="53.29351" lon="6.59845"></trkpt><trkpt lat="53.29353" lon="6.59845"></trkpt><trkpt lat="53.29354" lon="6.59845"></trkpt><trkpt lat="53.2936" lon="6.59843"></trkpt><trkpt lat="53.29366" lon="6.59841"></trkpt><trkpt lat="53.29367" lon="6.59841"></trkpt><trkpt lat="53.29369" lon="6.59839"></trkpt><trkpt lat="53.29371" lon="6.59836"></trkpt><trkpt lat="53.29374" lon="6.59834"></trkpt><trkpt lat="53.29382" lon="6.59823"></trkpt><trkpt lat="53.29396" lon="6.59819"></trkpt><trkpt lat="53.29547" lon="6.59782"></trkpt><trkpt lat="53.29638" lon="6.59761"></trkpt><trkpt lat="53.29659" lon="6.59755"></trkpt><trkpt lat="53.29723" lon="6.59734"></trkpt><trkpt lat="53.29776" lon="6.59719"></trkpt><trkpt lat="53.29961" lon="6.59678"></trkpt><trkpt lat="53.29962" lon="6.59686"></trkpt><trkpt lat="53.29984" lon="6.59681"></trkpt><trkpt lat="53.29995" lon="6.59678"></trkpt><trkpt lat="53.30007" lon="6.59678"></trkpt><trkpt lat="53.30012" lon="6.59677"></trkpt><trkpt lat="53.30018" lon="6.59676"></trkpt><trkpt lat="53.30023" lon="6.59673"></trkpt><trkpt lat="53.30027" lon="6.59668"></trkpt><trkpt lat="53.30034" lon="6.59657"></trkpt><trkpt lat="53.30039" lon="6.59648"></trkpt><trkpt lat="53.30044" lon="6.59644"></trkpt><trkpt lat="53.30049" lon="6.59642"></trkpt><trkpt lat="53.30056" lon="6.59641"></trkpt><trkpt lat="53.30183" lon="6.59613"></trkpt><trkpt lat="53.30213" lon="6.59607"></trkpt><trkpt lat="53.30244" lon="6.59599"></trkpt><trkpt lat="53.3029" lon="6.59587"></trkpt><trkpt lat="53.30332" lon="6.59576"></trkpt><trkpt lat="53.30366" lon="6.59565"></trkpt><trkpt lat="53.30399" lon="6.59555"></trkpt><trkpt lat="53.30413" lon="6.59558"></trkpt><trkpt lat="53.30425" lon="6.59562"></trkpt><trkpt lat="53.30438" lon="6.59572"></trkpt><trkpt lat="53.30448" lon="6.59583"></trkpt><trkpt lat="53.30467" lon="6.59616"></trkpt><trkpt lat="53.30552" lon="6.59763"></trkpt><trkpt lat="53.30609" lon="6.59866"></trkpt><trkpt lat="53.30638" lon="6.59911"></trkpt><trkpt lat="53.30652" lon="6.5993"></trkpt><trkpt lat="53.30731" lon="6.60021"></trkpt><trkpt lat="53.30751" lon="6.60052"></trkpt><trkpt lat="53.30757" lon="6.60057"></trkpt><trkpt lat="53.30763" lon="6.6006"></trkpt><trkpt lat="53.30769" lon="6.60062"></trkpt><trkpt lat="53.30773" lon="6.60063"></trkpt><trkpt lat="53.30778" lon="6.60063"></trkpt><trkpt lat="53.30783" lon="6.60062"></trkpt><trkpt lat="53.30799" lon="6.60056"></trkpt><trkpt lat="53.30823" lon="6.60045"></trkpt><trkpt lat="53.30846" lon="6.60036"></trkpt><trkpt lat="53.30863" lon="6.6003"></trkpt><trkpt lat="53.30991" lon="6.59992"></trkpt><trkpt lat="53.31074" lon="6.59961"></trkpt><trkpt lat="53.31079" lon="6.59959"></trkpt><trkpt lat="53.31195" lon="6.59915"></trkpt><trkpt lat="53.31291" lon="6.59878"></trkpt><trkpt lat="53.31312" lon="6.5987"></trkpt><trkpt lat="53.31383" lon="6.5984"></trkpt><trkpt lat="53.31443" lon="6.59823"></trkpt><trkpt lat="53.31459" lon="6.5982"></trkpt><trkpt lat="53.3148" lon="6.59814"></trkpt><trkpt lat="53.31507" lon="6.59804"></trkpt><trkpt lat="53.31512" lon="6.59802"></trkpt><trkpt lat="53.32325" lon="6.59497"></trkpt><trkpt lat="53.3252" lon="6.59426"></trkpt><trkpt lat="53.32716" lon="6.59352"></trkpt><trkpt lat="53.32867" lon="6.59302"></trkpt><trkpt lat="53.32921" lon="6.59281"></trkpt><trkpt lat="53.33055" lon="6.59227"></trkpt><trkpt lat="53.33139" lon="6.59197"></trkpt><trkpt lat="53.3314" lon="6.59197"></trkpt><trkpt lat="53.33155" lon="6.59192"></trkpt><trkpt lat="53.33226" lon="6.59169"></trkpt><trkpt lat="53.33282" lon="6.59146"></trkpt><trkpt lat="53.3329" lon="6.59142"></trkpt><trkpt lat="53.33339" lon="6.59121"></trkpt><trkpt lat="53.33426" lon="6.59091"></trkpt><trkpt lat="53.33441" lon="6.59084"></trkpt><trkpt lat="53.33449" lon="6.59078"></trkpt><trkpt lat="53.33491" lon="6.59033"></trkpt><trkpt lat="53.33499" lon="6.59022"></trkpt><trkpt lat="53.33519" lon="6.58993"></trkpt><trkpt lat="53.33524" lon="6.58976"></trkpt><trkpt lat="53.33531" lon="6.58946"></trkpt><trkpt lat="53.33534" lon="6.58932"></trkpt><trkpt lat="53.33537" lon="6.58897"></trkpt><trkpt lat="53.33537" lon="6.5889"></trkpt><trkpt lat="53.33532" lon="6.58832"></trkpt><trkpt lat="53.33555" lon="6.58827"></trkpt><trkpt lat="53.33559" lon="6.58826"></trkpt><trkpt lat="53.33576" lon="6.58818"></trkpt><trkpt lat="53.33579" lon="6.58818"></trkpt><trkpt lat="53.33592" lon="6.58829"></trkpt><trkpt lat="53.33601" lon="6.58837"></trkpt><trkpt lat="53.33601" lon="6.58846"></trkpt><trkpt lat="53.33603" lon="6.58864"></trkpt><trkpt lat="53.33606" lon="6.58882"></trkpt><trkpt lat="53.33612" lon="6.58921"></trkpt><trkpt lat="53.33619" lon="6.5895"></trkpt><trkpt lat="53.33623" lon="6.5897"></trkpt><trkpt lat="53.33624" lon="6.59013"></trkpt><trkpt lat="53.33623" lon="6.59049"></trkpt><trkpt lat="53.33622" lon="6.59076"></trkpt><trkpt lat="53.33615" lon="6.59169"></trkpt><trkpt lat="53.33612" lon="6.59212"></trkpt><trkpt lat="53.33614" lon="6.59245"></trkpt><trkpt lat="53.33614" lon="6.59247"></trkpt><trkpt lat="53.33618" lon="6.59297"></trkpt><trkpt lat="53.33634" lon="6.59433"></trkpt><trkpt lat="53.33642" lon="6.59482"></trkpt><trkpt lat="53.33652" lon="6.59533"></trkpt><trkpt lat="53.33655" lon="6.5955"></trkpt><trkpt lat="53.33657" lon="6.59566"></trkpt><trkpt lat="53.33659" lon="6.59581"></trkpt><trkpt lat="53.3366" lon="6.59595"></trkpt><trkpt lat="53.33662" lon="6.59695"></trkpt><trkpt lat="53.33663" lon="6.59714"></trkpt><trkpt lat="53.33665" lon="6.59733"></trkpt><trkpt lat="53.33669" lon="6.59758"></trkpt><trkpt lat="53.3368" lon="6.5985"></trkpt><trkpt lat="53.33703" lon="6.6002"></trkpt><trkpt lat="53.33709" lon="6.60058"></trkpt><trkpt lat="53.33714" lon="6.6009"></trkpt><trkpt lat="53.33731" lon="6.60301"></trkpt><trkpt lat="53.33753" lon="6.60544"></trkpt><trkpt lat="53.3376" lon="6.60607"></trkpt><trkpt lat="53.33761" lon="6.60628"></trkpt><trkpt lat="53.33762" lon="6.60641"></trkpt><trkpt lat="53.33762" lon="6.60653"></trkpt><trkpt lat="53.3376" lon="6.60762"></trkpt><trkpt lat="53.33761" lon="6.60806"></trkpt><trkpt lat="53.33768" lon="6.60941"></trkpt><trkpt lat="53.3377" lon="6.60975"></trkpt><trkpt lat="53.33777" lon="6.61061"></trkpt><trkpt lat="53.33779" lon="6.61088"></trkpt><trkpt lat="53.3378" lon="6.61113"></trkpt><trkpt lat="53.33782" lon="6.61182"></trkpt><trkpt lat="53.33787" lon="6.61369"></trkpt><trkpt lat="53.33789" lon="6.61429"></trkpt><trkpt lat="53.33794" lon="6.61518"></trkpt><trkpt lat="53.33801" lon="6.6162"></trkpt><trkpt lat="53.33824" lon="6.6184"></trkpt><trkpt lat="53.33827" lon="6.61867"></trkpt><trkpt lat="53.33831" lon="6.61895"></trkpt><trkpt lat="53.33832" lon="6.61912"></trkpt><trkpt lat="53.33834" lon="6.6193"></trkpt><trkpt lat="53.33834" lon="6.61941"></trkpt><trkpt lat="53.33834" lon="6.61953"></trkpt><trkpt lat="53.33834" lon="6.62"></trkpt><trkpt lat="53.33836" lon="6.62055"></trkpt><trkpt lat="53.33836" lon="6.62073"></trkpt><trkpt lat="53.33838" lon="6.6209"></trkpt><trkpt lat="53.3384" lon="6.62115"></trkpt><trkpt lat="53.33843" lon="6.62148"></trkpt><trkpt lat="53.33873" lon="6.62418"></trkpt><trkpt lat="53.33889" lon="6.62587"></trkpt><trkpt lat="53.33904" lon="6.62755"></trkpt><trkpt lat="53.33905" lon="6.62762"></trkpt><trkpt lat="53.33906" lon="6.6277"></trkpt><trkpt lat="53.33908" lon="6.62779"></trkpt><trkpt lat="53.33899" lon="6.62784"></trkpt><trkpt lat="53.33895" lon="6.62784"></trkpt><trkpt lat="53.33892" lon="6.62783"></trkpt><trkpt lat="53.33889" lon="6.62781"></trkpt><trkpt lat="53.33886" lon="6.62779"></trkpt><trkpt lat="53.33881" lon="6.62772"></trkpt><trkpt lat="53.33863" lon="6.62746"></trkpt><trkpt lat="53.33857" lon="6.62737"></trkpt><trkpt lat="53.33853" lon="6.62733"></trkpt><trkpt lat="53.33846" lon="6.62727"></trkpt><trkpt lat="53.3384" lon="6.62723"></trkpt><trkpt lat="53.33834" lon="6.62717"></trkpt><trkpt lat="53.33804" lon="6.62697"></trkpt><trkpt lat="53.33796" lon="6.62692"></trkpt><trkpt lat="53.33789" lon="6.62687"></trkpt><trkpt lat="53.33777" lon="6.62677"></trkpt><trkpt lat="53.33773" lon="6.62689"></trkpt><trkpt lat="53.33759" lon="6.62735"></trkpt><trkpt lat="53.33723" lon="6.62865"></trkpt><trkpt lat="53.33702" lon="6.62942"></trkpt><trkpt lat="53.33698" lon="6.62955"></trkpt><trkpt lat="53.33696" lon="6.62969"></trkpt><trkpt lat="53.33693" lon="6.62987"></trkpt><trkpt lat="53.33691" lon="6.63007"></trkpt><trkpt lat="53.33689" lon="6.63028"></trkpt><trkpt lat="53.33688" lon="6.63046"></trkpt><trkpt lat="53.33689" lon="6.63067"></trkpt><trkpt lat="53.33697" lon="6.63238"></trkpt><trkpt lat="53.33709" lon="6.63495"></trkpt><trkpt lat="53.33714" lon="6.6359"></trkpt><trkpt lat="53.33715" lon="6.63628"></trkpt><trkpt lat="53.33732" lon="6.63632"></trkpt><trkpt lat="53.3374" lon="6.63633"></trkpt><trkpt lat="53.33746" lon="6.63633"></trkpt><trkpt lat="53.3375" lon="6.63633"></trkpt><trkpt lat="53.33755" lon="6.63632"></trkpt><trkpt lat="53.33759" lon="6.63631"></trkpt><trkpt lat="53.33764" lon="6.63629"></trkpt><trkpt lat="53.33769" lon="6.63626"></trkpt><trkpt lat="53.33775" lon="6.63623"></trkpt><trkpt lat="53.33791" lon="6.63615"></trkpt><trkpt lat="53.33797" lon="6.63612"></trkpt><trkpt lat="53.33803" lon="6.6361"></trkpt><trkpt lat="53.33816" lon="6.63606"></trkpt><trkpt lat="53.33828" lon="6.63603"></trkpt><trkpt lat="53.33841" lon="6.63601"></trkpt><trkpt lat="53.33869" lon="6.63599"></trkpt><trkpt lat="53.33898" lon="6.63597"></trkpt><trkpt lat="53.33914" lon="6.63595"></trkpt><trkpt lat="53.33928" lon="6.63591"></trkpt><trkpt lat="53.33952" lon="6.63583"></trkpt><trkpt lat="53.33956" lon="6.63619"></trkpt><trkpt lat="53.33965" lon="6.63727"></trkpt><trkpt lat="53.33971" lon="6.63776"></trkpt><trkpt lat="53.33974" lon="6.63807"></trkpt><trkpt lat="53.33975" lon="6.63821"></trkpt><trkpt lat="53.33976" lon="6.63829"></trkpt><trkpt lat="53.33976" lon="6.63837"></trkpt><trkpt lat="53.33977" lon="6.63855"></trkpt><trkpt lat="53.33977" lon="6.63865"></trkpt><trkpt lat="53.33977" lon="6.63892"></trkpt><trkpt lat="53.33977" lon="6.63941"></trkpt><trkpt lat="53.33977" lon="6.63989"></trkpt><trkpt lat="53.33977" lon="6.6402"></trkpt><trkpt lat="53.33977" lon="6.64025"></trkpt><trkpt lat="53.33976" lon="6.64028"></trkpt><trkpt lat="53.33976" lon="6.6403"></trkpt><trkpt lat="53.33976" lon="6.64033"></trkpt><trkpt lat="53.33975" lon="6.64034"></trkpt><trkpt lat="53.33974" lon="6.64037"></trkpt><trkpt lat="53.33972" lon="6.64041"></trkpt><trkpt lat="53.33966" lon="6.64051"></trkpt><trkpt lat="53.33957" lon="6.64068"></trkpt><trkpt lat="53.3395" lon="6.6408"></trkpt><trkpt lat="53.33946" lon="6.64088"></trkpt><trkpt lat="53.33945" lon="6.6409"></trkpt><trkpt lat="53.33944" lon="6.64092"></trkpt><trkpt lat="53.33943" lon="6.64097"></trkpt><trkpt lat="53.33942" lon="6.64102"></trkpt><trkpt lat="53.33942" lon="6.64106"></trkpt><trkpt lat="53.33942" lon="6.64111"></trkpt><trkpt lat="53.33943" lon="6.64128"></trkpt><trkpt lat="53.33945" lon="6.64167"></trkpt><trkpt lat="53.33947" lon="6.64206"></trkpt><trkpt lat="53.33949" lon="6.64232"></trkpt><trkpt lat="53.33951" lon="6.64249"></trkpt><trkpt lat="53.33951" lon="6.64254"></trkpt><trkpt lat="53.33952" lon="6.64267"></trkpt><trkpt lat="53.33953" lon="6.6428"></trkpt><trkpt lat="53.33953" lon="6.64293"></trkpt><trkpt lat="53.33952" lon="6.64309"></trkpt><trkpt lat="53.33951" lon="6.64326"></trkpt><trkpt lat="53.33948" lon="6.64351"></trkpt><trkpt lat="53.33945" lon="6.64375"></trkpt><trkpt lat="53.33944" lon="6.64387"></trkpt><trkpt lat="53.33942" lon="6.64398"></trkpt><trkpt lat="53.33942" lon="6.64404"></trkpt><trkpt lat="53.33942" lon="6.64411"></trkpt><trkpt lat="53.33941" lon="6.64418"></trkpt><trkpt lat="53.33941" lon="6.64422"></trkpt><trkpt lat="53.33942" lon="6.64426"></trkpt><trkpt lat="53.33942" lon="6.6443"></trkpt><trkpt lat="53.33942" lon="6.64432"></trkpt><trkpt lat="53.33942" lon="6.64434"></trkpt><trkpt lat="53.33943" lon="6.64438"></trkpt><trkpt lat="53.33944" lon="6.64442"></trkpt><trkpt lat="53.33945" lon="6.64444"></trkpt><trkpt lat="53.33946" lon="6.64446"></trkpt><trkpt lat="53.33947" lon="6.64448"></trkpt><trkpt lat="53.33949" lon="6.6445"></trkpt><trkpt lat="53.33955" lon="6.64455"></trkpt><trkpt lat="53.33957" lon="6.64458"></trkpt><trkpt lat="53.33959" lon="6.64461"></trkpt><trkpt lat="53.3396" lon="6.64464"></trkpt><trkpt lat="53.33961" lon="6.64468"></trkpt><trkpt lat="53.33962" lon="6.64473"></trkpt><trkpt lat="53.33963" lon="6.64475"></trkpt><trkpt lat="53.33963" lon="6.64478"></trkpt><trkpt lat="53.33963" lon="6.64482"></trkpt><trkpt lat="53.33964" lon="6.64487"></trkpt><trkpt lat="53.33964" lon="6.64497"></trkpt><trkpt lat="53.33964" lon="6.64519"></trkpt><trkpt lat="53.33964" lon="6.64525"></trkpt><trkpt lat="53.33964" lon="6.64532"></trkpt><trkpt lat="53.33965" lon="6.64539"></trkpt><trkpt lat="53.33965" lon="6.64545"></trkpt><trkpt lat="53.33969" lon="6.64576"></trkpt><trkpt lat="53.3397" lon="6.64581"></trkpt><trkpt lat="53.33971" lon="6.64587"></trkpt><trkpt lat="53.33973" lon="6.64601"></trkpt><trkpt lat="53.33976" lon="6.64615"></trkpt><trkpt lat="53.3398" lon="6.6463"></trkpt><trkpt lat="53.33983" lon="6.64639"></trkpt><trkpt lat="53.33984" lon="6.64641"></trkpt><trkpt lat="53.33986" lon="6.64644"></trkpt><trkpt lat="53.33987" lon="6.64645"></trkpt><trkpt lat="53.33989" lon="6.64646"></trkpt><trkpt lat="53.33991" lon="6.64647"></trkpt><trkpt lat="53.33993" lon="6.64646"></trkpt><trkpt lat="53.34002" lon="6.64644"></trkpt><trkpt lat="53.34005" lon="6.64643"></trkpt><trkpt lat="53.34008" lon="6.64643"></trkpt><trkpt lat="53.3401" lon="6.64643"></trkpt><trkpt lat="53.34012" lon="6.64644"></trkpt><trkpt lat="53.34015" lon="6.64645"></trkpt><trkpt lat="53.34017" lon="6.64647"></trkpt><trkpt lat="53.34018" lon="6.64648"></trkpt><trkpt lat="53.34018" lon="6.6465"></trkpt><trkpt lat="53.34019" lon="6.64653"></trkpt><trkpt lat="53.34021" lon="6.64659"></trkpt><trkpt lat="53.34023" lon="6.64668"></trkpt><trkpt lat="53.34025" lon="6.64677"></trkpt><trkpt lat="53.34028" lon="6.64693"></trkpt><trkpt lat="53.34029" lon="6.64704"></trkpt><trkpt lat="53.3403" lon="6.64709"></trkpt><trkpt lat="53.3403" lon="6.64715"></trkpt><trkpt lat="53.3403" lon="6.64721"></trkpt><trkpt lat="53.34029" lon="6.64727"></trkpt><trkpt lat="53.34029" lon="6.64732"></trkpt><trkpt lat="53.34028" lon="6.64738"></trkpt><trkpt lat="53.34026" lon="6.64747"></trkpt><trkpt lat="53.34024" lon="6.64756"></trkpt><trkpt lat="53.34023" lon="6.64765"></trkpt><trkpt lat="53.3402" lon="6.64774"></trkpt><trkpt lat="53.34016" lon="6.64792"></trkpt><trkpt lat="53.34005" lon="6.64825"></trkpt><trkpt lat="53.34002" lon="6.64835"></trkpt><trkpt lat="53.34001" lon="6.64838"></trkpt><trkpt lat="53.34001" lon="6.64842"></trkpt><trkpt lat="53.34001" lon="6.64847"></trkpt><trkpt lat="53.34001" lon="6.64856"></trkpt><trkpt lat="53.33999" lon="6.64857"></trkpt><trkpt lat="53.33997" lon="6.6486"></trkpt><trkpt lat="53.33987" lon="6.64871"></trkpt><trkpt lat="53.33984" lon="6.64877"></trkpt><trkpt lat="53.33973" lon="6.64897"></trkpt><trkpt lat="53.33959" lon="6.64923"></trkpt><trkpt lat="53.3393" lon="6.64988"></trkpt><trkpt lat="53.33902" lon="6.65055"></trkpt><trkpt lat="53.3389" lon="6.65088"></trkpt><trkpt lat="53.33882" lon="6.65111"></trkpt><trkpt lat="53.33877" lon="6.65126"></trkpt><trkpt lat="53.33872" lon="6.65145"></trkpt><trkpt lat="53.33868" lon="6.65167"></trkpt><trkpt lat="53.33864" lon="6.65189"></trkpt><trkpt lat="53.33862" lon="6.65205"></trkpt><trkpt lat="53.33861" lon="6.65221"></trkpt><trkpt lat="53.3386" lon="6.65234"></trkpt><trkpt lat="53.33859" lon="6.65248"></trkpt><trkpt lat="53.33859" lon="6.65262"></trkpt><trkpt lat="53.33859" lon="6.65275"></trkpt><trkpt lat="53.33859" lon="6.65305"></trkpt><trkpt lat="53.33859" lon="6.65344"></trkpt><trkpt lat="53.33859" lon="6.65351"></trkpt><trkpt lat="53.3386" lon="6.65356"></trkpt><trkpt lat="53.33861" lon="6.6536"></trkpt><trkpt lat="53.33862" lon="6.65365"></trkpt><trkpt lat="53.33864" lon="6.65368"></trkpt><trkpt lat="53.33866" lon="6.65371"></trkpt><trkpt lat="53.33871" lon="6.65375"></trkpt><trkpt lat="53.3387" lon="6.6538"></trkpt><trkpt lat="53.3387" lon="6.65384"></trkpt><trkpt lat="53.3387" lon="6.65388"></trkpt><trkpt lat="53.3387" lon="6.65393"></trkpt><trkpt lat="53.33871" lon="6.65396"></trkpt><trkpt lat="53.33872" lon="6.65401"></trkpt><trkpt lat="53.33873" lon="6.65404"></trkpt><trkpt lat="53.33874" lon="6.6541"></trkpt><trkpt lat="53.33874" lon="6.65416"></trkpt><trkpt lat="53.33873" lon="6.65421"></trkpt><trkpt lat="53.33873" lon="6.65424"></trkpt><trkpt lat="53.33872" lon="6.65428"></trkpt><trkpt lat="53.33862" lon="6.65476"></trkpt><trkpt lat="53.33855" lon="6.65514"></trkpt><trkpt lat="53.33847" lon="6.65556"></trkpt><trkpt lat="53.33838" lon="6.65601"></trkpt><trkpt lat="53.33824" lon="6.6567"></trkpt><trkpt lat="53.33811" lon="6.65733"></trkpt><trkpt lat="53.33768" lon="6.65924"></trkpt><trkpt lat="53.33739" lon="6.66052"></trkpt><trkpt lat="53.33711" lon="6.66181"></trkpt><trkpt lat="53.33694" lon="6.66257"></trkpt><trkpt lat="53.33686" lon="6.66295"></trkpt><trkpt lat="53.33678" lon="6.66334"></trkpt><trkpt lat="53.33669" lon="6.66378"></trkpt><trkpt lat="53.3366" lon="6.66423"></trkpt><trkpt lat="53.33651" lon="6.66469"></trkpt><trkpt lat="53.33641" lon="6.66528"></trkpt><trkpt lat="53.33631" lon="6.66588"></trkpt><trkpt lat="53.33617" lon="6.66675"></trkpt><trkpt lat="53.33601" lon="6.66767"></trkpt><trkpt lat="53.33592" lon="6.66822"></trkpt><trkpt lat="53.3358" lon="6.66898"></trkpt><trkpt lat="53.33567" lon="6.66976"></trkpt><trkpt lat="53.33522" lon="6.67251"></trkpt><trkpt lat="53.3352" lon="6.67268"></trkpt><trkpt lat="53.33519" lon="6.67282"></trkpt><trkpt lat="53.33513" lon="6.67315"></trkpt><trkpt lat="53.33504" lon="6.67367"></trkpt><trkpt lat="53.335" lon="6.67392"></trkpt><trkpt lat="53.33495" lon="6.67415"></trkpt><trkpt lat="53.33477" lon="6.67521"></trkpt><trkpt lat="53.3346" lon="6.67628"></trkpt><trkpt lat="53.33424" lon="6.67842"></trkpt><trkpt lat="53.3343" lon="6.67848"></trkpt><trkpt lat="53.33434" lon="6.67853"></trkpt><trkpt lat="53.33435" lon="6.67854"></trkpt><trkpt lat="53.33435" lon="6.67855"></trkpt><trkpt lat="53.33435" lon="6.67859"></trkpt><trkpt lat="53.33433" lon="6.67871"></trkpt><trkpt lat="53.33428" lon="6.67899"></trkpt><trkpt lat="53.33423" lon="6.67919"></trkpt><trkpt lat="53.33418" lon="6.67939"></trkpt><trkpt lat="53.33412" lon="6.67964"></trkpt><trkpt lat="53.33405" lon="6.6799"></trkpt><trkpt lat="53.33397" lon="6.6803"></trkpt><trkpt lat="53.3339" lon="6.68069"></trkpt><trkpt lat="53.33368" lon="6.68181"></trkpt><trkpt lat="53.33364" lon="6.68199"></trkpt><trkpt lat="53.33361" lon="6.68214"></trkpt><trkpt lat="53.33358" lon="6.68224"></trkpt><trkpt lat="53.33355" lon="6.68239"></trkpt><trkpt lat="53.33354" lon="6.68257"></trkpt><trkpt lat="53.3335" lon="6.68295"></trkpt><trkpt lat="53.33349" lon="6.68329"></trkpt><trkpt lat="53.33349" lon="6.68355"></trkpt><trkpt lat="53.33349" lon="6.68366"></trkpt><trkpt lat="53.33351" lon="6.68386"></trkpt><trkpt lat="53.33355" lon="6.68425"></trkpt><trkpt lat="53.33358" lon="6.68479"></trkpt><trkpt lat="53.33359" lon="6.68494"></trkpt><trkpt lat="53.33359" lon="6.68515"></trkpt><trkpt lat="53.33359" lon="6.68563"></trkpt><trkpt lat="53.33356" lon="6.68594"></trkpt><trkpt lat="53.33352" lon="6.68621"></trkpt><trkpt lat="53.33345" lon="6.6865"></trkpt><trkpt lat="53.33341" lon="6.68665"></trkpt><trkpt lat="53.33328" lon="6.68717"></trkpt><trkpt lat="53.33316" lon="6.68759"></trkpt><trkpt lat="53.33304" lon="6.68808"></trkpt><trkpt lat="53.33298" lon="6.68839"></trkpt><trkpt lat="53.33282" lon="6.68932"></trkpt><trkpt lat="53.33275" lon="6.68981"></trkpt><trkpt lat="53.3327" lon="6.69023"></trkpt><trkpt lat="53.33258" lon="6.69103"></trkpt><trkpt lat="53.33248" lon="6.69136"></trkpt><trkpt lat="53.33219" lon="6.69227"></trkpt><trkpt lat="53.33207" lon="6.69276"></trkpt><trkpt lat="53.33204" lon="6.69293"></trkpt><trkpt lat="53.33201" lon="6.69316"></trkpt><trkpt lat="53.332" lon="6.69325"></trkpt><trkpt lat="53.33197" lon="6.69338"></trkpt><trkpt lat="53.33195" lon="6.6935"></trkpt><trkpt lat="53.33193" lon="6.69359"></trkpt><trkpt lat="53.33189" lon="6.69375"></trkpt><trkpt lat="53.33178" lon="6.69447"></trkpt><trkpt lat="53.33167" lon="6.69515"></trkpt><trkpt lat="53.33148" lon="6.69615"></trkpt><trkpt lat="53.33137" lon="6.69694"></trkpt><trkpt lat="53.33133" lon="6.69714"></trkpt><trkpt lat="53.33124" lon="6.69775"></trkpt><trkpt lat="53.33122" lon="6.69803"></trkpt><trkpt lat="53.33122" lon="6.69837"></trkpt><trkpt lat="53.33122" lon="6.69862"></trkpt><trkpt lat="53.3312" lon="6.69884"></trkpt><trkpt lat="53.33118" lon="6.69904"></trkpt><trkpt lat="53.33115" lon="6.69925"></trkpt><trkpt lat="53.33097" lon="6.70024"></trkpt><trkpt lat="53.33089" lon="6.70082"></trkpt><trkpt lat="53.33079" lon="6.70128"></trkpt><trkpt lat="53.33069" lon="6.70163"></trkpt><trkpt lat="53.33051" lon="6.70205"></trkpt><trkpt lat="53.33039" lon="6.70232"></trkpt><trkpt lat="53.3303" lon="6.70249"></trkpt><trkpt lat="53.33009" lon="6.70274"></trkpt><trkpt lat="53.33001" lon="6.70282"></trkpt><trkpt lat="53.32971" lon="6.70321"></trkpt><trkpt lat="53.32958" lon="6.70332"></trkpt><trkpt lat="53.32953" lon="6.70338"></trkpt><trkpt lat="53.32948" lon="6.70345"></trkpt><trkpt lat="53.32945" lon="6.70356"></trkpt><trkpt lat="53.32946" lon="6.70364"></trkpt><trkpt lat="53.32953" lon="6.70401"></trkpt><trkpt lat="53.32954" lon="6.70417"></trkpt><trkpt lat="53.32954" lon="6.70434"></trkpt><trkpt lat="53.32952" lon="6.7047"></trkpt><trkpt lat="53.32943" lon="6.70525"></trkpt><trkpt lat="53.32936" lon="6.7055"></trkpt><trkpt lat="53.3293" lon="6.70571"></trkpt><trkpt lat="53.32922" lon="6.70596"></trkpt><trkpt lat="53.32911" lon="6.70616"></trkpt><trkpt lat="53.3289" lon="6.7065"></trkpt><trkpt lat="53.32857" lon="6.70702"></trkpt><trkpt lat="53.32806" lon="6.70787"></trkpt><trkpt lat="53.3277" lon="6.7086"></trkpt><trkpt lat="53.32766" lon="6.70871"></trkpt><trkpt lat="53.32762" lon="6.70882"></trkpt><trkpt lat="53.3276" lon="6.70895"></trkpt><trkpt lat="53.32758" lon="6.70906"></trkpt><trkpt lat="53.32757" lon="6.70918"></trkpt><trkpt lat="53.32757" lon="6.70929"></trkpt><trkpt lat="53.3275" lon="6.7093"></trkpt><trkpt lat="53.32732" lon="6.70928"></trkpt><trkpt lat="53.32727" lon="6.70929"></trkpt><trkpt lat="53.32723" lon="6.70932"></trkpt><trkpt lat="53.3272" lon="6.70935"></trkpt><trkpt lat="53.32717" lon="6.7094"></trkpt><trkpt lat="53.32686" lon="6.71011"></trkpt><trkpt lat="53.32668" lon="6.71063"></trkpt><trkpt lat="53.32665" lon="6.71072"></trkpt><trkpt lat="53.32658" lon="6.71102"></trkpt><trkpt lat="53.32646" lon="6.71137"></trkpt><trkpt lat="53.32635" lon="6.71159"></trkpt><trkpt lat="53.32622" lon="6.71178"></trkpt><trkpt lat="53.32605" lon="6.71198"></trkpt><trkpt lat="53.32565" lon="6.71236"></trkpt><trkpt lat="53.32502" lon="6.71271"></trkpt><trkpt lat="53.32458" lon="6.71292"></trkpt><trkpt lat="53.32394" lon="6.71307"></trkpt><trkpt lat="53.32369" lon="6.71315"></trkpt><trkpt lat="53.32347" lon="6.71332"></trkpt><trkpt lat="53.32339" lon="6.71341"></trkpt><trkpt lat="53.32314" lon="6.71391"></trkpt><trkpt lat="53.32301" lon="6.7143"></trkpt><trkpt lat="53.32288" lon="6.71453"></trkpt><trkpt lat="53.32269" lon="6.71467"></trkpt><trkpt lat="53.32082" lon="6.71586"></trkpt><trkpt lat="53.3205" lon="6.71614"></trkpt><trkpt lat="53.32031" lon="6.71637"></trkpt><trkpt lat="53.31974" lon="6.71752"></trkpt><trkpt lat="53.31957" lon="6.71794"></trkpt><trkpt lat="53.31953" lon="6.71806"></trkpt><trkpt lat="53.31946" lon="6.71824"></trkpt><trkpt lat="53.31927" lon="6.71852"></trkpt><trkpt lat="53.31896" lon="6.71875"></trkpt><trkpt lat="53.31886" lon="6.71874"></trkpt><trkpt lat="53.31878" lon="6.71872"></trkpt><trkpt lat="53.31835" lon="6.71802"></trkpt><trkpt lat="53.31814" lon="6.71776"></trkpt><trkpt lat="53.31762" lon="6.71723"></trkpt><trkpt lat="53.3161" lon="6.71581"></trkpt><trkpt lat="53.31541" lon="6.71517"></trkpt><trkpt lat="53.3153" lon="6.71511"></trkpt><trkpt lat="53.31519" lon="6.71509"></trkpt><trkpt lat="53.31442" lon="6.71511"></trkpt><trkpt lat="53.31433" lon="6.71506"></trkpt><trkpt lat="53.30999" lon="6.71027"></trkpt><trkpt lat="53.30988" lon="6.71017"></trkpt><trkpt lat="53.30976" lon="6.71049"></trkpt><trkpt lat="53.30946" lon="6.71201"></trkpt><trkpt lat="53.30937" lon="6.71241"></trkpt><trkpt lat="53.30929" lon="6.71264"></trkpt><trkpt lat="53.30902" lon="6.71319"></trkpt><trkpt lat="53.30874" lon="6.71375"></trkpt><trkpt lat="53.30865" lon="6.71395"></trkpt><trkpt lat="53.30858" lon="6.7142"></trkpt><trkpt lat="53.3083" lon="6.71565"></trkpt><trkpt lat="53.30813" lon="6.71668"></trkpt><trkpt lat="53.30807" lon="6.71695"></trkpt><trkpt lat="53.30763" lon="6.7186"></trkpt><trkpt lat="53.30756" lon="6.71892"></trkpt><trkpt lat="53.30737" lon="6.71959"></trkpt><trkpt lat="53.30712" lon="6.72035"></trkpt><trkpt lat="53.30703" lon="6.72057"></trkpt><trkpt lat="53.30675" lon="6.72106"></trkpt><trkpt lat="53.30636" lon="6.72168"></trkpt><trkpt lat="53.30603" lon="6.7224"></trkpt><trkpt lat="53.30589" lon="6.72285"></trkpt><trkpt lat="53.3058" lon="6.7233"></trkpt><trkpt lat="53.3057" lon="6.72367"></trkpt><trkpt lat="53.30548" lon="6.72428"></trkpt><trkpt lat="53.30485" lon="6.72624"></trkpt><trkpt lat="53.3048" lon="6.72637"></trkpt><trkpt lat="53.30474" lon="6.72644"></trkpt><trkpt lat="53.30467" lon="6.72651"></trkpt><trkpt lat="53.30459" lon="6.72653"></trkpt><trkpt lat="53.30452" lon="6.72651"></trkpt><trkpt lat="53.30441" lon="6.72644"></trkpt><trkpt lat="53.30423" lon="6.72628"></trkpt><trkpt lat="53.30403" lon="6.72608"></trkpt><trkpt lat="53.30374" lon="6.72579"></trkpt><trkpt lat="53.30359" lon="6.72566"></trkpt><trkpt lat="53.30351" lon="6.72559"></trkpt><trkpt lat="53.30342" lon="6.72555"></trkpt><trkpt lat="53.30326" lon="6.72547"></trkpt><trkpt lat="53.3031" lon="6.72543"></trkpt><trkpt lat="53.30289" lon="6.72539"></trkpt><trkpt lat="53.30266" lon="6.72541"></trkpt><trkpt lat="53.30247" lon="6.72544"></trkpt><trkpt lat="53.30224" lon="6.72555"></trkpt><trkpt lat="53.30199" lon="6.72571"></trkpt><trkpt lat="53.30166" lon="6.72593"></trkpt><trkpt lat="53.30141" lon="6.72609"></trkpt><trkpt lat="53.3006" lon="6.7264"></trkpt><trkpt lat="53.30053" lon="6.72644"></trkpt><trkpt lat="53.30046" lon="6.72648"></trkpt><trkpt lat="53.3004" lon="6.72654"></trkpt><trkpt lat="53.30034" lon="6.72661"></trkpt><trkpt lat="53.30024" lon="6.72675"></trkpt><trkpt lat="53.30018" lon="6.72689"></trkpt><trkpt lat="53.30014" lon="6.72685"></trkpt><trkpt lat="53.3001" lon="6.72683"></trkpt><trkpt lat="53.30005" lon="6.72684"></trkpt><trkpt lat="53.30001" lon="6.72686"></trkpt><trkpt lat="53.29998" lon="6.72689"></trkpt><trkpt lat="53.29996" lon="6.72694"></trkpt><trkpt lat="53.29994" lon="6.72699"></trkpt><trkpt lat="53.29993" lon="6.72704"></trkpt><trkpt lat="53.29993" lon="6.72711"></trkpt><trkpt lat="53.29993" lon="6.72718"></trkpt><trkpt lat="53.29995" lon="6.72724"></trkpt><trkpt lat="53.29998" lon="6.72729"></trkpt><trkpt lat="53.29991" lon="6.72741"></trkpt><trkpt lat="53.29985" lon="6.72748"></trkpt><trkpt lat="53.29976" lon="6.7276"></trkpt><trkpt lat="53.29967" lon="6.72768"></trkpt><trkpt lat="53.29959" lon="6.72774"></trkpt><trkpt lat="53.29952" lon="6.72778"></trkpt><trkpt lat="53.29946" lon="6.72784"></trkpt><trkpt lat="53.29938" lon="6.72791"></trkpt><trkpt lat="53.2993" lon="6.72802"></trkpt><trkpt lat="53.29915" lon="6.72827"></trkpt><trkpt lat="53.29888" lon="6.72874"></trkpt><trkpt lat="53.29863" lon="6.72917"></trkpt><trkpt lat="53.29862" lon="6.72921"></trkpt><trkpt lat="53.29861" lon="6.72925"></trkpt><trkpt lat="53.2986" lon="6.72928"></trkpt><trkpt lat="53.2986" lon="6.72931"></trkpt><trkpt lat="53.29861" lon="6.72939"></trkpt><trkpt lat="53.29861" lon="6.72944"></trkpt><trkpt lat="53.29852" lon="6.72948"></trkpt><trkpt lat="53.29841" lon="6.72955"></trkpt><trkpt lat="53.2982" lon="6.7297"></trkpt><trkpt lat="53.29812" lon="6.72975"></trkpt><trkpt lat="53.29806" lon="6.72978"></trkpt><trkpt lat="53.29802" lon="6.72981"></trkpt><trkpt lat="53.29795" lon="6.72984"></trkpt><trkpt lat="53.29783" lon="6.72989"></trkpt><trkpt lat="53.29775" lon="6.72992"></trkpt><trkpt lat="53.29767" lon="6.72995"></trkpt><trkpt lat="53.29756" lon="6.72997"></trkpt><trkpt lat="53.29743" lon="6.72999"></trkpt><trkpt lat="53.29737" lon="6.72999"></trkpt><trkpt lat="53.29724" lon="6.73"></trkpt><trkpt lat="53.29708" lon="6.73"></trkpt><trkpt lat="53.29699" lon="6.73001"></trkpt><trkpt lat="53.29697" lon="6.73001"></trkpt><trkpt lat="53.29695" lon="6.73001"></trkpt><trkpt lat="53.29693" lon="6.73002"></trkpt><trkpt lat="53.29691" lon="6.73003"></trkpt><trkpt lat="53.29687" lon="6.73005"></trkpt><trkpt lat="53.29684" lon="6.73007"></trkpt><trkpt lat="53.29684" lon="6.73011"></trkpt><trkpt lat="53.29684" lon="6.73013"></trkpt><trkpt lat="53.29684" lon="6.73016"></trkpt><trkpt lat="53.29684" lon="6.73019"></trkpt><trkpt lat="53.29682" lon="6.73034"></trkpt><trkpt lat="53.2968" lon="6.73049"></trkpt><trkpt lat="53.29679" lon="6.73056"></trkpt><trkpt lat="53.29678" lon="6.7307"></trkpt><trkpt lat="53.29676" lon="6.7308"></trkpt><trkpt lat="53.29675" lon="6.73086"></trkpt><trkpt lat="53.29673" lon="6.73092"></trkpt><trkpt lat="53.29671" lon="6.73098"></trkpt><trkpt lat="53.29666" lon="6.73107"></trkpt><trkpt lat="53.29652" lon="6.73138"></trkpt><trkpt lat="53.2964" lon="6.73166"></trkpt><trkpt lat="53.29629" lon="6.73191"></trkpt><trkpt lat="53.29625" lon="6.73199"></trkpt><trkpt lat="53.29619" lon="6.7321"></trkpt><trkpt lat="53.29607" lon="6.73227"></trkpt><trkpt lat="53.296" lon="6.73236"></trkpt><trkpt lat="53.29578" lon="6.73259"></trkpt><trkpt lat="53.29568" lon="6.73271"></trkpt><trkpt lat="53.29561" lon="6.7328"></trkpt><trkpt lat="53.29552" lon="6.73293"></trkpt><trkpt lat="53.29529" lon="6.73333"></trkpt><trkpt lat="53.29531" lon="6.73337"></trkpt><trkpt lat="53.29532" lon="6.73341"></trkpt><trkpt lat="53.29535" lon="6.73401"></trkpt><trkpt lat="53.29535" lon="6.73408"></trkpt><trkpt lat="53.29534" lon="6.73414"></trkpt><trkpt lat="53.29533" lon="6.73419"></trkpt><trkpt lat="53.29529" lon="6.73428"></trkpt><trkpt lat="53.29516" lon="6.73451"></trkpt><trkpt lat="53.2951" lon="6.7346"></trkpt><trkpt lat="53.29497" lon="6.73482"></trkpt><trkpt lat="53.29491" lon="6.73489"></trkpt><trkpt lat="53.29487" lon="6.73493"></trkpt><trkpt lat="53.29476" lon="6.73499"></trkpt><trkpt lat="53.2947" lon="6.73502"></trkpt><trkpt lat="53.29464" lon="6.73504"></trkpt><trkpt lat="53.2945" lon="6.73512"></trkpt><trkpt lat="53.29443" lon="6.73517"></trkpt><trkpt lat="53.29436" lon="6.73524"></trkpt><trkpt lat="53.29414" lon="6.73558"></trkpt><trkpt lat="53.29395" lon="6.73586"></trkpt><trkpt lat="53.29389" lon="6.73597"></trkpt><trkpt lat="53.29371" lon="6.73629"></trkpt><trkpt lat="53.29352" lon="6.73661"></trkpt><trkpt lat="53.29308" lon="6.73738"></trkpt><trkpt lat="53.29265" lon="6.7381"></trkpt><trkpt lat="53.29235" lon="6.73863"></trkpt><trkpt lat="53.29223" lon="6.73885"></trkpt><trkpt lat="53.29126" lon="6.7405"></trkpt><trkpt lat="53.29124" lon="6.74058"></trkpt><trkpt lat="53.29107" lon="6.74116"></trkpt><trkpt lat="53.29089" lon="6.74175"></trkpt><trkpt lat="53.29085" lon="6.74193"></trkpt><trkpt lat="53.29082" lon="6.74207"></trkpt><trkpt lat="53.29081" lon="6.74221"></trkpt><trkpt lat="53.29069" lon="6.74333"></trkpt><trkpt lat="53.29065" lon="6.74362"></trkpt><trkpt lat="53.2906" lon="6.74389"></trkpt><trkpt lat="53.29055" lon="6.74408"></trkpt><trkpt lat="53.29042" lon="6.74438"></trkpt><trkpt lat="53.29026" lon="6.74473"></trkpt><trkpt lat="53.29002" lon="6.74517"></trkpt><trkpt lat="53.28989" lon="6.74538"></trkpt><trkpt lat="53.28896" lon="6.7465"></trkpt><trkpt lat="53.28879" lon="6.74674"></trkpt><trkpt lat="53.28868" lon="6.74691"></trkpt><trkpt lat="53.28849" lon="6.74727"></trkpt><trkpt lat="53.28837" lon="6.74754"></trkpt><trkpt lat="53.28831" lon="6.74764"></trkpt><trkpt lat="53.28827" lon="6.74769"></trkpt><trkpt lat="53.28822" lon="6.74774"></trkpt><trkpt lat="53.28815" lon="6.74769"></trkpt><trkpt lat="53.28809" lon="6.74764"></trkpt><trkpt lat="53.28804" lon="6.74759"></trkpt><trkpt lat="53.288" lon="6.74752"></trkpt><trkpt lat="53.28786" lon="6.7473"></trkpt><trkpt lat="53.28763" lon="6.74668"></trkpt><trkpt lat="53.28726" lon="6.74568"></trkpt><trkpt lat="53.28723" lon="6.7457"></trkpt><trkpt lat="53.2872" lon="6.74565"></trkpt><trkpt lat="53.28718" lon="6.74562"></trkpt><trkpt lat="53.28714" lon="6.7456"></trkpt><trkpt lat="53.28711" lon="6.7456"></trkpt><trkpt lat="53.28708" lon="6.74562"></trkpt><trkpt lat="53.28657" lon="6.74623"></trkpt><trkpt lat="53.28651" lon="6.74632"></trkpt><trkpt lat="53.28638" lon="6.74649"></trkpt><trkpt lat="53.28585" lon="6.74732"></trkpt><trkpt lat="53.28582" lon="6.74736"></trkpt><trkpt lat="53.2858" lon="6.74737"></trkpt><trkpt lat="53.28578" lon="6.74734"></trkpt><trkpt lat="53.2845" lon="6.74935"></trkpt><trkpt lat="53.28419" lon="6.74976"></trkpt><trkpt lat="53.2826" lon="6.75191"></trkpt><trkpt lat="53.28233" lon="6.75226"></trkpt><trkpt lat="53.28157" lon="6.7533"></trkpt><trkpt lat="53.28144" lon="6.75345"></trkpt><trkpt lat="53.2812" lon="6.75359"></trkpt><trkpt lat="53.28107" lon="6.75363"></trkpt><trkpt lat="53.28081" lon="6.75364"></trkpt><trkpt lat="53.27995" lon="6.75365"></trkpt><trkpt lat="53.27966" lon="6.75375"></trkpt><trkpt lat="53.27946" lon="6.75395"></trkpt><trkpt lat="53.27926" lon="6.75422"></trkpt><trkpt lat="53.27876" lon="6.75497"></trkpt><trkpt lat="53.2786" lon="6.75531"></trkpt><trkpt lat="53.27833" lon="6.75587"></trkpt><trkpt lat="53.27804" lon="6.7563"></trkpt><trkpt lat="53.27787" lon="6.7565"></trkpt><trkpt lat="53.27755" lon="6.75685"></trkpt><trkpt lat="53.27744" lon="6.75696"></trkpt><trkpt lat="53.27738" lon="6.75701"></trkpt><trkpt lat="53.27744" lon="6.75696"></trkpt><trkpt lat="53.27755" lon="6.75685"></trkpt><trkpt lat="53.27724" lon="6.75594"></trkpt><trkpt lat="53.2751" lon="6.74998"></trkpt><trkpt lat="53.27493" lon="6.74948"></trkpt><trkpt lat="53.2727" lon="6.74326"></trkpt><trkpt lat="53.27194" lon="6.74073"></trkpt><trkpt lat="53.27137" lon="6.73884"></trkpt><trkpt lat="53.27058" lon="6.73624"></trkpt><trkpt lat="53.27036" lon="6.73554"></trkpt><trkpt lat="53.27036" lon="6.73551"></trkpt><trkpt lat="53.27032" lon="6.73538"></trkpt><trkpt lat="53.27013" lon="6.73479"></trkpt><trkpt lat="53.27013" lon="6.73466"></trkpt><trkpt lat="53.27015" lon="6.73451"></trkpt><trkpt lat="53.27002" lon="6.73439"></trkpt><trkpt lat="53.26997" lon="6.73421"></trkpt><trkpt lat="53.26992" lon="6.73419"></trkpt><trkpt lat="53.26987" lon="6.73413"></trkpt><trkpt lat="53.26948" lon="6.73292"></trkpt><trkpt lat="53.26917" lon="6.73206"></trkpt><trkpt lat="53.2686" lon="6.73061"></trkpt><trkpt lat="53.26691" lon="6.72657"></trkpt><trkpt lat="53.26658" lon="6.72575"></trkpt><trkpt lat="53.2661" lon="6.72461"></trkpt><trkpt lat="53.26553" lon="6.72322"></trkpt><trkpt lat="53.26256" lon="6.71606"></trkpt><trkpt lat="53.26206" lon="6.71473"></trkpt><trkpt lat="53.26089" lon="6.71144"></trkpt><trkpt lat="53.25987" lon="6.70858"></trkpt><trkpt lat="53.25908" lon="6.70637"></trkpt><trkpt lat="53.25838" lon="6.70442"></trkpt><trkpt lat="53.25625" lon="6.69847"></trkpt><trkpt lat="53.25531" lon="6.69585"></trkpt><trkpt lat="53.25458" lon="6.69382"></trkpt><trkpt lat="53.25291" lon="6.68913"></trkpt><trkpt lat="53.25196" lon="6.68651"></trkpt><trkpt lat="53.25151" lon="6.68525"></trkpt><trkpt lat="53.24977" lon="6.68036"></trkpt><trkpt lat="53.24838" lon="6.67652"></trkpt><trkpt lat="53.24695" lon="6.67251"></trkpt><trkpt lat="53.24671" lon="6.67184"></trkpt><trkpt lat="53.24551" lon="6.66845"></trkpt><trkpt lat="53.24527" lon="6.66779"></trkpt><trkpt lat="53.24492" lon="6.66693"></trkpt><trkpt lat="53.24471" lon="6.66642"></trkpt><trkpt lat="53.24415" lon="6.66519"></trkpt><trkpt lat="53.24351" lon="6.6638"></trkpt><trkpt lat="53.24271" lon="6.66207"></trkpt><trkpt lat="53.24094" lon="6.65819"></trkpt><trkpt lat="53.23851" lon="6.65293"></trkpt><trkpt lat="53.23817" lon="6.65212"></trkpt><trkpt lat="53.23777" lon="6.65128"></trkpt><trkpt lat="53.23739" lon="6.65046"></trkpt><trkpt lat="53.23678" lon="6.64899"></trkpt><trkpt lat="53.23647" lon="6.64817"></trkpt><trkpt lat="53.23617" lon="6.64727"></trkpt><trkpt lat="53.23614" lon="6.64699"></trkpt><trkpt lat="53.23621" lon="6.64664"></trkpt><trkpt lat="53.23627" lon="6.64652"></trkpt><trkpt lat="53.23665" lon="6.64616"></trkpt><trkpt lat="53.23666" lon="6.64608"></trkpt><trkpt lat="53.23666" lon="6.64603"></trkpt><trkpt lat="53.23664" lon="6.64597"></trkpt><trkpt lat="53.23661" lon="6.64585"></trkpt><trkpt lat="53.23652" lon="6.6457"></trkpt><trkpt lat="53.23647" lon="6.64575"></trkpt><trkpt lat="53.23628" lon="6.64591"></trkpt><trkpt lat="53.23611" lon="6.64605"></trkpt><trkpt lat="53.23597" lon="6.64605"></trkpt><trkpt lat="53.23578" lon="6.6459"></trkpt><trkpt lat="53.23571" lon="6.64576"></trkpt><trkpt lat="53.23564" lon="6.64551"></trkpt><trkpt lat="53.23511" lon="6.64361"></trkpt><trkpt lat="53.2348" lon="6.64247"></trkpt><trkpt lat="53.23422" lon="6.64037"></trkpt><trkpt lat="53.23398" lon="6.63946"></trkpt><trkpt lat="53.23396" lon="6.63932"></trkpt><trkpt lat="53.23397" lon="6.63908"></trkpt><trkpt lat="53.23351" lon="6.63735"></trkpt><trkpt lat="53.23339" lon="6.63722"></trkpt><trkpt lat="53.2333" lon="6.63694"></trkpt><trkpt lat="53.23321" lon="6.63663"></trkpt><trkpt lat="53.23323" lon="6.63635"></trkpt><trkpt lat="53.23329" lon="6.63611"></trkpt><trkpt lat="53.23352" lon="6.63565"></trkpt><trkpt lat="53.23356" lon="6.63557"></trkpt><trkpt lat="53.2336" lon="6.63548"></trkpt><trkpt lat="53.23356" lon="6.63529"></trkpt><trkpt lat="53.23334" lon="6.63423"></trkpt><trkpt lat="53.23333" lon="6.6342"></trkpt><trkpt lat="53.23333" lon="6.63418"></trkpt><trkpt lat="53.2333" lon="6.63406"></trkpt><trkpt lat="53.23323" lon="6.63371"></trkpt><trkpt lat="53.23305" lon="6.63293"></trkpt><trkpt lat="53.2329" lon="6.63224"></trkpt><trkpt lat="53.23251" lon="6.63033"></trkpt><trkpt lat="53.23242" lon="6.62993"></trkpt><trkpt lat="53.23205" lon="6.6282"></trkpt><trkpt lat="53.23195" lon="6.62767"></trkpt><trkpt lat="53.23167" lon="6.62637"></trkpt><trkpt lat="53.23151" lon="6.6256"></trkpt><trkpt lat="53.23143" lon="6.62514"></trkpt><trkpt lat="53.23133" lon="6.62458"></trkpt><trkpt lat="53.23122" lon="6.62429"></trkpt><trkpt lat="53.23104" lon="6.62342"></trkpt><trkpt lat="53.23095" lon="6.62298"></trkpt><trkpt lat="53.23085" lon="6.62254"></trkpt><trkpt lat="53.23067" lon="6.62168"></trkpt><trkpt lat="53.23061" lon="6.62138"></trkpt><trkpt lat="53.23048" lon="6.62078"></trkpt><trkpt lat="53.23031" lon="6.61994"></trkpt><trkpt lat="53.23014" lon="6.61912"></trkpt><trkpt lat="53.22996" lon="6.61828"></trkpt><trkpt lat="53.22987" lon="6.61786"></trkpt><trkpt lat="53.22978" lon="6.61745"></trkpt><trkpt lat="53.22961" lon="6.61663"></trkpt><trkpt lat="53.22947" lon="6.61598"></trkpt><trkpt lat="53.22943" lon="6.6158"></trkpt><trkpt lat="53.22923" lon="6.61486"></trkpt><trkpt lat="53.22905" lon="6.61397"></trkpt><trkpt lat="53.22893" lon="6.61341"></trkpt><trkpt lat="53.22892" lon="6.6133"></trkpt><trkpt lat="53.2286" lon="6.6118"></trkpt><trkpt lat="53.22852" lon="6.61142"></trkpt><trkpt lat="53.22854" lon="6.6114"></trkpt><trkpt lat="53.22856" lon="6.61138"></trkpt><trkpt lat="53.22858" lon="6.61135"></trkpt><trkpt lat="53.2286" lon="6.61132"></trkpt><trkpt lat="53.22864" lon="6.61129"></trkpt><trkpt lat="53.22867" lon="6.61126"></trkpt><trkpt lat="53.22872" lon="6.61123"></trkpt><trkpt lat="53.22877" lon="6.6112"></trkpt><trkpt lat="53.22881" lon="6.61118"></trkpt><trkpt lat="53.22882" lon="6.61117"></trkpt><trkpt lat="53.22887" lon="6.61114"></trkpt><trkpt lat="53.22891" lon="6.61112"></trkpt><trkpt lat="53.22894" lon="6.61091"></trkpt><trkpt lat="53.22896" lon="6.61076"></trkpt><trkpt lat="53.22897" lon="6.61065"></trkpt><trkpt lat="53.22896" lon="6.61062"></trkpt><trkpt lat="53.22877" lon="6.60962"></trkpt><trkpt lat="53.22876" lon="6.60954"></trkpt><trkpt lat="53.22873" lon="6.60939"></trkpt><trkpt lat="53.2287" lon="6.60926"></trkpt><trkpt lat="53.22864" lon="6.60897"></trkpt><trkpt lat="53.22851" lon="6.60834"></trkpt><trkpt lat="53.22839" lon="6.60777"></trkpt><trkpt lat="53.22813" lon="6.60665"></trkpt><trkpt lat="53.22806" lon="6.60628"></trkpt><trkpt lat="53.22798" lon="6.60593"></trkpt><trkpt lat="53.22797" lon="6.60588"></trkpt><trkpt lat="53.22793" lon="6.60568"></trkpt><trkpt lat="53.22789" lon="6.60547"></trkpt><trkpt lat="53.22745" lon="6.60344"></trkpt><trkpt lat="53.22734" lon="6.60291"></trkpt><trkpt lat="53.2268" lon="6.60029"></trkpt><trkpt lat="53.22666" lon="6.59964"></trkpt><trkpt lat="53.22666" lon="6.5996"></trkpt><trkpt lat="53.22665" lon="6.59952"></trkpt><trkpt lat="53.22665" lon="6.59944"></trkpt><trkpt lat="53.22665" lon="6.59939"></trkpt><trkpt lat="53.22664" lon="6.59935"></trkpt><trkpt lat="53.22663" lon="6.59929"></trkpt><trkpt lat="53.22661" lon="6.59924"></trkpt><trkpt lat="53.22658" lon="6.59918"></trkpt><trkpt lat="53.22654" lon="6.59911"></trkpt><trkpt lat="53.22651" lon="6.599"></trkpt><trkpt lat="53.22645" lon="6.59867"></trkpt><trkpt lat="53.22626" lon="6.59781"></trkpt><trkpt lat="53.22619" lon="6.59746"></trkpt><trkpt lat="53.22618" lon="6.59741"></trkpt><trkpt lat="53.22614" lon="6.59725"></trkpt><trkpt lat="53.22612" lon="6.59713"></trkpt><trkpt lat="53.22609" lon="6.59701"></trkpt><trkpt lat="53.22607" lon="6.59689"></trkpt><trkpt lat="53.22601" lon="6.59661"></trkpt><trkpt lat="53.226" lon="6.59656"></trkpt><trkpt lat="53.22599" lon="6.59646"></trkpt><trkpt lat="53.22599" lon="6.59636"></trkpt><trkpt lat="53.226" lon="6.59625"></trkpt><trkpt lat="53.226" lon="6.59619"></trkpt><trkpt lat="53.22601" lon="6.59614"></trkpt><trkpt lat="53.22603" lon="6.59611"></trkpt><trkpt lat="53.22604" lon="6.59607"></trkpt><trkpt lat="53.22608" lon="6.59597"></trkpt><trkpt lat="53.22612" lon="6.59586"></trkpt><trkpt lat="53.22616" lon="6.59571"></trkpt><trkpt lat="53.2262" lon="6.59556"></trkpt><trkpt lat="53.22624" lon="6.59538"></trkpt><trkpt lat="53.22626" lon="6.5952"></trkpt><trkpt lat="53.22629" lon="6.59489"></trkpt><trkpt lat="53.2263" lon="6.59466"></trkpt><trkpt lat="53.22626" lon="6.59446"></trkpt><trkpt lat="53.22624" lon="6.59435"></trkpt><trkpt lat="53.22622" lon="6.59431"></trkpt><trkpt lat="53.2262" lon="6.59428"></trkpt><trkpt lat="53.22617" lon="6.59422"></trkpt><trkpt lat="53.22601" lon="6.59391"></trkpt><trkpt lat="53.22592" lon="6.5937"></trkpt><trkpt lat="53.22584" lon="6.5935"></trkpt><trkpt lat="53.2258" lon="6.59341"></trkpt><trkpt lat="53.22576" lon="6.59318"></trkpt><trkpt lat="53.22564" lon="6.59302"></trkpt><trkpt lat="53.22544" lon="6.59277"></trkpt><trkpt lat="53.22531" lon="6.59238"></trkpt><trkpt lat="53.2253" lon="6.59236"></trkpt><trkpt lat="53.22528" lon="6.59236"></trkpt><trkpt lat="53.22526" lon="6.59236"></trkpt><trkpt lat="53.22525" lon="6.59236"></trkpt><trkpt lat="53.22523" lon="6.59237"></trkpt><trkpt lat="53.22511" lon="6.59248"></trkpt><trkpt lat="53.22498" lon="6.5926"></trkpt><trkpt lat="53.22493" lon="6.59263"></trkpt><trkpt lat="53.22489" lon="6.59264"></trkpt><trkpt lat="53.22455" lon="6.59266"></trkpt><trkpt lat="53.22451" lon="6.59267"></trkpt><trkpt lat="53.22442" lon="6.59267"></trkpt><trkpt lat="53.22429" lon="6.59268"></trkpt><trkpt lat="53.22412" lon="6.59268"></trkpt><trkpt lat="53.22395" lon="6.59264"></trkpt><trkpt lat="53.22379" lon="6.59256"></trkpt><trkpt lat="53.22363" lon="6.59243"></trkpt><trkpt lat="53.22346" lon="6.59222"></trkpt><trkpt lat="53.22332" lon="6.59199"></trkpt><trkpt lat="53.22321" lon="6.59169"></trkpt><trkpt lat="53.22288" lon="6.5907"></trkpt><trkpt lat="53.22246" lon="6.58943"></trkpt><trkpt lat="53.22245" lon="6.5894"></trkpt><trkpt lat="53.22236" lon="6.58912"></trkpt><trkpt lat="53.22233" lon="6.58903"></trkpt><trkpt lat="53.22226" lon="6.58903"></trkpt><trkpt lat="53.22217" lon="6.58902"></trkpt></trkseg></trk></gpx>