<?xml version="1.0" encoding="UTF-8" standalone="yes"?>
<gpx version="1.1" creator="https://onthegomap.com" xmlns="http://www.topografix.com/GPX/1/1">
  <metadata>
    <name>110 km route</name>
    <link href="https://onthegomap.com">
      <text>On The Go Map</text>
    </link>
    <time>2021-02-26T20:48:30.851Z</time>
    <copyright author="On The Go Map, OpenStreetMap Contributors">
      <year>2021</year>
    </copyright>
  </metadata>
  <rte>
    <name>110 km route</name>
    <rtept lat="53.21892" lon="6.55424"/>
    <rtept lat="53.21891" lon="6.55424"/>
    <rtept lat="53.21889" lon="6.55444"/>
    <rtept lat="53.2189" lon="6.55484"/>
    <rtept lat="53.21893" lon="6.55552"/>
    <rtept lat="53.21899" lon="6.55597"/>
    <rtept lat="53.21912" lon="6.55593"/>
    <rtept lat="53.21922" lon="6.5559"/>
    <rtept lat="53.21923" lon="6.55589"/>
    <rtept lat="53.21933" lon="6.556"/>
    <rtept lat="53.21939" lon="6.55601"/>
    <rtept lat="53.21943" lon="6.55597"/>
    <rtept lat="53.21947" lon="6.55589"/>
    <rtept lat="53.21948" lon="6.55582"/>
    <rtept lat="53.21946" lon="6.5556"/>
    <rtept lat="53.21942" lon="6.55549"/>
    <rtept lat="53.21938" lon="6.55497"/>
    <rtept lat="53.21939" lon="6.55483"/>
    <rtept lat="53.2195" lon="6.55435"/>
    <rtept lat="53.2197" lon="6.55347"/>
    <rtept lat="53.21973" lon="6.55338"/>
    <rtept lat="53.21979" lon="6.55304"/>
    <rtept lat="53.2198" lon="6.55279"/>
    <rtept lat="53.21983" lon="6.55227"/>
    <rtept lat="53.21982" lon="6.55157"/>
    <rtept lat="53.21978" lon="6.55065"/>
    <rtept lat="53.2197" lon="6.54992"/>
    <rtept lat="53.21961" lon="6.5494"/>
    <rtept lat="53.21947" lon="6.5486"/>
    <rtept lat="53.21946" lon="6.54853"/>
    <rtept lat="53.21949" lon="6.5485"/>
    <rtept lat="53.21952" lon="6.54842"/>
    <rtept lat="53.21953" lon="6.54834"/>
    <rtept lat="53.21951" lon="6.54826"/>
    <rtept lat="53.21949" lon="6.54821"/>
    <rtept lat="53.21943" lon="6.54816"/>
    <rtept lat="53.21938" lon="6.54816"/>
    <rtept lat="53.21932" lon="6.54823"/>
    <rtept lat="53.21928" lon="6.5482"/>
    <rtept lat="53.21929" lon="6.54802"/>
    <rtept lat="53.21928" lon="6.54714"/>
    <rtept lat="53.2193" lon="6.54681"/>
    <rtept lat="53.21937" lon="6.54628"/>
    <rtept lat="53.21946" lon="6.54579"/>
    <rtept lat="53.21961" lon="6.54521"/>
    <rtept lat="53.21966" lon="6.54511"/>
    <rtept lat="53.21984" lon="6.54475"/>
    <rtept lat="53.22002" lon="6.5444"/>
    <rtept lat="53.22017" lon="6.54414"/>
    <rtept lat="53.22036" lon="6.54384"/>
    <rtept lat="53.22076" lon="6.54332"/>
    <rtept lat="53.221" lon="6.54321"/>
    <rtept lat="53.2214" lon="6.54317"/>
    <rtept lat="53.22146" lon="6.54314"/>
    <rtept lat="53.2215" lon="6.54306"/>
    <rtept lat="53.22152" lon="6.54294"/>
    <rtept lat="53.22151" lon="6.54282"/>
    <rtept lat="53.22144" lon="6.54217"/>
    <rtept lat="53.22144" lon="6.54203"/>
    <rtept lat="53.22162" lon="6.54166"/>
    <rtept lat="53.22191" lon="6.54111"/>
    <rtept lat="53.22214" lon="6.54087"/>
    <rtept lat="53.22249" lon="6.54065"/>
    <rtept lat="53.2226" lon="6.54054"/>
    <rtept lat="53.22273" lon="6.54042"/>
    <rtept lat="53.22317" lon="6.53984"/>
    <rtept lat="53.2235" lon="6.53938"/>
    <rtept lat="53.22358" lon="6.53925"/>
    <rtept lat="53.22362" lon="6.53913"/>
    <rtept lat="53.22369" lon="6.53895"/>
    <rtept lat="53.22374" lon="6.53886"/>
    <rtept lat="53.22392" lon="6.53867"/>
    <rtept lat="53.22403" lon="6.53859"/>
    <rtept lat="53.22422" lon="6.5385"/>
    <rtept lat="53.22437" lon="6.5384"/>
    <rtept lat="53.22453" lon="6.53815"/>
    <rtept lat="53.22469" lon="6.53783"/>
    <rtept lat="53.2248" lon="6.53771"/>
    <rtept lat="53.22541" lon="6.53716"/>
    <rtept lat="53.22708" lon="6.5359"/>
    <rtept lat="53.22713" lon="6.53592"/>
    <rtept lat="53.2273" lon="6.53623"/>
    <rtept lat="53.22734" lon="6.53625"/>
    <rtept lat="53.22738" lon="6.53623"/>
    <rtept lat="53.22744" lon="6.53619"/>
    <rtept lat="53.22751" lon="6.53614"/>
    <rtept lat="53.22756" lon="6.5361"/>
    <rtept lat="53.22768" lon="6.53602"/>
    <rtept lat="53.2276" lon="6.53563"/>
    <rtept lat="53.22762" lon="6.53554"/>
    <rtept lat="53.22764" lon="6.53549"/>
    <rtept lat="53.22831" lon="6.53504"/>
    <rtept lat="53.22882" lon="6.53472"/>
    <rtept lat="53.22891" lon="6.53465"/>
    <rtept lat="53.22962" lon="6.53395"/>
    <rtept lat="53.23008" lon="6.53356"/>
    <rtept lat="53.23038" lon="6.5334"/>
    <rtept lat="53.23079" lon="6.53323"/>
    <rtept lat="53.23133" lon="6.5331"/>
    <rtept lat="53.23178" lon="6.53308"/>
    <rtept lat="53.23204" lon="6.533"/>
    <rtept lat="53.23229" lon="6.53279"/>
    <rtept lat="53.23294" lon="6.53172"/>
    <rtept lat="53.23324" lon="6.53126"/>
    <rtept lat="53.23343" lon="6.53109"/>
    <rtept lat="53.23366" lon="6.53093"/>
    <rtept lat="53.23431" lon="6.53051"/>
    <rtept lat="53.23494" lon="6.53012"/>
    <rtept lat="53.23566" lon="6.52965"/>
    <rtept lat="53.23657" lon="6.52923"/>
    <rtept lat="53.23806" lon="6.52794"/>
    <rtept lat="53.23853" lon="6.52752"/>
    <rtept lat="53.23937" lon="6.52677"/>
    <rtept lat="53.23976" lon="6.52653"/>
    <rtept lat="53.24051" lon="6.52652"/>
    <rtept lat="53.24072" lon="6.52647"/>
    <rtept lat="53.24093" lon="6.52637"/>
    <rtept lat="53.2415" lon="6.52588"/>
    <rtept lat="53.24171" lon="6.52577"/>
    <rtept lat="53.24178" lon="6.52576"/>
    <rtept lat="53.24195" lon="6.52585"/>
    <rtept lat="53.24217" lon="6.52612"/>
    <rtept lat="53.24224" lon="6.52614"/>
    <rtept lat="53.24229" lon="6.52612"/>
    <rtept lat="53.24341" lon="6.52534"/>
    <rtept lat="53.24344" lon="6.52532"/>
    <rtept lat="53.2436" lon="6.5252"/>
    <rtept lat="53.24364" lon="6.52519"/>
    <rtept lat="53.24403" lon="6.52492"/>
    <rtept lat="53.24796" lon="6.52219"/>
    <rtept lat="53.25026" lon="6.52059"/>
    <rtept lat="53.25016" lon="6.5195"/>
    <rtept lat="53.25016" lon="6.51925"/>
    <rtept lat="53.2502" lon="6.51891"/>
    <rtept lat="53.25025" lon="6.51882"/>
    <rtept lat="53.25058" lon="6.51856"/>
    <rtept lat="53.25083" lon="6.51833"/>
    <rtept lat="53.25115" lon="6.51794"/>
    <rtept lat="53.25138" lon="6.51761"/>
    <rtept lat="53.25169" lon="6.51708"/>
    <rtept lat="53.25185" lon="6.51675"/>
    <rtept lat="53.25232" lon="6.51554"/>
    <rtept lat="53.25272" lon="6.51462"/>
    <rtept lat="53.2543" lon="6.51173"/>
    <rtept lat="53.25455" lon="6.51137"/>
    <rtept lat="53.25649" lon="6.50943"/>
    <rtept lat="53.25642" lon="6.50914"/>
    <rtept lat="53.25637" lon="6.509"/>
    <rtept lat="53.25634" lon="6.50882"/>
    <rtept lat="53.25632" lon="6.50863"/>
    <rtept lat="53.25627" lon="6.50827"/>
    <rtept lat="53.25629" lon="6.50805"/>
    <rtept lat="53.2563" lon="6.50799"/>
    <rtept lat="53.25635" lon="6.50792"/>
    <rtept lat="53.25641" lon="6.50788"/>
    <rtept lat="53.25685" lon="6.50771"/>
    <rtept lat="53.257" lon="6.5076"/>
    <rtept lat="53.25712" lon="6.50739"/>
    <rtept lat="53.25728" lon="6.50695"/>
    <rtept lat="53.25761" lon="6.50573"/>
    <rtept lat="53.25788" lon="6.50467"/>
    <rtept lat="53.25817" lon="6.50316"/>
    <rtept lat="53.25823" lon="6.50271"/>
    <rtept lat="53.25833" lon="6.50165"/>
    <rtept lat="53.25844" lon="6.50169"/>
    <rtept lat="53.25901" lon="6.50195"/>
    <rtept lat="53.25913" lon="6.50199"/>
    <rtept lat="53.2592" lon="6.50196"/>
    <rtept lat="53.25926" lon="6.50189"/>
    <rtept lat="53.25931" lon="6.50175"/>
    <rtept lat="53.25932" lon="6.50158"/>
    <rtept lat="53.2593" lon="6.50131"/>
    <rtept lat="53.25931" lon="6.50117"/>
    <rtept lat="53.25957" lon="6.49947"/>
    <rtept lat="53.26006" lon="6.49555"/>
    <rtept lat="53.26059" lon="6.49113"/>
    <rtept lat="53.26077" lon="6.48974"/>
    <rtept lat="53.26094" lon="6.48847"/>
    <rtept lat="53.26142" lon="6.4853"/>
    <rtept lat="53.26146" lon="6.48509"/>
    <rtept lat="53.26177" lon="6.48389"/>
    <rtept lat="53.26185" lon="6.48337"/>
    <rtept lat="53.26188" lon="6.48273"/>
    <rtept lat="53.26187" lon="6.48248"/>
    <rtept lat="53.26184" lon="6.48227"/>
    <rtept lat="53.26176" lon="6.48186"/>
    <rtept lat="53.26143" lon="6.48074"/>
    <rtept lat="53.26128" lon="6.4803"/>
    <rtept lat="53.26121" lon="6.48012"/>
    <rtept lat="53.26097" lon="6.47962"/>
    <rtept lat="53.26073" lon="6.479"/>
    <rtept lat="53.26057" lon="6.47848"/>
    <rtept lat="53.26052" lon="6.47823"/>
    <rtept lat="53.2605" lon="6.478"/>
    <rtept lat="53.26049" lon="6.47764"/>
    <rtept lat="53.26079" lon="6.47088"/>
    <rtept lat="53.26082" lon="6.47055"/>
    <rtept lat="53.26086" lon="6.47038"/>
    <rtept lat="53.261" lon="6.47013"/>
    <rtept lat="53.26107" lon="6.46994"/>
    <rtept lat="53.2611" lon="6.46974"/>
    <rtept lat="53.2611" lon="6.46951"/>
    <rtept lat="53.26106" lon="6.46933"/>
    <rtept lat="53.26098" lon="6.46936"/>
    <rtept lat="53.26093" lon="6.46936"/>
    <rtept lat="53.26088" lon="6.46931"/>
    <rtept lat="53.26084" lon="6.4693"/>
    <rtept lat="53.26015" lon="6.46923"/>
    <rtept lat="53.26014" lon="6.46923"/>
    <rtept lat="53.26" lon="6.46922"/>
    <rtept lat="53.26" lon="6.46912"/>
    <rtept lat="53.26002" lon="6.46855"/>
    <rtept lat="53.26003" lon="6.46841"/>
    <rtept lat="53.26013" lon="6.46762"/>
    <rtept lat="53.26027" lon="6.46622"/>
    <rtept lat="53.2603" lon="6.46573"/>
    <rtept lat="53.26033" lon="6.46535"/>
    <rtept lat="53.26033" lon="6.46504"/>
    <rtept lat="53.26034" lon="6.46422"/>
    <rtept lat="53.26033" lon="6.46402"/>
    <rtept lat="53.2603" lon="6.46379"/>
    <rtept lat="53.26021" lon="6.46345"/>
    <rtept lat="53.26018" lon="6.46311"/>
    <rtept lat="53.26001" lon="6.46251"/>
    <rtept lat="53.25991" lon="6.46216"/>
    <rtept lat="53.25985" lon="6.46194"/>
    <rtept lat="53.25981" lon="6.46185"/>
    <rtept lat="53.25977" lon="6.46181"/>
    <rtept lat="53.25971" lon="6.46163"/>
    <rtept lat="53.25959" lon="6.46121"/>
    <rtept lat="53.25931" lon="6.46023"/>
    <rtept lat="53.25924" lon="6.45999"/>
    <rtept lat="53.25914" lon="6.45953"/>
    <rtept lat="53.25897" lon="6.4583"/>
    <rtept lat="53.25894" lon="6.45819"/>
    <rtept lat="53.259" lon="6.45814"/>
    <rtept lat="53.25953" lon="6.45814"/>
    <rtept lat="53.25956" lon="6.45789"/>
    <rtept lat="53.25958" lon="6.45762"/>
    <rtept lat="53.25967" lon="6.45753"/>
    <rtept lat="53.25994" lon="6.45667"/>
    <rtept lat="53.25997" lon="6.45659"/>
    <rtept lat="53.26015" lon="6.45654"/>
    <rtept lat="53.26056" lon="6.45601"/>
    <rtept lat="53.2607" lon="6.45599"/>
    <rtept lat="53.26075" lon="6.45171"/>
    <rtept lat="53.26072" lon="6.4487"/>
    <rtept lat="53.26068" lon="6.44714"/>
    <rtept lat="53.26055" lon="6.44461"/>
    <rtept lat="53.26051" lon="6.44401"/>
    <rtept lat="53.26031" lon="6.44143"/>
    <rtept lat="53.26001" lon="6.43823"/>
    <rtept lat="53.25923" lon="6.43206"/>
    <rtept lat="53.25921" lon="6.4318"/>
    <rtept lat="53.25814" lon="6.42381"/>
    <rtept lat="53.25605" lon="6.40773"/>
    <rtept lat="53.25544" lon="6.40286"/>
    <rtept lat="53.25528" lon="6.40186"/>
    <rtept lat="53.25524" lon="6.40164"/>
    <rtept lat="53.25511" lon="6.4008"/>
    <rtept lat="53.25502" lon="6.40044"/>
    <rtept lat="53.25486" lon="6.40006"/>
    <rtept lat="53.25484" lon="6.39999"/>
    <rtept lat="53.2548" lon="6.40001"/>
    <rtept lat="53.25475" lon="6.40004"/>
    <rtept lat="53.25473" lon="6.39998"/>
    <rtept lat="53.2547" lon="6.39978"/>
    <rtept lat="53.25471" lon="6.39935"/>
    <rtept lat="53.25469" lon="6.39919"/>
    <rtept lat="53.25402" lon="6.3964"/>
    <rtept lat="53.25386" lon="6.3957"/>
    <rtept lat="53.25359" lon="6.39465"/>
    <rtept lat="53.25306" lon="6.39268"/>
    <rtept lat="53.25289" lon="6.39184"/>
    <rtept lat="53.25285" lon="6.39162"/>
    <rtept lat="53.25277" lon="6.39119"/>
    <rtept lat="53.25262" lon="6.39055"/>
    <rtept lat="53.25239" lon="6.38956"/>
    <rtept lat="53.25226" lon="6.38888"/>
    <rtept lat="53.25214" lon="6.38793"/>
    <rtept lat="53.25205" lon="6.38699"/>
    <rtept lat="53.25205" lon="6.38621"/>
    <rtept lat="53.25206" lon="6.38558"/>
    <rtept lat="53.25209" lon="6.38507"/>
    <rtept lat="53.2522" lon="6.38409"/>
    <rtept lat="53.25237" lon="6.38301"/>
    <rtept lat="53.25303" lon="6.37955"/>
    <rtept lat="53.25304" lon="6.37929"/>
    <rtept lat="53.25301" lon="6.37904"/>
    <rtept lat="53.25289" lon="6.37871"/>
    <rtept lat="53.25278" lon="6.37842"/>
    <rtept lat="53.25263" lon="6.37801"/>
    <rtept lat="53.25312" lon="6.37708"/>
    <rtept lat="53.25356" lon="6.37588"/>
    <rtept lat="53.25374" lon="6.37534"/>
    <rtept lat="53.25386" lon="6.37494"/>
    <rtept lat="53.25389" lon="6.37473"/>
    <rtept lat="53.25408" lon="6.37172"/>
    <rtept lat="53.25411" lon="6.37096"/>
    <rtept lat="53.25411" lon="6.37027"/>
    <rtept lat="53.25407" lon="6.36922"/>
    <rtept lat="53.25378" lon="6.36357"/>
    <rtept lat="53.25377" lon="6.36315"/>
    <rtept lat="53.25376" lon="6.36185"/>
    <rtept lat="53.25371" lon="6.36062"/>
    <rtept lat="53.25368" lon="6.36038"/>
    <rtept lat="53.25347" lon="6.35872"/>
    <rtept lat="53.25346" lon="6.3586"/>
    <rtept lat="53.25214" lon="6.34583"/>
    <rtept lat="53.25065" lon="6.33147"/>
    <rtept lat="53.25041" lon="6.32898"/>
    <rtept lat="53.25036" lon="6.328"/>
    <rtept lat="53.25032" lon="6.32751"/>
    <rtept lat="53.24986" lon="6.32322"/>
    <rtept lat="53.24968" lon="6.32151"/>
    <rtept lat="53.24954" lon="6.32042"/>
    <rtept lat="53.24941" lon="6.31969"/>
    <rtept lat="53.24929" lon="6.31908"/>
    <rtept lat="53.24893" lon="6.31749"/>
    <rtept lat="53.24883" lon="6.31695"/>
    <rtept lat="53.24878" lon="6.31667"/>
    <rtept lat="53.2486" lon="6.31537"/>
    <rtept lat="53.24843" lon="6.3141"/>
    <rtept lat="53.24839" lon="6.31381"/>
    <rtept lat="53.24833" lon="6.31329"/>
    <rtept lat="53.24884" lon="6.31315"/>
    <rtept lat="53.24899" lon="6.31311"/>
    <rtept lat="53.24915" lon="6.31306"/>
    <rtept lat="53.2494" lon="6.31299"/>
    <rtept lat="53.24939" lon="6.31282"/>
    <rtept lat="53.24989" lon="6.31283"/>
    <rtept lat="53.25028" lon="6.3129"/>
    <rtept lat="53.25079" lon="6.31287"/>
    <rtept lat="53.25098" lon="6.31288"/>
    <rtept lat="53.25119" lon="6.31287"/>
    <rtept lat="53.2514" lon="6.31281"/>
    <rtept lat="53.25219" lon="6.31275"/>
    <rtept lat="53.25238" lon="6.31277"/>
    <rtept lat="53.25466" lon="6.31258"/>
    <rtept lat="53.25575" lon="6.31238"/>
    <rtept lat="53.25596" lon="6.3124"/>
    <rtept lat="53.25832" lon="6.31218"/>
    <rtept lat="53.25856" lon="6.3122"/>
    <rtept lat="53.25877" lon="6.31227"/>
    <rtept lat="53.25898" lon="6.31223"/>
    <rtept lat="53.25905" lon="6.31224"/>
    <rtept lat="53.25912" lon="6.31229"/>
    <rtept lat="53.25916" lon="6.31234"/>
    <rtept lat="53.25922" lon="6.31236"/>
    <rtept lat="53.25924" lon="6.31235"/>
    <rtept lat="53.2593" lon="6.31223"/>
    <rtept lat="53.25941" lon="6.31207"/>
    <rtept lat="53.25945" lon="6.31196"/>
    <rtept lat="53.25985" lon="6.31161"/>
    <rtept lat="53.25995" lon="6.31164"/>
    <rtept lat="53.26026" lon="6.31165"/>
    <rtept lat="53.26036" lon="6.31163"/>
    <rtept lat="53.26038" lon="6.31162"/>
    <rtept lat="53.26047" lon="6.31169"/>
    <rtept lat="53.26061" lon="6.3117"/>
    <rtept lat="53.26072" lon="6.31169"/>
    <rtept lat="53.2609" lon="6.31165"/>
    <rtept lat="53.26167" lon="6.31124"/>
    <rtept lat="53.26227" lon="6.31103"/>
    <rtept lat="53.26238" lon="6.31095"/>
    <rtept lat="53.26249" lon="6.31093"/>
    <rtept lat="53.26281" lon="6.3108"/>
    <rtept lat="53.26332" lon="6.31057"/>
    <rtept lat="53.2634" lon="6.31055"/>
    <rtept lat="53.26354" lon="6.31059"/>
    <rtept lat="53.26361" lon="6.31034"/>
    <rtept lat="53.26362" lon="6.31012"/>
    <rtept lat="53.2649" lon="6.31022"/>
    <rtept lat="53.26504" lon="6.31021"/>
    <rtept lat="53.26507" lon="6.30933"/>
    <rtept lat="53.26515" lon="6.30849"/>
    <rtept lat="53.26524" lon="6.30793"/>
    <rtept lat="53.26541" lon="6.30664"/>
    <rtept lat="53.26542" lon="6.30651"/>
    <rtept lat="53.26543" lon="6.30633"/>
    <rtept lat="53.26545" lon="6.30581"/>
    <rtept lat="53.26599" lon="6.30049"/>
    <rtept lat="53.26604" lon="6.30013"/>
    <rtept lat="53.26609" lon="6.29971"/>
    <rtept lat="53.26617" lon="6.2993"/>
    <rtept lat="53.26623" lon="6.29892"/>
    <rtept lat="53.26644" lon="6.29795"/>
    <rtept lat="53.2667" lon="6.29696"/>
    <rtept lat="53.26698" lon="6.2957"/>
    <rtept lat="53.26704" lon="6.29539"/>
    <rtept lat="53.26698" lon="6.29537"/>
    <rtept lat="53.2669" lon="6.29535"/>
    <rtept lat="53.26704" lon="6.29448"/>
    <rtept lat="53.26715" lon="6.29358"/>
    <rtept lat="53.26766" lon="6.28802"/>
    <rtept lat="53.26778" lon="6.28669"/>
    <rtept lat="53.26792" lon="6.2854"/>
    <rtept lat="53.2681" lon="6.28409"/>
    <rtept lat="53.26824" lon="6.28284"/>
    <rtept lat="53.26831" lon="6.28207"/>
    <rtept lat="53.26836" lon="6.28126"/>
    <rtept lat="53.26837" lon="6.28045"/>
    <rtept lat="53.26837" lon="6.27961"/>
    <rtept lat="53.26832" lon="6.27838"/>
    <rtept lat="53.26822" lon="6.277"/>
    <rtept lat="53.26815" lon="6.27576"/>
    <rtept lat="53.26816" lon="6.27459"/>
    <rtept lat="53.26816" lon="6.27439"/>
    <rtept lat="53.26826" lon="6.26713"/>
    <rtept lat="53.26825" lon="6.26483"/>
    <rtept lat="53.26822" lon="6.26414"/>
    <rtept lat="53.26815" lon="6.2633"/>
    <rtept lat="53.26773" lon="6.26069"/>
    <rtept lat="53.26767" lon="6.26059"/>
    <rtept lat="53.2676" lon="6.2603"/>
    <rtept lat="53.26712" lon="6.25735"/>
    <rtept lat="53.26713" lon="6.25718"/>
    <rtept lat="53.26664" lon="6.25429"/>
    <rtept lat="53.26651" lon="6.25346"/>
    <rtept lat="53.26642" lon="6.25229"/>
    <rtept lat="53.26645" lon="6.25221"/>
    <rtept lat="53.26643" lon="6.25209"/>
    <rtept lat="53.26642" lon="6.25195"/>
    <rtept lat="53.26641" lon="6.25173"/>
    <rtept lat="53.26637" lon="6.25117"/>
    <rtept lat="53.26637" lon="6.25091"/>
    <rtept lat="53.26635" lon="6.25082"/>
    <rtept lat="53.26631" lon="6.25076"/>
    <rtept lat="53.26632" lon="6.25071"/>
    <rtept lat="53.26628" lon="6.25002"/>
    <rtept lat="53.26613" lon="6.24798"/>
    <rtept lat="53.26609" lon="6.24774"/>
    <rtept lat="53.26582" lon="6.24577"/>
    <rtept lat="53.26577" lon="6.24521"/>
    <rtept lat="53.26574" lon="6.24464"/>
    <rtept lat="53.26575" lon="6.2441"/>
    <rtept lat="53.26577" lon="6.24365"/>
    <rtept lat="53.26578" lon="6.24351"/>
    <rtept lat="53.26581" lon="6.24301"/>
    <rtept lat="53.26581" lon="6.24296"/>
    <rtept lat="53.26584" lon="6.24248"/>
    <rtept lat="53.26583" lon="6.24152"/>
    <rtept lat="53.26583" lon="6.24082"/>
    <rtept lat="53.26586" lon="6.2403"/>
    <rtept lat="53.26618" lon="6.23596"/>
    <rtept lat="53.2662" lon="6.23553"/>
    <rtept lat="53.26621" lon="6.23494"/>
    <rtept lat="53.26616" lon="6.23342"/>
    <rtept lat="53.26609" lon="6.23158"/>
    <rtept lat="53.26605" lon="6.23118"/>
    <rtept lat="53.26578" lon="6.22886"/>
    <rtept lat="53.26576" lon="6.22848"/>
    <rtept lat="53.26577" lon="6.22794"/>
    <rtept lat="53.26578" lon="6.22761"/>
    <rtept lat="53.26576" lon="6.22735"/>
    <rtept lat="53.26569" lon="6.22686"/>
    <rtept lat="53.26562" lon="6.22661"/>
    <rtept lat="53.26532" lon="6.22572"/>
    <rtept lat="53.26517" lon="6.22507"/>
    <rtept lat="53.26509" lon="6.22458"/>
    <rtept lat="53.26496" lon="6.22298"/>
    <rtept lat="53.26493" lon="6.22225"/>
    <rtept lat="53.26493" lon="6.22164"/>
    <rtept lat="53.26497" lon="6.22105"/>
    <rtept lat="53.26522" lon="6.2193"/>
    <rtept lat="53.26538" lon="6.2182"/>
    <rtept lat="53.26558" lon="6.21688"/>
    <rtept lat="53.26565" lon="6.21663"/>
    <rtept lat="53.26583" lon="6.21612"/>
    <rtept lat="53.26592" lon="6.21571"/>
    <rtept lat="53.26662" lon="6.21094"/>
    <rtept lat="53.26701" lon="6.20822"/>
    <rtept lat="53.26702" lon="6.20815"/>
    <rtept lat="53.26707" lon="6.20758"/>
    <rtept lat="53.26709" lon="6.20719"/>
    <rtept lat="53.26702" lon="6.20712"/>
    <rtept lat="53.26701" lon="6.20675"/>
    <rtept lat="53.26693" lon="6.20604"/>
    <rtept lat="53.26702" lon="6.20607"/>
    <rtept lat="53.26708" lon="6.20612"/>
    <rtept lat="53.26718" lon="6.20595"/>
    <rtept lat="53.26723" lon="6.20588"/>
    <rtept lat="53.26726" lon="6.20581"/>
    <rtept lat="53.26727" lon="6.20572"/>
    <rtept lat="53.26733" lon="6.20564"/>
    <rtept lat="53.26737" lon="6.20559"/>
    <rtept lat="53.26747" lon="6.20543"/>
    <rtept lat="53.26755" lon="6.20527"/>
    <rtept lat="53.26761" lon="6.20496"/>
    <rtept lat="53.26773" lon="6.20381"/>
    <rtept lat="53.26787" lon="6.20295"/>
    <rtept lat="53.26796" lon="6.20229"/>
    <rtept lat="53.26822" lon="6.20109"/>
    <rtept lat="53.26861" lon="6.19961"/>
    <rtept lat="53.26867" lon="6.19926"/>
    <rtept lat="53.26878" lon="6.19831"/>
    <rtept lat="53.26885" lon="6.19798"/>
    <rtept lat="53.26938" lon="6.19605"/>
    <rtept lat="53.26954" lon="6.19554"/>
    <rtept lat="53.26962" lon="6.1954"/>
    <rtept lat="53.2697" lon="6.19529"/>
    <rtept lat="53.2701" lon="6.19495"/>
    <rtept lat="53.27023" lon="6.19482"/>
    <rtept lat="53.27046" lon="6.19458"/>
    <rtept lat="53.27102" lon="6.19388"/>
    <rtept lat="53.27121" lon="6.1937"/>
    <rtept lat="53.27135" lon="6.19361"/>
    <rtept lat="53.2717" lon="6.19355"/>
    <rtept lat="53.27183" lon="6.19348"/>
    <rtept lat="53.27244" lon="6.1929"/>
    <rtept lat="53.2726" lon="6.19271"/>
    <rtept lat="53.27267" lon="6.19256"/>
    <rtept lat="53.2727" lon="6.19242"/>
    <rtept lat="53.27271" lon="6.19222"/>
    <rtept lat="53.2727" lon="6.19206"/>
    <rtept lat="53.27258" lon="6.19165"/>
    <rtept lat="53.27246" lon="6.1914"/>
    <rtept lat="53.27203" lon="6.19077"/>
    <rtept lat="53.27163" lon="6.19015"/>
    <rtept lat="53.2715" lon="6.18987"/>
    <rtept lat="53.27147" lon="6.18969"/>
    <rtept lat="53.27139" lon="6.18963"/>
    <rtept lat="53.2713" lon="6.18948"/>
    <rtept lat="53.27051" lon="6.18772"/>
    <rtept lat="53.2706" lon="6.18734"/>
    <rtept lat="53.27063" lon="6.18709"/>
    <rtept lat="53.27074" lon="6.18372"/>
    <rtept lat="53.27078" lon="6.18338"/>
    <rtept lat="53.27083" lon="6.18311"/>
    <rtept lat="53.27092" lon="6.1828"/>
    <rtept lat="53.27146" lon="6.18137"/>
    <rtept lat="53.27162" lon="6.18087"/>
    <rtept lat="53.27178" lon="6.18031"/>
    <rtept lat="53.27207" lon="6.17916"/>
    <rtept lat="53.27209" lon="6.17901"/>
    <rtept lat="53.27213" lon="6.17897"/>
    <rtept lat="53.27218" lon="6.17887"/>
    <rtept lat="53.2725" lon="6.17789"/>
    <rtept lat="53.2727" lon="6.1774"/>
    <rtept lat="53.27321" lon="6.17636"/>
    <rtept lat="53.27379" lon="6.1752"/>
    <rtept lat="53.27423" lon="6.17416"/>
    <rtept lat="53.27442" lon="6.17387"/>
    <rtept lat="53.27474" lon="6.17353"/>
    <rtept lat="53.2748" lon="6.17344"/>
    <rtept lat="53.27545" lon="6.17213"/>
    <rtept lat="53.27701" lon="6.16908"/>
    <rtept lat="53.27734" lon="6.16838"/>
    <rtept lat="53.27756" lon="6.16798"/>
    <rtept lat="53.27784" lon="6.1675"/>
    <rtept lat="53.27809" lon="6.16695"/>
    <rtept lat="53.27824" lon="6.16669"/>
    <rtept lat="53.27829" lon="6.16663"/>
    <rtept lat="53.27838" lon="6.16657"/>
    <rtept lat="53.28002" lon="6.16601"/>
    <rtept lat="53.28021" lon="6.16591"/>
    <rtept lat="53.28008" lon="6.16521"/>
    <rtept lat="53.28005" lon="6.16493"/>
    <rtept lat="53.28004" lon="6.16443"/>
    <rtept lat="53.28003" lon="6.16411"/>
    <rtept lat="53.28002" lon="6.16338"/>
    <rtept lat="53.27999" lon="6.16256"/>
    <rtept lat="53.27999" lon="6.16217"/>
    <rtept lat="53.28001" lon="6.16167"/>
    <rtept lat="53.28006" lon="6.1613"/>
    <rtept lat="53.28011" lon="6.16118"/>
    <rtept lat="53.28014" lon="6.16103"/>
    <rtept lat="53.28016" lon="6.1606"/>
    <rtept lat="53.28036" lon="6.15909"/>
    <rtept lat="53.28042" lon="6.15856"/>
    <rtept lat="53.28045" lon="6.1583"/>
    <rtept lat="53.28047" lon="6.15812"/>
    <rtept lat="53.28049" lon="6.15786"/>
    <rtept lat="53.28051" lon="6.15758"/>
    <rtept lat="53.28051" lon="6.15701"/>
    <rtept lat="53.28049" lon="6.15665"/>
    <rtept lat="53.28046" lon="6.15626"/>
    <rtept lat="53.28043" lon="6.15603"/>
    <rtept lat="53.2803" lon="6.15551"/>
    <rtept lat="53.28026" lon="6.15504"/>
    <rtept lat="53.28026" lon="6.15477"/>
    <rtept lat="53.28029" lon="6.15434"/>
    <rtept lat="53.28031" lon="6.15415"/>
    <rtept lat="53.28036" lon="6.15356"/>
    <rtept lat="53.28036" lon="6.15259"/>
    <rtept lat="53.28035" lon="6.15208"/>
    <rtept lat="53.28035" lon="6.15159"/>
    <rtept lat="53.28035" lon="6.15156"/>
    <rtept lat="53.28035" lon="6.15149"/>
    <rtept lat="53.28034" lon="6.15143"/>
    <rtept lat="53.2803" lon="6.15126"/>
    <rtept lat="53.28017" lon="6.15064"/>
    <rtept lat="53.28011" lon="6.15038"/>
    <rtept lat="53.28003" lon="6.14999"/>
    <rtept lat="53.27997" lon="6.14974"/>
    <rtept lat="53.27987" lon="6.14927"/>
    <rtept lat="53.27983" lon="6.14904"/>
    <rtept lat="53.2798" lon="6.14892"/>
    <rtept lat="53.27977" lon="6.14868"/>
    <rtept lat="53.27975" lon="6.14853"/>
    <rtept lat="53.27973" lon="6.14832"/>
    <rtept lat="53.27972" lon="6.14813"/>
    <rtept lat="53.2797" lon="6.14729"/>
    <rtept lat="53.2797" lon="6.14694"/>
    <rtept lat="53.27967" lon="6.14651"/>
    <rtept lat="53.27965" lon="6.14635"/>
    <rtept lat="53.27964" lon="6.14625"/>
    <rtept lat="53.27937" lon="6.14417"/>
    <rtept lat="53.27915" lon="6.14248"/>
    <rtept lat="53.27914" lon="6.14229"/>
    <rtept lat="53.27916" lon="6.14203"/>
    <rtept lat="53.27916" lon="6.142"/>
    <rtept lat="53.2792" lon="6.14179"/>
    <rtept lat="53.27902" lon="6.14165"/>
    <rtept lat="53.27897" lon="6.14161"/>
    <rtept lat="53.27827" lon="6.14102"/>
    <rtept lat="53.27812" lon="6.14081"/>
    <rtept lat="53.27803" lon="6.14061"/>
    <rtept lat="53.27796" lon="6.14037"/>
    <rtept lat="53.27793" lon="6.14021"/>
    <rtept lat="53.27787" lon="6.13935"/>
    <rtept lat="53.27783" lon="6.13874"/>
    <rtept lat="53.27782" lon="6.13867"/>
    <rtept lat="53.27781" lon="6.13769"/>
    <rtept lat="53.27773" lon="6.13768"/>
    <rtept lat="53.27776" lon="6.13738"/>
    <rtept lat="53.27776" lon="6.13718"/>
    <rtept lat="53.27777" lon="6.13675"/>
    <rtept lat="53.27775" lon="6.13628"/>
    <rtept lat="53.2778" lon="6.13505"/>
    <rtept lat="53.27781" lon="6.13465"/>
    <rtept lat="53.2778" lon="6.13376"/>
    <rtept lat="53.27786" lon="6.13278"/>
    <rtept lat="53.27785" lon="6.13244"/>
    <rtept lat="53.27776" lon="6.13183"/>
    <rtept lat="53.27772" lon="6.1314"/>
    <rtept lat="53.27765" lon="6.13088"/>
    <rtept lat="53.27758" lon="6.13074"/>
    <rtept lat="53.27741" lon="6.13064"/>
    <rtept lat="53.27738" lon="6.13056"/>
    <rtept lat="53.27737" lon="6.13041"/>
    <rtept lat="53.27729" lon="6.13036"/>
    <rtept lat="53.27713" lon="6.12998"/>
    <rtept lat="53.27717" lon="6.12991"/>
    <rtept lat="53.2772" lon="6.12983"/>
    <rtept lat="53.2772" lon="6.12957"/>
    <rtept lat="53.2772" lon="6.12946"/>
    <rtept lat="53.27722" lon="6.12929"/>
    <rtept lat="53.27732" lon="6.12911"/>
    <rtept lat="53.27737" lon="6.12883"/>
    <rtept lat="53.2774" lon="6.12867"/>
    <rtept lat="53.27752" lon="6.12834"/>
    <rtept lat="53.27757" lon="6.12817"/>
    <rtept lat="53.27758" lon="6.12806"/>
    <rtept lat="53.27755" lon="6.12747"/>
    <rtept lat="53.27757" lon="6.12725"/>
    <rtept lat="53.27715" lon="6.12717"/>
    <rtept lat="53.2758" lon="6.12717"/>
    <rtept lat="53.27573" lon="6.12711"/>
    <rtept lat="53.27563" lon="6.12709"/>
    <rtept lat="53.27554" lon="6.12711"/>
    <rtept lat="53.27546" lon="6.12715"/>
    <rtept lat="53.2754" lon="6.12719"/>
    <rtept lat="53.27546" lon="6.12715"/>
    <rtept lat="53.27554" lon="6.12711"/>
    <rtept lat="53.27563" lon="6.12709"/>
    <rtept lat="53.27573" lon="6.12711"/>
    <rtept lat="53.2758" lon="6.12717"/>
    <rtept lat="53.27715" lon="6.12717"/>
    <rtept lat="53.27757" lon="6.12725"/>
    <rtept lat="53.27764" lon="6.12719"/>
    <rtept lat="53.27769" lon="6.1269"/>
    <rtept lat="53.27835" lon="6.12463"/>
    <rtept lat="53.2786" lon="6.12369"/>
    <rtept lat="53.27866" lon="6.12331"/>
    <rtept lat="53.27875" lon="6.1223"/>
    <rtept lat="53.27888" lon="6.12159"/>
    <rtept lat="53.2789" lon="6.12149"/>
    <rtept lat="53.27902" lon="6.12095"/>
    <rtept lat="53.27915" lon="6.12039"/>
    <rtept lat="53.27924" lon="6.1199"/>
    <rtept lat="53.27937" lon="6.11875"/>
    <rtept lat="53.27958" lon="6.11656"/>
    <rtept lat="53.27963" lon="6.11607"/>
    <rtept lat="53.27972" lon="6.11458"/>
    <rtept lat="53.27972" lon="6.1145"/>
    <rtept lat="53.2797" lon="6.11439"/>
    <rtept lat="53.27945" lon="6.11119"/>
    <rtept lat="53.27945" lon="6.11093"/>
    <rtept lat="53.27966" lon="6.10991"/>
    <rtept lat="53.27982" lon="6.10914"/>
    <rtept lat="53.2802" lon="6.10759"/>
    <rtept lat="53.28028" lon="6.10705"/>
    <rtept lat="53.28053" lon="6.10413"/>
    <rtept lat="53.2807" lon="6.10262"/>
    <rtept lat="53.28087" lon="6.10146"/>
    <rtept lat="53.28096" lon="6.10044"/>
    <rtept lat="53.28104" lon="6.09977"/>
    <rtept lat="53.28137" lon="6.09801"/>
    <rtept lat="53.28168" lon="6.09591"/>
    <rtept lat="53.28187" lon="6.09428"/>
    <rtept lat="53.282" lon="6.09342"/>
    <rtept lat="53.28288" lon="6.08995"/>
    <rtept lat="53.283" lon="6.08943"/>
    <rtept lat="53.28308" lon="6.08898"/>
    <rtept lat="53.28317" lon="6.08902"/>
    <rtept lat="53.28606" lon="6.08899"/>
    <rtept lat="53.2863" lon="6.08887"/>
    <rtept lat="53.28651" lon="6.08867"/>
    <rtept lat="53.28733" lon="6.08771"/>
    <rtept lat="53.28737" lon="6.08762"/>
    <rtept lat="53.2874" lon="6.08752"/>
    <rtept lat="53.28739" lon="6.08741"/>
    <rtept lat="53.28765" lon="6.08716"/>
    <rtept lat="53.28906" lon="6.08659"/>
    <rtept lat="53.28931" lon="6.08644"/>
    <rtept lat="53.28988" lon="6.08602"/>
    <rtept lat="53.29002" lon="6.08594"/>
    <rtept lat="53.29042" lon="6.08579"/>
    <rtept lat="53.29087" lon="6.08572"/>
    <rtept lat="53.29115" lon="6.08579"/>
    <rtept lat="53.29152" lon="6.08595"/>
    <rtept lat="53.29203" lon="6.08621"/>
    <rtept lat="53.29253" lon="6.08654"/>
    <rtept lat="53.29263" lon="6.08658"/>
    <rtept lat="53.29274" lon="6.08661"/>
    <rtept lat="53.29372" lon="6.08668"/>
    <rtept lat="53.2938" lon="6.08663"/>
    <rtept lat="53.29386" lon="6.08653"/>
    <rtept lat="53.29421" lon="6.08591"/>
    <rtept lat="53.29431" lon="6.08572"/>
    <rtept lat="53.29458" lon="6.08513"/>
    <rtept lat="53.2946" lon="6.08508"/>
    <rtept lat="53.29489" lon="6.08445"/>
    <rtept lat="53.29508" lon="6.08397"/>
    <rtept lat="53.29514" lon="6.08377"/>
    <rtept lat="53.2952" lon="6.08342"/>
    <rtept lat="53.29525" lon="6.08326"/>
    <rtept lat="53.29537" lon="6.08313"/>
    <rtept lat="53.29545" lon="6.08309"/>
    <rtept lat="53.29691" lon="6.08303"/>
    <rtept lat="53.2986" lon="6.08287"/>
    <rtept lat="53.29877" lon="6.08283"/>
    <rtept lat="53.29916" lon="6.08219"/>
    <rtept lat="53.29926" lon="6.08193"/>
    <rtept lat="53.29932" lon="6.08155"/>
    <rtept lat="53.29934" lon="6.08046"/>
    <rtept lat="53.29933" lon="6.07929"/>
    <rtept lat="53.29935" lon="6.07898"/>
    <rtept lat="53.29938" lon="6.07846"/>
    <rtept lat="53.29954" lon="6.07713"/>
    <rtept lat="53.29959" lon="6.07629"/>
    <rtept lat="53.29959" lon="6.07594"/>
    <rtept lat="53.29956" lon="6.07557"/>
    <rtept lat="53.29951" lon="6.0752"/>
    <rtept lat="53.29938" lon="6.07458"/>
    <rtept lat="53.29929" lon="6.07375"/>
    <rtept lat="53.29921" lon="6.07316"/>
    <rtept lat="53.2992" lon="6.07297"/>
    <rtept lat="53.2993" lon="6.07218"/>
    <rtept lat="53.29935" lon="6.07163"/>
    <rtept lat="53.29934" lon="6.07084"/>
    <rtept lat="53.29933" lon="6.07038"/>
    <rtept lat="53.29935" lon="6.06943"/>
    <rtept lat="53.29941" lon="6.06866"/>
    <rtept lat="53.29946" lon="6.06833"/>
    <rtept lat="53.29947" lon="6.06816"/>
    <rtept lat="53.29948" lon="6.068"/>
    <rtept lat="53.2995" lon="6.06783"/>
    <rtept lat="53.29965" lon="6.06775"/>
    <rtept lat="53.3009" lon="6.06683"/>
    <rtept lat="53.30123" lon="6.06656"/>
    <rtept lat="53.30157" lon="6.06615"/>
    <rtept lat="53.30743" lon="6.05875"/>
    <rtept lat="53.30839" lon="6.05747"/>
    <rtept lat="53.31137" lon="6.0536"/>
    <rtept lat="53.31152" lon="6.05339"/>
    <rtept lat="53.31164" lon="6.05314"/>
    <rtept lat="53.3123" lon="6.05138"/>
    <rtept lat="53.31314" lon="6.04911"/>
    <rtept lat="53.31366" lon="6.04764"/>
    <rtept lat="53.31404" lon="6.0463"/>
    <rtept lat="53.31393" lon="6.04626"/>
    <rtept lat="53.31396" lon="6.04607"/>
    <rtept lat="53.31457" lon="6.04372"/>
    <rtept lat="53.31522" lon="6.04104"/>
    <rtept lat="53.31626" lon="6.03634"/>
    <rtept lat="53.31634" lon="6.03572"/>
    <rtept lat="53.31674" lon="6.03127"/>
    <rtept lat="53.31687" lon="6.03129"/>
    <rtept lat="53.31694" lon="6.0313"/>
    <rtept lat="53.31706" lon="6.0313"/>
    <rtept lat="53.31716" lon="6.0313"/>
    <rtept lat="53.31746" lon="6.02572"/>
    <rtept lat="53.31764" lon="6.02231"/>
    <rtept lat="53.31763" lon="6.02212"/>
    <rtept lat="53.31765" lon="6.02149"/>
    <rtept lat="53.31775" lon="6.02104"/>
    <rtept lat="53.31844" lon="6.01938"/>
    <rtept lat="53.31852" lon="6.01912"/>
    <rtept lat="53.31857" lon="6.01905"/>
    <rtept lat="53.3186" lon="6.0189"/>
    <rtept lat="53.3187" lon="6.01888"/>
    <rtept lat="53.31876" lon="6.01879"/>
    <rtept lat="53.31884" lon="6.01853"/>
    <rtept lat="53.31913" lon="6.01779"/>
    <rtept lat="53.32047" lon="6.01444"/>
    <rtept lat="53.32093" lon="6.01322"/>
    <rtept lat="53.32102" lon="6.01321"/>
    <rtept lat="53.3226" lon="6.01329"/>
    <rtept lat="53.32345" lon="6.01331"/>
    <rtept lat="53.32413" lon="6.01333"/>
    <rtept lat="53.32413" lon="6.01272"/>
    <rtept lat="53.32419" lon="6.01274"/>
    <rtept lat="53.3242" lon="6.01286"/>
    <rtept lat="53.32423" lon="6.0129"/>
    <rtept lat="53.32464" lon="6.01283"/>
    <rtept lat="53.32474" lon="6.01283"/>
    <rtept lat="53.32487" lon="6.01289"/>
    <rtept lat="53.3252" lon="6.01301"/>
    <rtept lat="53.32549" lon="6.01298"/>
    <rtept lat="53.3256" lon="6.01295"/>
    <rtept lat="53.32574" lon="6.01293"/>
    <rtept lat="53.32583" lon="6.01291"/>
    <rtept lat="53.32589" lon="6.01289"/>
    <rtept lat="53.32597" lon="6.01286"/>
    <rtept lat="53.32611" lon="6.01271"/>
    <rtept lat="53.32618" lon="6.01268"/>
    <rtept lat="53.32634" lon="6.01262"/>
    <rtept lat="53.32699" lon="6.01226"/>
    <rtept lat="53.32799" lon="6.01173"/>
    <rtept lat="53.32997" lon="6.01061"/>
    <rtept lat="53.33007" lon="6.01054"/>
    <rtept lat="53.33004" lon="6.01042"/>
    <rtept lat="53.33001" lon="6.01027"/>
    <rtept lat="53.33031" lon="6.01011"/>
    <rtept lat="53.33049" lon="6.01006"/>
    <rtept lat="53.3306" lon="6.01"/>
    <rtept lat="53.3307" lon="6.0099"/>
    <rtept lat="53.33097" lon="6.00975"/>
    <rtept lat="53.33109" lon="6.00968"/>
    <rtept lat="53.33107" lon="6.00956"/>
    <rtept lat="53.33115" lon="6.00954"/>
    <rtept lat="53.33125" lon="6.00957"/>
    <rtept lat="53.33171" lon="6.00938"/>
    <rtept lat="53.33175" lon="6.00931"/>
    <rtept lat="53.33182" lon="6.0091"/>
    <rtept lat="53.33185" lon="6.00904"/>
    <rtept lat="53.33194" lon="6.009"/>
    <rtept lat="53.33205" lon="6.00896"/>
    <rtept lat="53.33222" lon="6.00911"/>
    <rtept lat="53.33229" lon="6.0091"/>
    <rtept lat="53.33243" lon="6.00902"/>
    <rtept lat="53.33301" lon="6.00888"/>
    <rtept lat="53.33306" lon="6.00887"/>
    <rtept lat="53.3334" lon="6.00893"/>
    <rtept lat="53.33408" lon="6.0093"/>
    <rtept lat="53.33456" lon="6.00962"/>
    <rtept lat="53.33479" lon="6.00985"/>
    <rtept lat="53.3349" lon="6.01006"/>
    <rtept lat="53.33518" lon="6.01075"/>
    <rtept lat="53.33525" lon="6.01102"/>
    <rtept lat="53.33539" lon="6.01175"/>
    <rtept lat="53.33547" lon="6.01201"/>
    <rtept lat="53.3356" lon="6.0123"/>
    <rtept lat="53.33572" lon="6.0125"/>
    <rtept lat="53.33592" lon="6.01273"/>
    <rtept lat="53.33619" lon="6.01297"/>
    <rtept lat="53.33712" lon="6.01398"/>
    <rtept lat="53.33735" lon="6.01411"/>
    <rtept lat="53.33758" lon="6.01417"/>
    <rtept lat="53.33977" lon="6.01436"/>
    <rtept lat="53.34002" lon="6.01445"/>
    <rtept lat="53.34019" lon="6.01455"/>
    <rtept lat="53.34086" lon="6.01523"/>
    <rtept lat="53.34102" lon="6.01527"/>
    <rtept lat="53.34108" lon="6.01531"/>
    <rtept lat="53.34117" lon="6.01541"/>
    <rtept lat="53.34125" lon="6.01563"/>
    <rtept lat="53.34145" lon="6.01603"/>
    <rtept lat="53.34153" lon="6.01625"/>
    <rtept lat="53.34171" lon="6.01689"/>
    <rtept lat="53.34182" lon="6.01721"/>
    <rtept lat="53.34214" lon="6.01798"/>
    <rtept lat="53.34327" lon="6.02042"/>
    <rtept lat="53.34366" lon="6.0212"/>
    <rtept lat="53.34415" lon="6.02209"/>
    <rtept lat="53.34466" lon="6.02283"/>
    <rtept lat="53.34491" lon="6.02328"/>
    <rtept lat="53.34503" lon="6.02354"/>
    <rtept lat="53.34514" lon="6.02388"/>
    <rtept lat="53.34528" lon="6.02419"/>
    <rtept lat="53.34545" lon="6.02453"/>
    <rtept lat="53.3455" lon="6.0247"/>
    <rtept lat="53.34579" lon="6.02604"/>
    <rtept lat="53.3459" lon="6.02635"/>
    <rtept lat="53.34636" lon="6.02724"/>
    <rtept lat="53.34653" lon="6.02775"/>
    <rtept lat="53.34677" lon="6.02857"/>
    <rtept lat="53.34696" lon="6.02929"/>
    <rtept lat="53.34722" lon="6.03058"/>
    <rtept lat="53.34731" lon="6.03084"/>
    <rtept lat="53.3474" lon="6.03102"/>
    <rtept lat="53.34797" lon="6.03169"/>
    <rtept lat="53.34809" lon="6.03181"/>
    <rtept lat="53.34836" lon="6.03207"/>
    <rtept lat="53.34858" lon="6.03236"/>
    <rtept lat="53.34875" lon="6.03263"/>
    <rtept lat="53.34889" lon="6.03293"/>
    <rtept lat="53.34916" lon="6.03338"/>
    <rtept lat="53.34932" lon="6.03362"/>
    <rtept lat="53.34946" lon="6.03377"/>
    <rtept lat="53.34986" lon="6.03401"/>
    <rtept lat="53.35004" lon="6.03404"/>
    <rtept lat="53.35019" lon="6.03404"/>
    <rtept lat="53.35035" lon="6.03412"/>
    <rtept lat="53.3506" lon="6.03426"/>
    <rtept lat="53.35079" lon="6.03444"/>
    <rtept lat="53.35105" lon="6.03482"/>
    <rtept lat="53.35157" lon="6.03528"/>
    <rtept lat="53.35179" lon="6.03537"/>
    <rtept lat="53.35184" lon="6.03529"/>
    <rtept lat="53.35201" lon="6.03527"/>
    <rtept lat="53.35224" lon="6.03526"/>
    <rtept lat="53.35252" lon="6.03529"/>
    <rtept lat="53.35301" lon="6.03547"/>
    <rtept lat="53.35358" lon="6.03558"/>
    <rtept lat="53.35462" lon="6.03577"/>
    <rtept lat="53.35519" lon="6.03584"/>
    <rtept lat="53.35544" lon="6.03592"/>
    <rtept lat="53.35566" lon="6.03591"/>
    <rtept lat="53.35582" lon="6.03603"/>
    <rtept lat="53.35613" lon="6.03622"/>
    <rtept lat="53.35647" lon="6.03654"/>
    <rtept lat="53.35677" lon="6.03697"/>
    <rtept lat="53.35815" lon="6.03933"/>
    <rtept lat="53.35836" lon="6.03957"/>
    <rtept lat="53.35842" lon="6.03966"/>
    <rtept lat="53.35847" lon="6.03977"/>
    <rtept lat="53.35852" lon="6.03997"/>
    <rtept lat="53.35917" lon="6.04115"/>
    <rtept lat="53.35957" lon="6.04207"/>
    <rtept lat="53.35973" lon="6.04239"/>
    <rtept lat="53.35987" lon="6.04262"/>
    <rtept lat="53.36008" lon="6.04288"/>
    <rtept lat="53.36091" lon="6.04362"/>
    <rtept lat="53.36111" lon="6.04367"/>
    <rtept lat="53.36114" lon="6.04375"/>
    <rtept lat="53.36114" lon="6.04382"/>
    <rtept lat="53.36114" lon="6.04396"/>
    <rtept lat="53.36199" lon="6.0447"/>
    <rtept lat="53.36246" lon="6.04504"/>
    <rtept lat="53.36269" lon="6.04523"/>
    <rtept lat="53.36367" lon="6.04631"/>
    <rtept lat="53.36409" lon="6.0467"/>
    <rtept lat="53.36433" lon="6.04697"/>
    <rtept lat="53.36449" lon="6.04719"/>
    <rtept lat="53.36497" lon="6.04793"/>
    <rtept lat="53.36521" lon="6.04828"/>
    <rtept lat="53.36532" lon="6.04837"/>
    <rtept lat="53.36539" lon="6.04825"/>
    <rtept lat="53.36547" lon="6.0482"/>
    <rtept lat="53.36568" lon="6.04833"/>
    <rtept lat="53.36771" lon="6.04846"/>
    <rtept lat="53.36807" lon="6.04851"/>
    <rtept lat="53.36834" lon="6.04858"/>
    <rtept lat="53.36858" lon="6.04866"/>
    <rtept lat="53.36888" lon="6.04882"/>
    <rtept lat="53.36991" lon="6.04938"/>
    <rtept lat="53.37213" lon="6.05064"/>
    <rtept lat="53.37334" lon="6.05132"/>
    <rtept lat="53.37365" lon="6.05133"/>
    <rtept lat="53.37399" lon="6.0512"/>
    <rtept lat="53.37416" lon="6.05122"/>
    <rtept lat="53.37431" lon="6.05132"/>
    <rtept lat="53.37441" lon="6.05144"/>
    <rtept lat="53.37448" lon="6.05157"/>
    <rtept lat="53.3746" lon="6.05167"/>
    <rtept lat="53.37463" lon="6.0518"/>
    <rtept lat="53.37457" lon="6.052"/>
    <rtept lat="53.37456" lon="6.05212"/>
    <rtept lat="53.37466" lon="6.05221"/>
    <rtept lat="53.37514" lon="6.05245"/>
    <rtept lat="53.37527" lon="6.05256"/>
    <rtept lat="53.37544" lon="6.05275"/>
    <rtept lat="53.37549" lon="6.05282"/>
    <rtept lat="53.37668" lon="6.0544"/>
    <rtept lat="53.3772" lon="6.05509"/>
    <rtept lat="53.37733" lon="6.05519"/>
    <rtept lat="53.37738" lon="6.05517"/>
    <rtept lat="53.37759" lon="6.05495"/>
    <rtept lat="53.37762" lon="6.05483"/>
    <rtept lat="53.37765" lon="6.05475"/>
    <rtept lat="53.37817" lon="6.0541"/>
    <rtept lat="53.37851" lon="6.05398"/>
    <rtept lat="53.37878" lon="6.05376"/>
    <rtept lat="53.37911" lon="6.05346"/>
    <rtept lat="53.37921" lon="6.05353"/>
    <rtept lat="53.38006" lon="6.0533"/>
    <rtept lat="53.38088" lon="6.05305"/>
    <rtept lat="53.38091" lon="6.05315"/>
    <rtept lat="53.38099" lon="6.05347"/>
    <rtept lat="53.38121" lon="6.05404"/>
    <rtept lat="53.38211" lon="6.05553"/>
    <rtept lat="53.38235" lon="6.05583"/>
    <rtept lat="53.38256" lon="6.05599"/>
    <rtept lat="53.3828" lon="6.05604"/>
    <rtept lat="53.38317" lon="6.05603"/>
    <rtept lat="53.38369" lon="6.05609"/>
    <rtept lat="53.38388" lon="6.0561"/>
    <rtept lat="53.38407" lon="6.05604"/>
    <rtept lat="53.38489" lon="6.05549"/>
    <rtept lat="53.38662" lon="6.05463"/>
    <rtept lat="53.3872" lon="6.05451"/>
    <rtept lat="53.38904" lon="6.05444"/>
    <rtept lat="53.38998" lon="6.05463"/>
    <rtept lat="53.39046" lon="6.05462"/>
    <rtept lat="53.39082" lon="6.05454"/>
    <rtept lat="53.39134" lon="6.05436"/>
    <rtept lat="53.39181" lon="6.05409"/>
    <rtept lat="53.39328" lon="6.05294"/>
    <rtept lat="53.39333" lon="6.05311"/>
    <rtept lat="53.39375" lon="6.05433"/>
    <rtept lat="53.39393" lon="6.05479"/>
    <rtept lat="53.39419" lon="6.05518"/>
    <rtept lat="53.39542" lon="6.05658"/>
    <rtept lat="53.39561" lon="6.05679"/>
    <rtept lat="53.3962" lon="6.05747"/>
    <rtept lat="53.39693" lon="6.0583"/>
    <rtept lat="53.40258" lon="6.06481"/>
    <rtept lat="53.40345" lon="6.06583"/>
    <rtept lat="53.40555" lon="6.06826"/>
    <rtept lat="53.40571" lon="6.06846"/>
    <rtept lat="53.40587" lon="6.06874"/>
    <rtept lat="53.40602" lon="6.06908"/>
    <rtept lat="53.40619" lon="6.06968"/>
    <rtept lat="53.40625" lon="6.07005"/>
    <rtept lat="53.40628" lon="6.07052"/>
    <rtept lat="53.40627" lon="6.071"/>
    <rtept lat="53.40622" lon="6.07145"/>
    <rtept lat="53.40612" lon="6.0719"/>
    <rtept lat="53.40581" lon="6.07307"/>
    <rtept lat="53.40571" lon="6.07358"/>
    <rtept lat="53.40566" lon="6.07396"/>
    <rtept lat="53.40559" lon="6.07433"/>
    <rtept lat="53.40532" lon="6.07522"/>
    <rtept lat="53.40523" lon="6.07573"/>
    <rtept lat="53.40516" lon="6.07603"/>
    <rtept lat="53.40491" lon="6.07697"/>
    <rtept lat="53.40479" lon="6.07726"/>
    <rtept lat="53.40484" lon="6.07737"/>
    <rtept lat="53.40484" lon="6.07744"/>
    <rtept lat="53.40478" lon="6.07774"/>
    <rtept lat="53.40468" lon="6.07819"/>
    <rtept lat="53.4046" lon="6.07881"/>
    <rtept lat="53.40453" lon="6.07915"/>
    <rtept lat="53.40445" lon="6.07937"/>
    <rtept lat="53.40406" lon="6.08021"/>
    <rtept lat="53.40377" lon="6.08113"/>
    <rtept lat="53.40356" lon="6.08198"/>
    <rtept lat="53.40354" lon="6.08298"/>
    <rtept lat="53.40346" lon="6.0833"/>
    <rtept lat="53.40327" lon="6.08364"/>
    <rtept lat="53.40302" lon="6.08389"/>
    <rtept lat="53.40298" lon="6.08391"/>
    <rtept lat="53.40292" lon="6.08391"/>
    <rtept lat="53.40283" lon="6.08388"/>
    <rtept lat="53.40265" lon="6.08433"/>
    <rtept lat="53.40258" lon="6.08461"/>
    <rtept lat="53.40238" lon="6.08563"/>
    <rtept lat="53.40229" lon="6.08594"/>
    <rtept lat="53.40216" lon="6.08616"/>
    <rtept lat="53.4021" lon="6.0868"/>
    <rtept lat="53.40188" lon="6.0886"/>
    <rtept lat="53.40188" lon="6.08864"/>
    <rtept lat="53.40165" lon="6.09086"/>
    <rtept lat="53.40157" lon="6.09128"/>
    <rtept lat="53.40139" lon="6.09274"/>
    <rtept lat="53.40118" lon="6.09386"/>
    <rtept lat="53.40038" lon="6.09765"/>
    <rtept lat="53.40032" lon="6.09783"/>
    <rtept lat="53.40037" lon="6.09815"/>
    <rtept lat="53.40031" lon="6.0993"/>
    <rtept lat="53.40023" lon="6.10024"/>
    <rtept lat="53.40021" lon="6.10109"/>
    <rtept lat="53.40032" lon="6.10325"/>
    <rtept lat="53.40055" lon="6.11001"/>
    <rtept lat="53.4006" lon="6.11267"/>
    <rtept lat="53.40077" lon="6.11728"/>
    <rtept lat="53.40094" lon="6.12372"/>
    <rtept lat="53.40101" lon="6.12519"/>
    <rtept lat="53.40109" lon="6.12801"/>
    <rtept lat="53.40122" lon="6.1295"/>
    <rtept lat="53.40127" lon="6.13015"/>
    <rtept lat="53.40126" lon="6.13073"/>
    <rtept lat="53.40127" lon="6.13131"/>
    <rtept lat="53.40141" lon="6.13255"/>
    <rtept lat="53.40151" lon="6.13327"/>
    <rtept lat="53.40181" lon="6.1349"/>
    <rtept lat="53.40235" lon="6.13635"/>
    <rtept lat="53.40249" lon="6.13665"/>
    <rtept lat="53.40287" lon="6.13762"/>
    <rtept lat="53.40327" lon="6.13847"/>
    <rtept lat="53.40445" lon="6.14265"/>
    <rtept lat="53.40643" lon="6.14904"/>
    <rtept lat="53.40808" lon="6.15476"/>
    <rtept lat="53.4082" lon="6.15529"/>
    <rtept lat="53.40843" lon="6.15691"/>
    <rtept lat="53.40878" lon="6.15858"/>
    <rtept lat="53.40879" lon="6.15878"/>
    <rtept lat="53.40876" lon="6.15889"/>
    <rtept lat="53.40872" lon="6.15896"/>
    <rtept lat="53.40941" lon="6.16097"/>
    <rtept lat="53.41074" lon="6.16541"/>
    <rtept lat="53.4135" lon="6.17478"/>
    <rtept lat="53.41383" lon="6.17603"/>
    <rtept lat="53.41385" lon="6.17611"/>
    <rtept lat="53.41398" lon="6.17671"/>
    <rtept lat="53.41407" lon="6.17727"/>
    <rtept lat="53.41416" lon="6.17798"/>
    <rtept lat="53.41421" lon="6.17875"/>
    <rtept lat="53.41423" lon="6.17935"/>
    <rtept lat="53.4142" lon="6.18048"/>
    <rtept lat="53.41416" lon="6.18101"/>
    <rtept lat="53.4141" lon="6.18165"/>
    <rtept lat="53.414" lon="6.18239"/>
    <rtept lat="53.41386" lon="6.18315"/>
    <rtept lat="53.41372" lon="6.18371"/>
    <rtept lat="53.41342" lon="6.18466"/>
    <rtept lat="53.41321" lon="6.18524"/>
    <rtept lat="53.41176" lon="6.18878"/>
    <rtept lat="53.41143" lon="6.18947"/>
    <rtept lat="53.41124" lon="6.18996"/>
    <rtept lat="53.41098" lon="6.1906"/>
    <rtept lat="53.41089" lon="6.19082"/>
    <rtept lat="53.41063" lon="6.19144"/>
    <rtept lat="53.41053" lon="6.19167"/>
    <rtept lat="53.41028" lon="6.19232"/>
    <rtept lat="53.41017" lon="6.19261"/>
    <rtept lat="53.41012" lon="6.19277"/>
    <rtept lat="53.40994" lon="6.19338"/>
    <rtept lat="53.40973" lon="6.19405"/>
    <rtept lat="53.40962" lon="6.19433"/>
    <rtept lat="53.40959" lon="6.19441"/>
    <rtept lat="53.40956" lon="6.19463"/>
    <rtept lat="53.40952" lon="6.19473"/>
    <rtept lat="53.40945" lon="6.19489"/>
    <rtept lat="53.40935" lon="6.19501"/>
    <rtept lat="53.40886" lon="6.19598"/>
    <rtept lat="53.40864" lon="6.19637"/>
    <rtept lat="53.40853" lon="6.19661"/>
    <rtept lat="53.40844" lon="6.19683"/>
    <rtept lat="53.40832" lon="6.19714"/>
    <rtept lat="53.40817" lon="6.1975"/>
    <rtept lat="53.40765" lon="6.19883"/>
    <rtept lat="53.40753" lon="6.19921"/>
    <rtept lat="53.40726" lon="6.20018"/>
    <rtept lat="53.40711" lon="6.20087"/>
    <rtept lat="53.40704" lon="6.20123"/>
    <rtept lat="53.40699" lon="6.20161"/>
    <rtept lat="53.40688" lon="6.20278"/>
    <rtept lat="53.40686" lon="6.20334"/>
    <rtept lat="53.40687" lon="6.20379"/>
    <rtept lat="53.40691" lon="6.20458"/>
    <rtept lat="53.40692" lon="6.20466"/>
    <rtept lat="53.40692" lon="6.20469"/>
    <rtept lat="53.40706" lon="6.20575"/>
    <rtept lat="53.40731" lon="6.2072"/>
    <rtept lat="53.40794" lon="6.2108"/>
    <rtept lat="53.40797" lon="6.21094"/>
    <rtept lat="53.40774" lon="6.21099"/>
    <rtept lat="53.40761" lon="6.21098"/>
    <rtept lat="53.40754" lon="6.21096"/>
    <rtept lat="53.40743" lon="6.21094"/>
    <rtept lat="53.40735" lon="6.21096"/>
    <rtept lat="53.40723" lon="6.21104"/>
    <rtept lat="53.407" lon="6.21134"/>
    <rtept lat="53.40692" lon="6.21141"/>
    <rtept lat="53.40581" lon="6.21176"/>
    <rtept lat="53.40537" lon="6.21186"/>
    <rtept lat="53.40533" lon="6.21187"/>
    <rtept lat="53.40524" lon="6.21192"/>
    <rtept lat="53.40514" lon="6.21201"/>
    <rtept lat="53.40474" lon="6.21217"/>
    <rtept lat="53.40455" lon="6.21227"/>
    <rtept lat="53.40426" lon="6.2125"/>
    <rtept lat="53.40393" lon="6.21282"/>
    <rtept lat="53.40378" lon="6.21309"/>
    <rtept lat="53.40356" lon="6.21364"/>
    <rtept lat="53.40347" lon="6.2139"/>
    <rtept lat="53.40331" lon="6.2145"/>
    <rtept lat="53.40325" lon="6.21472"/>
    <rtept lat="53.4031" lon="6.21512"/>
    <rtept lat="53.40292" lon="6.21574"/>
    <rtept lat="53.40262" lon="6.21682"/>
    <rtept lat="53.40248" lon="6.2174"/>
    <rtept lat="53.40243" lon="6.21763"/>
    <rtept lat="53.40214" lon="6.21854"/>
    <rtept lat="53.40205" lon="6.21868"/>
    <rtept lat="53.40185" lon="6.21882"/>
    <rtept lat="53.40169" lon="6.219"/>
    <rtept lat="53.40155" lon="6.21935"/>
    <rtept lat="53.4011" lon="6.21972"/>
    <rtept lat="53.40097" lon="6.21981"/>
    <rtept lat="53.40049" lon="6.22013"/>
    <rtept lat="53.40013" lon="6.22041"/>
    <rtept lat="53.3998" lon="6.22077"/>
    <rtept lat="53.3996" lon="6.22106"/>
    <rtept lat="53.39947" lon="6.22129"/>
    <rtept lat="53.39931" lon="6.22166"/>
    <rtept lat="53.39916" lon="6.22208"/>
    <rtept lat="53.39893" lon="6.22293"/>
    <rtept lat="53.39879" lon="6.22317"/>
    <rtept lat="53.39872" lon="6.22336"/>
    <rtept lat="53.39869" lon="6.22344"/>
    <rtept lat="53.39855" lon="6.22364"/>
    <rtept lat="53.3985" lon="6.22381"/>
    <rtept lat="53.39743" lon="6.22816"/>
    <rtept lat="53.39736" lon="6.22833"/>
    <rtept lat="53.39728" lon="6.22849"/>
    <rtept lat="53.39711" lon="6.22868"/>
    <rtept lat="53.39705" lon="6.22879"/>
    <rtept lat="53.39701" lon="6.22898"/>
    <rtept lat="53.39697" lon="6.22986"/>
    <rtept lat="53.39696" lon="6.23022"/>
    <rtept lat="53.39692" lon="6.23041"/>
    <rtept lat="53.39664" lon="6.23157"/>
    <rtept lat="53.39651" lon="6.2318"/>
    <rtept lat="53.39637" lon="6.23237"/>
    <rtept lat="53.39625" lon="6.23281"/>
    <rtept lat="53.3962" lon="6.23291"/>
    <rtept lat="53.39609" lon="6.23304"/>
    <rtept lat="53.39597" lon="6.23314"/>
    <rtept lat="53.39579" lon="6.23348"/>
    <rtept lat="53.39537" lon="6.23397"/>
    <rtept lat="53.39528" lon="6.23417"/>
    <rtept lat="53.39516" lon="6.23445"/>
    <rtept lat="53.3951" lon="6.23453"/>
    <rtept lat="53.39469" lon="6.23467"/>
    <rtept lat="53.39444" lon="6.23469"/>
    <rtept lat="53.3941" lon="6.23481"/>
    <rtept lat="53.39342" lon="6.23522"/>
    <rtept lat="53.39335" lon="6.23531"/>
    <rtept lat="53.39312" lon="6.23564"/>
    <rtept lat="53.39184" lon="6.23606"/>
    <rtept lat="53.39176" lon="6.23616"/>
    <rtept lat="53.39156" lon="6.23668"/>
    <rtept lat="53.3915" lon="6.23679"/>
    <rtept lat="53.39139" lon="6.23688"/>
    <rtept lat="53.3911" lon="6.23698"/>
    <rtept lat="53.39101" lon="6.23697"/>
    <rtept lat="53.39093" lon="6.23691"/>
    <rtept lat="53.39067" lon="6.23648"/>
    <rtept lat="53.39058" lon="6.23638"/>
    <rtept lat="53.3905" lon="6.23635"/>
    <rtept lat="53.38973" lon="6.23638"/>
    <rtept lat="53.38878" lon="6.23635"/>
    <rtept lat="53.38812" lon="6.23642"/>
    <rtept lat="53.38762" lon="6.23654"/>
    <rtept lat="53.38661" lon="6.23685"/>
    <rtept lat="53.38641" lon="6.23685"/>
    <rtept lat="53.38591" lon="6.23673"/>
    <rtept lat="53.38584" lon="6.23744"/>
    <rtept lat="53.38561" lon="6.23734"/>
    <rtept lat="53.38532" lon="6.23711"/>
    <rtept lat="53.38511" lon="6.23699"/>
    <rtept lat="53.38497" lon="6.23696"/>
    <rtept lat="53.38481" lon="6.23697"/>
    <rtept lat="53.38462" lon="6.23705"/>
    <rtept lat="53.3841" lon="6.23749"/>
    <rtept lat="53.38397" lon="6.23759"/>
    <rtept lat="53.38374" lon="6.2377"/>
    <rtept lat="53.38203" lon="6.23818"/>
    <rtept lat="53.38106" lon="6.23843"/>
    <rtept lat="53.38068" lon="6.23848"/>
    <rtept lat="53.3803" lon="6.23851"/>
    <rtept lat="53.37986" lon="6.23846"/>
    <rtept lat="53.37945" lon="6.23836"/>
    <rtept lat="53.37902" lon="6.2382"/>
    <rtept lat="53.37857" lon="6.23793"/>
    <rtept lat="53.37722" lon="6.23691"/>
    <rtept lat="53.37692" lon="6.23677"/>
    <rtept lat="53.37664" lon="6.23673"/>
    <rtept lat="53.37642" lon="6.23674"/>
    <rtept lat="53.37608" lon="6.23679"/>
    <rtept lat="53.37592" lon="6.23675"/>
    <rtept lat="53.37581" lon="6.23666"/>
    <rtept lat="53.37576" lon="6.23659"/>
    <rtept lat="53.37557" lon="6.23615"/>
    <rtept lat="53.37525" lon="6.23648"/>
    <rtept lat="53.3751" lon="6.2366"/>
    <rtept lat="53.37466" lon="6.23686"/>
    <rtept lat="53.37438" lon="6.23697"/>
    <rtept lat="53.37407" lon="6.23702"/>
    <rtept lat="53.37376" lon="6.23704"/>
    <rtept lat="53.37033" lon="6.23715"/>
    <rtept lat="53.37016" lon="6.23721"/>
    <rtept lat="53.37002" lon="6.23728"/>
    <rtept lat="53.36978" lon="6.23753"/>
    <rtept lat="53.36931" lon="6.23826"/>
    <rtept lat="53.36919" lon="6.23844"/>
    <rtept lat="53.369" lon="6.23873"/>
    <rtept lat="53.36892" lon="6.23881"/>
    <rtept lat="53.36882" lon="6.23889"/>
    <rtept lat="53.36862" lon="6.239"/>
    <rtept lat="53.36709" lon="6.23917"/>
    <rtept lat="53.3668" lon="6.23927"/>
    <rtept lat="53.36666" lon="6.23938"/>
    <rtept lat="53.36646" lon="6.23959"/>
    <rtept lat="53.36632" lon="6.23983"/>
    <rtept lat="53.36618" lon="6.24014"/>
    <rtept lat="53.36607" lon="6.24058"/>
    <rtept lat="53.36587" lon="6.24195"/>
    <rtept lat="53.36477" lon="6.24992"/>
    <rtept lat="53.36477" lon="6.25018"/>
    <rtept lat="53.36479" lon="6.2503"/>
    <rtept lat="53.36482" lon="6.25042"/>
    <rtept lat="53.36499" lon="6.25079"/>
    <rtept lat="53.36502" lon="6.25101"/>
    <rtept lat="53.36503" lon="6.25116"/>
    <rtept lat="53.36495" lon="6.25236"/>
    <rtept lat="53.36483" lon="6.25613"/>
    <rtept lat="53.36479" lon="6.25922"/>
    <rtept lat="53.36474" lon="6.25944"/>
    <rtept lat="53.36459" lon="6.25972"/>
    <rtept lat="53.36451" lon="6.25992"/>
    <rtept lat="53.36448" lon="6.2601"/>
    <rtept lat="53.36448" lon="6.26032"/>
    <rtept lat="53.36448" lon="6.26049"/>
    <rtept lat="53.3645" lon="6.26074"/>
    <rtept lat="53.36458" lon="6.2608"/>
    <rtept lat="53.36472" lon="6.26081"/>
    <rtept lat="53.36479" lon="6.26091"/>
    <rtept lat="53.36481" lon="6.26107"/>
    <rtept lat="53.36483" lon="6.26229"/>
    <rtept lat="53.365" lon="6.26657"/>
    <rtept lat="53.36507" lon="6.26784"/>
    <rtept lat="53.36509" lon="6.26819"/>
    <rtept lat="53.36515" lon="6.26988"/>
    <rtept lat="53.36537" lon="6.27405"/>
    <rtept lat="53.36564" lon="6.27847"/>
    <rtept lat="53.36566" lon="6.27876"/>
    <rtept lat="53.36593" lon="6.28266"/>
    <rtept lat="53.36591" lon="6.28276"/>
    <rtept lat="53.36584" lon="6.28283"/>
    <rtept lat="53.36584" lon="6.28294"/>
    <rtept lat="53.36565" lon="6.28297"/>
    <rtept lat="53.36551" lon="6.28291"/>
    <rtept lat="53.36543" lon="6.28285"/>
    <rtept lat="53.36536" lon="6.28277"/>
    <rtept lat="53.36522" lon="6.28254"/>
    <rtept lat="53.36512" lon="6.28225"/>
    <rtept lat="53.36502" lon="6.28202"/>
    <rtept lat="53.36493" lon="6.28192"/>
    <rtept lat="53.36447" lon="6.28149"/>
    <rtept lat="53.36434" lon="6.28144"/>
    <rtept lat="53.36424" lon="6.28147"/>
    <rtept lat="53.36419" lon="6.28152"/>
    <rtept lat="53.36414" lon="6.28161"/>
    <rtept lat="53.36226" lon="6.2868"/>
    <rtept lat="53.36213" lon="6.28709"/>
    <rtept lat="53.36196" lon="6.28736"/>
    <rtept lat="53.36161" lon="6.28777"/>
    <rtept lat="53.36096" lon="6.28852"/>
    <rtept lat="53.36071" lon="6.28895"/>
    <rtept lat="53.36053" lon="6.2895"/>
    <rtept lat="53.36043" lon="6.28994"/>
    <rtept lat="53.36038" lon="6.2903"/>
    <rtept lat="53.36036" lon="6.29048"/>
    <rtept lat="53.36033" lon="6.29075"/>
    <rtept lat="53.36034" lon="6.29084"/>
    <rtept lat="53.36038" lon="6.29089"/>
    <rtept lat="53.36051" lon="6.29104"/>
    <rtept lat="53.36063" lon="6.29126"/>
    <rtept lat="53.36066" lon="6.29138"/>
    <rtept lat="53.36068" lon="6.29155"/>
    <rtept lat="53.36065" lon="6.29183"/>
    <rtept lat="53.36043" lon="6.293"/>
    <rtept lat="53.36033" lon="6.29328"/>
    <rtept lat="53.36001" lon="6.29382"/>
    <rtept lat="53.3598" lon="6.29428"/>
    <rtept lat="53.35972" lon="6.29457"/>
    <rtept lat="53.35955" lon="6.29524"/>
    <rtept lat="53.35947" lon="6.29577"/>
    <rtept lat="53.35942" lon="6.29635"/>
    <rtept lat="53.35939" lon="6.29696"/>
    <rtept lat="53.35937" lon="6.2978"/>
    <rtept lat="53.35938" lon="6.29809"/>
    <rtept lat="53.35951" lon="6.29934"/>
    <rtept lat="53.35955" lon="6.29994"/>
    <rtept lat="53.35962" lon="6.3012"/>
    <rtept lat="53.3596" lon="6.30216"/>
    <rtept lat="53.35953" lon="6.30305"/>
    <rtept lat="53.35948" lon="6.30334"/>
    <rtept lat="53.35931" lon="6.30395"/>
    <rtept lat="53.35925" lon="6.30436"/>
    <rtept lat="53.35925" lon="6.30471"/>
    <rtept lat="53.35929" lon="6.30497"/>
    <rtept lat="53.35943" lon="6.30533"/>
    <rtept lat="53.35948" lon="6.30553"/>
    <rtept lat="53.35949" lon="6.30577"/>
    <rtept lat="53.35947" lon="6.30618"/>
    <rtept lat="53.35944" lon="6.30646"/>
    <rtept lat="53.3594" lon="6.3071"/>
    <rtept lat="53.35946" lon="6.3089"/>
    <rtept lat="53.35951" lon="6.30961"/>
    <rtept lat="53.35957" lon="6.31008"/>
    <rtept lat="53.35967" lon="6.31053"/>
    <rtept lat="53.35969" lon="6.31074"/>
    <rtept lat="53.35971" lon="6.31099"/>
    <rtept lat="53.35959" lon="6.31505"/>
    <rtept lat="53.35966" lon="6.31583"/>
    <rtept lat="53.35971" lon="6.31611"/>
    <rtept lat="53.35985" lon="6.31658"/>
    <rtept lat="53.3602" lon="6.31741"/>
    <rtept lat="53.36048" lon="6.31816"/>
    <rtept lat="53.36056" lon="6.31843"/>
    <rtept lat="53.36068" lon="6.3193"/>
    <rtept lat="53.36036" lon="6.31946"/>
    <rtept lat="53.36024" lon="6.31956"/>
    <rtept lat="53.35997" lon="6.31994"/>
    <rtept lat="53.35985" lon="6.32016"/>
    <rtept lat="53.35975" lon="6.32043"/>
    <rtept lat="53.35963" lon="6.32093"/>
    <rtept lat="53.35956" lon="6.32146"/>
    <rtept lat="53.35954" lon="6.32255"/>
    <rtept lat="53.35956" lon="6.32532"/>
    <rtept lat="53.35957" lon="6.32642"/>
    <rtept lat="53.35959" lon="6.3267"/>
    <rtept lat="53.35973" lon="6.32794"/>
    <rtept lat="53.35975" lon="6.32829"/>
    <rtept lat="53.35982" lon="6.32947"/>
    <rtept lat="53.35981" lon="6.3297"/>
    <rtept lat="53.35974" lon="6.32995"/>
    <rtept lat="53.35962" lon="6.33033"/>
    <rtept lat="53.35952" lon="6.33058"/>
    <rtept lat="53.3594" lon="6.33095"/>
    <rtept lat="53.35923" lon="6.33237"/>
    <rtept lat="53.35917" lon="6.33291"/>
    <rtept lat="53.35918" lon="6.33334"/>
    <rtept lat="53.35923" lon="6.33397"/>
    <rtept lat="53.35924" lon="6.3342"/>
    <rtept lat="53.35932" lon="6.33441"/>
    <rtept lat="53.35929" lon="6.3345"/>
    <rtept lat="53.3593" lon="6.33466"/>
    <rtept lat="53.35938" lon="6.33551"/>
    <rtept lat="53.3594" lon="6.33569"/>
    <rtept lat="53.35957" lon="6.33728"/>
    <rtept lat="53.35967" lon="6.33839"/>
    <rtept lat="53.35981" lon="6.33989"/>
    <rtept lat="53.35984" lon="6.34035"/>
    <rtept lat="53.35985" lon="6.34068"/>
    <rtept lat="53.35991" lon="6.3419"/>
    <rtept lat="53.35986" lon="6.34194"/>
    <rtept lat="53.35983" lon="6.342"/>
    <rtept lat="53.35987" lon="6.34279"/>
    <rtept lat="53.35986" lon="6.34286"/>
    <rtept lat="53.3598" lon="6.34296"/>
    <rtept lat="53.35978" lon="6.34303"/>
    <rtept lat="53.35976" lon="6.34312"/>
    <rtept lat="53.35986" lon="6.34324"/>
    <rtept lat="53.3599" lon="6.34335"/>
    <rtept lat="53.35994" lon="6.3443"/>
    <rtept lat="53.35994" lon="6.34506"/>
    <rtept lat="53.36002" lon="6.34505"/>
    <rtept lat="53.36001" lon="6.34555"/>
    <rtept lat="53.36007" lon="6.34656"/>
    <rtept lat="53.36008" lon="6.34678"/>
    <rtept lat="53.36013" lon="6.3473"/>
    <rtept lat="53.3605" lon="6.35041"/>
    <rtept lat="53.36059" lon="6.35212"/>
    <rtept lat="53.36069" lon="6.35317"/>
    <rtept lat="53.36075" lon="6.3536"/>
    <rtept lat="53.36109" lon="6.35495"/>
    <rtept lat="53.36106" lon="6.35502"/>
    <rtept lat="53.36097" lon="6.35503"/>
    <rtept lat="53.36097" lon="6.35514"/>
    <rtept lat="53.36102" lon="6.35538"/>
    <rtept lat="53.36102" lon="6.35602"/>
    <rtept lat="53.36108" lon="6.35624"/>
    <rtept lat="53.3611" lon="6.35711"/>
    <rtept lat="53.3611" lon="6.35744"/>
    <rtept lat="53.36105" lon="6.35762"/>
    <rtept lat="53.36104" lon="6.35857"/>
    <rtept lat="53.36121" lon="6.36036"/>
    <rtept lat="53.3612" lon="6.36078"/>
    <rtept lat="53.36118" lon="6.3613"/>
    <rtept lat="53.36113" lon="6.3616"/>
    <rtept lat="53.36101" lon="6.36229"/>
    <rtept lat="53.36089" lon="6.36308"/>
    <rtept lat="53.36085" lon="6.3634"/>
    <rtept lat="53.36086" lon="6.36388"/>
    <rtept lat="53.36097" lon="6.36467"/>
    <rtept lat="53.36103" lon="6.36527"/>
    <rtept lat="53.36101" lon="6.36591"/>
    <rtept lat="53.36096" lon="6.36677"/>
    <rtept lat="53.36089" lon="6.36829"/>
    <rtept lat="53.36077" lon="6.36968"/>
    <rtept lat="53.36069" lon="6.37056"/>
    <rtept lat="53.36066" lon="6.37106"/>
    <rtept lat="53.36063" lon="6.37148"/>
    <rtept lat="53.36059" lon="6.3721"/>
    <rtept lat="53.3606" lon="6.37217"/>
    <rtept lat="53.36066" lon="6.37229"/>
    <rtept lat="53.36064" lon="6.37249"/>
    <rtept lat="53.36057" lon="6.37317"/>
    <rtept lat="53.36054" lon="6.37381"/>
    <rtept lat="53.36052" lon="6.37455"/>
    <rtept lat="53.36052" lon="6.37472"/>
    <rtept lat="53.36049" lon="6.37548"/>
    <rtept lat="53.36049" lon="6.3757"/>
    <rtept lat="53.36046" lon="6.37605"/>
    <rtept lat="53.36044" lon="6.37688"/>
    <rtept lat="53.36044" lon="6.37827"/>
    <rtept lat="53.36045" lon="6.37878"/>
    <rtept lat="53.36048" lon="6.37919"/>
    <rtept lat="53.36059" lon="6.37985"/>
    <rtept lat="53.36069" lon="6.38043"/>
    <rtept lat="53.36078" lon="6.381"/>
    <rtept lat="53.36086" lon="6.38159"/>
    <rtept lat="53.36088" lon="6.38187"/>
    <rtept lat="53.36089" lon="6.3824"/>
    <rtept lat="53.36091" lon="6.38291"/>
    <rtept lat="53.36095" lon="6.3835"/>
    <rtept lat="53.36101" lon="6.38433"/>
    <rtept lat="53.36102" lon="6.38498"/>
    <rtept lat="53.36101" lon="6.38538"/>
    <rtept lat="53.36099" lon="6.38584"/>
    <rtept lat="53.36099" lon="6.38612"/>
    <rtept lat="53.36104" lon="6.38717"/>
    <rtept lat="53.36104" lon="6.38768"/>
    <rtept lat="53.36101" lon="6.38798"/>
    <rtept lat="53.36092" lon="6.38864"/>
    <rtept lat="53.36085" lon="6.38892"/>
    <rtept lat="53.36039" lon="6.39026"/>
    <rtept lat="53.36034" lon="6.39051"/>
    <rtept lat="53.3602" lon="6.39196"/>
    <rtept lat="53.36015" lon="6.39269"/>
    <rtept lat="53.36014" lon="6.3937"/>
    <rtept lat="53.36004" lon="6.39515"/>
    <rtept lat="53.36001" lon="6.39553"/>
    <rtept lat="53.35998" lon="6.39583"/>
    <rtept lat="53.35987" lon="6.39716"/>
    <rtept lat="53.3598" lon="6.39774"/>
    <rtept lat="53.35968" lon="6.39864"/>
    <rtept lat="53.3596" lon="6.39981"/>
    <rtept lat="53.35956" lon="6.40067"/>
    <rtept lat="53.35956" lon="6.40079"/>
    <rtept lat="53.35961" lon="6.40095"/>
    <rtept lat="53.35968" lon="6.40102"/>
    <rtept lat="53.36122" lon="6.4011"/>
    <rtept lat="53.36132" lon="6.40115"/>
    <rtept lat="53.36138" lon="6.40124"/>
    <rtept lat="53.36143" lon="6.40142"/>
    <rtept lat="53.3615" lon="6.40211"/>
    <rtept lat="53.3615" lon="6.40231"/>
    <rtept lat="53.36124" lon="6.40393"/>
    <rtept lat="53.3612" lon="6.40423"/>
    <rtept lat="53.36121" lon="6.40434"/>
    <rtept lat="53.3613" lon="6.40454"/>
    <rtept lat="53.36144" lon="6.40468"/>
    <rtept lat="53.36159" lon="6.40482"/>
    <rtept lat="53.36164" lon="6.40499"/>
    <rtept lat="53.36151" lon="6.40762"/>
    <rtept lat="53.36148" lon="6.40851"/>
    <rtept lat="53.36148" lon="6.40966"/>
    <rtept lat="53.36148" lon="6.4106"/>
    <rtept lat="53.36146" lon="6.41132"/>
    <rtept lat="53.36143" lon="6.41191"/>
    <rtept lat="53.36131" lon="6.41404"/>
    <rtept lat="53.36127" lon="6.4145"/>
    <rtept lat="53.36121" lon="6.41514"/>
    <rtept lat="53.36116" lon="6.41608"/>
    <rtept lat="53.36112" lon="6.41647"/>
    <rtept lat="53.36104" lon="6.41694"/>
    <rtept lat="53.36096" lon="6.41729"/>
    <rtept lat="53.36079" lon="6.41847"/>
    <rtept lat="53.36071" lon="6.41884"/>
    <rtept lat="53.36044" lon="6.41992"/>
    <rtept lat="53.36032" lon="6.42029"/>
    <rtept lat="53.35978" lon="6.42189"/>
    <rtept lat="53.35962" lon="6.42254"/>
    <rtept lat="53.35961" lon="6.42258"/>
    <rtept lat="53.35834" lon="6.42227"/>
    <rtept lat="53.35746" lon="6.42219"/>
    <rtept lat="53.35673" lon="6.42221"/>
    <rtept lat="53.35652" lon="6.42221"/>
    <rtept lat="53.35664" lon="6.42147"/>
    <rtept lat="53.35663" lon="6.42136"/>
    <rtept lat="53.3566" lon="6.42126"/>
    <rtept lat="53.35653" lon="6.42111"/>
    <rtept lat="53.35656" lon="6.42101"/>
    <rtept lat="53.35661" lon="6.42078"/>
    <rtept lat="53.35671" lon="6.42041"/>
    <rtept lat="53.3567" lon="6.42034"/>
    <rtept lat="53.35667" lon="6.42024"/>
    <rtept lat="53.3567" lon="6.42034"/>
    <rtept lat="53.35671" lon="6.42041"/>
    <rtept lat="53.35661" lon="6.42078"/>
    <rtept lat="53.35656" lon="6.42101"/>
    <rtept lat="53.35653" lon="6.42111"/>
    <rtept lat="53.3566" lon="6.42126"/>
    <rtept lat="53.35663" lon="6.42136"/>
    <rtept lat="53.35664" lon="6.42147"/>
    <rtept lat="53.35652" lon="6.42221"/>
    <rtept lat="53.356" lon="6.42445"/>
    <rtept lat="53.35576" lon="6.42548"/>
    <rtept lat="53.3557" lon="6.42543"/>
    <rtept lat="53.35565" lon="6.42527"/>
    <rtept lat="53.35557" lon="6.42518"/>
    <rtept lat="53.35541" lon="6.42508"/>
    <rtept lat="53.35531" lon="6.42513"/>
    <rtept lat="53.35513" lon="6.4254"/>
    <rtept lat="53.35508" lon="6.42539"/>
    <rtept lat="53.35504" lon="6.42542"/>
    <rtept lat="53.35483" lon="6.42533"/>
    <rtept lat="53.35465" lon="6.42532"/>
    <rtept lat="53.35442" lon="6.42541"/>
    <rtept lat="53.35432" lon="6.42545"/>
    <rtept lat="53.35418" lon="6.42552"/>
    <rtept lat="53.35402" lon="6.42555"/>
    <rtept lat="53.35393" lon="6.42554"/>
    <rtept lat="53.35343" lon="6.42534"/>
    <rtept lat="53.3509" lon="6.42427"/>
    <rtept lat="53.34875" lon="6.42333"/>
    <rtept lat="53.34865" lon="6.4233"/>
    <rtept lat="53.34852" lon="6.42334"/>
    <rtept lat="53.34845" lon="6.42342"/>
    <rtept lat="53.3474" lon="6.42531"/>
    <rtept lat="53.34731" lon="6.42546"/>
    <rtept lat="53.34718" lon="6.42559"/>
    <rtept lat="53.34699" lon="6.42565"/>
    <rtept lat="53.34678" lon="6.42553"/>
    <rtept lat="53.34567" lon="6.42464"/>
    <rtept lat="53.34507" lon="6.42408"/>
    <rtept lat="53.34496" lon="6.424"/>
    <rtept lat="53.34475" lon="6.42395"/>
    <rtept lat="53.3442" lon="6.42408"/>
    <rtept lat="53.34391" lon="6.42418"/>
    <rtept lat="53.34374" lon="6.42424"/>
    <rtept lat="53.34354" lon="6.42437"/>
    <rtept lat="53.34338" lon="6.42459"/>
    <rtept lat="53.34337" lon="6.4246"/>
    <rtept lat="53.3431" lon="6.42498"/>
    <rtept lat="53.3429" lon="6.42517"/>
    <rtept lat="53.34273" lon="6.42529"/>
    <rtept lat="53.34252" lon="6.42534"/>
    <rtept lat="53.34247" lon="6.42534"/>
    <rtept lat="53.34229" lon="6.42541"/>
    <rtept lat="53.34214" lon="6.42551"/>
    <rtept lat="53.34198" lon="6.42562"/>
    <rtept lat="53.34164" lon="6.42594"/>
    <rtept lat="53.34153" lon="6.42595"/>
    <rtept lat="53.34122" lon="6.4258"/>
    <rtept lat="53.34087" lon="6.42566"/>
    <rtept lat="53.34071" lon="6.42561"/>
    <rtept lat="53.34068" lon="6.4256"/>
    <rtept lat="53.34017" lon="6.42547"/>
    <rtept lat="53.34008" lon="6.42536"/>
    <rtept lat="53.34005" lon="6.42525"/>
    <rtept lat="53.33976" lon="6.42432"/>
    <rtept lat="53.33972" lon="6.42425"/>
    <rtept lat="53.33966" lon="6.42415"/>
    <rtept lat="53.33945" lon="6.42406"/>
    <rtept lat="53.33919" lon="6.42399"/>
    <rtept lat="53.33881" lon="6.42396"/>
    <rtept lat="53.3364" lon="6.4239"/>
    <rtept lat="53.33595" lon="6.42387"/>
    <rtept lat="53.33575" lon="6.42382"/>
    <rtept lat="53.33515" lon="6.42364"/>
    <rtept lat="53.33495" lon="6.42361"/>
    <rtept lat="53.33417" lon="6.42361"/>
    <rtept lat="53.33406" lon="6.42366"/>
    <rtept lat="53.33395" lon="6.42375"/>
    <rtept lat="53.33386" lon="6.42389"/>
    <rtept lat="53.33336" lon="6.42523"/>
    <rtept lat="53.3328" lon="6.42663"/>
    <rtept lat="53.33269" lon="6.42695"/>
    <rtept lat="53.33251" lon="6.42762"/>
    <rtept lat="53.33228" lon="6.42821"/>
    <rtept lat="53.33224" lon="6.42842"/>
    <rtept lat="53.3322" lon="6.42886"/>
    <rtept lat="53.33217" lon="6.42897"/>
    <rtept lat="53.33213" lon="6.42906"/>
    <rtept lat="53.33199" lon="6.42917"/>
    <rtept lat="53.33188" lon="6.42918"/>
    <rtept lat="53.33178" lon="6.42917"/>
    <rtept lat="53.33164" lon="6.42908"/>
    <rtept lat="53.33145" lon="6.4289"/>
    <rtept lat="53.33041" lon="6.42762"/>
    <rtept lat="53.33015" lon="6.42732"/>
    <rtept lat="53.32983" lon="6.42708"/>
    <rtept lat="53.32971" lon="6.42701"/>
    <rtept lat="53.32891" lon="6.42671"/>
    <rtept lat="53.32866" lon="6.42661"/>
    <rtept lat="53.3285" lon="6.42649"/>
    <rtept lat="53.32841" lon="6.42638"/>
    <rtept lat="53.32835" lon="6.42622"/>
    <rtept lat="53.32824" lon="6.42574"/>
    <rtept lat="53.3282" lon="6.42557"/>
    <rtept lat="53.32814" lon="6.42541"/>
    <rtept lat="53.328" lon="6.42523"/>
    <rtept lat="53.3279" lon="6.42516"/>
    <rtept lat="53.32778" lon="6.42515"/>
    <rtept lat="53.32756" lon="6.42522"/>
    <rtept lat="53.32706" lon="6.4255"/>
    <rtept lat="53.32677" lon="6.42568"/>
    <rtept lat="53.32657" lon="6.4258"/>
    <rtept lat="53.32633" lon="6.42583"/>
    <rtept lat="53.32259" lon="6.42523"/>
    <rtept lat="53.32186" lon="6.42508"/>
    <rtept lat="53.32169" lon="6.42502"/>
    <rtept lat="53.32132" lon="6.42478"/>
    <rtept lat="53.32103" lon="6.42464"/>
    <rtept lat="53.31844" lon="6.42406"/>
    <rtept lat="53.31795" lon="6.42393"/>
    <rtept lat="53.31783" lon="6.42387"/>
    <rtept lat="53.31773" lon="6.42376"/>
    <rtept lat="53.31769" lon="6.42369"/>
    <rtept lat="53.31767" lon="6.42356"/>
    <rtept lat="53.3176" lon="6.42295"/>
    <rtept lat="53.31746" lon="6.4224"/>
    <rtept lat="53.31736" lon="6.42203"/>
    <rtept lat="53.31721" lon="6.4218"/>
    <rtept lat="53.31709" lon="6.42168"/>
    <rtept lat="53.31687" lon="6.42159"/>
    <rtept lat="53.3167" lon="6.4216"/>
    <rtept lat="53.31654" lon="6.42167"/>
    <rtept lat="53.31607" lon="6.42197"/>
    <rtept lat="53.31583" lon="6.42208"/>
    <rtept lat="53.31564" lon="6.42214"/>
    <rtept lat="53.31541" lon="6.42213"/>
    <rtept lat="53.31528" lon="6.42206"/>
    <rtept lat="53.31514" lon="6.4219"/>
    <rtept lat="53.31502" lon="6.4217"/>
    <rtept lat="53.31482" lon="6.42144"/>
    <rtept lat="53.31473" lon="6.42137"/>
    <rtept lat="53.31388" lon="6.42095"/>
    <rtept lat="53.31363" lon="6.42083"/>
    <rtept lat="53.31328" lon="6.42068"/>
    <rtept lat="53.3127" lon="6.42054"/>
    <rtept lat="53.31262" lon="6.42055"/>
    <rtept lat="53.31257" lon="6.42058"/>
    <rtept lat="53.3125" lon="6.42068"/>
    <rtept lat="53.31212" lon="6.4213"/>
    <rtept lat="53.31191" lon="6.42164"/>
    <rtept lat="53.31176" lon="6.42178"/>
    <rtept lat="53.31164" lon="6.42187"/>
    <rtept lat="53.31161" lon="6.42189"/>
    <rtept lat="53.31161" lon="6.42202"/>
    <rtept lat="53.31158" lon="6.4223"/>
    <rtept lat="53.31153" lon="6.42234"/>
    <rtept lat="53.31151" lon="6.42262"/>
    <rtept lat="53.31023" lon="6.43064"/>
    <rtept lat="53.309" lon="6.43734"/>
    <rtept lat="53.30891" lon="6.43775"/>
    <rtept lat="53.30869" lon="6.439"/>
    <rtept lat="53.30867" lon="6.4394"/>
    <rtept lat="53.30859" lon="6.4407"/>
    <rtept lat="53.30855" lon="6.44159"/>
    <rtept lat="53.30851" lon="6.44184"/>
    <rtept lat="53.30844" lon="6.44211"/>
    <rtept lat="53.30834" lon="6.44232"/>
    <rtept lat="53.3069" lon="6.44485"/>
    <rtept lat="53.30673" lon="6.44515"/>
    <rtept lat="53.30662" lon="6.44532"/>
    <rtept lat="53.30643" lon="6.44556"/>
    <rtept lat="53.30613" lon="6.44583"/>
    <rtept lat="53.30595" lon="6.44608"/>
    <rtept lat="53.3057" lon="6.44649"/>
    <rtept lat="53.30556" lon="6.44674"/>
    <rtept lat="53.30482" lon="6.44799"/>
    <rtept lat="53.30461" lon="6.44847"/>
    <rtept lat="53.30456" lon="6.44867"/>
    <rtept lat="53.30447" lon="6.44957"/>
    <rtept lat="53.30402" lon="6.45449"/>
    <rtept lat="53.30392" lon="6.45554"/>
    <rtept lat="53.30389" lon="6.45582"/>
    <rtept lat="53.30389" lon="6.45621"/>
    <rtept lat="53.30394" lon="6.45647"/>
    <rtept lat="53.30398" lon="6.4566"/>
    <rtept lat="53.30456" lon="6.45782"/>
    <rtept lat="53.30478" lon="6.45824"/>
    <rtept lat="53.3054" lon="6.45923"/>
    <rtept lat="53.30549" lon="6.45946"/>
    <rtept lat="53.30555" lon="6.45969"/>
    <rtept lat="53.30557" lon="6.46014"/>
    <rtept lat="53.30541" lon="6.46171"/>
    <rtept lat="53.30539" lon="6.46206"/>
    <rtept lat="53.3054" lon="6.46234"/>
    <rtept lat="53.30543" lon="6.46271"/>
    <rtept lat="53.30553" lon="6.46336"/>
    <rtept lat="53.30559" lon="6.46384"/>
    <rtept lat="53.30562" lon="6.46426"/>
    <rtept lat="53.30506" lon="6.46449"/>
    <rtept lat="53.30446" lon="6.46483"/>
    <rtept lat="53.30437" lon="6.4649"/>
    <rtept lat="53.30409" lon="6.46524"/>
    <rtept lat="53.30372" lon="6.46571"/>
    <rtept lat="53.30358" lon="6.46598"/>
    <rtept lat="53.30317" lon="6.4672"/>
    <rtept lat="53.30309" lon="6.46742"/>
    <rtept lat="53.30303" lon="6.46752"/>
    <rtept lat="53.30293" lon="6.4676"/>
    <rtept lat="53.30207" lon="6.46793"/>
    <rtept lat="53.30185" lon="6.46797"/>
    <rtept lat="53.3008" lon="6.46794"/>
    <rtept lat="53.30042" lon="6.46796"/>
    <rtept lat="53.29959" lon="6.4682"/>
    <rtept lat="53.29914" lon="6.46836"/>
    <rtept lat="53.29889" lon="6.46841"/>
    <rtept lat="53.29779" lon="6.46845"/>
    <rtept lat="53.2977" lon="6.46852"/>
    <rtept lat="53.29763" lon="6.46865"/>
    <rtept lat="53.29738" lon="6.46923"/>
    <rtept lat="53.2972" lon="6.46951"/>
    <rtept lat="53.29702" lon="6.46969"/>
    <rtept lat="53.2965" lon="6.47002"/>
    <rtept lat="53.29627" lon="6.47026"/>
    <rtept lat="53.29611" lon="6.47046"/>
    <rtept lat="53.29595" lon="6.47074"/>
    <rtept lat="53.29584" lon="6.471"/>
    <rtept lat="53.29575" lon="6.47144"/>
    <rtept lat="53.29562" lon="6.47169"/>
    <rtept lat="53.29544" lon="6.47193"/>
    <rtept lat="53.29535" lon="6.47201"/>
    <rtept lat="53.29452" lon="6.47244"/>
    <rtept lat="53.29443" lon="6.47236"/>
    <rtept lat="53.29435" lon="6.47264"/>
    <rtept lat="53.29403" lon="6.47511"/>
    <rtept lat="53.29395" lon="6.47533"/>
    <rtept lat="53.2938" lon="6.47558"/>
    <rtept lat="53.29379" lon="6.4757"/>
    <rtept lat="53.29386" lon="6.4758"/>
    <rtept lat="53.29399" lon="6.47594"/>
    <rtept lat="53.29402" lon="6.47604"/>
    <rtept lat="53.29401" lon="6.47618"/>
    <rtept lat="53.2936" lon="6.47824"/>
    <rtept lat="53.29343" lon="6.47966"/>
    <rtept lat="53.2934" lon="6.47973"/>
    <rtept lat="53.29335" lon="6.47974"/>
    <rtept lat="53.2932" lon="6.47967"/>
    <rtept lat="53.29314" lon="6.47969"/>
    <rtept lat="53.29311" lon="6.47977"/>
    <rtept lat="53.29295" lon="6.48122"/>
    <rtept lat="53.29297" lon="6.48134"/>
    <rtept lat="53.29352" lon="6.4816"/>
    <rtept lat="53.29358" lon="6.48166"/>
    <rtept lat="53.29359" lon="6.48174"/>
    <rtept lat="53.29345" lon="6.48235"/>
    <rtept lat="53.29344" lon="6.48255"/>
    <rtept lat="53.29317" lon="6.48264"/>
    <rtept lat="53.29296" lon="6.4828"/>
    <rtept lat="53.29279" lon="6.48288"/>
    <rtept lat="53.29123" lon="6.48334"/>
    <rtept lat="53.28924" lon="6.48365"/>
    <rtept lat="53.28922" lon="6.48366"/>
    <rtept lat="53.28523" lon="6.48423"/>
    <rtept lat="53.2844" lon="6.48431"/>
    <rtept lat="53.28019" lon="6.48457"/>
    <rtept lat="53.27928" lon="6.48456"/>
    <rtept lat="53.27037" lon="6.48372"/>
    <rtept lat="53.26854" lon="6.48347"/>
    <rtept lat="53.26552" lon="6.48305"/>
    <rtept lat="53.26344" lon="6.48279"/>
    <rtept lat="53.26322" lon="6.48275"/>
    <rtept lat="53.26307" lon="6.48266"/>
    <rtept lat="53.26292" lon="6.48252"/>
    <rtept lat="53.26243" lon="6.48186"/>
    <rtept lat="53.26227" lon="6.48172"/>
    <rtept lat="53.26217" lon="6.48169"/>
    <rtept lat="53.26209" lon="6.4817"/>
    <rtept lat="53.26176" lon="6.48186"/>
    <rtept lat="53.26184" lon="6.48227"/>
    <rtept lat="53.26187" lon="6.48248"/>
    <rtept lat="53.26188" lon="6.48273"/>
    <rtept lat="53.26185" lon="6.48337"/>
    <rtept lat="53.26177" lon="6.48389"/>
    <rtept lat="53.26146" lon="6.48509"/>
    <rtept lat="53.26142" lon="6.4853"/>
    <rtept lat="53.26094" lon="6.48847"/>
    <rtept lat="53.26059" lon="6.49113"/>
    <rtept lat="53.26006" lon="6.49555"/>
    <rtept lat="53.25957" lon="6.49947"/>
    <rtept lat="53.25931" lon="6.50117"/>
    <rtept lat="53.2593" lon="6.50131"/>
    <rtept lat="53.25932" lon="6.50158"/>
    <rtept lat="53.25931" lon="6.50175"/>
    <rtept lat="53.25926" lon="6.50189"/>
    <rtept lat="53.2592" lon="6.50196"/>
    <rtept lat="53.25913" lon="6.50199"/>
    <rtept lat="53.25901" lon="6.50195"/>
    <rtept lat="53.25844" lon="6.50169"/>
    <rtept lat="53.25833" lon="6.50165"/>
    <rtept lat="53.25823" lon="6.50271"/>
    <rtept lat="53.25817" lon="6.50316"/>
    <rtept lat="53.25788" lon="6.50467"/>
    <rtept lat="53.25761" lon="6.50573"/>
    <rtept lat="53.25728" lon="6.50695"/>
    <rtept lat="53.25712" lon="6.50739"/>
    <rtept lat="53.257" lon="6.5076"/>
    <rtept lat="53.25685" lon="6.50771"/>
    <rtept lat="53.25641" lon="6.50788"/>
    <rtept lat="53.25635" lon="6.50792"/>
    <rtept lat="53.2563" lon="6.50799"/>
    <rtept lat="53.25629" lon="6.50805"/>
    <rtept lat="53.25627" lon="6.50827"/>
    <rtept lat="53.25632" lon="6.50863"/>
    <rtept lat="53.25634" lon="6.50882"/>
    <rtept lat="53.25637" lon="6.509"/>
    <rtept lat="53.25642" lon="6.50914"/>
    <rtept lat="53.25649" lon="6.50943"/>
    <rtept lat="53.25455" lon="6.51137"/>
    <rtept lat="53.2543" lon="6.51173"/>
    <rtept lat="53.25272" lon="6.51462"/>
    <rtept lat="53.25232" lon="6.51554"/>
    <rtept lat="53.25185" lon="6.51675"/>
    <rtept lat="53.25169" lon="6.51708"/>
    <rtept lat="53.25138" lon="6.51761"/>
    <rtept lat="53.25115" lon="6.51794"/>
    <rtept lat="53.25083" lon="6.51833"/>
    <rtept lat="53.25058" lon="6.51856"/>
    <rtept lat="53.25025" lon="6.51882"/>
    <rtept lat="53.2502" lon="6.51891"/>
    <rtept lat="53.25016" lon="6.51925"/>
    <rtept lat="53.25016" lon="6.5195"/>
    <rtept lat="53.25026" lon="6.52059"/>
    <rtept lat="53.24796" lon="6.52219"/>
    <rtept lat="53.24403" lon="6.52492"/>
    <rtept lat="53.24364" lon="6.52519"/>
    <rtept lat="53.2436" lon="6.5252"/>
    <rtept lat="53.24344" lon="6.52532"/>
    <rtept lat="53.24341" lon="6.52534"/>
    <rtept lat="53.24229" lon="6.52612"/>
    <rtept lat="53.24224" lon="6.52614"/>
    <rtept lat="53.24217" lon="6.52612"/>
    <rtept lat="53.24195" lon="6.52585"/>
    <rtept lat="53.24178" lon="6.52576"/>
    <rtept lat="53.24171" lon="6.52577"/>
    <rtept lat="53.2415" lon="6.52588"/>
    <rtept lat="53.24093" lon="6.52637"/>
    <rtept lat="53.24072" lon="6.52647"/>
    <rtept lat="53.24051" lon="6.52652"/>
    <rtept lat="53.23976" lon="6.52653"/>
    <rtept lat="53.23937" lon="6.52677"/>
    <rtept lat="53.23853" lon="6.52752"/>
    <rtept lat="53.23806" lon="6.52794"/>
    <rtept lat="53.23657" lon="6.52923"/>
    <rtept lat="53.23566" lon="6.52965"/>
    <rtept lat="53.23494" lon="6.53012"/>
    <rtept lat="53.23431" lon="6.53051"/>
    <rtept lat="53.23366" lon="6.53093"/>
    <rtept lat="53.23343" lon="6.53109"/>
    <rtept lat="53.23324" lon="6.53126"/>
    <rtept lat="53.23294" lon="6.53172"/>
    <rtept lat="53.23229" lon="6.53279"/>
    <rtept lat="53.23204" lon="6.533"/>
    <rtept lat="53.23178" lon="6.53308"/>
    <rtept lat="53.23133" lon="6.5331"/>
    <rtept lat="53.23079" lon="6.53323"/>
    <rtept lat="53.23038" lon="6.5334"/>
    <rtept lat="53.23008" lon="6.53356"/>
    <rtept lat="53.22962" lon="6.53395"/>
    <rtept lat="53.22891" lon="6.53465"/>
    <rtept lat="53.22882" lon="6.53472"/>
    <rtept lat="53.22831" lon="6.53504"/>
    <rtept lat="53.22764" lon="6.53549"/>
    <rtept lat="53.22762" lon="6.53554"/>
    <rtept lat="53.2276" lon="6.53563"/>
    <rtept lat="53.22768" lon="6.53602"/>
    <rtept lat="53.22756" lon="6.5361"/>
    <rtept lat="53.22751" lon="6.53614"/>
    <rtept lat="53.22744" lon="6.53619"/>
    <rtept lat="53.22738" lon="6.53623"/>
    <rtept lat="53.22734" lon="6.53625"/>
    <rtept lat="53.2273" lon="6.53623"/>
    <rtept lat="53.22713" lon="6.53592"/>
    <rtept lat="53.22708" lon="6.5359"/>
    <rtept lat="53.22541" lon="6.53716"/>
    <rtept lat="53.2248" lon="6.53771"/>
    <rtept lat="53.22469" lon="6.53783"/>
    <rtept lat="53.22453" lon="6.53815"/>
    <rtept lat="53.22437" lon="6.5384"/>
    <rtept lat="53.22422" lon="6.5385"/>
    <rtept lat="53.22403" lon="6.53859"/>
    <rtept lat="53.22392" lon="6.53867"/>
    <rtept lat="53.22374" lon="6.53886"/>
    <rtept lat="53.22369" lon="6.53895"/>
    <rtept lat="53.22362" lon="6.53913"/>
    <rtept lat="53.22358" lon="6.53925"/>
    <rtept lat="53.2235" lon="6.53938"/>
    <rtept lat="53.22317" lon="6.53984"/>
    <rtept lat="53.22273" lon="6.54042"/>
    <rtept lat="53.2226" lon="6.54054"/>
    <rtept lat="53.22249" lon="6.54065"/>
    <rtept lat="53.22214" lon="6.54087"/>
    <rtept lat="53.22191" lon="6.54111"/>
    <rtept lat="53.22162" lon="6.54166"/>
    <rtept lat="53.22144" lon="6.54203"/>
    <rtept lat="53.22144" lon="6.54217"/>
    <rtept lat="53.22151" lon="6.54282"/>
    <rtept lat="53.22152" lon="6.54294"/>
    <rtept lat="53.2215" lon="6.54306"/>
    <rtept lat="53.22146" lon="6.54314"/>
    <rtept lat="53.2214" lon="6.54317"/>
    <rtept lat="53.221" lon="6.54321"/>
    <rtept lat="53.22076" lon="6.54332"/>
    <rtept lat="53.22036" lon="6.54384"/>
    <rtept lat="53.22017" lon="6.54414"/>
    <rtept lat="53.22002" lon="6.5444"/>
    <rtept lat="53.21984" lon="6.54475"/>
    <rtept lat="53.21966" lon="6.54511"/>
    <rtept lat="53.21961" lon="6.54521"/>
    <rtept lat="53.21946" lon="6.54579"/>
    <rtept lat="53.21937" lon="6.54628"/>
    <rtept lat="53.2193" lon="6.54681"/>
    <rtept lat="53.21928" lon="6.54714"/>
    <rtept lat="53.21929" lon="6.54802"/>
    <rtept lat="53.21928" lon="6.5482"/>
    <rtept lat="53.21932" lon="6.54823"/>
    <rtept lat="53.21929" lon="6.54832"/>
    <rtept lat="53.21929" lon="6.54841"/>
    <rtept lat="53.21934" lon="6.54853"/>
    <rtept lat="53.21937" lon="6.54864"/>
    <rtept lat="53.21952" lon="6.54946"/>
    <rtept lat="53.21962" lon="6.55005"/>
    <rtept lat="53.21969" lon="6.55067"/>
    <rtept lat="53.21975" lon="6.55229"/>
    <rtept lat="53.2197" lon="6.55294"/>
    <rtept lat="53.21962" lon="6.55343"/>
    <rtept lat="53.21931" lon="6.5548"/>
    <rtept lat="53.2193" lon="6.55498"/>
    <rtept lat="53.2193" lon="6.55517"/>
    <rtept lat="53.21934" lon="6.55553"/>
    <rtept lat="53.21931" lon="6.5557"/>
    <rtept lat="53.21927" lon="6.55576"/>
    <rtept lat="53.21923" lon="6.55589"/>
    <rtept lat="53.21922" lon="6.5559"/>
    <rtept lat="53.21912" lon="6.55593"/>
    <rtept lat="53.21899" lon="6.55597"/>
    <rtept lat="53.21849" lon="6.55617"/>
    <rtept lat="53.21836" lon="6.55624"/>
    <rtept lat="53.21838" lon="6.55642"/>
    <rtept lat="53.21843" lon="6.55639"/>
  </rte>
</gpx>