<?xml version="1.0" encoding="UTF-8" standalone="no" ?>
<gpx xmlns="http://www.topografix.com/GPX/1/1"
		xmlns:gpxx="http://www.garmin.com/xmlschemas/GpxExtensions/v3"
		xmlns:gpxtpx="http://www.garmin.com/xmlschemas/TrackPointExtension/v1"
		xmlns:xsi="http://www.w3.org/2001/XMLSchema-instance"
		xsi:schemaLocation="http://www.topografix.com/GPX/1/1 http://www.topografix.com/GPX/1/1/gpx.xsd http://www.garmin.com/xmlschemas/GpxExtensions/v3 http://www.garmin.com/xmlschemas/GpxExtensionsv3.xsd http://www.garmin.com/xmlschemas/TrackPointExtension/v1 http://www.garmin.com/xmlschemas/TrackPointExtensionv1.xsd"
		creator="Gravelmap.com"
		version="1.1">

	<metadata>
		<name><![CDATA[Gravel Route: rondje gravel in Zwolle ]]></name>
		<desc><![CDATA[]]></desc>
		<link href="http://www.gravelmap.com/route/128256">
			<text><![CDATA[Gravel Route: rondje gravel in Zwolle ]]></text>
		</link>
		<time>2022-09-30T12:54:25-04:00</time>
	</metadata>

	<trk>
		<name><![CDATA[Gravel Route: rondje gravel in Zwolle ]]></name>
		<desc><![CDATA[]]></desc>
		<link href="http://www.gravelmap.com/route/128256">
			<text><![CDATA[Gravel Route: rondje gravel in Zwolle ]]></text>
		</link>
		<trkseg>
			<trkpt lat="52.49795" lon="6.09149">
				<ele>3.09</ele>
			</trkpt>
			<trkpt lat="52.49795" lon="6.0915">
				<ele>3.09</ele>
			</trkpt>
			<trkpt lat="52.49781" lon="6.09142">
				<ele>3.09</ele>
			</trkpt>
			<trkpt lat="52.49766" lon="6.09146">
				<ele>2.84</ele>
			</trkpt>
			<trkpt lat="52.49703" lon="6.09024">
				<ele>2.84</ele>
			</trkpt>
			<trkpt lat="52.49704" lon="6.09011">
				<ele>2.22</ele>
			</trkpt>
			<trkpt lat="52.497" lon="6.0901">
				<ele>2.22</ele>
			</trkpt>
			<trkpt lat="52.49687" lon="6.09044">
				<ele>3.61</ele>
			</trkpt>
			<trkpt lat="52.49673" lon="6.08898">
				<ele>3.61</ele>
			</trkpt>
			<trkpt lat="52.49673" lon="6.08898">
				<ele>3.52</ele>
			</trkpt>
			<trkpt lat="52.49663" lon="6.08796">
				<ele>3.52</ele>
			</trkpt>
			<trkpt lat="52.49621" lon="6.08906">
				<ele>2.99</ele>
			</trkpt>
			<trkpt lat="52.49621" lon="6.08906">
				<ele>2.99</ele>
			</trkpt>
			<trkpt lat="52.49611" lon="6.08936">
				<ele>2.89</ele>
			</trkpt>
			<trkpt lat="52.49602" lon="6.08984">
				<ele>2.89</ele>
			</trkpt>
			<trkpt lat="52.49601" lon="6.09007">
				<ele>2.68</ele>
			</trkpt>
			<trkpt lat="52.49595" lon="6.09018">
				<ele>2.68</ele>
			</trkpt>
			<trkpt lat="52.49406" lon="6.08651">
				<ele>2.02</ele>
			</trkpt>
			<trkpt lat="52.49406" lon="6.08651">
				<ele>2.02</ele>
			</trkpt>
			<trkpt lat="52.49404" lon="6.08648">
				<ele>1.77</ele>
			</trkpt>
			<trkpt lat="52.49397" lon="6.0866">
				<ele>1.77</ele>
			</trkpt>
			<trkpt lat="52.49298" lon="6.0882">
				<ele>1.83</ele>
			</trkpt>
			<trkpt lat="52.49228" lon="6.09002">
				<ele>1.83</ele>
			</trkpt>
			<trkpt lat="52.49228" lon="6.09002">
				<ele>2.39</ele>
			</trkpt>
			<trkpt lat="52.49164" lon="6.09171">
				<ele>2.39</ele>
			</trkpt>
			<trkpt lat="52.49124" lon="6.09297">
				<ele>2.02</ele>
			</trkpt>
			<trkpt lat="52.49102" lon="6.09278">
				<ele>2.02</ele>
			</trkpt>
			<trkpt lat="52.49102" lon="6.09278">
				<ele>2.43</ele>
			</trkpt>
			<trkpt lat="52.49095" lon="6.09277">
				<ele>2.43</ele>
			</trkpt>
			<trkpt lat="52.49074" lon="6.09301">
				<ele>2.61</ele>
			</trkpt>
			<trkpt lat="52.49058" lon="6.09309">
				<ele>2.61</ele>
			</trkpt>
			<trkpt lat="52.49042" lon="6.09304">
				<ele>2.66</ele>
			</trkpt>
			<trkpt lat="52.49021" lon="6.09285">
				<ele>2.66</ele>
			</trkpt>
			<trkpt lat="52.48985" lon="6.09331">
				<ele>3.08</ele>
			</trkpt>
			<trkpt lat="52.48968" lon="6.09345">
				<ele>3.08</ele>
			</trkpt>
			<trkpt lat="52.48942" lon="6.09355">
				<ele>2.26</ele>
			</trkpt>
			<trkpt lat="52.48943" lon="6.09358">
				<ele>2.26</ele>
			</trkpt>
			<trkpt lat="52.48943" lon="6.09358">
				<ele>2.98</ele>
			</trkpt>
			<trkpt lat="52.48913" lon="6.09192">
				<ele>2.98</ele>
			</trkpt>
			<trkpt lat="52.48897" lon="6.08922">
				<ele>3.07</ele>
			</trkpt>
			<trkpt lat="52.48897" lon="6.08922">
				<ele>3.07</ele>
			</trkpt>
			<trkpt lat="52.48887" lon="6.08741">
				<ele>3.75</ele>
			</trkpt>
			<trkpt lat="52.48883" lon="6.08711">
				<ele>3.75</ele>
			</trkpt>
			<trkpt lat="52.48848" lon="6.08748">
				<ele>3.77</ele>
			</trkpt>
			<trkpt lat="52.48848" lon="6.08748">
				<ele>3.77</ele>
			</trkpt>
			<trkpt lat="52.48831" lon="6.08763">
				<ele>3.74</ele>
			</trkpt>
			<trkpt lat="52.48518" lon="6.0891">
				<ele>3.74</ele>
			</trkpt>
			<trkpt lat="52.48401" lon="6.08918">
				<ele>3.1</ele>
			</trkpt>
			<trkpt lat="52.48283" lon="6.0891">
				<ele>3.1</ele>
			</trkpt>
			<trkpt lat="52.48283" lon="6.0891">
				<ele>1.98</ele>
			</trkpt>
			<trkpt lat="52.48237" lon="6.0891">
				<ele>1.98</ele>
			</trkpt>
			<trkpt lat="52.48146" lon="6.08925">
				<ele>2.95</ele>
			</trkpt>
			<trkpt lat="52.48111" lon="6.08936">
				<ele>2.95</ele>
			</trkpt>
			<trkpt lat="52.48082" lon="6.08956">
				<ele>4.41</ele>
			</trkpt>
			<trkpt lat="52.48061" lon="6.09012">
				<ele>4.41</ele>
			</trkpt>
			<trkpt lat="52.48029" lon="6.09121">
				<ele>2.68</ele>
			</trkpt>
			<trkpt lat="52.48029" lon="6.09135">
				<ele>2.68</ele>
			</trkpt>
			<trkpt lat="52.48042" lon="6.09199">
				<ele>3.33</ele>
			</trkpt>
			<trkpt lat="52.48065" lon="6.09406">
				<ele>3.33</ele>
			</trkpt>
			<trkpt lat="52.48047" lon="6.09466">
				<ele>3.59</ele>
			</trkpt>
			<trkpt lat="52.47705" lon="6.09724">
				<ele>3.59</ele>
			</trkpt>
			<trkpt lat="52.47521" lon="6.09962">
				<ele>3.1</ele>
			</trkpt>
			<trkpt lat="52.47396" lon="6.09959">
				<ele>3.1</ele>
			</trkpt>
			<trkpt lat="52.47226" lon="6.1005">
				<ele>2.09</ele>
			</trkpt>
			<trkpt lat="52.47226" lon="6.1005">
				<ele>2.09</ele>
			</trkpt>
			<trkpt lat="52.47202" lon="6.10071">
				<ele>2.09</ele>
			</trkpt>
			<trkpt lat="52.47175" lon="6.10106">
				<ele>0.88</ele>
			</trkpt>
			<trkpt lat="52.47162" lon="6.10142">
				<ele>0.88</ele>
			</trkpt>
			<trkpt lat="52.47153" lon="6.10204">
				<ele>-0.51</ele>
			</trkpt>
			<trkpt lat="52.47141" lon="6.1023">
				<ele>-0.51</ele>
			</trkpt>
			<trkpt lat="52.47067" lon="6.10288">
				<ele>-0.04</ele>
			</trkpt>
			<trkpt lat="52.47057" lon="6.10302">
				<ele>-0.04</ele>
			</trkpt>
			<trkpt lat="52.47054" lon="6.10311">
				<ele>1.99</ele>
			</trkpt>
			<trkpt lat="52.47056" lon="6.1034">
				<ele>1.99</ele>
			</trkpt>
			<trkpt lat="52.47098" lon="6.10473">
				<ele>1.09</ele>
			</trkpt>
			<trkpt lat="52.47125" lon="6.10603">
				<ele>1.09</ele>
			</trkpt>
			<trkpt lat="52.47125" lon="6.10603">
				<ele>3.01</ele>
			</trkpt>
			<trkpt lat="52.4714" lon="6.10653">
				<ele>3.01</ele>
			</trkpt>
			<trkpt lat="52.47176" lon="6.10745">
				<ele>4.38</ele>
			</trkpt>
			<trkpt lat="52.47179" lon="6.10771">
				<ele>4.38</ele>
			</trkpt>
			<trkpt lat="52.47176" lon="6.10796">
				<ele>3.27</ele>
			</trkpt>
			<trkpt lat="52.47168" lon="6.10816">
				<ele>3.27</ele>
			</trkpt>
			<trkpt lat="52.4715" lon="6.10844">
				<ele>2.19</ele>
			</trkpt>
			<trkpt lat="52.47124" lon="6.10858">
				<ele>2.19</ele>
			</trkpt>
			<trkpt lat="52.47125" lon="6.10876">
				<ele>3.35</ele>
			</trkpt>
			<trkpt lat="52.47161" lon="6.10878">
				<ele>3.35</ele>
			</trkpt>
			<trkpt lat="52.47173" lon="6.10883">
				<ele>3.09</ele>
			</trkpt>
			<trkpt lat="52.47191" lon="6.10891">
				<ele>3.09</ele>
			</trkpt>
			<trkpt lat="52.4723" lon="6.10922">
				<ele>3.32</ele>
			</trkpt>
			<trkpt lat="52.4723" lon="6.10922">
				<ele>3.32</ele>
			</trkpt>
			<trkpt lat="52.47327" lon="6.11014">
				<ele>3.54</ele>
			</trkpt>
			<trkpt lat="52.47336" lon="6.11026">
				<ele>3.54</ele>
			</trkpt>
			<trkpt lat="52.47358" lon="6.1106">
				<ele>3.65</ele>
			</trkpt>
			<trkpt lat="52.4738" lon="6.11125">
				<ele>3.65</ele>
			</trkpt>
			<trkpt lat="52.47373" lon="6.11132">
				<ele>3.72</ele>
			</trkpt>
			<trkpt lat="52.47373" lon="6.11132">
				<ele>3.72</ele>
			</trkpt>
			<trkpt lat="52.47416" lon="6.1109">
				<ele>3.82</ele>
			</trkpt>
			<trkpt lat="52.47423" lon="6.11089">
				<ele>3.82</ele>
			</trkpt>
			<trkpt lat="52.47525" lon="6.11186">
				<ele>2.77</ele>
			</trkpt>
			<trkpt lat="52.47525" lon="6.11186">
				<ele>2.77</ele>
			</trkpt>
			<trkpt lat="52.47642" lon="6.11298">
				<ele>2.74</ele>
			</trkpt>
			<trkpt lat="52.47722" lon="6.11401">
				<ele>2.74</ele>
			</trkpt>
			<trkpt lat="52.47828" lon="6.11637">
				<ele>3.88</ele>
			</trkpt>
			<trkpt lat="52.47943" lon="6.11946">
				<ele>3.88</ele>
			</trkpt>
			<trkpt lat="52.47972" lon="6.11984">
				<ele>4.38</ele>
			</trkpt>
			<trkpt lat="52.47983" lon="6.12013">
				<ele>4.38</ele>
			</trkpt>
			<trkpt lat="52.47719" lon="6.12286">
				<ele>-0.63</ele>
			</trkpt>
			<trkpt lat="52.47719" lon="6.12286">
				<ele>-0.63</ele>
			</trkpt>
			<trkpt lat="52.47699" lon="6.12306">
				<ele>1.64</ele>
			</trkpt>
			<trkpt lat="52.47702" lon="6.1232">
				<ele>1.64</ele>
			</trkpt>
			<trkpt lat="52.47701" lon="6.1235">
				<ele>4.35</ele>
			</trkpt>
			<trkpt lat="52.47692" lon="6.12374">
				<ele>4.35</ele>
			</trkpt>
			<trkpt lat="52.47659" lon="6.12422">
				<ele>9.44</ele>
			</trkpt>
			<trkpt lat="52.47682" lon="6.12445">
				<ele>9.44</ele>
			</trkpt>
			<trkpt lat="52.47696" lon="6.12468">
				<ele>13.56</ele>
			</trkpt>
			<trkpt lat="52.47696" lon="6.12484">
				<ele>13.56</ele>
			</trkpt>
			<trkpt lat="52.47693" lon="6.12506">
				<ele>8.68</ele>
			</trkpt>
			<trkpt lat="52.47693" lon="6.12506">
				<ele>8.68</ele>
			</trkpt>
			<trkpt lat="52.47683" lon="6.12568">
				<ele>9.46</ele>
			</trkpt>
			<trkpt lat="52.47682" lon="6.12606">
				<ele>9.46</ele>
			</trkpt>
			<trkpt lat="52.47695" lon="6.12631">
				<ele>8.99</ele>
			</trkpt>
			<trkpt lat="52.47698" lon="6.12676">
				<ele>8.99</ele>
			</trkpt>
			<trkpt lat="52.47689" lon="6.12714">
				<ele>6.42</ele>
			</trkpt>
			<trkpt lat="52.47672" lon="6.12765">
				<ele>6.42</ele>
			</trkpt>
			<trkpt lat="52.47679" lon="6.12767">
				<ele>4.26</ele>
			</trkpt>
			<trkpt lat="52.47679" lon="6.12767">
				<ele>4.26</ele>
			</trkpt>
			<trkpt lat="52.47672" lon="6.12765">
				<ele>3.04</ele>
			</trkpt>
			<trkpt lat="52.4766" lon="6.12796">
				<ele>3.04</ele>
			</trkpt>
			<trkpt lat="52.47659" lon="6.12829">
				<ele>0.51</ele>
			</trkpt>
			<trkpt lat="52.47661" lon="6.12869">
				<ele>0.51</ele>
			</trkpt>
			<trkpt lat="52.47659" lon="6.12898">
				<ele>0.51</ele>
			</trkpt>
			<trkpt lat="52.47646" lon="6.12939">
				<ele>0.87</ele>
			</trkpt>
			<trkpt lat="52.47636" lon="6.12956">
				<ele>0.87</ele>
			</trkpt>
			<trkpt lat="52.47583" lon="6.1301">
				<ele>1</ele>
			</trkpt>
			<trkpt lat="52.47568" lon="6.13014">
				<ele>1</ele>
			</trkpt>
			<trkpt lat="52.47568" lon="6.13014">
				<ele>2.02</ele>
			</trkpt>
			<trkpt lat="52.47553" lon="6.1301">
				<ele>2.02</ele>
			</trkpt>
			<trkpt lat="52.47528" lon="6.13026">
				<ele>3.43</ele>
			</trkpt>
			<trkpt lat="52.4752" lon="6.12994">
				<ele>3.43</ele>
			</trkpt>
			<trkpt lat="52.47503" lon="6.12998">
				<ele>2.74</ele>
			</trkpt>
			<trkpt lat="52.47482" lon="6.12996">
				<ele>2.74</ele>
			</trkpt>
			<trkpt lat="52.47474" lon="6.12982">
				<ele>0.14</ele>
			</trkpt>
			<trkpt lat="52.47467" lon="6.12986">
				<ele>0.14</ele>
			</trkpt>
			<trkpt lat="52.47467" lon="6.12986">
				<ele>0.61</ele>
			</trkpt>
			<trkpt lat="52.47423" lon="6.13007">
				<ele>0.61</ele>
			</trkpt>
			<trkpt lat="52.47414" lon="6.13021">
				<ele>1.33</ele>
			</trkpt>
			<trkpt lat="52.47409" lon="6.13038">
				<ele>1.33</ele>
			</trkpt>
			<trkpt lat="52.47387" lon="6.13046">
				<ele>1.6</ele>
			</trkpt>
			<trkpt lat="52.47391" lon="6.13062">
				<ele>1.6</ele>
			</trkpt>
			<trkpt lat="52.47391" lon="6.13062">
				<ele>1</ele>
			</trkpt>
			<trkpt lat="52.47394" lon="6.13078">
				<ele>1</ele>
			</trkpt>
			<trkpt lat="52.4738" lon="6.13136">
				<ele>0</ele>
			</trkpt>
			<trkpt lat="52.47378" lon="6.13166">
				<ele>0</ele>
			</trkpt>
			<trkpt lat="52.47383" lon="6.13194">
				<ele>0</ele>
			</trkpt>
			<trkpt lat="52.47395" lon="6.13216">
				<ele>0</ele>
			</trkpt>
			<trkpt lat="52.47409" lon="6.13228">
				<ele>0</ele>
			</trkpt>
			<trkpt lat="52.47449" lon="6.13233">
				<ele>0</ele>
			</trkpt>
			<trkpt lat="52.47458" lon="6.13246">
				<ele>0.01</ele>
			</trkpt>
			<trkpt lat="52.47465" lon="6.13272">
				<ele>0.01</ele>
			</trkpt>
			<trkpt lat="52.47475" lon="6.13285">
				<ele>0.03</ele>
			</trkpt>
			<trkpt lat="52.4749" lon="6.13293">
				<ele>0.03</ele>
			</trkpt>
			<trkpt lat="52.47529" lon="6.13291">
				<ele>-0.59</ele>
			</trkpt>
			<trkpt lat="52.4755" lon="6.13308">
				<ele>-0.59</ele>
			</trkpt>
			<trkpt lat="52.47562" lon="6.1331">
				<ele>0.09</ele>
			</trkpt>
			<trkpt lat="52.47562" lon="6.1331">
				<ele>0.09</ele>
			</trkpt>
			<trkpt lat="52.47574" lon="6.13297">
				<ele>0.23</ele>
			</trkpt>
			<trkpt lat="52.47574" lon="6.13312">
				<ele>0.23</ele>
			</trkpt>
			<trkpt lat="52.47579" lon="6.13328">
				<ele>0.25</ele>
			</trkpt>
			<trkpt lat="52.47593" lon="6.13411">
				<ele>0.25</ele>
			</trkpt>
			<trkpt lat="52.47579" lon="6.13436">
				<ele>0</ele>
			</trkpt>
			<trkpt lat="52.47579" lon="6.13436">
				<ele>0</ele>
			</trkpt>
			<trkpt lat="52.4757" lon="6.13445">
				<ele>0</ele>
			</trkpt>
			<trkpt lat="52.4756" lon="6.13448">
				<ele>0</ele>
			</trkpt>
			<trkpt lat="52.47402" lon="6.13407">
				<ele>0.75</ele>
			</trkpt>
			<trkpt lat="52.47402" lon="6.13407">
				<ele>0.75</ele>
			</trkpt>
			<trkpt lat="52.47257" lon="6.1337">
				<ele>1</ele>
			</trkpt>
			<trkpt lat="52.47274" lon="6.13298">
				<ele>1</ele>
			</trkpt>
			<trkpt lat="52.47274" lon="6.13298">
				<ele>1</ele>
			</trkpt>
			<trkpt lat="52.47257" lon="6.1337">
				<ele>1</ele>
			</trkpt>
			<trkpt lat="52.4717" lon="6.13345">
				<ele>2.81</ele>
			</trkpt>
			<trkpt lat="52.47125" lon="6.13198">
				<ele>2.81</ele>
			</trkpt>
			<trkpt lat="52.471" lon="6.13163">
				<ele>0.83</ele>
			</trkpt>
			<trkpt lat="52.47088" lon="6.13099">
				<ele>0.83</ele>
			</trkpt>
			<trkpt lat="52.46972" lon="6.13006">
				<ele>-0.02</ele>
			</trkpt>
			<trkpt lat="52.46975" lon="6.12914">
				<ele>-0.02</ele>
			</trkpt>
			<trkpt lat="52.46993" lon="6.12818">
				<ele>0.02</ele>
			</trkpt>
			<trkpt lat="52.4696" lon="6.12769">
				<ele>0.02</ele>
			</trkpt>
			<trkpt lat="52.46925" lon="6.12814">
				<ele>1.29</ele>
			</trkpt>
			<trkpt lat="52.46886" lon="6.12735">
				<ele>1.29</ele>
			</trkpt>
			<trkpt lat="52.46872" lon="6.12694">
				<ele>-0.57</ele>
			</trkpt>
			<trkpt lat="52.4686" lon="6.12621">
				<ele>-0.57</ele>
			</trkpt>
			<trkpt lat="52.46856" lon="6.12554">
				<ele>0</ele>
			</trkpt>
			<trkpt lat="52.46861" lon="6.12483">
				<ele>0</ele>
			</trkpt>
			<trkpt lat="52.46842" lon="6.12448">
				<ele>0.03</ele>
			</trkpt>
			<trkpt lat="52.46842" lon="6.12448">
				<ele>0.03</ele>
			</trkpt>
			<trkpt lat="52.46814" lon="6.12447">
				<ele>0.03</ele>
			</trkpt>
			<trkpt lat="52.46804" lon="6.12453">
				<ele>1</ele>
			</trkpt>
			<trkpt lat="52.46668" lon="6.1245">
				<ele>1</ele>
			</trkpt>
			<trkpt lat="52.46654" lon="6.12443">
				<ele>0.44</ele>
			</trkpt>
			<trkpt lat="52.4652" lon="6.12441">
				<ele>0.44</ele>
			</trkpt>
			<trkpt lat="52.4652" lon="6.12448">
				<ele>0.99</ele>
			</trkpt>
			<trkpt lat="52.4652" lon="6.12448">
				<ele>0.99</ele>
			</trkpt>
			<trkpt lat="52.46527" lon="6.12745">
				<ele>2.27</ele>
			</trkpt>
			<trkpt lat="52.46361" lon="6.12752">
				<ele>2.27</ele>
			</trkpt>
			<trkpt lat="52.46368" lon="6.13187">
				<ele>3</ele>
			</trkpt>
			<trkpt lat="52.46185" lon="6.13178">
				<ele>3</ele>
			</trkpt>
			<trkpt lat="52.46122" lon="6.13209">
				<ele>2.8</ele>
			</trkpt>
			<trkpt lat="52.46202" lon="6.13351">
				<ele>2.8</ele>
			</trkpt>
			<trkpt lat="52.46137" lon="6.14641">
				<ele>1.48</ele>
			</trkpt>
			<trkpt lat="52.46132" lon="6.15228">
				<ele>1.48</ele>
			</trkpt>
			<trkpt lat="52.46081" lon="6.15436">
				<ele>0.86</ele>
			</trkpt>
			<trkpt lat="52.46033" lon="6.16488">
				<ele>0.86</ele>
			</trkpt>
			<trkpt lat="52.45949" lon="6.17066">
				<ele>0.98</ele>
			</trkpt>
			<trkpt lat="52.45939" lon="6.1709">
				<ele>0.98</ele>
			</trkpt>
			<trkpt lat="52.45939" lon="6.17128">
				<ele>1.49</ele>
			</trkpt>
			<trkpt lat="52.4602" lon="6.17144">
				<ele>1.49</ele>
			</trkpt>
			<trkpt lat="52.46156" lon="6.17198">
				<ele>0</ele>
			</trkpt>
			<trkpt lat="52.4617" lon="6.1721">
				<ele>0</ele>
			</trkpt>
			<trkpt lat="52.4622" lon="6.17284">
				<ele>0</ele>
			</trkpt>
			<trkpt lat="52.46216" lon="6.17293">
				<ele>0</ele>
			</trkpt>
			<trkpt lat="52.46217" lon="6.17377">
				<ele>1</ele>
			</trkpt>
			<trkpt lat="52.46209" lon="6.17494">
				<ele>1</ele>
			</trkpt>
			<trkpt lat="52.46209" lon="6.17601">
				<ele>1.99</ele>
			</trkpt>
			<trkpt lat="52.46067" lon="6.18127">
				<ele>1.99</ele>
			</trkpt>
			<trkpt lat="52.46057" lon="6.18199">
				<ele>0.56</ele>
			</trkpt>
			<trkpt lat="52.46047" lon="6.18359">
				<ele>0.56</ele>
			</trkpt>
			<trkpt lat="52.46022" lon="6.18467">
				<ele>1.21</ele>
			</trkpt>
			<trkpt lat="52.46022" lon="6.18467">
				<ele>1.21</ele>
			</trkpt>
			<trkpt lat="52.45962" lon="6.18784">
				<ele>1.15</ele>
			</trkpt>
			<trkpt lat="52.45958" lon="6.19039">
				<ele>1.15</ele>
			</trkpt>
			<trkpt lat="52.45975" lon="6.19217">
				<ele>2.03</ele>
			</trkpt>
			<trkpt lat="52.45997" lon="6.19271">
				<ele>2.03</ele>
			</trkpt>
			<trkpt lat="52.46001" lon="6.19293">
				<ele>1.49</ele>
			</trkpt>
			<trkpt lat="52.45956" lon="6.19492">
				<ele>1.49</ele>
			</trkpt>
			<trkpt lat="52.45959" lon="6.19519">
				<ele>1.03</ele>
			</trkpt>
			<trkpt lat="52.4598" lon="6.19569">
				<ele>1.03</ele>
			</trkpt>
			<trkpt lat="52.45985" lon="6.19607">
				<ele>3.78</ele>
			</trkpt>
			<trkpt lat="52.4591" lon="6.20184">
				<ele>3.78</ele>
			</trkpt>
			<trkpt lat="52.4591" lon="6.20184">
				<ele>4.99</ele>
			</trkpt>
			<trkpt lat="52.45912" lon="6.20195">
				<ele>4.99</ele>
			</trkpt>
			<trkpt lat="52.46332" lon="6.20414">
				<ele>6.65</ele>
			</trkpt>
			<trkpt lat="52.46444" lon="6.20384">
				<ele>6.65</ele>
			</trkpt>
			<trkpt lat="52.46444" lon="6.20384">
				<ele>6.77</ele>
			</trkpt>
			<trkpt lat="52.46452" lon="6.20382">
				<ele>6.77</ele>
			</trkpt>
			<trkpt lat="52.46448" lon="6.2049">
				<ele>3.96</ele>
			</trkpt>
			<trkpt lat="52.46466" lon="6.20493">
				<ele>3.96</ele>
			</trkpt>
			<trkpt lat="52.46485" lon="6.20551">
				<ele>3.01</ele>
			</trkpt>
			<trkpt lat="52.46511" lon="6.2055">
				<ele>3.01</ele>
			</trkpt>
			<trkpt lat="52.46538" lon="6.20477">
				<ele>3.32</ele>
			</trkpt>
			<trkpt lat="52.46677" lon="6.20302">
				<ele>3.32</ele>
			</trkpt>
			<trkpt lat="52.468" lon="6.20165">
				<ele>2.81</ele>
			</trkpt>
			<trkpt lat="52.46848" lon="6.20141">
				<ele>2.81</ele>
			</trkpt>
			<trkpt lat="52.46879" lon="6.20102">
				<ele>2.51</ele>
			</trkpt>
			<trkpt lat="52.46905" lon="6.20043">
				<ele>2.51</ele>
			</trkpt>
			<trkpt lat="52.4768" lon="6.19123">
				<ele>3.02</ele>
			</trkpt>
			<trkpt lat="52.47722" lon="6.19076">
				<ele>3.02</ele>
			</trkpt>
			<trkpt lat="52.47756" lon="6.19067">
				<ele>3</ele>
			</trkpt>
			<trkpt lat="52.47779" lon="6.19042">
				<ele>3</ele>
			</trkpt>
			<trkpt lat="52.47751" lon="6.18964">
				<ele>1.74</ele>
			</trkpt>
			<trkpt lat="52.47753" lon="6.18988">
				<ele>1.74</ele>
			</trkpt>
			<trkpt lat="52.47774" lon="6.18555">
				<ele>1.74</ele>
			</trkpt>
			<trkpt lat="52.47635" lon="6.18448">
				<ele>0.68</ele>
			</trkpt>
			<trkpt lat="52.47528" lon="6.18414">
				<ele>0.68</ele>
			</trkpt>
			<trkpt lat="52.4756" lon="6.18088">
				<ele>0.16</ele>
			</trkpt>
			<trkpt lat="52.47538" lon="6.17756">
				<ele>0.16</ele>
			</trkpt>
			<trkpt lat="52.47455" lon="6.17714">
				<ele>1</ele>
			</trkpt>
			<trkpt lat="52.4744" lon="6.17756">
				<ele>1</ele>
			</trkpt>
			<trkpt lat="52.47429" lon="6.17755">
				<ele>0.23</ele>
			</trkpt>
			<trkpt lat="52.4726" lon="6.17564">
				<ele>0.23</ele>
			</trkpt>
			<trkpt lat="52.47244" lon="6.17578">
				<ele>0.81</ele>
			</trkpt>
			<trkpt lat="52.47172" lon="6.17567">
				<ele>0.81</ele>
			</trkpt>
			<trkpt lat="52.47055" lon="6.17722">
				<ele>1.11</ele>
			</trkpt>
			<trkpt lat="52.46853" lon="6.17476">
				<ele>1.11</ele>
			</trkpt>
			<trkpt lat="52.46896" lon="6.17039">
				<ele>1.32</ele>
			</trkpt>
			<trkpt lat="52.46896" lon="6.17039">
				<ele>1.32</ele>
			</trkpt>
			<trkpt lat="52.46908" lon="6.16983">
				<ele>0</ele>
			</trkpt>
			<trkpt lat="52.46937" lon="6.16937">
				<ele>0</ele>
			</trkpt>
			<trkpt lat="52.47403" lon="6.16349">
				<ele>0.56</ele>
			</trkpt>
			<trkpt lat="52.47403" lon="6.16349">
				<ele>0.56</ele>
			</trkpt>
			<trkpt lat="52.47419" lon="6.16336">
				<ele>0.91</ele>
			</trkpt>
			<trkpt lat="52.47432" lon="6.16336">
				<ele>0.91</ele>
			</trkpt>
			<trkpt lat="52.4745" lon="6.16345">
				<ele>0</ele>
			</trkpt>
			<trkpt lat="52.47464" lon="6.16366">
				<ele>0</ele>
			</trkpt>
			<trkpt lat="52.47565" lon="6.16658">
				<ele>0.23</ele>
			</trkpt>
			<trkpt lat="52.47575" lon="6.16691">
				<ele>0.23</ele>
			</trkpt>
			<trkpt lat="52.47578" lon="6.16712">
				<ele>-0.64</ele>
			</trkpt>
			<trkpt lat="52.47583" lon="6.16722">
				<ele>-0.64</ele>
			</trkpt>
			<trkpt lat="52.47596" lon="6.16714">
				<ele>0.32</ele>
			</trkpt>
			<trkpt lat="52.476" lon="6.16719">
				<ele>0.32</ele>
			</trkpt>
			<trkpt lat="52.47618" lon="6.16826">
				<ele>1.24</ele>
			</trkpt>
			<trkpt lat="52.47709" lon="6.16871">
				<ele>1.24</ele>
			</trkpt>
			<trkpt lat="52.47716" lon="6.16881">
				<ele>1</ele>
			</trkpt>
			<trkpt lat="52.47731" lon="6.16927">
				<ele>1</ele>
			</trkpt>
			<trkpt lat="52.47761" lon="6.16934">
				<ele>0</ele>
			</trkpt>
			<trkpt lat="52.47761" lon="6.16934">
				<ele>0</ele>
			</trkpt>
			<trkpt lat="52.47796" lon="6.16942">
				<ele>0.27</ele>
			</trkpt>
			<trkpt lat="52.47845" lon="6.17009">
				<ele>0.27</ele>
			</trkpt>
			<trkpt lat="52.47849" lon="6.1701">
				<ele>1.95</ele>
			</trkpt>
			<trkpt lat="52.47859" lon="6.17003">
				<ele>1.95</ele>
			</trkpt>
			<trkpt lat="52.47859" lon="6.17003">
				<ele>0</ele>
			</trkpt>
			<trkpt lat="52.48085" lon="6.17324">
				<ele>0</ele>
			</trkpt>
			<trkpt lat="52.48112" lon="6.1736">
				<ele>0.75</ele>
			</trkpt>
			<trkpt lat="52.48119" lon="6.17364">
				<ele>0.75</ele>
			</trkpt>
			<trkpt lat="52.48133" lon="6.17387">
				<ele>0</ele>
			</trkpt>
			<trkpt lat="52.48133" lon="6.17387">
				<ele>0</ele>
			</trkpt>
			<trkpt lat="52.48192" lon="6.17489">
				<ele>1</ele>
			</trkpt>
			<trkpt lat="52.48194" lon="6.17499">
				<ele>1</ele>
			</trkpt>
			<trkpt lat="52.48237" lon="6.17568">
				<ele>0.9</ele>
			</trkpt>
			<trkpt lat="52.48271" lon="6.17529">
				<ele>0.9</ele>
			</trkpt>
			<trkpt lat="52.48271" lon="6.17529">
				<ele>0.34</ele>
			</trkpt>
			<trkpt lat="52.48309" lon="6.1748">
				<ele>0.34</ele>
			</trkpt>
			<trkpt lat="52.48319" lon="6.17474">
				<ele>0</ele>
			</trkpt>
			<trkpt lat="52.48337" lon="6.17483">
				<ele>0</ele>
			</trkpt>
			<trkpt lat="52.48348" lon="6.17502">
				<ele>1</ele>
			</trkpt>
			<trkpt lat="52.483" lon="6.17573">
				<ele>1</ele>
			</trkpt>
			<trkpt lat="52.48268" lon="6.1763">
				<ele>0.48</ele>
			</trkpt>
			<trkpt lat="52.4824" lon="6.17698">
				<ele>0.48</ele>
			</trkpt>
			<trkpt lat="52.48237" lon="6.17713">
				<ele>0</ele>
			</trkpt>
			<trkpt lat="52.48239" lon="6.17725">
				<ele>0</ele>
			</trkpt>
			<trkpt lat="52.48299" lon="6.17774">
				<ele>0</ele>
			</trkpt>
			<trkpt lat="52.48382" lon="6.17834">
				<ele>0</ele>
			</trkpt>
			<trkpt lat="52.4841" lon="6.1785">
				<ele>-0.42</ele>
			</trkpt>
			<trkpt lat="52.48463" lon="6.17868">
				<ele>-0.42</ele>
			</trkpt>
			<trkpt lat="52.48463" lon="6.17868">
				<ele>0.5</ele>
			</trkpt>
			<trkpt lat="52.48495" lon="6.17873">
				<ele>0.5</ele>
			</trkpt>
			<trkpt lat="52.48549" lon="6.1787">
				<ele>0.5</ele>
			</trkpt>
			<trkpt lat="52.48571" lon="6.17859">
				<ele>0.41</ele>
			</trkpt>
			<trkpt lat="52.48584" lon="6.17847">
				<ele>0.41</ele>
			</trkpt>
			<trkpt lat="52.48595" lon="6.17826">
				<ele>0</ele>
			</trkpt>
			<trkpt lat="52.48605" lon="6.17841">
				<ele>0</ele>
			</trkpt>
			<trkpt lat="52.48615" lon="6.17838">
				<ele>0</ele>
			</trkpt>
			<trkpt lat="52.48656" lon="6.17514">
				<ele>0</ele>
			</trkpt>
			<trkpt lat="52.48669" lon="6.17518">
				<ele>2.07</ele>
			</trkpt>
			<trkpt lat="52.48669" lon="6.17518">
				<ele>2.07</ele>
			</trkpt>
			<trkpt lat="52.48656" lon="6.17514">
				<ele>4.29</ele>
			</trkpt>
			<trkpt lat="52.48668" lon="6.17402">
				<ele>4.29</ele>
			</trkpt>
			<trkpt lat="52.48675" lon="6.1726">
				<ele>3.83</ele>
			</trkpt>
			<trkpt lat="52.48687" lon="6.17164">
				<ele>3.83</ele>
			</trkpt>
			<trkpt lat="52.48691" lon="6.17154">
				<ele>1.62</ele>
			</trkpt>
			<trkpt lat="52.48695" lon="6.17152">
				<ele>1.62</ele>
			</trkpt>
			<trkpt lat="52.4872" lon="6.17149">
				<ele>2.65</ele>
			</trkpt>
			<trkpt lat="52.48731" lon="6.17154">
				<ele>2.65</ele>
			</trkpt>
			<trkpt lat="52.48743" lon="6.17165">
				<ele>3.27</ele>
			</trkpt>
			<trkpt lat="52.48749" lon="6.17164">
				<ele>3.27</ele>
			</trkpt>
			<trkpt lat="52.48768" lon="6.17128">
				<ele>3.52</ele>
			</trkpt>
			<trkpt lat="52.4881" lon="6.17009">
				<ele>3.52</ele>
			</trkpt>
			<trkpt lat="52.48812" lon="6.16998">
				<ele>7.04</ele>
			</trkpt>
			<trkpt lat="52.48831" lon="6.16953">
				<ele>7.04</ele>
			</trkpt>
			<trkpt lat="52.48853" lon="6.16916">
				<ele>9.69</ele>
			</trkpt>
			<trkpt lat="52.48892" lon="6.16796">
				<ele>9.69</ele>
			</trkpt>
			<trkpt lat="52.48916" lon="6.16742">
				<ele>6.35</ele>
			</trkpt>
			<trkpt lat="52.48932" lon="6.16711">
				<ele>6.35</ele>
			</trkpt>
			<trkpt lat="52.48992" lon="6.16634">
				<ele>3.56</ele>
			</trkpt>
			<trkpt lat="52.48998" lon="6.16622">
				<ele>3.56</ele>
			</trkpt>
			<trkpt lat="52.48998" lon="6.16622">
				<ele>3.73</ele>
			</trkpt>
			<trkpt lat="52.49002" lon="6.16611">
				<ele>3.73</ele>
			</trkpt>
			<trkpt lat="52.49078" lon="6.1651">
				<ele>3.13</ele>
			</trkpt>
			<trkpt lat="52.49078" lon="6.1651">
				<ele>3.13</ele>
			</trkpt>
			<trkpt lat="52.49092" lon="6.16489">
				<ele>3.53</ele>
			</trkpt>
			<trkpt lat="52.49101" lon="6.16519">
				<ele>3.53</ele>
			</trkpt>
			<trkpt lat="52.49112" lon="6.16539">
				<ele>3.78</ele>
			</trkpt>
			<trkpt lat="52.49159" lon="6.16592">
				<ele>3.78</ele>
			</trkpt>
			<trkpt lat="52.492" lon="6.16624">
				<ele>4.88</ele>
			</trkpt>
			<trkpt lat="52.492" lon="6.16624">
				<ele>4.88</ele>
			</trkpt>
			<trkpt lat="52.49206" lon="6.16632">
				<ele>5.5</ele>
			</trkpt>
			<trkpt lat="52.49265" lon="6.16498">
				<ele>5.5</ele>
			</trkpt>
			<trkpt lat="52.49274" lon="6.16464">
				<ele>4.02</ele>
			</trkpt>
			<trkpt lat="52.49274" lon="6.16445">
				<ele>4.02</ele>
			</trkpt>
			<trkpt lat="52.49302" lon="6.16398">
				<ele>3.36</ele>
			</trkpt>
			<trkpt lat="52.49315" lon="6.16381">
				<ele>3.36</ele>
			</trkpt>
			<trkpt lat="52.49321" lon="6.1639">
				<ele>2.61</ele>
			</trkpt>
			<trkpt lat="52.49321" lon="6.1639">
				<ele>2.61</ele>
			</trkpt>
			<trkpt lat="52.49315" lon="6.16381">
				<ele>3.31</ele>
			</trkpt>
			<trkpt lat="52.49322" lon="6.16373">
				<ele>3.31</ele>
			</trkpt>
			<trkpt lat="52.49304" lon="6.16253">
				<ele>4.09</ele>
			</trkpt>
			<trkpt lat="52.49284" lon="6.16221">
				<ele>4.09</ele>
			</trkpt>
			<trkpt lat="52.49259" lon="6.16201">
				<ele>4.33</ele>
			</trkpt>
			<trkpt lat="52.49255" lon="6.16191">
				<ele>4.33</ele>
			</trkpt>
			<trkpt lat="52.49172" lon="6.15481">
				<ele>4.67</ele>
			</trkpt>
			<trkpt lat="52.49166" lon="6.15457">
				<ele>4.67</ele>
			</trkpt>
			<trkpt lat="52.49166" lon="6.15457">
				<ele>4.14</ele>
			</trkpt>
			<trkpt lat="52.49161" lon="6.15436">
				<ele>4.14</ele>
			</trkpt>
			<trkpt lat="52.49278" lon="6.15377">
				<ele>1.69</ele>
			</trkpt>
			<trkpt lat="52.49278" lon="6.15377">
				<ele>1.69</ele>
			</trkpt>
			<trkpt lat="52.49304" lon="6.15393">
				<ele>2.22</ele>
			</trkpt>
			<trkpt lat="52.49321" lon="6.15411">
				<ele>2.22</ele>
			</trkpt>
			<trkpt lat="52.49336" lon="6.15427">
				<ele>1.79</ele>
			</trkpt>
			<trkpt lat="52.49377" lon="6.15485">
				<ele>1.79</ele>
			</trkpt>
			<trkpt lat="52.49469" lon="6.15651">
				<ele>1.78</ele>
			</trkpt>
			<trkpt lat="52.49475" lon="6.1567">
				<ele>1.78</ele>
			</trkpt>
			<trkpt lat="52.49475" lon="6.1567">
				<ele>1.78</ele>
			</trkpt>
			<trkpt lat="52.49469" lon="6.15651">
				<ele>2.04</ele>
			</trkpt>
			<trkpt lat="52.49494" lon="6.15658">
				<ele>2.04</ele>
			</trkpt>
			<trkpt lat="52.49505" lon="6.15671">
				<ele>2.79</ele>
			</trkpt>
			<trkpt lat="52.49529" lon="6.15734">
				<ele>2.79</ele>
			</trkpt>
			<trkpt lat="52.49535" lon="6.15788">
				<ele>5.16</ele>
			</trkpt>
			<trkpt lat="52.49545" lon="6.15823">
				<ele>5.16</ele>
			</trkpt>
			<trkpt lat="52.49587" lon="6.15864">
				<ele>4.22</ele>
			</trkpt>
			<trkpt lat="52.49629" lon="6.15893">
				<ele>4.22</ele>
			</trkpt>
			<trkpt lat="52.49665" lon="6.15891">
				<ele>3.57</ele>
			</trkpt>
			<trkpt lat="52.49678" lon="6.15881">
				<ele>3.57</ele>
			</trkpt>
			<trkpt lat="52.49703" lon="6.15886">
				<ele>4.7</ele>
			</trkpt>
			<trkpt lat="52.49718" lon="6.15863">
				<ele>4.7</ele>
			</trkpt>
			<trkpt lat="52.49801" lon="6.15818">
				<ele>3.97</ele>
			</trkpt>
			<trkpt lat="52.49803" lon="6.15854">
				<ele>3.97</ele>
			</trkpt>
			<trkpt lat="52.498" lon="6.15858">
				<ele>3.23</ele>
			</trkpt>
			<trkpt lat="52.498" lon="6.15858">
				<ele>3.23</ele>
			</trkpt>
			<trkpt lat="52.49803" lon="6.15854">
				<ele>1.15</ele>
			</trkpt>
			<trkpt lat="52.49801" lon="6.15818">
				<ele>1.15</ele>
			</trkpt>
			<trkpt lat="52.49842" lon="6.15787">
				<ele>1.76</ele>
			</trkpt>
			<trkpt lat="52.49873" lon="6.1577">
				<ele>1.76</ele>
			</trkpt>
			<trkpt lat="52.49899" lon="6.15744">
				<ele>2.38</ele>
			</trkpt>
			<trkpt lat="52.4994" lon="6.15688">
				<ele>2.38</ele>
			</trkpt>
			<trkpt lat="52.49957" lon="6.15651">
				<ele>2.76</ele>
			</trkpt>
			<trkpt lat="52.4996" lon="6.15636">
				<ele>2.76</ele>
			</trkpt>
			<trkpt lat="52.49958" lon="6.1563">
				<ele>1.23</ele>
			</trkpt>
			<trkpt lat="52.49887" lon="6.15511">
				<ele>1.23</ele>
			</trkpt>
			<trkpt lat="52.49851" lon="6.15467">
				<ele>1.93</ele>
			</trkpt>
			<trkpt lat="52.49847" lon="6.1544">
				<ele>1.93</ele>
			</trkpt>
			<trkpt lat="52.49852" lon="6.15413">
				<ele>2.06</ele>
			</trkpt>
			<trkpt lat="52.49852" lon="6.15354">
				<ele>2.06</ele>
			</trkpt>
			<trkpt lat="52.49855" lon="6.15323">
				<ele>3.78</ele>
			</trkpt>
			<trkpt lat="52.49867" lon="6.15294">
				<ele>3.78</ele>
			</trkpt>
			<trkpt lat="52.49882" lon="6.1528">
				<ele>3.9</ele>
			</trkpt>
			<trkpt lat="52.49893" lon="6.15212">
				<ele>3.9</ele>
			</trkpt>
			<trkpt lat="52.49903" lon="6.15192">
				<ele>2.98</ele>
			</trkpt>
			<trkpt lat="52.49936" lon="6.15154">
				<ele>2.98</ele>
			</trkpt>
			<trkpt lat="52.49944" lon="6.15135">
				<ele>3.56</ele>
			</trkpt>
			<trkpt lat="52.49956" lon="6.15137">
				<ele>3.56</ele>
			</trkpt>
			<trkpt lat="52.49977" lon="6.15117">
				<ele>3.56</ele>
			</trkpt>
			<trkpt lat="52.50036" lon="6.15016">
				<ele>3.56</ele>
			</trkpt>
			<trkpt lat="52.5004" lon="6.14994">
				<ele>3.76</ele>
			</trkpt>
			<trkpt lat="52.50013" lon="6.14998">
				<ele>3.76</ele>
			</trkpt>
			<trkpt lat="52.50001" lon="6.14992">
				<ele>2.54</ele>
			</trkpt>
			<trkpt lat="52.4999" lon="6.14981">
				<ele>2.54</ele>
			</trkpt>
			<trkpt lat="52.49871" lon="6.14806">
				<ele>2.3</ele>
			</trkpt>
			<trkpt lat="52.49871" lon="6.14806">
				<ele>2.3</ele>
			</trkpt>
			<trkpt lat="52.49844" lon="6.14768">
				<ele>3.19</ele>
			</trkpt>
			<trkpt lat="52.4983" lon="6.14757">
				<ele>3.19</ele>
			</trkpt>
			<trkpt lat="52.4981" lon="6.14747">
				<ele>3.71</ele>
			</trkpt>
			<trkpt lat="52.49646" lon="6.14752">
				<ele>3.71</ele>
			</trkpt>
			<trkpt lat="52.49647" lon="6.14734">
				<ele>3.83</ele>
			</trkpt>
			<trkpt lat="52.49656" lon="6.14712">
				<ele>3.83</ele>
			</trkpt>
			<trkpt lat="52.49661" lon="6.14655">
				<ele>1.84</ele>
			</trkpt>
			<trkpt lat="52.49652" lon="6.14589">
				<ele>1.84</ele>
			</trkpt>
			<trkpt lat="52.49639" lon="6.14526">
				<ele>3.79</ele>
			</trkpt>
			<trkpt lat="52.49637" lon="6.14485">
				<ele>3.79</ele>
			</trkpt>
			<trkpt lat="52.49646" lon="6.14455">
				<ele>2.45</ele>
			</trkpt>
			<trkpt lat="52.4972" lon="6.14318">
				<ele>2.45</ele>
			</trkpt>
			<trkpt lat="52.49726" lon="6.143">
				<ele>3.07</ele>
			</trkpt>
			<trkpt lat="52.49728" lon="6.14286">
				<ele>3.07</ele>
			</trkpt>
			<trkpt lat="52.49726" lon="6.14255">
				<ele>3.2</ele>
			</trkpt>
			<trkpt lat="52.49719" lon="6.14237">
				<ele>3.2</ele>
			</trkpt>
			<trkpt lat="52.49681" lon="6.14185">
				<ele>3.59</ele>
			</trkpt>
			<trkpt lat="52.49681" lon="6.14185">
				<ele>3.59</ele>
			</trkpt>
			<trkpt lat="52.49625" lon="6.14111">
				<ele>3.59</ele>
			</trkpt>
			<trkpt lat="52.49621" lon="6.14022">
				<ele>2.24</ele>
			</trkpt>
			<trkpt lat="52.49596" lon="6.14059">
				<ele>2.24</ele>
			</trkpt>
			<trkpt lat="52.49572" lon="6.14002">
				<ele>5.48</ele>
			</trkpt>
			<trkpt lat="52.49542" lon="6.13991">
				<ele>5.48</ele>
			</trkpt>
			<trkpt lat="52.49525" lon="6.14022">
				<ele>2.94</ele>
			</trkpt>
			<trkpt lat="52.49529" lon="6.1406">
				<ele>2.94</ele>
			</trkpt>
			<trkpt lat="52.49547" lon="6.14078">
				<ele>3.75</ele>
			</trkpt>
			<trkpt lat="52.49571" lon="6.14065">
				<ele>3.75</ele>
			</trkpt>
			<trkpt lat="52.49582" lon="6.14028">
				<ele>3.44</ele>
			</trkpt>
			<trkpt lat="52.49577" lon="6.13987">
				<ele>3.44</ele>
			</trkpt>
			<trkpt lat="52.49352" lon="6.13523">
				<ele>3.3</ele>
			</trkpt>
			<trkpt lat="52.49259" lon="6.13305">
				<ele>3.3</ele>
			</trkpt>
			<trkpt lat="52.49105" lon="6.12749">
				<ele>3.78</ele>
			</trkpt>
			<trkpt lat="52.49042" lon="6.1262">
				<ele>3.78</ele>
			</trkpt>
			<trkpt lat="52.48987" lon="6.12602">
				<ele>3</ele>
			</trkpt>
			<trkpt lat="52.4896" lon="6.12564">
				<ele>3</ele>
			</trkpt>
			<trkpt lat="52.48938" lon="6.12451">
				<ele>3.37</ele>
			</trkpt>
			<trkpt lat="52.48883" lon="6.12342">
				<ele>3.37</ele>
			</trkpt>
			<trkpt lat="52.48842" lon="6.12296">
				<ele>3.73</ele>
			</trkpt>
			<trkpt lat="52.4883" lon="6.12251">
				<ele>3.73</ele>
			</trkpt>
			<trkpt lat="52.48752" lon="6.12111">
				<ele>3.07</ele>
			</trkpt>
			<trkpt lat="52.48668" lon="6.11857">
				<ele>3.07</ele>
			</trkpt>
			<trkpt lat="52.4865" lon="6.11835">
				<ele>3.2</ele>
			</trkpt>
			<trkpt lat="52.48622" lon="6.11728">
				<ele>3.2</ele>
			</trkpt>
			<trkpt lat="52.48498" lon="6.1145">
				<ele>3.22</ele>
			</trkpt>
			<trkpt lat="52.48515" lon="6.11427">
				<ele>3.22</ele>
			</trkpt>
			<trkpt lat="52.4841" lon="6.11138">
				<ele>4.3</ele>
			</trkpt>
			<trkpt lat="52.48356" lon="6.10923">
				<ele>4.3</ele>
			</trkpt>
			<trkpt lat="52.48356" lon="6.10884">
				<ele>4.08</ele>
			</trkpt>
			<trkpt lat="52.48335" lon="6.10866">
				<ele>4.08</ele>
			</trkpt>
			<trkpt lat="52.4829" lon="6.10682">
				<ele>4.14</ele>
			</trkpt>
			<trkpt lat="52.4829" lon="6.10682">
				<ele>4.14</ele>
			</trkpt>
			<trkpt lat="52.48285" lon="6.10661">
				<ele>4.32</ele>
			</trkpt>
			<trkpt lat="52.48294" lon="6.10656">
				<ele>4.32</ele>
			</trkpt>
			<trkpt lat="52.48289" lon="6.10638">
				<ele>4.48</ele>
			</trkpt>
			<trkpt lat="52.48271" lon="6.106">
				<ele>4.48</ele>
			</trkpt>
			<trkpt lat="52.48242" lon="6.10507">
				<ele>3.96</ele>
			</trkpt>
			<trkpt lat="52.48236" lon="6.10502">
				<ele>3.96</ele>
			</trkpt>
			<trkpt lat="52.48199" lon="6.10382">
				<ele>4.28</ele>
			</trkpt>
			<trkpt lat="52.48207" lon="6.10354">
				<ele>4.28</ele>
			</trkpt>
			<trkpt lat="52.48228" lon="6.10317">
				<ele>3.4</ele>
			</trkpt>
			<trkpt lat="52.48228" lon="6.10317">
				<ele>3.4</ele>
			</trkpt>
			<trkpt lat="52.4826" lon="6.10263">
				<ele>1.9</ele>
			</trkpt>
			<trkpt lat="52.48329" lon="6.10182">
				<ele>1.9</ele>
			</trkpt>
			<trkpt lat="52.4879" lon="6.0971">
				<ele>3.16</ele>
			</trkpt>
			<trkpt lat="52.48799" lon="6.09709">
				<ele>3.16</ele>
			</trkpt>
			<trkpt lat="52.48912" lon="6.09759">
				<ele>4.15</ele>
			</trkpt>
			<trkpt lat="52.48978" lon="6.09741">
				<ele>4.15</ele>
			</trkpt>
			<trkpt lat="52.49014" lon="6.09689">
				<ele>3.11</ele>
			</trkpt>
			<trkpt lat="52.49018" lon="6.09619">
				<ele>3.11</ele>
			</trkpt>
			<trkpt lat="52.49363" lon="6.09358">
				<ele>3.64</ele>
			</trkpt>
			<trkpt lat="52.49417" lon="6.09257">
				<ele>3.64</ele>
			</trkpt>
			<trkpt lat="52.49442" lon="6.09287">
				<ele>1.92</ele>
			</trkpt>
			<trkpt lat="52.49467" lon="6.09223">
				<ele>1.92</ele>
			</trkpt>
			<trkpt lat="52.49506" lon="6.09185">
				<ele>3.28</ele>
			</trkpt>
			<trkpt lat="52.496" lon="6.09011">
				<ele>3.28</ele>
			</trkpt>
			<trkpt lat="52.49615" lon="6.08924">
				<ele>2.51</ele>
			</trkpt>
			<trkpt lat="52.49664" lon="6.08792">
				<ele>2.51</ele>
			</trkpt>
			<trkpt lat="52.49729" lon="6.0885">
				<ele>1.91</ele>
			</trkpt>
			<trkpt lat="52.49723" lon="6.08885">
				<ele>1.91</ele>
			</trkpt>
			<trkpt lat="52.49735" lon="6.08926">
				<ele>2.33</ele>
			</trkpt>
			<trkpt lat="52.49703" lon="6.09024">
				<ele>2.33</ele>
			</trkpt>
			<trkpt lat="52.49766" lon="6.09146">
				<ele>2.96</ele>
			</trkpt>
			<trkpt lat="52.49796" lon="6.09152">
				<ele>2.96</ele>
			</trkpt>
		</trkseg>
	</trk>
</gpx>