<?xml version="1.0" encoding="UTF-8"?>
<gpx version="1.1" creator="https://www.hammerhead.io" xmlns:xsi="http://www.w3.org/2001/XMLSchema-instance" xmlns="http://www.topografix.com/GPX/1/1" xsi:schemaLocation="http://www.topografix.com/GPX/1/1 http://www.topografix.com/GPX/1/1/gpx.xsd"><metadata><name>Zuidwester ~ 50k (Eelde - Norg - Langelo - Roden)</name><time>0001-01-01T00:00:00Z</time></metadata><trk><name>Zuidwester ~ 50k (Eelde - Norg - Langelo - Roden)</name><trkseg><trkpt lat="53.2136" lon="6.55569"></trkpt><trkpt lat="53.21341" lon="6.55565"></trkpt><trkpt lat="53.21324" lon="6.55562"></trkpt><trkpt lat="53.21318" lon="6.55561"></trkpt><trkpt lat="53.21291" lon="6.55556"></trkpt><trkpt lat="53.2127" lon="6.55552"></trkpt><trkpt lat="53.21229" lon="6.55545"></trkpt><trkpt lat="53.21221" lon="6.55544"></trkpt><trkpt lat="53.21219" lon="6.55544"></trkpt><trkpt lat="53.21216" lon="6.55544"></trkpt><trkpt lat="53.21211" lon="6.55546"></trkpt><trkpt lat="53.21205" lon="6.55548"></trkpt><trkpt lat="53.212" lon="6.5555"></trkpt><trkpt lat="53.21193" lon="6.55555"></trkpt><trkpt lat="53.21191" lon="6.55556"></trkpt><trkpt lat="53.21183" lon="6.55562"></trkpt><trkpt lat="53.21175" lon="6.5557"></trkpt><trkpt lat="53.21162" lon="6.55582"></trkpt><trkpt lat="53.21151" lon="6.55591"></trkpt><trkpt lat="53.21142" lon="6.55598"></trkpt><trkpt lat="53.2113" lon="6.55606"></trkpt><trkpt lat="53.21116" lon="6.55616"></trkpt><trkpt lat="53.21103" lon="6.55624"></trkpt><trkpt lat="53.21098" lon="6.55627"></trkpt><trkpt lat="53.2109" lon="6.55631"></trkpt><trkpt lat="53.21082" lon="6.55635"></trkpt><trkpt lat="53.21071" lon="6.5564"></trkpt><trkpt lat="53.2106" lon="6.55643"></trkpt><trkpt lat="53.21006" lon="6.55661"></trkpt><trkpt lat="53.20979" lon="6.5567"></trkpt><trkpt lat="53.20966" lon="6.55675"></trkpt><trkpt lat="53.20952" lon="6.55682"></trkpt><trkpt lat="53.20926" lon="6.55698"></trkpt><trkpt lat="53.20902" lon="6.55713"></trkpt><trkpt lat="53.20896" lon="6.55717"></trkpt><trkpt lat="53.20888" lon="6.55723"></trkpt><trkpt lat="53.20865" lon="6.55737"></trkpt><trkpt lat="53.20843" lon="6.55749"></trkpt><trkpt lat="53.2084" lon="6.5575"></trkpt><trkpt lat="53.20825" lon="6.55756"></trkpt><trkpt lat="53.20806" lon="6.55762"></trkpt><trkpt lat="53.20777" lon="6.55769"></trkpt><trkpt lat="53.2071" lon="6.55787"></trkpt><trkpt lat="53.2066" lon="6.55792"></trkpt><trkpt lat="53.20662" lon="6.55798"></trkpt><trkpt lat="53.20663" lon="6.55804"></trkpt><trkpt lat="53.20667" lon="6.55818"></trkpt><trkpt lat="53.2067" lon="6.5583"></trkpt><trkpt lat="53.20674" lon="6.55846"></trkpt><trkpt lat="53.20695" lon="6.55923"></trkpt><trkpt lat="53.20716" lon="6.56012"></trkpt><trkpt lat="53.20726" lon="6.56052"></trkpt><trkpt lat="53.20735" lon="6.56093"></trkpt><trkpt lat="53.2074" lon="6.56118"></trkpt><trkpt lat="53.20711" lon="6.56136"></trkpt><trkpt lat="53.2067" lon="6.56156"></trkpt><trkpt lat="53.20475" lon="6.56262"></trkpt><trkpt lat="53.20465" lon="6.56265"></trkpt><trkpt lat="53.20399" lon="6.5628"></trkpt><trkpt lat="53.20394" lon="6.56282"></trkpt><trkpt lat="53.20339" lon="6.56295"></trkpt><trkpt lat="53.20332" lon="6.56299"></trkpt><trkpt lat="53.20327" lon="6.56303"></trkpt><trkpt lat="53.20311" lon="6.56314"></trkpt><trkpt lat="53.20307" lon="6.56317"></trkpt><trkpt lat="53.20277" lon="6.56325"></trkpt><trkpt lat="53.20272" lon="6.56325"></trkpt><trkpt lat="53.20265" lon="6.56323"></trkpt><trkpt lat="53.2026" lon="6.56319"></trkpt><trkpt lat="53.20257" lon="6.56316"></trkpt><trkpt lat="53.20255" lon="6.56313"></trkpt><trkpt lat="53.2025" lon="6.56301"></trkpt><trkpt lat="53.20244" lon="6.56278"></trkpt><trkpt lat="53.20163" lon="6.56314"></trkpt><trkpt lat="53.20157" lon="6.56323"></trkpt><trkpt lat="53.20147" lon="6.56345"></trkpt><trkpt lat="53.20143" lon="6.5635"></trkpt><trkpt lat="53.20139" lon="6.56352"></trkpt><trkpt lat="53.20108" lon="6.56352"></trkpt><trkpt lat="53.2007" lon="6.56349"></trkpt><trkpt lat="53.20042" lon="6.56343"></trkpt><trkpt lat="53.20011" lon="6.56333"></trkpt><trkpt lat="53.19988" lon="6.56321"></trkpt><trkpt lat="53.19951" lon="6.563"></trkpt><trkpt lat="53.19873" lon="6.56253"></trkpt><trkpt lat="53.19843" lon="6.56237"></trkpt><trkpt lat="53.19786" lon="6.56212"></trkpt><trkpt lat="53.19763" lon="6.56202"></trkpt><trkpt lat="53.19756" lon="6.56196"></trkpt><trkpt lat="53.19746" lon="6.56192"></trkpt><trkpt lat="53.19738" lon="6.56189"></trkpt><trkpt lat="53.19735" lon="6.5619"></trkpt><trkpt lat="53.19731" lon="6.56192"></trkpt><trkpt lat="53.19725" lon="6.56192"></trkpt><trkpt lat="53.19678" lon="6.56182"></trkpt><trkpt lat="53.1963" lon="6.56175"></trkpt><trkpt lat="53.19597" lon="6.56172"></trkpt><trkpt lat="53.19562" lon="6.56173"></trkpt><trkpt lat="53.1954" lon="6.56174"></trkpt><trkpt lat="53.19495" lon="6.56179"></trkpt><trkpt lat="53.19465" lon="6.56184"></trkpt><trkpt lat="53.19458" lon="6.56184"></trkpt><trkpt lat="53.19454" lon="6.56183"></trkpt><trkpt lat="53.1945" lon="6.56179"></trkpt><trkpt lat="53.19441" lon="6.56184"></trkpt><trkpt lat="53.1943" lon="6.56189"></trkpt><trkpt lat="53.19363" lon="6.56212"></trkpt><trkpt lat="53.19333" lon="6.56225"></trkpt><trkpt lat="53.19299" lon="6.56242"></trkpt><trkpt lat="53.19296" lon="6.56243"></trkpt><trkpt lat="53.19293" lon="6.56243"></trkpt><trkpt lat="53.19291" lon="6.56243"></trkpt><trkpt lat="53.19289" lon="6.56242"></trkpt><trkpt lat="53.19286" lon="6.5624"></trkpt><trkpt lat="53.19282" lon="6.5624"></trkpt><trkpt lat="53.1928" lon="6.5624"></trkpt><trkpt lat="53.19277" lon="6.5624"></trkpt><trkpt lat="53.19269" lon="6.56241"></trkpt><trkpt lat="53.19264" lon="6.56243"></trkpt><trkpt lat="53.19258" lon="6.56245"></trkpt><trkpt lat="53.19255" lon="6.56248"></trkpt><trkpt lat="53.19253" lon="6.56251"></trkpt><trkpt lat="53.19251" lon="6.56255"></trkpt><trkpt lat="53.1925" lon="6.5626"></trkpt><trkpt lat="53.19249" lon="6.56264"></trkpt><trkpt lat="53.19246" lon="6.56269"></trkpt><trkpt lat="53.19245" lon="6.56271"></trkpt><trkpt lat="53.19243" lon="6.56274"></trkpt><trkpt lat="53.1923" lon="6.56283"></trkpt><trkpt lat="53.19169" lon="6.56324"></trkpt><trkpt lat="53.19138" lon="6.56345"></trkpt><trkpt lat="53.19098" lon="6.56372"></trkpt><trkpt lat="53.19052" lon="6.56403"></trkpt><trkpt lat="53.18985" lon="6.56448"></trkpt><trkpt lat="53.18968" lon="6.56458"></trkpt><trkpt lat="53.18943" lon="6.5647"></trkpt><trkpt lat="53.18938" lon="6.56473"></trkpt><trkpt lat="53.18922" lon="6.5648"></trkpt><trkpt lat="53.18898" lon="6.56487"></trkpt><trkpt lat="53.18875" lon="6.5649"></trkpt><trkpt lat="53.18852" lon="6.56486"></trkpt><trkpt lat="53.18835" lon="6.56479"></trkpt><trkpt lat="53.18803" lon="6.56462"></trkpt><trkpt lat="53.18797" lon="6.5646"></trkpt><trkpt lat="53.18789" lon="6.56459"></trkpt><trkpt lat="53.18782" lon="6.56459"></trkpt><trkpt lat="53.18774" lon="6.56461"></trkpt><trkpt lat="53.18767" lon="6.56463"></trkpt><trkpt lat="53.18761" lon="6.56467"></trkpt><trkpt lat="53.18745" lon="6.56484"></trkpt><trkpt lat="53.18725" lon="6.56511"></trkpt><trkpt lat="53.18712" lon="6.56531"></trkpt><trkpt lat="53.18698" lon="6.56554"></trkpt><trkpt lat="53.18687" lon="6.56568"></trkpt><trkpt lat="53.18676" lon="6.5658"></trkpt><trkpt lat="53.18665" lon="6.56588"></trkpt><trkpt lat="53.1866" lon="6.56592"></trkpt><trkpt lat="53.18657" lon="6.56594"></trkpt><trkpt lat="53.18652" lon="6.56596"></trkpt><trkpt lat="53.18647" lon="6.56598"></trkpt><trkpt lat="53.18641" lon="6.566"></trkpt><trkpt lat="53.18635" lon="6.56601"></trkpt><trkpt lat="53.1863" lon="6.56601"></trkpt><trkpt lat="53.18626" lon="6.56602"></trkpt><trkpt lat="53.18617" lon="6.56601"></trkpt><trkpt lat="53.18594" lon="6.56597"></trkpt><trkpt lat="53.18553" lon="6.56583"></trkpt><trkpt lat="53.18547" lon="6.56581"></trkpt><trkpt lat="53.18541" lon="6.5658"></trkpt><trkpt lat="53.18535" lon="6.5658"></trkpt><trkpt lat="53.1853" lon="6.56581"></trkpt><trkpt lat="53.18525" lon="6.56582"></trkpt><trkpt lat="53.1852" lon="6.56584"></trkpt><trkpt lat="53.18514" lon="6.56589"></trkpt><trkpt lat="53.18509" lon="6.56594"></trkpt><trkpt lat="53.18503" lon="6.566"></trkpt><trkpt lat="53.18498" lon="6.56606"></trkpt><trkpt lat="53.18452" lon="6.56664"></trkpt><trkpt lat="53.18449" lon="6.56667"></trkpt><trkpt lat="53.18411" lon="6.5672"></trkpt><trkpt lat="53.18398" lon="6.5674"></trkpt><trkpt lat="53.18378" lon="6.56784"></trkpt><trkpt lat="53.1835" lon="6.56863"></trkpt><trkpt lat="53.18341" lon="6.5685"></trkpt><trkpt lat="53.18294" lon="6.56775"></trkpt><trkpt lat="53.18293" lon="6.56773"></trkpt><trkpt lat="53.18291" lon="6.56771"></trkpt><trkpt lat="53.18288" lon="6.56769"></trkpt><trkpt lat="53.18286" lon="6.56769"></trkpt><trkpt lat="53.18236" lon="6.56766"></trkpt><trkpt lat="53.18216" lon="6.56766"></trkpt><trkpt lat="53.18221" lon="6.56823"></trkpt><trkpt lat="53.18216" lon="6.56888"></trkpt><trkpt lat="53.18214" lon="6.56906"></trkpt><trkpt lat="53.18206" lon="6.56965"></trkpt><trkpt lat="53.18204" lon="6.56979"></trkpt><trkpt lat="53.1818" lon="6.57059"></trkpt><trkpt lat="53.18154" lon="6.57114"></trkpt><trkpt lat="53.18138" lon="6.5715"></trkpt><trkpt lat="53.18117" lon="6.57188"></trkpt><trkpt lat="53.18101" lon="6.57216"></trkpt><trkpt lat="53.18077" lon="6.5724"></trkpt><trkpt lat="53.18051" lon="6.57254"></trkpt><trkpt lat="53.18014" lon="6.57255"></trkpt><trkpt lat="53.17981" lon="6.5725"></trkpt><trkpt lat="53.17976" lon="6.5725"></trkpt><trkpt lat="53.17937" lon="6.57244"></trkpt><trkpt lat="53.17931" lon="6.57246"></trkpt><trkpt lat="53.17917" lon="6.57251"></trkpt><trkpt lat="53.17896" lon="6.57262"></trkpt><trkpt lat="53.17885" lon="6.57274"></trkpt><trkpt lat="53.17884" lon="6.57277"></trkpt><trkpt lat="53.17874" lon="6.57298"></trkpt><trkpt lat="53.17859" lon="6.57386"></trkpt><trkpt lat="53.17848" lon="6.57428"></trkpt><trkpt lat="53.17844" lon="6.57444"></trkpt><trkpt lat="53.17835" lon="6.57464"></trkpt><trkpt lat="53.17803" lon="6.57496"></trkpt><trkpt lat="53.17796" lon="6.57501"></trkpt><trkpt lat="53.17762" lon="6.5752"></trkpt><trkpt lat="53.17759" lon="6.57523"></trkpt><trkpt lat="53.17756" lon="6.57525"></trkpt><trkpt lat="53.17755" lon="6.5753"></trkpt><trkpt lat="53.17754" lon="6.57533"></trkpt><trkpt lat="53.17754" lon="6.57537"></trkpt><trkpt lat="53.17755" lon="6.57543"></trkpt><trkpt lat="53.17756" lon="6.57549"></trkpt><trkpt lat="53.17758" lon="6.57561"></trkpt><trkpt lat="53.17773" lon="6.57629"></trkpt><trkpt lat="53.17774" lon="6.57635"></trkpt><trkpt lat="53.17773" lon="6.57639"></trkpt><trkpt lat="53.17773" lon="6.57642"></trkpt><trkpt lat="53.17772" lon="6.57646"></trkpt><trkpt lat="53.17771" lon="6.57649"></trkpt><trkpt lat="53.17769" lon="6.57653"></trkpt><trkpt lat="53.17768" lon="6.57655"></trkpt><trkpt lat="53.17761" lon="6.57652"></trkpt><trkpt lat="53.17758" lon="6.57651"></trkpt><trkpt lat="53.17754" lon="6.57651"></trkpt><trkpt lat="53.17748" lon="6.57652"></trkpt><trkpt lat="53.17743" lon="6.57653"></trkpt><trkpt lat="53.17738" lon="6.57655"></trkpt><trkpt lat="53.17732" lon="6.57659"></trkpt><trkpt lat="53.17728" lon="6.57662"></trkpt><trkpt lat="53.17724" lon="6.57669"></trkpt><trkpt lat="53.17718" lon="6.5768"></trkpt><trkpt lat="53.17712" lon="6.57691"></trkpt><trkpt lat="53.1771" lon="6.57696"></trkpt><trkpt lat="53.1771" lon="6.577"></trkpt><trkpt lat="53.1771" lon="6.57705"></trkpt><trkpt lat="53.17711" lon="6.57712"></trkpt><trkpt lat="53.17713" lon="6.57721"></trkpt><trkpt lat="53.17714" lon="6.5773"></trkpt><trkpt lat="53.17715" lon="6.57737"></trkpt><trkpt lat="53.17717" lon="6.57746"></trkpt><trkpt lat="53.17717" lon="6.57755"></trkpt><trkpt lat="53.17717" lon="6.57763"></trkpt><trkpt lat="53.17717" lon="6.57772"></trkpt><trkpt lat="53.17715" lon="6.57784"></trkpt><trkpt lat="53.17714" lon="6.57794"></trkpt><trkpt lat="53.17711" lon="6.57807"></trkpt><trkpt lat="53.17705" lon="6.57823"></trkpt><trkpt lat="53.177" lon="6.57832"></trkpt><trkpt lat="53.17693" lon="6.57841"></trkpt><trkpt lat="53.17687" lon="6.57848"></trkpt><trkpt lat="53.17683" lon="6.57852"></trkpt><trkpt lat="53.17673" lon="6.57859"></trkpt><trkpt lat="53.17665" lon="6.57862"></trkpt><trkpt lat="53.1766" lon="6.57864"></trkpt><trkpt lat="53.17655" lon="6.57865"></trkpt><trkpt lat="53.17648" lon="6.57865"></trkpt><trkpt lat="53.17634" lon="6.57865"></trkpt><trkpt lat="53.17625" lon="6.57865"></trkpt><trkpt lat="53.17617" lon="6.57864"></trkpt><trkpt lat="53.17608" lon="6.57863"></trkpt><trkpt lat="53.17603" lon="6.57862"></trkpt><trkpt lat="53.17598" lon="6.57859"></trkpt><trkpt lat="53.17588" lon="6.57853"></trkpt><trkpt lat="53.17572" lon="6.57843"></trkpt><trkpt lat="53.17567" lon="6.5784"></trkpt><trkpt lat="53.17561" lon="6.57838"></trkpt><trkpt lat="53.17554" lon="6.57836"></trkpt><trkpt lat="53.17547" lon="6.57836"></trkpt><trkpt lat="53.17542" lon="6.57836"></trkpt><trkpt lat="53.17538" lon="6.57838"></trkpt><trkpt lat="53.17533" lon="6.57841"></trkpt><trkpt lat="53.17529" lon="6.57845"></trkpt><trkpt lat="53.17525" lon="6.57851"></trkpt><trkpt lat="53.17521" lon="6.57856"></trkpt><trkpt lat="53.17518" lon="6.57861"></trkpt><trkpt lat="53.17516" lon="6.57868"></trkpt><trkpt lat="53.17514" lon="6.57875"></trkpt><trkpt lat="53.17513" lon="6.57882"></trkpt><trkpt lat="53.17512" lon="6.5789"></trkpt><trkpt lat="53.17512" lon="6.57898"></trkpt><trkpt lat="53.17513" lon="6.57906"></trkpt><trkpt lat="53.17515" lon="6.5792"></trkpt><trkpt lat="53.17521" lon="6.57949"></trkpt><trkpt lat="53.17525" lon="6.5797"></trkpt><trkpt lat="53.17531" lon="6.57994"></trkpt><trkpt lat="53.17534" lon="6.5801"></trkpt><trkpt lat="53.17535" lon="6.5802"></trkpt><trkpt lat="53.17536" lon="6.5803"></trkpt><trkpt lat="53.17536" lon="6.5804"></trkpt><trkpt lat="53.17534" lon="6.5805"></trkpt><trkpt lat="53.17533" lon="6.58059"></trkpt><trkpt lat="53.17528" lon="6.58073"></trkpt><trkpt lat="53.17523" lon="6.58085"></trkpt><trkpt lat="53.1752" lon="6.58091"></trkpt><trkpt lat="53.17516" lon="6.58095"></trkpt><trkpt lat="53.17509" lon="6.58099"></trkpt><trkpt lat="53.175" lon="6.58104"></trkpt><trkpt lat="53.17492" lon="6.58108"></trkpt><trkpt lat="53.17482" lon="6.58111"></trkpt><trkpt lat="53.17467" lon="6.58116"></trkpt><trkpt lat="53.17459" lon="6.58117"></trkpt><trkpt lat="53.17451" lon="6.58118"></trkpt><trkpt lat="53.17443" lon="6.58117"></trkpt><trkpt lat="53.17435" lon="6.58115"></trkpt><trkpt lat="53.17431" lon="6.58114"></trkpt><trkpt lat="53.17426" lon="6.58112"></trkpt><trkpt lat="53.17419" lon="6.58107"></trkpt><trkpt lat="53.17394" lon="6.58091"></trkpt><trkpt lat="53.17383" lon="6.58086"></trkpt><trkpt lat="53.17374" lon="6.58082"></trkpt><trkpt lat="53.1736" lon="6.58079"></trkpt><trkpt lat="53.17345" lon="6.5808"></trkpt><trkpt lat="53.17335" lon="6.58082"></trkpt><trkpt lat="53.17328" lon="6.58089"></trkpt><trkpt lat="53.17321" lon="6.58098"></trkpt><trkpt lat="53.17311" lon="6.58113"></trkpt><trkpt lat="53.17304" lon="6.58133"></trkpt><trkpt lat="53.17302" lon="6.58151"></trkpt><trkpt lat="53.173" lon="6.58183"></trkpt><trkpt lat="53.17301" lon="6.5825"></trkpt><trkpt lat="53.173" lon="6.5826"></trkpt><trkpt lat="53.17299" lon="6.58269"></trkpt><trkpt lat="53.17297" lon="6.58279"></trkpt><trkpt lat="53.17295" lon="6.58288"></trkpt><trkpt lat="53.17292" lon="6.58299"></trkpt><trkpt lat="53.17288" lon="6.58309"></trkpt><trkpt lat="53.17284" lon="6.58318"></trkpt><trkpt lat="53.17279" lon="6.58326"></trkpt><trkpt lat="53.17266" lon="6.58344"></trkpt><trkpt lat="53.1725" lon="6.58365"></trkpt><trkpt lat="53.17244" lon="6.58373"></trkpt><trkpt lat="53.17239" lon="6.58381"></trkpt><trkpt lat="53.17236" lon="6.58386"></trkpt><trkpt lat="53.17233" lon="6.58393"></trkpt><trkpt lat="53.1723" lon="6.58403"></trkpt><trkpt lat="53.17227" lon="6.58412"></trkpt><trkpt lat="53.17225" lon="6.5842"></trkpt><trkpt lat="53.17223" lon="6.58433"></trkpt><trkpt lat="53.1722" lon="6.58447"></trkpt><trkpt lat="53.17218" lon="6.58462"></trkpt><trkpt lat="53.17218" lon="6.58475"></trkpt><trkpt lat="53.17218" lon="6.58487"></trkpt><trkpt lat="53.17218" lon="6.58504"></trkpt><trkpt lat="53.17219" lon="6.58519"></trkpt><trkpt lat="53.17221" lon="6.58537"></trkpt><trkpt lat="53.17227" lon="6.58594"></trkpt><trkpt lat="53.17228" lon="6.58603"></trkpt><trkpt lat="53.17228" lon="6.58612"></trkpt><trkpt lat="53.17228" lon="6.58621"></trkpt><trkpt lat="53.17226" lon="6.58631"></trkpt><trkpt lat="53.17224" lon="6.5864"></trkpt><trkpt lat="53.17223" lon="6.58645"></trkpt><trkpt lat="53.1722" lon="6.58651"></trkpt><trkpt lat="53.17216" lon="6.58658"></trkpt><trkpt lat="53.17212" lon="6.58664"></trkpt><trkpt lat="53.17192" lon="6.58689"></trkpt><trkpt lat="53.17187" lon="6.58696"></trkpt><trkpt lat="53.17183" lon="6.58704"></trkpt><trkpt lat="53.17179" lon="6.58711"></trkpt><trkpt lat="53.17174" lon="6.5872"></trkpt><trkpt lat="53.17169" lon="6.58731"></trkpt><trkpt lat="53.17164" lon="6.58741"></trkpt><trkpt lat="53.17161" lon="6.58749"></trkpt><trkpt lat="53.17155" lon="6.58762"></trkpt><trkpt lat="53.17149" lon="6.58782"></trkpt><trkpt lat="53.17147" lon="6.58786"></trkpt><trkpt lat="53.17145" lon="6.58789"></trkpt><trkpt lat="53.17142" lon="6.58793"></trkpt><trkpt lat="53.17139" lon="6.58796"></trkpt><trkpt lat="53.17133" lon="6.588"></trkpt><trkpt lat="53.17112" lon="6.58813"></trkpt><trkpt lat="53.17082" lon="6.58829"></trkpt><trkpt lat="53.17067" lon="6.58837"></trkpt><trkpt lat="53.17056" lon="6.58841"></trkpt><trkpt lat="53.17044" lon="6.58845"></trkpt><trkpt lat="53.17028" lon="6.5885"></trkpt><trkpt lat="53.17017" lon="6.58853"></trkpt><trkpt lat="53.17007" lon="6.58855"></trkpt><trkpt lat="53.1699" lon="6.58858"></trkpt><trkpt lat="53.16985" lon="6.58859"></trkpt><trkpt lat="53.16904" lon="6.58871"></trkpt><trkpt lat="53.16894" lon="6.58873"></trkpt><trkpt lat="53.16852" lon="6.58884"></trkpt><trkpt lat="53.16824" lon="6.58892"></trkpt><trkpt lat="53.16794" lon="6.58902"></trkpt><trkpt lat="53.16768" lon="6.58914"></trkpt><trkpt lat="53.16767" lon="6.58915"></trkpt><trkpt lat="53.16764" lon="6.58917"></trkpt><trkpt lat="53.16762" lon="6.58906"></trkpt><trkpt lat="53.16752" lon="6.58885"></trkpt><trkpt lat="53.16739" lon="6.58863"></trkpt><trkpt lat="53.16733" lon="6.58853"></trkpt><trkpt lat="53.16726" lon="6.58845"></trkpt><trkpt lat="53.1672" lon="6.58837"></trkpt><trkpt lat="53.16714" lon="6.58831"></trkpt><trkpt lat="53.16707" lon="6.58826"></trkpt><trkpt lat="53.16701" lon="6.58821"></trkpt><trkpt lat="53.16678" lon="6.58809"></trkpt><trkpt lat="53.16628" lon="6.58793"></trkpt><trkpt lat="53.16615" lon="6.58787"></trkpt><trkpt lat="53.16603" lon="6.58776"></trkpt><trkpt lat="53.1659" lon="6.58757"></trkpt><trkpt lat="53.1658" lon="6.58746"></trkpt><trkpt lat="53.16572" lon="6.5873"></trkpt><trkpt lat="53.16508" lon="6.58595"></trkpt><trkpt lat="53.16449" lon="6.58466"></trkpt><trkpt lat="53.1644" lon="6.58444"></trkpt><trkpt lat="53.16433" lon="6.58421"></trkpt><trkpt lat="53.16422" lon="6.58364"></trkpt><trkpt lat="53.16404" lon="6.58272"></trkpt><trkpt lat="53.16402" lon="6.58248"></trkpt><trkpt lat="53.16393" lon="6.58224"></trkpt><trkpt lat="53.1639" lon="6.58206"></trkpt><trkpt lat="53.16377" lon="6.58149"></trkpt><trkpt lat="53.16372" lon="6.58126"></trkpt><trkpt lat="53.16364" lon="6.58103"></trkpt><trkpt lat="53.16347" lon="6.58049"></trkpt><trkpt lat="53.16342" lon="6.58032"></trkpt><trkpt lat="53.16309" lon="6.5793"></trkpt><trkpt lat="53.16305" lon="6.57914"></trkpt><trkpt lat="53.16301" lon="6.57901"></trkpt><trkpt lat="53.16289" lon="6.57867"></trkpt><trkpt lat="53.16284" lon="6.57854"></trkpt><trkpt lat="53.16273" lon="6.57823"></trkpt><trkpt lat="53.16256" lon="6.57776"></trkpt><trkpt lat="53.16239" lon="6.57721"></trkpt><trkpt lat="53.16231" lon="6.57696"></trkpt><trkpt lat="53.16227" lon="6.57686"></trkpt><trkpt lat="53.16222" lon="6.57673"></trkpt><trkpt lat="53.16218" lon="6.57664"></trkpt><trkpt lat="53.16183" lon="6.57569"></trkpt><trkpt lat="53.16176" lon="6.57549"></trkpt><trkpt lat="53.1616" lon="6.57496"></trkpt><trkpt lat="53.16156" lon="6.57485"></trkpt><trkpt lat="53.16134" lon="6.5742"></trkpt><trkpt lat="53.16131" lon="6.5741"></trkpt><trkpt lat="53.16127" lon="6.57398"></trkpt><trkpt lat="53.16108" lon="6.57343"></trkpt><trkpt lat="53.16089" lon="6.57283"></trkpt><trkpt lat="53.16085" lon="6.57272"></trkpt><trkpt lat="53.16078" lon="6.5725"></trkpt><trkpt lat="53.1607" lon="6.57223"></trkpt><trkpt lat="53.16055" lon="6.57177"></trkpt><trkpt lat="53.16039" lon="6.57128"></trkpt><trkpt lat="53.16033" lon="6.57114"></trkpt><trkpt lat="53.16023" lon="6.57084"></trkpt><trkpt lat="53.15999" lon="6.57015"></trkpt><trkpt lat="53.15959" lon="6.56894"></trkpt><trkpt lat="53.15951" lon="6.5687"></trkpt><trkpt lat="53.15883" lon="6.56673"></trkpt><trkpt lat="53.15867" lon="6.56628"></trkpt><trkpt lat="53.15861" lon="6.56607"></trkpt><trkpt lat="53.15859" lon="6.56577"></trkpt><trkpt lat="53.15855" lon="6.56561"></trkpt><trkpt lat="53.15851" lon="6.56547"></trkpt><trkpt lat="53.1585" lon="6.56537"></trkpt><trkpt lat="53.15848" lon="6.56532"></trkpt><trkpt lat="53.15838" lon="6.56513"></trkpt><trkpt lat="53.15834" lon="6.56503"></trkpt><trkpt lat="53.1583" lon="6.56484"></trkpt><trkpt lat="53.15827" lon="6.56479"></trkpt><trkpt lat="53.15816" lon="6.56472"></trkpt><trkpt lat="53.1581" lon="6.56465"></trkpt><trkpt lat="53.158" lon="6.56446"></trkpt><trkpt lat="53.15782" lon="6.56397"></trkpt><trkpt lat="53.1578" lon="6.56383"></trkpt><trkpt lat="53.1578" lon="6.56375"></trkpt><trkpt lat="53.15781" lon="6.56371"></trkpt><trkpt lat="53.15778" lon="6.56366"></trkpt><trkpt lat="53.15774" lon="6.56358"></trkpt><trkpt lat="53.15771" lon="6.56352"></trkpt><trkpt lat="53.15769" lon="6.56348"></trkpt><trkpt lat="53.1574" lon="6.56357"></trkpt><trkpt lat="53.15736" lon="6.56359"></trkpt><trkpt lat="53.1572" lon="6.56365"></trkpt><trkpt lat="53.15706" lon="6.56371"></trkpt><trkpt lat="53.15695" lon="6.56379"></trkpt><trkpt lat="53.15683" lon="6.56385"></trkpt><trkpt lat="53.15632" lon="6.56403"></trkpt><trkpt lat="53.15562" lon="6.5643"></trkpt><trkpt lat="53.155" lon="6.56453"></trkpt><trkpt lat="53.15489" lon="6.56457"></trkpt><trkpt lat="53.15415" lon="6.56485"></trkpt><trkpt lat="53.15407" lon="6.56488"></trkpt><trkpt lat="53.15375" lon="6.565"></trkpt><trkpt lat="53.1537" lon="6.56502"></trkpt><trkpt lat="53.15354" lon="6.56508"></trkpt><trkpt lat="53.15339" lon="6.56517"></trkpt><trkpt lat="53.15322" lon="6.56527"></trkpt><trkpt lat="53.15308" lon="6.56538"></trkpt><trkpt lat="53.15269" lon="6.56588"></trkpt><trkpt lat="53.15228" lon="6.56639"></trkpt><trkpt lat="53.15214" lon="6.56653"></trkpt><trkpt lat="53.15202" lon="6.56668"></trkpt><trkpt lat="53.15186" lon="6.56688"></trkpt><trkpt lat="53.15182" lon="6.56695"></trkpt><trkpt lat="53.15177" lon="6.56704"></trkpt><trkpt lat="53.15163" lon="6.56718"></trkpt><trkpt lat="53.15142" lon="6.56732"></trkpt><trkpt lat="53.15128" lon="6.56738"></trkpt><trkpt lat="53.15113" lon="6.56741"></trkpt><trkpt lat="53.15097" lon="6.56742"></trkpt><trkpt lat="53.15062" lon="6.56743"></trkpt><trkpt lat="53.15053" lon="6.56743"></trkpt><trkpt lat="53.15048" lon="6.5674"></trkpt><trkpt lat="53.15039" lon="6.5674"></trkpt><trkpt lat="53.15033" lon="6.56744"></trkpt><trkpt lat="53.1502" lon="6.56744"></trkpt><trkpt lat="53.14959" lon="6.56747"></trkpt><trkpt lat="53.14953" lon="6.56743"></trkpt><trkpt lat="53.14931" lon="6.56743"></trkpt><trkpt lat="53.14927" lon="6.56747"></trkpt><trkpt lat="53.14914" lon="6.56747"></trkpt><trkpt lat="53.14888" lon="6.56744"></trkpt><trkpt lat="53.1488" lon="6.56743"></trkpt><trkpt lat="53.14846" lon="6.56735"></trkpt><trkpt lat="53.1483" lon="6.56729"></trkpt><trkpt lat="53.14819" lon="6.56725"></trkpt><trkpt lat="53.14811" lon="6.56722"></trkpt><trkpt lat="53.14801" lon="6.56719"></trkpt><trkpt lat="53.14797" lon="6.56714"></trkpt><trkpt lat="53.14785" lon="6.56709"></trkpt><trkpt lat="53.1478" lon="6.5671"></trkpt><trkpt lat="53.14734" lon="6.56693"></trkpt><trkpt lat="53.14729" lon="6.56689"></trkpt><trkpt lat="53.14721" lon="6.56685"></trkpt><trkpt lat="53.147" lon="6.56676"></trkpt><trkpt lat="53.14693" lon="6.56678"></trkpt><trkpt lat="53.14662" lon="6.56667"></trkpt><trkpt lat="53.14655" lon="6.56662"></trkpt><trkpt lat="53.14654" lon="6.56653"></trkpt><trkpt lat="53.1465" lon="6.56645"></trkpt><trkpt lat="53.14645" lon="6.56639"></trkpt><trkpt lat="53.1464" lon="6.56635"></trkpt><trkpt lat="53.14633" lon="6.56635"></trkpt><trkpt lat="53.14627" lon="6.56638"></trkpt><trkpt lat="53.14621" lon="6.56645"></trkpt><trkpt lat="53.14617" lon="6.56654"></trkpt><trkpt lat="53.14616" lon="6.56663"></trkpt><trkpt lat="53.14616" lon="6.56672"></trkpt><trkpt lat="53.1461" lon="6.5668"></trkpt><trkpt lat="53.14604" lon="6.56686"></trkpt><trkpt lat="53.1459" lon="6.56695"></trkpt><trkpt lat="53.14539" lon="6.56733"></trkpt><trkpt lat="53.14472" lon="6.56785"></trkpt><trkpt lat="53.14445" lon="6.56804"></trkpt><trkpt lat="53.14435" lon="6.5681"></trkpt><trkpt lat="53.14423" lon="6.56822"></trkpt><trkpt lat="53.14312" lon="6.56908"></trkpt><trkpt lat="53.14286" lon="6.56932"></trkpt><trkpt lat="53.14261" lon="6.56958"></trkpt><trkpt lat="53.14228" lon="6.56999"></trkpt><trkpt lat="53.14206" lon="6.5703"></trkpt><trkpt lat="53.14183" lon="6.57062"></trkpt><trkpt lat="53.14171" lon="6.5708"></trkpt><trkpt lat="53.1416" lon="6.57095"></trkpt><trkpt lat="53.14127" lon="6.57139"></trkpt><trkpt lat="53.14103" lon="6.57173"></trkpt><trkpt lat="53.14086" lon="6.57196"></trkpt><trkpt lat="53.14071" lon="6.57215"></trkpt><trkpt lat="53.14024" lon="6.57273"></trkpt><trkpt lat="53.13977" lon="6.57332"></trkpt><trkpt lat="53.13962" lon="6.57351"></trkpt><trkpt lat="53.13947" lon="6.57369"></trkpt><trkpt lat="53.13921" lon="6.574"></trkpt><trkpt lat="53.13883" lon="6.57447"></trkpt><trkpt lat="53.13879" lon="6.57454"></trkpt><trkpt lat="53.13867" lon="6.57468"></trkpt><trkpt lat="53.13861" lon="6.57476"></trkpt><trkpt lat="53.13846" lon="6.57489"></trkpt><trkpt lat="53.13838" lon="6.57498"></trkpt><trkpt lat="53.13832" lon="6.57507"></trkpt><trkpt lat="53.13822" lon="6.57518"></trkpt><trkpt lat="53.13812" lon="6.5753"></trkpt><trkpt lat="53.13792" lon="6.57564"></trkpt><trkpt lat="53.13777" lon="6.57585"></trkpt><trkpt lat="53.1371" lon="6.57678"></trkpt><trkpt lat="53.1367" lon="6.57733"></trkpt><trkpt lat="53.13636" lon="6.57783"></trkpt><trkpt lat="53.13619" lon="6.57806"></trkpt><trkpt lat="53.13613" lon="6.57813"></trkpt><trkpt lat="53.13576" lon="6.57865"></trkpt><trkpt lat="53.13538" lon="6.57918"></trkpt><trkpt lat="53.13519" lon="6.5795"></trkpt><trkpt lat="53.135" lon="6.57982"></trkpt><trkpt lat="53.13478" lon="6.58025"></trkpt><trkpt lat="53.13472" lon="6.58032"></trkpt><trkpt lat="53.13468" lon="6.58036"></trkpt><trkpt lat="53.13463" lon="6.58048"></trkpt><trkpt lat="53.13458" lon="6.58062"></trkpt><trkpt lat="53.13454" lon="6.58085"></trkpt><trkpt lat="53.13448" lon="6.58102"></trkpt><trkpt lat="53.13438" lon="6.58132"></trkpt><trkpt lat="53.13432" lon="6.58155"></trkpt><trkpt lat="53.13418" lon="6.58217"></trkpt><trkpt lat="53.13408" lon="6.58264"></trkpt><trkpt lat="53.13379" lon="6.58382"></trkpt><trkpt lat="53.13376" lon="6.58399"></trkpt><trkpt lat="53.13368" lon="6.5843"></trkpt><trkpt lat="53.13347" lon="6.58521"></trkpt><trkpt lat="53.13335" lon="6.58568"></trkpt><trkpt lat="53.13324" lon="6.58614"></trkpt><trkpt lat="53.13314" lon="6.58647"></trkpt><trkpt lat="53.13306" lon="6.5867"></trkpt><trkpt lat="53.13298" lon="6.58689"></trkpt><trkpt lat="53.13289" lon="6.58707"></trkpt><trkpt lat="53.13274" lon="6.58734"></trkpt><trkpt lat="53.13262" lon="6.58751"></trkpt><trkpt lat="53.13253" lon="6.58763"></trkpt><trkpt lat="53.13247" lon="6.58771"></trkpt><trkpt lat="53.13243" lon="6.58776"></trkpt><trkpt lat="53.13188" lon="6.58835"></trkpt><trkpt lat="53.13177" lon="6.58848"></trkpt><trkpt lat="53.13071" lon="6.58961"></trkpt><trkpt lat="53.13042" lon="6.58993"></trkpt><trkpt lat="53.13024" lon="6.59012"></trkpt><trkpt lat="53.13016" lon="6.59021"></trkpt><trkpt lat="53.13014" lon="6.59023"></trkpt><trkpt lat="53.13011" lon="6.59024"></trkpt><trkpt lat="53.13005" lon="6.59026"></trkpt><trkpt lat="53.13001" lon="6.59029"></trkpt><trkpt lat="53.12994" lon="6.59035"></trkpt><trkpt lat="53.12986" lon="6.59042"></trkpt><trkpt lat="53.12984" lon="6.59044"></trkpt><trkpt lat="53.12977" lon="6.59056"></trkpt><trkpt lat="53.12971" lon="6.59066"></trkpt><trkpt lat="53.12969" lon="6.59069"></trkpt><trkpt lat="53.12966" lon="6.59072"></trkpt><trkpt lat="53.12936" lon="6.59106"></trkpt><trkpt lat="53.12831" lon="6.59221"></trkpt><trkpt lat="53.12643" lon="6.59424"></trkpt><trkpt lat="53.12509" lon="6.59569"></trkpt><trkpt lat="53.12482" lon="6.59595"></trkpt><trkpt lat="53.12459" lon="6.59629"></trkpt><trkpt lat="53.1245" lon="6.59642"></trkpt><trkpt lat="53.12442" lon="6.59656"></trkpt><trkpt lat="53.12433" lon="6.59671"></trkpt><trkpt lat="53.12423" lon="6.59689"></trkpt><trkpt lat="53.12416" lon="6.59705"></trkpt><trkpt lat="53.12415" lon="6.59704"></trkpt><trkpt lat="53.12406" lon="6.59695"></trkpt><trkpt lat="53.12303" lon="6.59805"></trkpt><trkpt lat="53.12236" lon="6.59879"></trkpt><trkpt lat="53.12233" lon="6.59882"></trkpt><trkpt lat="53.12231" lon="6.59885"></trkpt><trkpt lat="53.12229" lon="6.59889"></trkpt><trkpt lat="53.12228" lon="6.59894"></trkpt><trkpt lat="53.12227" lon="6.59899"></trkpt><trkpt lat="53.12222" lon="6.59898"></trkpt><trkpt lat="53.12216" lon="6.59897"></trkpt><trkpt lat="53.12213" lon="6.59895"></trkpt><trkpt lat="53.12209" lon="6.59892"></trkpt><trkpt lat="53.12207" lon="6.5989"></trkpt><trkpt lat="53.12179" lon="6.59857"></trkpt><trkpt lat="53.12162" lon="6.59836"></trkpt><trkpt lat="53.12123" lon="6.59787"></trkpt><trkpt lat="53.12085" lon="6.59742"></trkpt><trkpt lat="53.12045" lon="6.59692"></trkpt><trkpt lat="53.12005" lon="6.59644"></trkpt><trkpt lat="53.11985" lon="6.59622"></trkpt><trkpt lat="53.11964" lon="6.59599"></trkpt><trkpt lat="53.11952" lon="6.59585"></trkpt><trkpt lat="53.11938" lon="6.59572"></trkpt><trkpt lat="53.11921" lon="6.59551"></trkpt><trkpt lat="53.11905" lon="6.59529"></trkpt><trkpt lat="53.11872" lon="6.59484"></trkpt><trkpt lat="53.11861" lon="6.59476"></trkpt><trkpt lat="53.11842" lon="6.59453"></trkpt><trkpt lat="53.1184" lon="6.5945"></trkpt><trkpt lat="53.11809" lon="6.59413"></trkpt><trkpt lat="53.1176" lon="6.59349"></trkpt><trkpt lat="53.11741" lon="6.59323"></trkpt><trkpt lat="53.11737" lon="6.59316"></trkpt><trkpt lat="53.11701" lon="6.59243"></trkpt><trkpt lat="53.11681" lon="6.59203"></trkpt><trkpt lat="53.11646" lon="6.59241"></trkpt><trkpt lat="53.11622" lon="6.59264"></trkpt><trkpt lat="53.116" lon="6.59282"></trkpt><trkpt lat="53.1159" lon="6.59289"></trkpt><trkpt lat="53.11541" lon="6.59309"></trkpt><trkpt lat="53.11527" lon="6.59315"></trkpt><trkpt lat="53.11509" lon="6.59216"></trkpt><trkpt lat="53.11509" lon="6.59216"></trkpt><trkpt lat="53.11509" lon="6.59216"></trkpt><trkpt lat="53.11527" lon="6.59315"></trkpt><trkpt lat="53.1146" lon="6.59342"></trkpt><trkpt lat="53.11451" lon="6.59348"></trkpt><trkpt lat="53.11403" lon="6.59158"></trkpt><trkpt lat="53.11375" lon="6.59043"></trkpt><trkpt lat="53.1135" lon="6.58947"></trkpt><trkpt lat="53.11332" lon="6.58874"></trkpt><trkpt lat="53.11323" lon="6.58843"></trkpt><trkpt lat="53.11319" lon="6.58826"></trkpt><trkpt lat="53.1132" lon="6.58809"></trkpt><trkpt lat="53.11308" lon="6.58792"></trkpt><trkpt lat="53.1129" lon="6.58724"></trkpt><trkpt lat="53.1128" lon="6.58689"></trkpt><trkpt lat="53.11271" lon="6.58659"></trkpt><trkpt lat="53.11259" lon="6.58631"></trkpt><trkpt lat="53.11242" lon="6.586"></trkpt><trkpt lat="53.11209" lon="6.58548"></trkpt><trkpt lat="53.11162" lon="6.58477"></trkpt><trkpt lat="53.11149" lon="6.58447"></trkpt><trkpt lat="53.11142" lon="6.58415"></trkpt><trkpt lat="53.11142" lon="6.58387"></trkpt><trkpt lat="53.11144" lon="6.58365"></trkpt><trkpt lat="53.11152" lon="6.5831"></trkpt><trkpt lat="53.1116" lon="6.58256"></trkpt><trkpt lat="53.11163" lon="6.58221"></trkpt><trkpt lat="53.11162" lon="6.58194"></trkpt><trkpt lat="53.1116" lon="6.58171"></trkpt><trkpt lat="53.11157" lon="6.58151"></trkpt><trkpt lat="53.11154" lon="6.58132"></trkpt><trkpt lat="53.11136" lon="6.58043"></trkpt><trkpt lat="53.11125" lon="6.57992"></trkpt><trkpt lat="53.11116" lon="6.57942"></trkpt><trkpt lat="53.11113" lon="6.57907"></trkpt><trkpt lat="53.11113" lon="6.5787"></trkpt><trkpt lat="53.11119" lon="6.57755"></trkpt><trkpt lat="53.1112" lon="6.57738"></trkpt><trkpt lat="53.11126" lon="6.57651"></trkpt><trkpt lat="53.1113" lon="6.57614"></trkpt><trkpt lat="53.11136" lon="6.57566"></trkpt><trkpt lat="53.11143" lon="6.57502"></trkpt><trkpt lat="53.11144" lon="6.57473"></trkpt><trkpt lat="53.11143" lon="6.5741"></trkpt><trkpt lat="53.11136" lon="6.57347"></trkpt><trkpt lat="53.11114" lon="6.57209"></trkpt><trkpt lat="53.11086" lon="6.57017"></trkpt><trkpt lat="53.11074" lon="6.56962"></trkpt><trkpt lat="53.11066" lon="6.56939"></trkpt><trkpt lat="53.10987" lon="6.56727"></trkpt><trkpt lat="53.10985" lon="6.56722"></trkpt><trkpt lat="53.10968" lon="6.56678"></trkpt><trkpt lat="53.10957" lon="6.56689"></trkpt><trkpt lat="53.10951" lon="6.56695"></trkpt><trkpt lat="53.10948" lon="6.56699"></trkpt><trkpt lat="53.10951" lon="6.56695"></trkpt><trkpt lat="53.10957" lon="6.56689"></trkpt><trkpt lat="53.10968" lon="6.56678"></trkpt><trkpt lat="53.10616" lon="6.55738"></trkpt><trkpt lat="53.10587" lon="6.55662"></trkpt><trkpt lat="53.10568" lon="6.55593"></trkpt><trkpt lat="53.10539" lon="6.55487"></trkpt><trkpt lat="53.10531" lon="6.55464"></trkpt><trkpt lat="53.1052" lon="6.55437"></trkpt><trkpt lat="53.10476" lon="6.5537"></trkpt><trkpt lat="53.10403" lon="6.55274"></trkpt><trkpt lat="53.10151" lon="6.54944"></trkpt><trkpt lat="53.10096" lon="6.54872"></trkpt><trkpt lat="53.10056" lon="6.54827"></trkpt><trkpt lat="53.09993" lon="6.54775"></trkpt><trkpt lat="53.09935" lon="6.54732"></trkpt><trkpt lat="53.09914" lon="6.5472"></trkpt><trkpt lat="53.09893" lon="6.54715"></trkpt><trkpt lat="53.09861" lon="6.54718"></trkpt><trkpt lat="53.09836" lon="6.5473"></trkpt><trkpt lat="53.09824" lon="6.54737"></trkpt><trkpt lat="53.09812" lon="6.54743"></trkpt><trkpt lat="53.09803" lon="6.54744"></trkpt><trkpt lat="53.09792" lon="6.54742"></trkpt><trkpt lat="53.0978" lon="6.54732"></trkpt><trkpt lat="53.09771" lon="6.54753"></trkpt><trkpt lat="53.09768" lon="6.5476"></trkpt><trkpt lat="53.09767" lon="6.54766"></trkpt><trkpt lat="53.09765" lon="6.54782"></trkpt><trkpt lat="53.09751" lon="6.5478"></trkpt><trkpt lat="53.0974" lon="6.54782"></trkpt><trkpt lat="53.09729" lon="6.54786"></trkpt><trkpt lat="53.09722" lon="6.54789"></trkpt><trkpt lat="53.09679" lon="6.54818"></trkpt><trkpt lat="53.09633" lon="6.54849"></trkpt><trkpt lat="53.09588" lon="6.54894"></trkpt><trkpt lat="53.09581" lon="6.54876"></trkpt><trkpt lat="53.09565" lon="6.54838"></trkpt><trkpt lat="53.09549" lon="6.54808"></trkpt><trkpt lat="53.09511" lon="6.54718"></trkpt><trkpt lat="53.09493" lon="6.54669"></trkpt><trkpt lat="53.09494" lon="6.54651"></trkpt><trkpt lat="53.09499" lon="6.5456"></trkpt><trkpt lat="53.09499" lon="6.54531"></trkpt><trkpt lat="53.09491" lon="6.54455"></trkpt><trkpt lat="53.09489" lon="6.54439"></trkpt><trkpt lat="53.09485" lon="6.54363"></trkpt><trkpt lat="53.09483" lon="6.54284"></trkpt><trkpt lat="53.09481" lon="6.54265"></trkpt><trkpt lat="53.09477" lon="6.54249"></trkpt><trkpt lat="53.09447" lon="6.54177"></trkpt><trkpt lat="53.09421" lon="6.54119"></trkpt><trkpt lat="53.09404" lon="6.54094"></trkpt><trkpt lat="53.09398" lon="6.54083"></trkpt><trkpt lat="53.09381" lon="6.54041"></trkpt><trkpt lat="53.09368" lon="6.54012"></trkpt><trkpt lat="53.09354" lon="6.53974"></trkpt><trkpt lat="53.09336" lon="6.53905"></trkpt><trkpt lat="53.09319" lon="6.5383"></trkpt><trkpt lat="53.09316" lon="6.53818"></trkpt><trkpt lat="53.09265" lon="6.53604"></trkpt><trkpt lat="53.0923" lon="6.53468"></trkpt><trkpt lat="53.09223" lon="6.53442"></trkpt><trkpt lat="53.09211" lon="6.53408"></trkpt><trkpt lat="53.09221" lon="6.53401"></trkpt><trkpt lat="53.09227" lon="6.53395"></trkpt><trkpt lat="53.09229" lon="6.53387"></trkpt><trkpt lat="53.09228" lon="6.53378"></trkpt><trkpt lat="53.09216" lon="6.53352"></trkpt><trkpt lat="53.09158" lon="6.53145"></trkpt><trkpt lat="53.09131" lon="6.53045"></trkpt><trkpt lat="53.09055" lon="6.52766"></trkpt><trkpt lat="53.09045" lon="6.5274"></trkpt><trkpt lat="53.0903" lon="6.5268"></trkpt><trkpt lat="53.09025" lon="6.52655"></trkpt><trkpt lat="53.08975" lon="6.52477"></trkpt><trkpt lat="53.0893" lon="6.52315"></trkpt><trkpt lat="53.08925" lon="6.52298"></trkpt><trkpt lat="53.08895" lon="6.52219"></trkpt><trkpt lat="53.08799" lon="6.51988"></trkpt><trkpt lat="53.08793" lon="6.51965"></trkpt><trkpt lat="53.08787" lon="6.51951"></trkpt><trkpt lat="53.08782" lon="6.51941"></trkpt><trkpt lat="53.08769" lon="6.51916"></trkpt><trkpt lat="53.08627" lon="6.51577"></trkpt><trkpt lat="53.08619" lon="6.5155"></trkpt><trkpt lat="53.08549" lon="6.51263"></trkpt><trkpt lat="53.08542" lon="6.5124"></trkpt><trkpt lat="53.08533" lon="6.51217"></trkpt><trkpt lat="53.08529" lon="6.51208"></trkpt><trkpt lat="53.08497" lon="6.51055"></trkpt><trkpt lat="53.08409" lon="6.5065"></trkpt><trkpt lat="53.0835" lon="6.50372"></trkpt><trkpt lat="53.08348" lon="6.50355"></trkpt><trkpt lat="53.08345" lon="6.5034"></trkpt><trkpt lat="53.08342" lon="6.50325"></trkpt><trkpt lat="53.08331" lon="6.50302"></trkpt><trkpt lat="53.08325" lon="6.50279"></trkpt><trkpt lat="53.08313" lon="6.50229"></trkpt><trkpt lat="53.08311" lon="6.50223"></trkpt><trkpt lat="53.08307" lon="6.50193"></trkpt><trkpt lat="53.08305" lon="6.50186"></trkpt><trkpt lat="53.08277" lon="6.50072"></trkpt><trkpt lat="53.0821" lon="6.49792"></trkpt><trkpt lat="53.08172" lon="6.4963"></trkpt><trkpt lat="53.08162" lon="6.49588"></trkpt><trkpt lat="53.08153" lon="6.49531"></trkpt><trkpt lat="53.08146" lon="6.49463"></trkpt><trkpt lat="53.08146" lon="6.49451"></trkpt><trkpt lat="53.08147" lon="6.49423"></trkpt><trkpt lat="53.08146" lon="6.49412"></trkpt><trkpt lat="53.08145" lon="6.49392"></trkpt><trkpt lat="53.08138" lon="6.49361"></trkpt><trkpt lat="53.0813" lon="6.49269"></trkpt><trkpt lat="53.08128" lon="6.49234"></trkpt><trkpt lat="53.08126" lon="6.49218"></trkpt><trkpt lat="53.0812" lon="6.49156"></trkpt><trkpt lat="53.08069" lon="6.49024"></trkpt><trkpt lat="53.08036" lon="6.4894"></trkpt><trkpt lat="53.08026" lon="6.4892"></trkpt><trkpt lat="53.08003" lon="6.48878"></trkpt><trkpt lat="53.07995" lon="6.48866"></trkpt><trkpt lat="53.07948" lon="6.48788"></trkpt><trkpt lat="53.07945" lon="6.48787"></trkpt><trkpt lat="53.07941" lon="6.48787"></trkpt><trkpt lat="53.07933" lon="6.48798"></trkpt><trkpt lat="53.07929" lon="6.48802"></trkpt><trkpt lat="53.07925" lon="6.48801"></trkpt><trkpt lat="53.07913" lon="6.48784"></trkpt><trkpt lat="53.07709" lon="6.48453"></trkpt><trkpt lat="53.07691" lon="6.48424"></trkpt><trkpt lat="53.07491" lon="6.48097"></trkpt><trkpt lat="53.0746" lon="6.48046"></trkpt><trkpt lat="53.07452" lon="6.48033"></trkpt><trkpt lat="53.07384" lon="6.47921"></trkpt><trkpt lat="53.0734" lon="6.47849"></trkpt><trkpt lat="53.07202" lon="6.47624"></trkpt><trkpt lat="53.07162" lon="6.47558"></trkpt><trkpt lat="53.07106" lon="6.47468"></trkpt><trkpt lat="53.07017" lon="6.47321"></trkpt><trkpt lat="53.06978" lon="6.47257"></trkpt><trkpt lat="53.06958" lon="6.47225"></trkpt><trkpt lat="53.0695" lon="6.4721"></trkpt><trkpt lat="53.06945" lon="6.47201"></trkpt><trkpt lat="53.0692" lon="6.47127"></trkpt><trkpt lat="53.06916" lon="6.47115"></trkpt><trkpt lat="53.0691" lon="6.47099"></trkpt><trkpt lat="53.06884" lon="6.47022"></trkpt><trkpt lat="53.06789" lon="6.46743"></trkpt><trkpt lat="53.06776" lon="6.46702"></trkpt><trkpt lat="53.06735" lon="6.46582"></trkpt><trkpt lat="53.06734" lon="6.46576"></trkpt><trkpt lat="53.06735" lon="6.46569"></trkpt><trkpt lat="53.06738" lon="6.46563"></trkpt><trkpt lat="53.06735" lon="6.46555"></trkpt><trkpt lat="53.06729" lon="6.46559"></trkpt><trkpt lat="53.06718" lon="6.46568"></trkpt><trkpt lat="53.06695" lon="6.46581"></trkpt><trkpt lat="53.06691" lon="6.4658"></trkpt><trkpt lat="53.06688" lon="6.46577"></trkpt><trkpt lat="53.06685" lon="6.46574"></trkpt><trkpt lat="53.06689" lon="6.46565"></trkpt><trkpt lat="53.06694" lon="6.46545"></trkpt><trkpt lat="53.06699" lon="6.46519"></trkpt><trkpt lat="53.06702" lon="6.46515"></trkpt><trkpt lat="53.06705" lon="6.46512"></trkpt><trkpt lat="53.06718" lon="6.46501"></trkpt><trkpt lat="53.06706" lon="6.46456"></trkpt><trkpt lat="53.06703" lon="6.46444"></trkpt><trkpt lat="53.067" lon="6.46429"></trkpt><trkpt lat="53.06694" lon="6.46385"></trkpt><trkpt lat="53.06691" lon="6.46361"></trkpt><trkpt lat="53.06687" lon="6.46318"></trkpt><trkpt lat="53.06684" lon="6.46286"></trkpt><trkpt lat="53.06682" lon="6.46274"></trkpt><trkpt lat="53.06673" lon="6.46194"></trkpt><trkpt lat="53.06667" lon="6.46174"></trkpt><trkpt lat="53.06649" lon="6.46111"></trkpt><trkpt lat="53.06641" lon="6.46082"></trkpt><trkpt lat="53.06635" lon="6.46055"></trkpt><trkpt lat="53.06634" lon="6.46047"></trkpt><trkpt lat="53.06633" lon="6.46034"></trkpt><trkpt lat="53.06631" lon="6.45983"></trkpt><trkpt lat="53.0663" lon="6.45972"></trkpt><trkpt lat="53.06621" lon="6.45944"></trkpt><trkpt lat="53.06633" lon="6.45928"></trkpt><trkpt lat="53.06644" lon="6.45912"></trkpt><trkpt lat="53.06655" lon="6.45893"></trkpt><trkpt lat="53.06662" lon="6.45877"></trkpt><trkpt lat="53.0667" lon="6.45862"></trkpt><trkpt lat="53.06694" lon="6.45808"></trkpt><trkpt lat="53.06716" lon="6.45765"></trkpt><trkpt lat="53.06717" lon="6.45761"></trkpt><trkpt lat="53.06728" lon="6.4574"></trkpt><trkpt lat="53.06737" lon="6.4572"></trkpt><trkpt lat="53.06739" lon="6.45715"></trkpt><trkpt lat="53.06752" lon="6.45688"></trkpt><trkpt lat="53.06761" lon="6.45673"></trkpt><trkpt lat="53.06768" lon="6.45659"></trkpt><trkpt lat="53.06776" lon="6.4565"></trkpt><trkpt lat="53.06791" lon="6.45638"></trkpt><trkpt lat="53.06819" lon="6.45615"></trkpt><trkpt lat="53.06918" lon="6.4554"></trkpt><trkpt lat="53.06924" lon="6.45535"></trkpt><trkpt lat="53.06951" lon="6.45515"></trkpt><trkpt lat="53.06954" lon="6.45532"></trkpt><trkpt lat="53.06958" lon="6.45532"></trkpt><trkpt lat="53.06963" lon="6.45532"></trkpt><trkpt lat="53.06983" lon="6.45516"></trkpt><trkpt lat="53.07051" lon="6.45464"></trkpt><trkpt lat="53.07055" lon="6.45461"></trkpt><trkpt lat="53.07058" lon="6.45462"></trkpt><trkpt lat="53.07061" lon="6.45456"></trkpt><trkpt lat="53.07105" lon="6.45423"></trkpt><trkpt lat="53.07108" lon="6.45421"></trkpt><trkpt lat="53.07111" lon="6.4542"></trkpt><trkpt lat="53.07114" lon="6.45416"></trkpt><trkpt lat="53.07134" lon="6.454"></trkpt><trkpt lat="53.07138" lon="6.45397"></trkpt><trkpt lat="53.07156" lon="6.45384"></trkpt><trkpt lat="53.07162" lon="6.45379"></trkpt><trkpt lat="53.07167" lon="6.45373"></trkpt><trkpt lat="53.07174" lon="6.45365"></trkpt><trkpt lat="53.0718" lon="6.45358"></trkpt><trkpt lat="53.07187" lon="6.45353"></trkpt><trkpt lat="53.07221" lon="6.45324"></trkpt><trkpt lat="53.07236" lon="6.45317"></trkpt><trkpt lat="53.07255" lon="6.45305"></trkpt><trkpt lat="53.07273" lon="6.45288"></trkpt><trkpt lat="53.07288" lon="6.45274"></trkpt><trkpt lat="53.07298" lon="6.45266"></trkpt><trkpt lat="53.07309" lon="6.45257"></trkpt><trkpt lat="53.07339" lon="6.45239"></trkpt><trkpt lat="53.07449" lon="6.45155"></trkpt><trkpt lat="53.07462" lon="6.45141"></trkpt><trkpt lat="53.07481" lon="6.45126"></trkpt><trkpt lat="53.07576" lon="6.45057"></trkpt><trkpt lat="53.07581" lon="6.45053"></trkpt><trkpt lat="53.07591" lon="6.45044"></trkpt><trkpt lat="53.07607" lon="6.45027"></trkpt><trkpt lat="53.07753" lon="6.44917"></trkpt><trkpt lat="53.07777" lon="6.44905"></trkpt><trkpt lat="53.07786" lon="6.44898"></trkpt><trkpt lat="53.07831" lon="6.44863"></trkpt><trkpt lat="53.07852" lon="6.44846"></trkpt><trkpt lat="53.07863" lon="6.44836"></trkpt><trkpt lat="53.0787" lon="6.44827"></trkpt><trkpt lat="53.07912" lon="6.44795"></trkpt><trkpt lat="53.07932" lon="6.4478"></trkpt><trkpt lat="53.07952" lon="6.44765"></trkpt><trkpt lat="53.07965" lon="6.4476"></trkpt><trkpt lat="53.08" lon="6.44734"></trkpt><trkpt lat="53.08051" lon="6.44696"></trkpt><trkpt lat="53.08081" lon="6.44673"></trkpt><trkpt lat="53.08114" lon="6.44651"></trkpt><trkpt lat="53.0813" lon="6.44642"></trkpt><trkpt lat="53.08151" lon="6.44633"></trkpt><trkpt lat="53.08171" lon="6.44628"></trkpt><trkpt lat="53.08194" lon="6.44624"></trkpt><trkpt lat="53.08215" lon="6.44623"></trkpt><trkpt lat="53.08298" lon="6.4462"></trkpt><trkpt lat="53.08318" lon="6.44624"></trkpt><trkpt lat="53.08324" lon="6.44625"></trkpt><trkpt lat="53.0843" lon="6.44621"></trkpt><trkpt lat="53.08434" lon="6.44621"></trkpt><trkpt lat="53.08456" lon="6.44616"></trkpt><trkpt lat="53.0857" lon="6.4461"></trkpt><trkpt lat="53.08604" lon="6.44607"></trkpt><trkpt lat="53.08624" lon="6.4461"></trkpt><trkpt lat="53.08666" lon="6.44609"></trkpt><trkpt lat="53.08709" lon="6.44611"></trkpt><trkpt lat="53.08742" lon="6.44615"></trkpt><trkpt lat="53.08867" lon="6.44634"></trkpt><trkpt lat="53.08871" lon="6.44634"></trkpt><trkpt lat="53.08875" lon="6.44634"></trkpt><trkpt lat="53.08878" lon="6.44632"></trkpt><trkpt lat="53.08882" lon="6.44629"></trkpt><trkpt lat="53.08888" lon="6.44624"></trkpt><trkpt lat="53.08967" lon="6.44637"></trkpt><trkpt lat="53.09048" lon="6.44648"></trkpt><trkpt lat="53.09061" lon="6.4465"></trkpt><trkpt lat="53.09062" lon="6.44631"></trkpt><trkpt lat="53.09067" lon="6.44581"></trkpt><trkpt lat="53.09068" lon="6.4456"></trkpt><trkpt lat="53.0907" lon="6.44521"></trkpt><trkpt lat="53.09073" lon="6.44467"></trkpt><trkpt lat="53.09073" lon="6.44442"></trkpt><trkpt lat="53.09069" lon="6.44412"></trkpt><trkpt lat="53.09063" lon="6.44356"></trkpt><trkpt lat="53.09068" lon="6.44348"></trkpt><trkpt lat="53.09088" lon="6.44291"></trkpt><trkpt lat="53.09101" lon="6.44253"></trkpt><trkpt lat="53.09116" lon="6.44224"></trkpt><trkpt lat="53.09139" lon="6.44177"></trkpt><trkpt lat="53.09145" lon="6.44163"></trkpt><trkpt lat="53.09149" lon="6.44151"></trkpt><trkpt lat="53.09181" lon="6.44075"></trkpt><trkpt lat="53.09208" lon="6.44013"></trkpt><trkpt lat="53.09227" lon="6.43981"></trkpt><trkpt lat="53.09237" lon="6.43967"></trkpt><trkpt lat="53.09269" lon="6.43933"></trkpt><trkpt lat="53.09295" lon="6.43908"></trkpt><trkpt lat="53.09308" lon="6.43899"></trkpt><trkpt lat="53.09321" lon="6.43896"></trkpt><trkpt lat="53.09452" lon="6.43967"></trkpt><trkpt lat="53.09472" lon="6.43967"></trkpt><trkpt lat="53.09478" lon="6.43969"></trkpt><trkpt lat="53.09485" lon="6.43974"></trkpt><trkpt lat="53.0949" lon="6.4398"></trkpt><trkpt lat="53.09494" lon="6.43969"></trkpt><trkpt lat="53.09745" lon="6.43434"></trkpt><trkpt lat="53.09773" lon="6.43371"></trkpt><trkpt lat="53.09788" lon="6.43339"></trkpt><trkpt lat="53.09798" lon="6.43323"></trkpt><trkpt lat="53.09807" lon="6.43313"></trkpt><trkpt lat="53.09816" lon="6.43306"></trkpt><trkpt lat="53.09825" lon="6.433"></trkpt><trkpt lat="53.09921" lon="6.43266"></trkpt><trkpt lat="53.09948" lon="6.43261"></trkpt><trkpt lat="53.09977" lon="6.43251"></trkpt><trkpt lat="53.10001" lon="6.43243"></trkpt><trkpt lat="53.10049" lon="6.43236"></trkpt><trkpt lat="53.10127" lon="6.43228"></trkpt><trkpt lat="53.10141" lon="6.43226"></trkpt><trkpt lat="53.10153" lon="6.43221"></trkpt><trkpt lat="53.10171" lon="6.43212"></trkpt><trkpt lat="53.10186" lon="6.43201"></trkpt><trkpt lat="53.10283" lon="6.43108"></trkpt><trkpt lat="53.10304" lon="6.43085"></trkpt><trkpt lat="53.10307" lon="6.43082"></trkpt><trkpt lat="53.1031" lon="6.43079"></trkpt><trkpt lat="53.10314" lon="6.43075"></trkpt><trkpt lat="53.1032" lon="6.43072"></trkpt><trkpt lat="53.10327" lon="6.43069"></trkpt><trkpt lat="53.10348" lon="6.43058"></trkpt><trkpt lat="53.10359" lon="6.43053"></trkpt><trkpt lat="53.10378" lon="6.43051"></trkpt><trkpt lat="53.10451" lon="6.43048"></trkpt><trkpt lat="53.10471" lon="6.43044"></trkpt><trkpt lat="53.1049" lon="6.43034"></trkpt><trkpt lat="53.10586" lon="6.42958"></trkpt><trkpt lat="53.10756" lon="6.42825"></trkpt><trkpt lat="53.10764" lon="6.42822"></trkpt><trkpt lat="53.10778" lon="6.42817"></trkpt><trkpt lat="53.10931" lon="6.4274"></trkpt><trkpt lat="53.10955" lon="6.42723"></trkpt><trkpt lat="53.1107" lon="6.42664"></trkpt><trkpt lat="53.1111" lon="6.42644"></trkpt><trkpt lat="53.11137" lon="6.42635"></trkpt><trkpt lat="53.11258" lon="6.42616"></trkpt><trkpt lat="53.1127" lon="6.42617"></trkpt><trkpt lat="53.11284" lon="6.42618"></trkpt><trkpt lat="53.11375" lon="6.42603"></trkpt><trkpt lat="53.11459" lon="6.4259"></trkpt><trkpt lat="53.11467" lon="6.42584"></trkpt><trkpt lat="53.11507" lon="6.42582"></trkpt><trkpt lat="53.11532" lon="6.42586"></trkpt><trkpt lat="53.11601" lon="6.42577"></trkpt><trkpt lat="53.11634" lon="6.42572"></trkpt><trkpt lat="53.11641" lon="6.42563"></trkpt><trkpt lat="53.11651" lon="6.42581"></trkpt><trkpt lat="53.11657" lon="6.42594"></trkpt><trkpt lat="53.1167" lon="6.42623"></trkpt><trkpt lat="53.11697" lon="6.42687"></trkpt><trkpt lat="53.11698" lon="6.42688"></trkpt><trkpt lat="53.11705" lon="6.42702"></trkpt><trkpt lat="53.11712" lon="6.42711"></trkpt><trkpt lat="53.1172" lon="6.4272"></trkpt><trkpt lat="53.11756" lon="6.42749"></trkpt><trkpt lat="53.11794" lon="6.42772"></trkpt><trkpt lat="53.11803" lon="6.42776"></trkpt><trkpt lat="53.11832" lon="6.42784"></trkpt><trkpt lat="53.11848" lon="6.42786"></trkpt><trkpt lat="53.11863" lon="6.42788"></trkpt><trkpt lat="53.12084" lon="6.42786"></trkpt><trkpt lat="53.121" lon="6.42789"></trkpt><trkpt lat="53.12118" lon="6.42793"></trkpt><trkpt lat="53.12366" lon="6.42854"></trkpt><trkpt lat="53.12387" lon="6.42861"></trkpt><trkpt lat="53.12421" lon="6.42871"></trkpt><trkpt lat="53.12501" lon="6.42889"></trkpt><trkpt lat="53.12539" lon="6.42902"></trkpt><trkpt lat="53.12567" lon="6.42906"></trkpt><trkpt lat="53.12812" lon="6.42994"></trkpt><trkpt lat="53.12848" lon="6.43005"></trkpt><trkpt lat="53.1287" lon="6.43012"></trkpt><trkpt lat="53.12878" lon="6.43014"></trkpt><trkpt lat="53.12891" lon="6.43015"></trkpt><trkpt lat="53.12902" lon="6.43019"></trkpt><trkpt lat="53.12922" lon="6.43038"></trkpt><trkpt lat="53.13055" lon="6.43086"></trkpt><trkpt lat="53.1306" lon="6.43088"></trkpt><trkpt lat="53.13101" lon="6.43104"></trkpt><trkpt lat="53.13157" lon="6.43128"></trkpt><trkpt lat="53.13259" lon="6.43177"></trkpt><trkpt lat="53.13304" lon="6.43198"></trkpt><trkpt lat="53.13334" lon="6.43211"></trkpt><trkpt lat="53.13364" lon="6.43221"></trkpt><trkpt lat="53.134" lon="6.43232"></trkpt><trkpt lat="53.13436" lon="6.43243"></trkpt><trkpt lat="53.13446" lon="6.43245"></trkpt><trkpt lat="53.13453" lon="6.43256"></trkpt><trkpt lat="53.13462" lon="6.43129"></trkpt><trkpt lat="53.13466" lon="6.43102"></trkpt><trkpt lat="53.13471" lon="6.43085"></trkpt><trkpt lat="53.13507" lon="6.42975"></trkpt><trkpt lat="53.13538" lon="6.42881"></trkpt><trkpt lat="53.13545" lon="6.42846"></trkpt><trkpt lat="53.13547" lon="6.42833"></trkpt><trkpt lat="53.13552" lon="6.42818"></trkpt><trkpt lat="53.13555" lon="6.42816"></trkpt><trkpt lat="53.1356" lon="6.42812"></trkpt><trkpt lat="53.13568" lon="6.42806"></trkpt><trkpt lat="53.13607" lon="6.42786"></trkpt><trkpt lat="53.13633" lon="6.42772"></trkpt><trkpt lat="53.1364" lon="6.42772"></trkpt><trkpt lat="53.13688" lon="6.42771"></trkpt><trkpt lat="53.13775" lon="6.42767"></trkpt><trkpt lat="53.13787" lon="6.42766"></trkpt><trkpt lat="53.13855" lon="6.42763"></trkpt><trkpt lat="53.13857" lon="6.42683"></trkpt><trkpt lat="53.13857" lon="6.42675"></trkpt><trkpt lat="53.13861" lon="6.42582"></trkpt><trkpt lat="53.13861" lon="6.42547"></trkpt><trkpt lat="53.13873" lon="6.42548"></trkpt><trkpt lat="53.13886" lon="6.42547"></trkpt><trkpt lat="53.13949" lon="6.42525"></trkpt><trkpt lat="53.13957" lon="6.42521"></trkpt><trkpt lat="53.13978" lon="6.42513"></trkpt><trkpt lat="53.1403" lon="6.42469"></trkpt><trkpt lat="53.14044" lon="6.4246"></trkpt><trkpt lat="53.14049" lon="6.4245"></trkpt><trkpt lat="53.14053" lon="6.42437"></trkpt><trkpt lat="53.14078" lon="6.42445"></trkpt><trkpt lat="53.14088" lon="6.4245"></trkpt><trkpt lat="53.14097" lon="6.42454"></trkpt><trkpt lat="53.14154" lon="6.42478"></trkpt><trkpt lat="53.14173" lon="6.42482"></trkpt><trkpt lat="53.14215" lon="6.42486"></trkpt><trkpt lat="53.14268" lon="6.4249"></trkpt><trkpt lat="53.14275" lon="6.4249"></trkpt><trkpt lat="53.14283" lon="6.42487"></trkpt><trkpt lat="53.14335" lon="6.42458"></trkpt><trkpt lat="53.14335" lon="6.42379"></trkpt><trkpt lat="53.14351" lon="6.42377"></trkpt><trkpt lat="53.14366" lon="6.42375"></trkpt><trkpt lat="53.14377" lon="6.42374"></trkpt><trkpt lat="53.14402" lon="6.42365"></trkpt><trkpt lat="53.14408" lon="6.4236"></trkpt><trkpt lat="53.14453" lon="6.42317"></trkpt><trkpt lat="53.14459" lon="6.4233"></trkpt><trkpt lat="53.14464" lon="6.42351"></trkpt><trkpt lat="53.14476" lon="6.42425"></trkpt><trkpt lat="53.14486" lon="6.42497"></trkpt><trkpt lat="53.1449" lon="6.42514"></trkpt><trkpt lat="53.14495" lon="6.42526"></trkpt><trkpt lat="53.14503" lon="6.42568"></trkpt><trkpt lat="53.14506" lon="6.42609"></trkpt><trkpt lat="53.14513" lon="6.42636"></trkpt><trkpt lat="53.14549" lon="6.428"></trkpt><trkpt lat="53.1455" lon="6.42956"></trkpt><trkpt lat="53.14549" lon="6.42976"></trkpt><trkpt lat="53.14548" lon="6.42993"></trkpt><trkpt lat="53.14553" lon="6.43111"></trkpt><trkpt lat="53.14554" lon="6.43124"></trkpt><trkpt lat="53.14557" lon="6.43229"></trkpt><trkpt lat="53.14557" lon="6.43265"></trkpt><trkpt lat="53.14551" lon="6.43266"></trkpt><trkpt lat="53.14546" lon="6.43272"></trkpt><trkpt lat="53.14544" lon="6.43281"></trkpt><trkpt lat="53.14545" lon="6.4329"></trkpt><trkpt lat="53.14549" lon="6.43298"></trkpt><trkpt lat="53.14553" lon="6.43301"></trkpt><trkpt lat="53.14557" lon="6.43301"></trkpt><trkpt lat="53.14559" lon="6.43322"></trkpt><trkpt lat="53.1456" lon="6.43347"></trkpt><trkpt lat="53.14555" lon="6.43414"></trkpt><trkpt lat="53.14545" lon="6.43532"></trkpt><trkpt lat="53.14533" lon="6.43678"></trkpt><trkpt lat="53.14518" lon="6.43831"></trkpt><trkpt lat="53.14568" lon="6.43845"></trkpt><trkpt lat="53.14589" lon="6.43865"></trkpt><trkpt lat="53.14711" lon="6.44088"></trkpt><trkpt lat="53.14724" lon="6.44111"></trkpt><trkpt lat="53.14816" lon="6.44276"></trkpt><trkpt lat="53.14909" lon="6.44444"></trkpt><trkpt lat="53.14958" lon="6.44534"></trkpt><trkpt lat="53.15028" lon="6.44656"></trkpt><trkpt lat="53.15077" lon="6.44732"></trkpt><trkpt lat="53.15085" lon="6.44756"></trkpt><trkpt lat="53.15091" lon="6.44781"></trkpt><trkpt lat="53.15095" lon="6.44803"></trkpt><trkpt lat="53.15098" lon="6.44808"></trkpt><trkpt lat="53.15103" lon="6.44817"></trkpt><trkpt lat="53.1511" lon="6.44826"></trkpt><trkpt lat="53.15118" lon="6.44829"></trkpt><trkpt lat="53.15126" lon="6.44833"></trkpt><trkpt lat="53.15133" lon="6.44838"></trkpt><trkpt lat="53.15138" lon="6.44845"></trkpt><trkpt lat="53.15147" lon="6.44852"></trkpt><trkpt lat="53.15154" lon="6.44871"></trkpt><trkpt lat="53.15157" lon="6.44887"></trkpt><trkpt lat="53.15163" lon="6.44931"></trkpt><trkpt lat="53.15166" lon="6.44954"></trkpt><trkpt lat="53.1517" lon="6.44969"></trkpt><trkpt lat="53.15176" lon="6.44983"></trkpt><trkpt lat="53.15182" lon="6.44992"></trkpt><trkpt lat="53.15188" lon="6.44999"></trkpt><trkpt lat="53.15195" lon="6.45004"></trkpt><trkpt lat="53.15201" lon="6.45006"></trkpt><trkpt lat="53.15203" lon="6.45006"></trkpt><trkpt lat="53.1521" lon="6.45009"></trkpt><trkpt lat="53.15219" lon="6.45009"></trkpt><trkpt lat="53.15228" lon="6.45012"></trkpt><trkpt lat="53.15238" lon="6.4502"></trkpt><trkpt lat="53.15349" lon="6.45145"></trkpt><trkpt lat="53.15456" lon="6.45268"></trkpt><trkpt lat="53.15467" lon="6.45283"></trkpt><trkpt lat="53.15475" lon="6.45297"></trkpt><trkpt lat="53.15483" lon="6.45316"></trkpt><trkpt lat="53.15488" lon="6.45332"></trkpt><trkpt lat="53.155" lon="6.45373"></trkpt><trkpt lat="53.15527" lon="6.45468"></trkpt><trkpt lat="53.15534" lon="6.45482"></trkpt><trkpt lat="53.15541" lon="6.45495"></trkpt><trkpt lat="53.15682" lon="6.45691"></trkpt><trkpt lat="53.15674" lon="6.45713"></trkpt><trkpt lat="53.15645" lon="6.45784"></trkpt><trkpt lat="53.15643" lon="6.45795"></trkpt><trkpt lat="53.15645" lon="6.45804"></trkpt><trkpt lat="53.15755" lon="6.45906"></trkpt><trkpt lat="53.15882" lon="6.45964"></trkpt><trkpt lat="53.15893" lon="6.45968"></trkpt><trkpt lat="53.15901" lon="6.45971"></trkpt><trkpt lat="53.1591" lon="6.45972"></trkpt><trkpt lat="53.15964" lon="6.45969"></trkpt><trkpt lat="53.15987" lon="6.45968"></trkpt><trkpt lat="53.15997" lon="6.45969"></trkpt><trkpt lat="53.16008" lon="6.45971"></trkpt><trkpt lat="53.16023" lon="6.45976"></trkpt><trkpt lat="53.16059" lon="6.45994"></trkpt><trkpt lat="53.16088" lon="6.46008"></trkpt><trkpt lat="53.16109" lon="6.46019"></trkpt><trkpt lat="53.16137" lon="6.46034"></trkpt><trkpt lat="53.16158" lon="6.46051"></trkpt><trkpt lat="53.16162" lon="6.46054"></trkpt><trkpt lat="53.16165" lon="6.46057"></trkpt><trkpt lat="53.16181" lon="6.46072"></trkpt><trkpt lat="53.16229" lon="6.46132"></trkpt><trkpt lat="53.1631" lon="6.46239"></trkpt><trkpt lat="53.16346" lon="6.46287"></trkpt><trkpt lat="53.16397" lon="6.46356"></trkpt><trkpt lat="53.16422" lon="6.46384"></trkpt><trkpt lat="53.16465" lon="6.46431"></trkpt><trkpt lat="53.16485" lon="6.4646"></trkpt><trkpt lat="53.16519" lon="6.46538"></trkpt><trkpt lat="53.16532" lon="6.46554"></trkpt><trkpt lat="53.16553" lon="6.46575"></trkpt><trkpt lat="53.16562" lon="6.46581"></trkpt><trkpt lat="53.16572" lon="6.46585"></trkpt><trkpt lat="53.16602" lon="6.46596"></trkpt><trkpt lat="53.16618" lon="6.46603"></trkpt><trkpt lat="53.16632" lon="6.46614"></trkpt><trkpt lat="53.16639" lon="6.46622"></trkpt><trkpt lat="53.16645" lon="6.46631"></trkpt><trkpt lat="53.1666" lon="6.46665"></trkpt><trkpt lat="53.16677" lon="6.46701"></trkpt><trkpt lat="53.16709" lon="6.46755"></trkpt><trkpt lat="53.16711" lon="6.46759"></trkpt><trkpt lat="53.16718" lon="6.4677"></trkpt><trkpt lat="53.16763" lon="6.46849"></trkpt><trkpt lat="53.16792" lon="6.46904"></trkpt><trkpt lat="53.16812" lon="6.46946"></trkpt><trkpt lat="53.16816" lon="6.46954"></trkpt><trkpt lat="53.16822" lon="6.46972"></trkpt><trkpt lat="53.16826" lon="6.46986"></trkpt><trkpt lat="53.16828" lon="6.47002"></trkpt><trkpt lat="53.1682" lon="6.47005"></trkpt><trkpt lat="53.16828" lon="6.47002"></trkpt><trkpt lat="53.16837" lon="6.47132"></trkpt><trkpt lat="53.16842" lon="6.47222"></trkpt><trkpt lat="53.16849" lon="6.4732"></trkpt><trkpt lat="53.16861" lon="6.47437"></trkpt><trkpt lat="53.1687" lon="6.47531"></trkpt><trkpt lat="53.16876" lon="6.47609"></trkpt><trkpt lat="53.16881" lon="6.47746"></trkpt><trkpt lat="53.16885" lon="6.47761"></trkpt><trkpt lat="53.16889" lon="6.47771"></trkpt><trkpt lat="53.16885" lon="6.47781"></trkpt><trkpt lat="53.16883" lon="6.47788"></trkpt><trkpt lat="53.16883" lon="6.47795"></trkpt><trkpt lat="53.16892" lon="6.47898"></trkpt><trkpt lat="53.16898" lon="6.47967"></trkpt><trkpt lat="53.16898" lon="6.47968"></trkpt><trkpt lat="53.16921" lon="6.4828"></trkpt><trkpt lat="53.16922" lon="6.48288"></trkpt><trkpt lat="53.16924" lon="6.48296"></trkpt><trkpt lat="53.16927" lon="6.48304"></trkpt><trkpt lat="53.1693" lon="6.48312"></trkpt><trkpt lat="53.16933" lon="6.48319"></trkpt><trkpt lat="53.16937" lon="6.48325"></trkpt><trkpt lat="53.16944" lon="6.48334"></trkpt><trkpt lat="53.16955" lon="6.48346"></trkpt><trkpt lat="53.17046" lon="6.48413"></trkpt><trkpt lat="53.17136" lon="6.48485"></trkpt><trkpt lat="53.1715" lon="6.48495"></trkpt><trkpt lat="53.17172" lon="6.48511"></trkpt><trkpt lat="53.1719" lon="6.48521"></trkpt><trkpt lat="53.17205" lon="6.48529"></trkpt><trkpt lat="53.17221" lon="6.48536"></trkpt><trkpt lat="53.1726" lon="6.48545"></trkpt><trkpt lat="53.17284" lon="6.48552"></trkpt><trkpt lat="53.17295" lon="6.48554"></trkpt><trkpt lat="53.17304" lon="6.48556"></trkpt><trkpt lat="53.17308" lon="6.48558"></trkpt><trkpt lat="53.1731" lon="6.4856"></trkpt><trkpt lat="53.17313" lon="6.48563"></trkpt><trkpt lat="53.17316" lon="6.48567"></trkpt><trkpt lat="53.17319" lon="6.48573"></trkpt><trkpt lat="53.17322" lon="6.48578"></trkpt><trkpt lat="53.1733" lon="6.48592"></trkpt><trkpt lat="53.17339" lon="6.4861"></trkpt><trkpt lat="53.17363" lon="6.48669"></trkpt><trkpt lat="53.17371" lon="6.48687"></trkpt><trkpt lat="53.17379" lon="6.48709"></trkpt><trkpt lat="53.17385" lon="6.48721"></trkpt><trkpt lat="53.17399" lon="6.48755"></trkpt><trkpt lat="53.17414" lon="6.48789"></trkpt><trkpt lat="53.17435" lon="6.48827"></trkpt><trkpt lat="53.17479" lon="6.48913"></trkpt><trkpt lat="53.17482" lon="6.4892"></trkpt><trkpt lat="53.17488" lon="6.48923"></trkpt><trkpt lat="53.17526" lon="6.48963"></trkpt><trkpt lat="53.17547" lon="6.48979"></trkpt><trkpt lat="53.17566" lon="6.48993"></trkpt><trkpt lat="53.1759" lon="6.49012"></trkpt><trkpt lat="53.17614" lon="6.49035"></trkpt><trkpt lat="53.17662" lon="6.49084"></trkpt><trkpt lat="53.17674" lon="6.49097"></trkpt><trkpt lat="53.17687" lon="6.4911"></trkpt><trkpt lat="53.17699" lon="6.49122"></trkpt><trkpt lat="53.17711" lon="6.49133"></trkpt><trkpt lat="53.17719" lon="6.49135"></trkpt><trkpt lat="53.17722" lon="6.49136"></trkpt><trkpt lat="53.17724" lon="6.49137"></trkpt><trkpt lat="53.17728" lon="6.4914"></trkpt><trkpt lat="53.17731" lon="6.49143"></trkpt><trkpt lat="53.17751" lon="6.49167"></trkpt><trkpt lat="53.17835" lon="6.49242"></trkpt><trkpt lat="53.17845" lon="6.49253"></trkpt><trkpt lat="53.17868" lon="6.49285"></trkpt><trkpt lat="53.17876" lon="6.49292"></trkpt><trkpt lat="53.17886" lon="6.493"></trkpt><trkpt lat="53.17894" lon="6.49305"></trkpt><trkpt lat="53.17921" lon="6.4932"></trkpt><trkpt lat="53.17941" lon="6.49332"></trkpt><trkpt lat="53.17948" lon="6.49336"></trkpt><trkpt lat="53.17963" lon="6.49348"></trkpt><trkpt lat="53.1807" lon="6.49438"></trkpt><trkpt lat="53.18079" lon="6.49447"></trkpt><trkpt lat="53.18088" lon="6.49456"></trkpt><trkpt lat="53.18102" lon="6.49474"></trkpt><trkpt lat="53.18105" lon="6.49478"></trkpt><trkpt lat="53.18108" lon="6.49484"></trkpt><trkpt lat="53.18113" lon="6.49487"></trkpt><trkpt lat="53.18166" lon="6.49519"></trkpt><trkpt lat="53.18178" lon="6.49529"></trkpt><trkpt lat="53.18196" lon="6.4954"></trkpt><trkpt lat="53.18208" lon="6.49544"></trkpt><trkpt lat="53.1822" lon="6.49545"></trkpt><trkpt lat="53.18243" lon="6.49539"></trkpt><trkpt lat="53.18258" lon="6.49537"></trkpt><trkpt lat="53.18305" lon="6.49538"></trkpt><trkpt lat="53.18326" lon="6.49537"></trkpt><trkpt lat="53.18416" lon="6.49534"></trkpt><trkpt lat="53.18437" lon="6.49531"></trkpt><trkpt lat="53.18454" lon="6.49526"></trkpt><trkpt lat="53.18463" lon="6.49523"></trkpt><trkpt lat="53.18472" lon="6.49518"></trkpt><trkpt lat="53.18494" lon="6.49501"></trkpt><trkpt lat="53.18516" lon="6.49489"></trkpt><trkpt lat="53.18568" lon="6.49467"></trkpt><trkpt lat="53.18575" lon="6.49466"></trkpt><trkpt lat="53.18581" lon="6.49466"></trkpt><trkpt lat="53.18586" lon="6.49467"></trkpt><trkpt lat="53.18591" lon="6.49468"></trkpt><trkpt lat="53.18595" lon="6.4947"></trkpt><trkpt lat="53.18622" lon="6.4948"></trkpt><trkpt lat="53.18639" lon="6.49483"></trkpt><trkpt lat="53.18655" lon="6.49487"></trkpt><trkpt lat="53.18671" lon="6.49493"></trkpt><trkpt lat="53.18684" lon="6.49498"></trkpt><trkpt lat="53.18696" lon="6.49505"></trkpt><trkpt lat="53.18705" lon="6.49509"></trkpt><trkpt lat="53.18713" lon="6.49513"></trkpt><trkpt lat="53.18721" lon="6.49515"></trkpt><trkpt lat="53.1873" lon="6.49517"></trkpt><trkpt lat="53.18738" lon="6.49518"></trkpt><trkpt lat="53.18824" lon="6.49527"></trkpt><trkpt lat="53.18859" lon="6.49531"></trkpt><trkpt lat="53.18879" lon="6.49534"></trkpt><trkpt lat="53.18884" lon="6.49535"></trkpt><trkpt lat="53.18889" lon="6.49537"></trkpt><trkpt lat="53.18893" lon="6.4954"></trkpt><trkpt lat="53.18897" lon="6.49543"></trkpt><trkpt lat="53.18901" lon="6.49548"></trkpt><trkpt lat="53.18905" lon="6.49551"></trkpt><trkpt lat="53.18909" lon="6.49553"></trkpt><trkpt lat="53.18912" lon="6.49554"></trkpt><trkpt lat="53.18924" lon="6.49559"></trkpt><trkpt lat="53.18954" lon="6.4957"></trkpt><trkpt lat="53.18973" lon="6.49574"></trkpt><trkpt lat="53.19003" lon="6.49575"></trkpt><trkpt lat="53.19027" lon="6.49575"></trkpt><trkpt lat="53.1906" lon="6.49576"></trkpt><trkpt lat="53.19064" lon="6.49576"></trkpt><trkpt lat="53.19095" lon="6.49569"></trkpt><trkpt lat="53.19102" lon="6.49569"></trkpt><trkpt lat="53.19107" lon="6.4957"></trkpt><trkpt lat="53.19113" lon="6.49575"></trkpt><trkpt lat="53.19117" lon="6.4958"></trkpt><trkpt lat="53.19119" lon="6.49585"></trkpt><trkpt lat="53.19122" lon="6.49596"></trkpt><trkpt lat="53.19124" lon="6.49608"></trkpt><trkpt lat="53.19141" lon="6.49882"></trkpt><trkpt lat="53.19143" lon="6.49926"></trkpt><trkpt lat="53.19145" lon="6.49948"></trkpt><trkpt lat="53.19146" lon="6.49956"></trkpt><trkpt lat="53.19148" lon="6.49964"></trkpt><trkpt lat="53.19151" lon="6.49973"></trkpt><trkpt lat="53.19153" lon="6.49978"></trkpt><trkpt lat="53.19155" lon="6.49982"></trkpt><trkpt lat="53.19158" lon="6.49987"></trkpt><trkpt lat="53.19161" lon="6.49991"></trkpt><trkpt lat="53.19167" lon="6.49999"></trkpt><trkpt lat="53.19165" lon="6.5001"></trkpt><trkpt lat="53.19154" lon="6.50072"></trkpt><trkpt lat="53.19153" lon="6.50075"></trkpt><trkpt lat="53.19128" lon="6.50254"></trkpt><trkpt lat="53.19116" lon="6.5025"></trkpt><trkpt lat="53.19111" lon="6.50284"></trkpt><trkpt lat="53.19106" lon="6.50323"></trkpt><trkpt lat="53.19104" lon="6.50338"></trkpt><trkpt lat="53.19103" lon="6.50355"></trkpt><trkpt lat="53.19103" lon="6.50372"></trkpt><trkpt lat="53.19104" lon="6.5039"></trkpt><trkpt lat="53.19148" lon="6.50744"></trkpt><trkpt lat="53.19153" lon="6.50776"></trkpt><trkpt lat="53.19155" lon="6.50783"></trkpt><trkpt lat="53.19158" lon="6.50789"></trkpt><trkpt lat="53.19161" lon="6.50793"></trkpt><trkpt lat="53.1916" lon="6.50804"></trkpt><trkpt lat="53.1916" lon="6.50816"></trkpt><trkpt lat="53.19161" lon="6.50827"></trkpt><trkpt lat="53.19181" lon="6.50997"></trkpt><trkpt lat="53.19183" lon="6.51011"></trkpt><trkpt lat="53.19185" lon="6.51041"></trkpt><trkpt lat="53.19184" lon="6.51071"></trkpt><trkpt lat="53.19181" lon="6.51115"></trkpt><trkpt lat="53.19181" lon="6.51117"></trkpt><trkpt lat="53.1918" lon="6.51124"></trkpt><trkpt lat="53.19179" lon="6.51136"></trkpt><trkpt lat="53.19179" lon="6.51149"></trkpt><trkpt lat="53.19277" lon="6.51147"></trkpt><trkpt lat="53.19308" lon="6.51147"></trkpt><trkpt lat="53.19334" lon="6.51147"></trkpt><trkpt lat="53.19505" lon="6.51145"></trkpt><trkpt lat="53.19543" lon="6.51145"></trkpt><trkpt lat="53.19554" lon="6.51147"></trkpt><trkpt lat="53.19568" lon="6.51151"></trkpt><trkpt lat="53.19572" lon="6.51152"></trkpt><trkpt lat="53.19586" lon="6.51156"></trkpt><trkpt lat="53.196" lon="6.5116"></trkpt><trkpt lat="53.19611" lon="6.51165"></trkpt><trkpt lat="53.19621" lon="6.51174"></trkpt><trkpt lat="53.19631" lon="6.51184"></trkpt><trkpt lat="53.19633" lon="6.51187"></trkpt><trkpt lat="53.19644" lon="6.51201"></trkpt><trkpt lat="53.19655" lon="6.51218"></trkpt><trkpt lat="53.19671" lon="6.51253"></trkpt><trkpt lat="53.19674" lon="6.51265"></trkpt><trkpt lat="53.19676" lon="6.51277"></trkpt><trkpt lat="53.19678" lon="6.51291"></trkpt><trkpt lat="53.19681" lon="6.51309"></trkpt><trkpt lat="53.19682" lon="6.51313"></trkpt><trkpt lat="53.19684" lon="6.51317"></trkpt><trkpt lat="53.19688" lon="6.51322"></trkpt><trkpt lat="53.1969" lon="6.51325"></trkpt><trkpt lat="53.19695" lon="6.51332"></trkpt><trkpt lat="53.19696" lon="6.51334"></trkpt><trkpt lat="53.19698" lon="6.51336"></trkpt><trkpt lat="53.197" lon="6.51337"></trkpt><trkpt lat="53.19701" lon="6.51338"></trkpt><trkpt lat="53.19704" lon="6.51338"></trkpt><trkpt lat="53.19706" lon="6.51339"></trkpt><trkpt lat="53.19708" lon="6.51339"></trkpt><trkpt lat="53.19711" lon="6.5134"></trkpt><trkpt lat="53.19712" lon="6.5134"></trkpt><trkpt lat="53.19714" lon="6.51341"></trkpt><trkpt lat="53.19715" lon="6.51342"></trkpt><trkpt lat="53.19716" lon="6.51344"></trkpt><trkpt lat="53.19721" lon="6.51355"></trkpt><trkpt lat="53.19743" lon="6.514"></trkpt><trkpt lat="53.19754" lon="6.51424"></trkpt><trkpt lat="53.19761" lon="6.51439"></trkpt><trkpt lat="53.19764" lon="6.51445"></trkpt><trkpt lat="53.19766" lon="6.51446"></trkpt><trkpt lat="53.19768" lon="6.51446"></trkpt><trkpt lat="53.1977" lon="6.51446"></trkpt><trkpt lat="53.19775" lon="6.51445"></trkpt><trkpt lat="53.19777" lon="6.51445"></trkpt><trkpt lat="53.19778" lon="6.51445"></trkpt><trkpt lat="53.19779" lon="6.51445"></trkpt><trkpt lat="53.1978" lon="6.51446"></trkpt><trkpt lat="53.19782" lon="6.51447"></trkpt><trkpt lat="53.19784" lon="6.51463"></trkpt><trkpt lat="53.19787" lon="6.51475"></trkpt><trkpt lat="53.1979" lon="6.51483"></trkpt><trkpt lat="53.19794" lon="6.51491"></trkpt><trkpt lat="53.19801" lon="6.51505"></trkpt><trkpt lat="53.19808" lon="6.5152"></trkpt><trkpt lat="53.19815" lon="6.51531"></trkpt><trkpt lat="53.19822" lon="6.51541"></trkpt><trkpt lat="53.19829" lon="6.51549"></trkpt><trkpt lat="53.19835" lon="6.51555"></trkpt><trkpt lat="53.19876" lon="6.51593"></trkpt><trkpt lat="53.19886" lon="6.51602"></trkpt><trkpt lat="53.19896" lon="6.5161"></trkpt><trkpt lat="53.199" lon="6.51614"></trkpt><trkpt lat="53.19918" lon="6.51628"></trkpt><trkpt lat="53.19922" lon="6.51631"></trkpt><trkpt lat="53.2004" lon="6.51724"></trkpt><trkpt lat="53.20084" lon="6.51759"></trkpt><trkpt lat="53.20095" lon="6.51769"></trkpt><trkpt lat="53.20097" lon="6.5177"></trkpt><trkpt lat="53.20099" lon="6.5177"></trkpt><trkpt lat="53.201" lon="6.5177"></trkpt><trkpt lat="53.20102" lon="6.51769"></trkpt><trkpt lat="53.2012" lon="6.51756"></trkpt><trkpt lat="53.20128" lon="6.51749"></trkpt><trkpt lat="53.20182" lon="6.51708"></trkpt><trkpt lat="53.20244" lon="6.5166"></trkpt><trkpt lat="53.20248" lon="6.51672"></trkpt><trkpt lat="53.2025" lon="6.51678"></trkpt><trkpt lat="53.20254" lon="6.51689"></trkpt><trkpt lat="53.20288" lon="6.51814"></trkpt><trkpt lat="53.2029" lon="6.51823"></trkpt><trkpt lat="53.20292" lon="6.51834"></trkpt><trkpt lat="53.20294" lon="6.51842"></trkpt><trkpt lat="53.20296" lon="6.51851"></trkpt><trkpt lat="53.20299" lon="6.51858"></trkpt><trkpt lat="53.20303" lon="6.51865"></trkpt><trkpt lat="53.20308" lon="6.51871"></trkpt><trkpt lat="53.20313" lon="6.51876"></trkpt><trkpt lat="53.20318" lon="6.5188"></trkpt><trkpt lat="53.20324" lon="6.51882"></trkpt><trkpt lat="53.2033" lon="6.51882"></trkpt><trkpt lat="53.20336" lon="6.51882"></trkpt><trkpt lat="53.20342" lon="6.51879"></trkpt><trkpt lat="53.20347" lon="6.51876"></trkpt><trkpt lat="53.20352" lon="6.51872"></trkpt><trkpt lat="53.20357" lon="6.51867"></trkpt><trkpt lat="53.20444" lon="6.51818"></trkpt><trkpt lat="53.20506" lon="6.51777"></trkpt><trkpt lat="53.20541" lon="6.51749"></trkpt><trkpt lat="53.20588" lon="6.51707"></trkpt><trkpt lat="53.20589" lon="6.51711"></trkpt><trkpt lat="53.20589" lon="6.51715"></trkpt><trkpt lat="53.2059" lon="6.51719"></trkpt><trkpt lat="53.20589" lon="6.51724"></trkpt><trkpt lat="53.20588" lon="6.51728"></trkpt><trkpt lat="53.20587" lon="6.51732"></trkpt><trkpt lat="53.20583" lon="6.51744"></trkpt><trkpt lat="53.20578" lon="6.51762"></trkpt><trkpt lat="53.20575" lon="6.51772"></trkpt><trkpt lat="53.20573" lon="6.51783"></trkpt><trkpt lat="53.20571" lon="6.51797"></trkpt><trkpt lat="53.2057" lon="6.51811"></trkpt><trkpt lat="53.20567" lon="6.51908"></trkpt><trkpt lat="53.20567" lon="6.51989"></trkpt><trkpt lat="53.20568" lon="6.52055"></trkpt><trkpt lat="53.20571" lon="6.52121"></trkpt><trkpt lat="53.20575" lon="6.52175"></trkpt><trkpt lat="53.20596" lon="6.52417"></trkpt><trkpt lat="53.20597" lon="6.52426"></trkpt><trkpt lat="53.206" lon="6.52433"></trkpt><trkpt lat="53.20603" lon="6.52439"></trkpt><trkpt lat="53.20606" lon="6.52443"></trkpt><trkpt lat="53.20609" lon="6.52448"></trkpt><trkpt lat="53.20613" lon="6.52457"></trkpt><trkpt lat="53.20617" lon="6.52466"></trkpt><trkpt lat="53.2062" lon="6.52476"></trkpt><trkpt lat="53.20623" lon="6.52487"></trkpt><trkpt lat="53.20624" lon="6.52499"></trkpt><trkpt lat="53.20625" lon="6.5251"></trkpt><trkpt lat="53.20624" lon="6.5252"></trkpt><trkpt lat="53.20623" lon="6.52529"></trkpt><trkpt lat="53.20622" lon="6.52538"></trkpt><trkpt lat="53.2062" lon="6.52547"></trkpt><trkpt lat="53.20618" lon="6.52556"></trkpt><trkpt lat="53.20616" lon="6.52561"></trkpt><trkpt lat="53.20614" lon="6.52567"></trkpt><trkpt lat="53.20614" lon="6.52573"></trkpt><trkpt lat="53.20613" lon="6.52579"></trkpt><trkpt lat="53.20614" lon="6.52585"></trkpt><trkpt lat="53.20631" lon="6.52765"></trkpt><trkpt lat="53.20634" lon="6.52803"></trkpt><trkpt lat="53.20634" lon="6.52815"></trkpt><trkpt lat="53.20632" lon="6.5283"></trkpt><trkpt lat="53.2063" lon="6.52841"></trkpt><trkpt lat="53.20628" lon="6.52853"></trkpt><trkpt lat="53.20627" lon="6.52864"></trkpt><trkpt lat="53.20627" lon="6.52877"></trkpt><trkpt lat="53.20628" lon="6.5289"></trkpt><trkpt lat="53.20631" lon="6.52925"></trkpt><trkpt lat="53.20645" lon="6.5306"></trkpt><trkpt lat="53.20652" lon="6.53103"></trkpt><trkpt lat="53.20662" lon="6.53168"></trkpt><trkpt lat="53.20677" lon="6.5324"></trkpt><trkpt lat="53.20681" lon="6.53261"></trkpt><trkpt lat="53.20686" lon="6.53286"></trkpt><trkpt lat="53.20689" lon="6.53311"></trkpt><trkpt lat="53.20691" lon="6.53325"></trkpt><trkpt lat="53.20695" lon="6.53346"></trkpt><trkpt lat="53.20697" lon="6.53355"></trkpt><trkpt lat="53.20704" lon="6.53381"></trkpt><trkpt lat="53.20722" lon="6.53458"></trkpt><trkpt lat="53.20725" lon="6.53471"></trkpt><trkpt lat="53.20747" lon="6.53568"></trkpt><trkpt lat="53.2078" lon="6.53705"></trkpt><trkpt lat="53.20793" lon="6.53759"></trkpt><trkpt lat="53.20797" lon="6.53777"></trkpt><trkpt lat="53.20799" lon="6.53786"></trkpt><trkpt lat="53.20807" lon="6.53817"></trkpt><trkpt lat="53.2083" lon="6.53913"></trkpt><trkpt lat="53.20837" lon="6.53945"></trkpt><trkpt lat="53.20841" lon="6.53959"></trkpt><trkpt lat="53.20845" lon="6.53978"></trkpt><trkpt lat="53.20882" lon="6.54134"></trkpt><trkpt lat="53.20883" lon="6.54142"></trkpt><trkpt lat="53.20889" lon="6.54174"></trkpt><trkpt lat="53.20892" lon="6.54184"></trkpt><trkpt lat="53.20901" lon="6.54217"></trkpt><trkpt lat="53.20916" lon="6.54278"></trkpt><trkpt lat="53.20937" lon="6.5437"></trkpt><trkpt lat="53.20943" lon="6.544"></trkpt><trkpt lat="53.20946" lon="6.54414"></trkpt><trkpt lat="53.20949" lon="6.54424"></trkpt><trkpt lat="53.20957" lon="6.54454"></trkpt><trkpt lat="53.20978" lon="6.54544"></trkpt><trkpt lat="53.20984" lon="6.5457"></trkpt><trkpt lat="53.20994" lon="6.5462"></trkpt><trkpt lat="53.20997" lon="6.5464"></trkpt><trkpt lat="53.21" lon="6.5466"></trkpt><trkpt lat="53.21002" lon="6.54678"></trkpt><trkpt lat="53.21003" lon="6.54687"></trkpt><trkpt lat="53.21004" lon="6.54698"></trkpt><trkpt lat="53.21006" lon="6.54721"></trkpt><trkpt lat="53.21006" lon="6.54745"></trkpt><trkpt lat="53.21007" lon="6.54796"></trkpt><trkpt lat="53.21009" lon="6.54856"></trkpt><trkpt lat="53.21009" lon="6.54886"></trkpt><trkpt lat="53.21009" lon="6.54903"></trkpt><trkpt lat="53.21009" lon="6.54911"></trkpt><trkpt lat="53.21009" lon="6.54915"></trkpt><trkpt lat="53.21011" lon="6.54916"></trkpt><trkpt lat="53.21017" lon="6.5492"></trkpt><trkpt lat="53.2102" lon="6.54921"></trkpt><trkpt lat="53.21024" lon="6.54922"></trkpt><trkpt lat="53.21029" lon="6.54922"></trkpt><trkpt lat="53.21069" lon="6.54921"></trkpt><trkpt lat="53.2107" lon="6.54917"></trkpt><trkpt lat="53.21072" lon="6.54914"></trkpt><trkpt lat="53.21078" lon="6.549"></trkpt><trkpt lat="53.2108" lon="6.54898"></trkpt><trkpt lat="53.21084" lon="6.54896"></trkpt><trkpt lat="53.21125" lon="6.54884"></trkpt><trkpt lat="53.21134" lon="6.54879"></trkpt><trkpt lat="53.21168" lon="6.54854"></trkpt><trkpt lat="53.21175" lon="6.54844"></trkpt><trkpt lat="53.21274" lon="6.54773"></trkpt><trkpt lat="53.21313" lon="6.54745"></trkpt><trkpt lat="53.21364" lon="6.54709"></trkpt><trkpt lat="53.21368" lon="6.54705"></trkpt><trkpt lat="53.21371" lon="6.54699"></trkpt><trkpt lat="53.21372" lon="6.54691"></trkpt><trkpt lat="53.21371" lon="6.54685"></trkpt><trkpt lat="53.2139" lon="6.54671"></trkpt><trkpt lat="53.21406" lon="6.5466"></trkpt><trkpt lat="53.21407" lon="6.54659"></trkpt><trkpt lat="53.21411" lon="6.54657"></trkpt><trkpt lat="53.21416" lon="6.54653"></trkpt><trkpt lat="53.21421" lon="6.5465"></trkpt><trkpt lat="53.21426" lon="6.54646"></trkpt><trkpt lat="53.21428" lon="6.54654"></trkpt><trkpt lat="53.21429" lon="6.54658"></trkpt><trkpt lat="53.21457" lon="6.54777"></trkpt><trkpt lat="53.21483" lon="6.54884"></trkpt><trkpt lat="53.21485" lon="6.54908"></trkpt><trkpt lat="53.21483" lon="6.54932"></trkpt><trkpt lat="53.21482" lon="6.54946"></trkpt><trkpt lat="53.21484" lon="6.54962"></trkpt><trkpt lat="53.21485" lon="6.54969"></trkpt><trkpt lat="53.21485" lon="6.54979"></trkpt><trkpt lat="53.21478" lon="6.54978"></trkpt><trkpt lat="53.21479" lon="6.54965"></trkpt><trkpt lat="53.21479" lon="6.54949"></trkpt><trkpt lat="53.21479" lon="6.54941"></trkpt><trkpt lat="53.21478" lon="6.54927"></trkpt><trkpt lat="53.21478" lon="6.54923"></trkpt><trkpt lat="53.21477" lon="6.54918"></trkpt><trkpt lat="53.21476" lon="6.54908"></trkpt><trkpt lat="53.21474" lon="6.54892"></trkpt><trkpt lat="53.21471" lon="6.54877"></trkpt><trkpt lat="53.21468" lon="6.54861"></trkpt><trkpt lat="53.21463" lon="6.54834"></trkpt><trkpt lat="53.21451" lon="6.54782"></trkpt><trkpt lat="53.21425" lon="6.54667"></trkpt><trkpt lat="53.21423" lon="6.54661"></trkpt><trkpt lat="53.21423" lon="6.54658"></trkpt><trkpt lat="53.21421" lon="6.5465"></trkpt><trkpt lat="53.21426" lon="6.54646"></trkpt><trkpt lat="53.21428" lon="6.54654"></trkpt><trkpt lat="53.21429" lon="6.54658"></trkpt><trkpt lat="53.21457" lon="6.54777"></trkpt><trkpt lat="53.21483" lon="6.54884"></trkpt><trkpt lat="53.21485" lon="6.54908"></trkpt><trkpt lat="53.21483" lon="6.54932"></trkpt><trkpt lat="53.21482" lon="6.54946"></trkpt><trkpt lat="53.21484" lon="6.54962"></trkpt><trkpt lat="53.21485" lon="6.54969"></trkpt><trkpt lat="53.21485" lon="6.54979"></trkpt><trkpt lat="53.21484" lon="6.54991"></trkpt><trkpt lat="53.21482" lon="6.55004"></trkpt><trkpt lat="53.21488" lon="6.55004"></trkpt><trkpt lat="53.21492" lon="6.55003"></trkpt><trkpt lat="53.21493" lon="6.55013"></trkpt><trkpt lat="53.21496" lon="6.55022"></trkpt><trkpt lat="53.21537" lon="6.55176"></trkpt><trkpt lat="53.21577" lon="6.55324"></trkpt><trkpt lat="53.21612" lon="6.55472"></trkpt><trkpt lat="53.21621" lon="6.55518"></trkpt><trkpt lat="53.21625" lon="6.55563"></trkpt><trkpt lat="53.21637" lon="6.55561"></trkpt><trkpt lat="53.21651" lon="6.55571"></trkpt><trkpt lat="53.21674" lon="6.55594"></trkpt><trkpt lat="53.21703" lon="6.55624"></trkpt><trkpt lat="53.21705" lon="6.55643"></trkpt><trkpt lat="53.21718" lon="6.55697"></trkpt><trkpt lat="53.21638" lon="6.55753"></trkpt><trkpt lat="53.21635" lon="6.55739"></trkpt><trkpt lat="53.21634" lon="6.55735"></trkpt><trkpt lat="53.21619" lon="6.55676"></trkpt><trkpt lat="53.21617" lon="6.55671"></trkpt><trkpt lat="53.21615" lon="6.55661"></trkpt></trkseg></trk></gpx>