<?xml version="1.0" encoding="UTF-8"?>
<gpx version="1.1" creator="https://www.hammerhead.io" xmlns:xsi="http://www.w3.org/2001/XMLSchema-instance" xmlns="http://www.topografix.com/GPX/1/1" xsi:schemaLocation="http://www.topografix.com/GPX/1/1 http://www.topografix.com/GPX/1/1/gpx.xsd"><metadata><name>40k noordoost zwolle</name><time>0001-01-01T00:00:00Z</time></metadata><trk><name>40k noordoost zwolle</name><trkseg><trkpt lat="52.51617" lon="6.09339"></trkpt><trkpt lat="52.51618" lon="6.09345"></trkpt><trkpt lat="52.51621" lon="6.0935"></trkpt><trkpt lat="52.51623" lon="6.09354"></trkpt><trkpt lat="52.51627" lon="6.09356"></trkpt><trkpt lat="52.51631" lon="6.09356"></trkpt><trkpt lat="52.51631" lon="6.09362"></trkpt><trkpt lat="52.51632" lon="6.0937"></trkpt><trkpt lat="52.51636" lon="6.09381"></trkpt><trkpt lat="52.51644" lon="6.09392"></trkpt><trkpt lat="52.51662" lon="6.09414"></trkpt><trkpt lat="52.517" lon="6.09461"></trkpt><trkpt lat="52.5171" lon="6.09476"></trkpt><trkpt lat="52.51714" lon="6.09488"></trkpt><trkpt lat="52.51717" lon="6.09499"></trkpt><trkpt lat="52.5172" lon="6.09512"></trkpt><trkpt lat="52.51721" lon="6.09524"></trkpt><trkpt lat="52.51721" lon="6.09529"></trkpt><trkpt lat="52.51721" lon="6.09535"></trkpt><trkpt lat="52.51721" lon="6.09548"></trkpt><trkpt lat="52.5172" lon="6.0956"></trkpt><trkpt lat="52.51719" lon="6.09562"></trkpt><trkpt lat="52.51715" lon="6.09575"></trkpt><trkpt lat="52.51712" lon="6.09584"></trkpt><trkpt lat="52.51682" lon="6.09672"></trkpt><trkpt lat="52.51654" lon="6.09751"></trkpt><trkpt lat="52.51653" lon="6.09756"></trkpt><trkpt lat="52.5165" lon="6.09775"></trkpt><trkpt lat="52.51642" lon="6.09865"></trkpt><trkpt lat="52.51641" lon="6.09879"></trkpt><trkpt lat="52.5164" lon="6.09901"></trkpt><trkpt lat="52.51628" lon="6.09907"></trkpt><trkpt lat="52.51555" lon="6.09957"></trkpt><trkpt lat="52.51548" lon="6.09964"></trkpt><trkpt lat="52.51543" lon="6.09973"></trkpt><trkpt lat="52.51541" lon="6.09974"></trkpt><trkpt lat="52.51538" lon="6.09975"></trkpt><trkpt lat="52.51537" lon="6.09979"></trkpt><trkpt lat="52.51535" lon="6.09993"></trkpt><trkpt lat="52.51535" lon="6.09996"></trkpt><trkpt lat="52.51525" lon="6.10078"></trkpt><trkpt lat="52.51512" lon="6.10171"></trkpt><trkpt lat="52.5151" lon="6.10187"></trkpt><trkpt lat="52.51503" lon="6.10223"></trkpt><trkpt lat="52.51515" lon="6.10233"></trkpt><trkpt lat="52.5152" lon="6.1024"></trkpt><trkpt lat="52.51518" lon="6.10245"></trkpt><trkpt lat="52.51511" lon="6.10263"></trkpt><trkpt lat="52.51508" lon="6.1027"></trkpt><trkpt lat="52.51506" lon="6.10277"></trkpt><trkpt lat="52.51504" lon="6.10283"></trkpt><trkpt lat="52.51502" lon="6.10288"></trkpt><trkpt lat="52.51501" lon="6.10293"></trkpt><trkpt lat="52.515" lon="6.10301"></trkpt><trkpt lat="52.51498" lon="6.1031"></trkpt><trkpt lat="52.51495" lon="6.10322"></trkpt><trkpt lat="52.51493" lon="6.10333"></trkpt><trkpt lat="52.51492" lon="6.1034"></trkpt><trkpt lat="52.51491" lon="6.10346"></trkpt><trkpt lat="52.51487" lon="6.10368"></trkpt><trkpt lat="52.51486" lon="6.10378"></trkpt><trkpt lat="52.51485" lon="6.10388"></trkpt><trkpt lat="52.51482" lon="6.10401"></trkpt><trkpt lat="52.51481" lon="6.10414"></trkpt><trkpt lat="52.51477" lon="6.10441"></trkpt><trkpt lat="52.51475" lon="6.10455"></trkpt><trkpt lat="52.5146" lon="6.10554"></trkpt><trkpt lat="52.51443" lon="6.10664"></trkpt><trkpt lat="52.5144" lon="6.1069"></trkpt><trkpt lat="52.51439" lon="6.10695"></trkpt><trkpt lat="52.51432" lon="6.10743"></trkpt><trkpt lat="52.51431" lon="6.10749"></trkpt><trkpt lat="52.5143" lon="6.10755"></trkpt><trkpt lat="52.51429" lon="6.1076"></trkpt><trkpt lat="52.51429" lon="6.10765"></trkpt><trkpt lat="52.5143" lon="6.10769"></trkpt><trkpt lat="52.5143" lon="6.10774"></trkpt><trkpt lat="52.51432" lon="6.10779"></trkpt><trkpt lat="52.51433" lon="6.10783"></trkpt><trkpt lat="52.51435" lon="6.10786"></trkpt><trkpt lat="52.51436" lon="6.10789"></trkpt><trkpt lat="52.51438" lon="6.10792"></trkpt><trkpt lat="52.51441" lon="6.10798"></trkpt><trkpt lat="52.51445" lon="6.10805"></trkpt><trkpt lat="52.51471" lon="6.10845"></trkpt><trkpt lat="52.51474" lon="6.10849"></trkpt><trkpt lat="52.51476" lon="6.10852"></trkpt><trkpt lat="52.51479" lon="6.10856"></trkpt><trkpt lat="52.51475" lon="6.10864"></trkpt><trkpt lat="52.5147" lon="6.10876"></trkpt><trkpt lat="52.51464" lon="6.10888"></trkpt><trkpt lat="52.51464" lon="6.10889"></trkpt><trkpt lat="52.51463" lon="6.1089"></trkpt><trkpt lat="52.51462" lon="6.10892"></trkpt><trkpt lat="52.51461" lon="6.10893"></trkpt><trkpt lat="52.5146" lon="6.10894"></trkpt><trkpt lat="52.51459" lon="6.10895"></trkpt><trkpt lat="52.51457" lon="6.10895"></trkpt><trkpt lat="52.51456" lon="6.10896"></trkpt><trkpt lat="52.51455" lon="6.10897"></trkpt><trkpt lat="52.51454" lon="6.10898"></trkpt><trkpt lat="52.51453" lon="6.109"></trkpt><trkpt lat="52.51452" lon="6.10903"></trkpt><trkpt lat="52.51452" lon="6.10906"></trkpt><trkpt lat="52.51451" lon="6.1091"></trkpt><trkpt lat="52.51451" lon="6.10913"></trkpt><trkpt lat="52.51451" lon="6.10915"></trkpt><trkpt lat="52.51451" lon="6.10918"></trkpt><trkpt lat="52.5145" lon="6.1092"></trkpt><trkpt lat="52.51447" lon="6.10926"></trkpt><trkpt lat="52.51443" lon="6.10934"></trkpt><trkpt lat="52.51439" lon="6.10942"></trkpt><trkpt lat="52.51428" lon="6.10966"></trkpt><trkpt lat="52.51426" lon="6.10971"></trkpt><trkpt lat="52.51421" lon="6.1098"></trkpt><trkpt lat="52.51418" lon="6.10986"></trkpt><trkpt lat="52.51414" lon="6.10989"></trkpt><trkpt lat="52.51413" lon="6.10988"></trkpt><trkpt lat="52.51411" lon="6.10987"></trkpt><trkpt lat="52.51409" lon="6.10987"></trkpt><trkpt lat="52.51408" lon="6.10987"></trkpt><trkpt lat="52.51406" lon="6.10988"></trkpt><trkpt lat="52.51404" lon="6.10988"></trkpt><trkpt lat="52.51402" lon="6.1099"></trkpt><trkpt lat="52.51401" lon="6.10992"></trkpt><trkpt lat="52.51399" lon="6.10994"></trkpt><trkpt lat="52.51398" lon="6.10997"></trkpt><trkpt lat="52.51397" lon="6.11"></trkpt><trkpt lat="52.51397" lon="6.11003"></trkpt><trkpt lat="52.51397" lon="6.11007"></trkpt><trkpt lat="52.51397" lon="6.1101"></trkpt><trkpt lat="52.51397" lon="6.11013"></trkpt><trkpt lat="52.51398" lon="6.11016"></trkpt><trkpt lat="52.51399" lon="6.11018"></trkpt><trkpt lat="52.514" lon="6.11021"></trkpt><trkpt lat="52.51399" lon="6.11026"></trkpt><trkpt lat="52.51398" lon="6.11034"></trkpt><trkpt lat="52.51396" lon="6.1104"></trkpt><trkpt lat="52.51395" lon="6.11045"></trkpt><trkpt lat="52.51393" lon="6.1105"></trkpt><trkpt lat="52.51392" lon="6.11053"></trkpt><trkpt lat="52.5139" lon="6.11056"></trkpt><trkpt lat="52.51388" lon="6.11061"></trkpt><trkpt lat="52.51385" lon="6.11066"></trkpt><trkpt lat="52.51382" lon="6.11072"></trkpt><trkpt lat="52.51377" lon="6.11072"></trkpt><trkpt lat="52.51375" lon="6.11072"></trkpt><trkpt lat="52.51371" lon="6.11077"></trkpt><trkpt lat="52.51368" lon="6.11082"></trkpt><trkpt lat="52.51367" lon="6.11084"></trkpt><trkpt lat="52.51353" lon="6.11105"></trkpt><trkpt lat="52.51349" lon="6.11111"></trkpt><trkpt lat="52.51332" lon="6.11137"></trkpt><trkpt lat="52.51329" lon="6.11143"></trkpt><trkpt lat="52.51324" lon="6.11151"></trkpt><trkpt lat="52.5132" lon="6.11156"></trkpt><trkpt lat="52.51316" lon="6.11163"></trkpt><trkpt lat="52.51272" lon="6.11231"></trkpt><trkpt lat="52.51234" lon="6.1129"></trkpt><trkpt lat="52.5123" lon="6.11296"></trkpt><trkpt lat="52.51226" lon="6.11302"></trkpt><trkpt lat="52.51143" lon="6.11432"></trkpt><trkpt lat="52.5114" lon="6.11436"></trkpt><trkpt lat="52.51138" lon="6.1144"></trkpt><trkpt lat="52.51133" lon="6.11447"></trkpt><trkpt lat="52.51128" lon="6.11454"></trkpt><trkpt lat="52.51126" lon="6.11457"></trkpt><trkpt lat="52.51125" lon="6.11459"></trkpt><trkpt lat="52.51123" lon="6.11463"></trkpt><trkpt lat="52.51091" lon="6.11513"></trkpt><trkpt lat="52.51034" lon="6.11601"></trkpt><trkpt lat="52.51031" lon="6.11606"></trkpt><trkpt lat="52.50951" lon="6.11731"></trkpt><trkpt lat="52.50949" lon="6.11734"></trkpt><trkpt lat="52.50947" lon="6.11737"></trkpt><trkpt lat="52.50944" lon="6.11741"></trkpt><trkpt lat="52.50943" lon="6.11744"></trkpt><trkpt lat="52.50941" lon="6.11747"></trkpt><trkpt lat="52.50939" lon="6.11748"></trkpt><trkpt lat="52.50938" lon="6.1175"></trkpt><trkpt lat="52.50935" lon="6.11751"></trkpt><trkpt lat="52.50933" lon="6.11752"></trkpt><trkpt lat="52.50931" lon="6.11753"></trkpt><trkpt lat="52.50928" lon="6.11754"></trkpt><trkpt lat="52.50926" lon="6.11758"></trkpt><trkpt lat="52.50924" lon="6.11762"></trkpt><trkpt lat="52.50922" lon="6.11766"></trkpt><trkpt lat="52.50919" lon="6.11769"></trkpt><trkpt lat="52.50916" lon="6.11774"></trkpt><trkpt lat="52.50915" lon="6.11775"></trkpt><trkpt lat="52.50914" lon="6.11778"></trkpt><trkpt lat="52.50913" lon="6.1178"></trkpt><trkpt lat="52.5091" lon="6.11783"></trkpt><trkpt lat="52.50907" lon="6.11789"></trkpt><trkpt lat="52.50902" lon="6.11796"></trkpt><trkpt lat="52.509" lon="6.11799"></trkpt><trkpt lat="52.50898" lon="6.11802"></trkpt><trkpt lat="52.50896" lon="6.11806"></trkpt><trkpt lat="52.50896" lon="6.11807"></trkpt><trkpt lat="52.50894" lon="6.11811"></trkpt><trkpt lat="52.50891" lon="6.11819"></trkpt><trkpt lat="52.50887" lon="6.11826"></trkpt><trkpt lat="52.50885" lon="6.11831"></trkpt><trkpt lat="52.50882" lon="6.11836"></trkpt><trkpt lat="52.5088" lon="6.11841"></trkpt><trkpt lat="52.50868" lon="6.11859"></trkpt><trkpt lat="52.50828" lon="6.11921"></trkpt><trkpt lat="52.50789" lon="6.11983"></trkpt><trkpt lat="52.50763" lon="6.12023"></trkpt><trkpt lat="52.50759" lon="6.1203"></trkpt><trkpt lat="52.50753" lon="6.12038"></trkpt><trkpt lat="52.50698" lon="6.12123"></trkpt><trkpt lat="52.50692" lon="6.1214"></trkpt><trkpt lat="52.50684" lon="6.12171"></trkpt><trkpt lat="52.50691" lon="6.12183"></trkpt><trkpt lat="52.50639" lon="6.12264"></trkpt><trkpt lat="52.50628" lon="6.12282"></trkpt><trkpt lat="52.50614" lon="6.12304"></trkpt><trkpt lat="52.50591" lon="6.12346"></trkpt><trkpt lat="52.50528" lon="6.12486"></trkpt><trkpt lat="52.50524" lon="6.125"></trkpt><trkpt lat="52.50523" lon="6.12508"></trkpt><trkpt lat="52.50523" lon="6.12515"></trkpt><trkpt lat="52.50526" lon="6.12527"></trkpt><trkpt lat="52.50531" lon="6.12543"></trkpt><trkpt lat="52.50538" lon="6.12565"></trkpt><trkpt lat="52.50541" lon="6.12573"></trkpt><trkpt lat="52.50544" lon="6.12581"></trkpt><trkpt lat="52.50551" lon="6.12596"></trkpt><trkpt lat="52.50553" lon="6.12603"></trkpt><trkpt lat="52.50555" lon="6.12606"></trkpt><trkpt lat="52.50557" lon="6.12613"></trkpt><trkpt lat="52.50559" lon="6.12623"></trkpt><trkpt lat="52.5056" lon="6.12632"></trkpt><trkpt lat="52.50562" lon="6.1264"></trkpt><trkpt lat="52.50567" lon="6.12655"></trkpt><trkpt lat="52.50571" lon="6.12669"></trkpt><trkpt lat="52.50575" lon="6.12684"></trkpt><trkpt lat="52.50581" lon="6.12708"></trkpt><trkpt lat="52.50582" lon="6.12713"></trkpt><trkpt lat="52.50597" lon="6.12767"></trkpt><trkpt lat="52.50613" lon="6.1282"></trkpt><trkpt lat="52.5064" lon="6.12912"></trkpt><trkpt lat="52.50644" lon="6.12922"></trkpt><trkpt lat="52.50651" lon="6.12945"></trkpt><trkpt lat="52.50667" lon="6.12997"></trkpt><trkpt lat="52.50674" lon="6.13014"></trkpt><trkpt lat="52.50689" lon="6.13044"></trkpt><trkpt lat="52.50682" lon="6.13055"></trkpt><trkpt lat="52.50697" lon="6.13079"></trkpt><trkpt lat="52.50807" lon="6.1326"></trkpt><trkpt lat="52.50816" lon="6.13274"></trkpt><trkpt lat="52.509" lon="6.13413"></trkpt><trkpt lat="52.50918" lon="6.13444"></trkpt><trkpt lat="52.50932" lon="6.13471"></trkpt><trkpt lat="52.50935" lon="6.13479"></trkpt><trkpt lat="52.50937" lon="6.13487"></trkpt><trkpt lat="52.50938" lon="6.13496"></trkpt><trkpt lat="52.50938" lon="6.13504"></trkpt><trkpt lat="52.50938" lon="6.13511"></trkpt><trkpt lat="52.50935" lon="6.13525"></trkpt><trkpt lat="52.5093" lon="6.13547"></trkpt><trkpt lat="52.50922" lon="6.13576"></trkpt><trkpt lat="52.50917" lon="6.13597"></trkpt><trkpt lat="52.50912" lon="6.13617"></trkpt><trkpt lat="52.50908" lon="6.1364"></trkpt><trkpt lat="52.50905" lon="6.13663"></trkpt><trkpt lat="52.50903" lon="6.13678"></trkpt><trkpt lat="52.50902" lon="6.13693"></trkpt><trkpt lat="52.50901" lon="6.13713"></trkpt><trkpt lat="52.509" lon="6.13733"></trkpt><trkpt lat="52.50901" lon="6.13765"></trkpt><trkpt lat="52.50903" lon="6.13815"></trkpt><trkpt lat="52.50905" lon="6.1386"></trkpt><trkpt lat="52.50905" lon="6.13872"></trkpt><trkpt lat="52.50912" lon="6.1404"></trkpt><trkpt lat="52.50912" lon="6.14062"></trkpt><trkpt lat="52.50911" lon="6.14077"></trkpt><trkpt lat="52.5091" lon="6.14092"></trkpt><trkpt lat="52.50909" lon="6.14105"></trkpt><trkpt lat="52.50907" lon="6.14119"></trkpt><trkpt lat="52.50905" lon="6.14135"></trkpt><trkpt lat="52.50902" lon="6.1415"></trkpt><trkpt lat="52.50899" lon="6.14162"></trkpt><trkpt lat="52.50899" lon="6.14164"></trkpt><trkpt lat="52.50895" lon="6.1418"></trkpt><trkpt lat="52.50891" lon="6.14195"></trkpt><trkpt lat="52.50876" lon="6.14247"></trkpt><trkpt lat="52.50871" lon="6.14267"></trkpt><trkpt lat="52.50866" lon="6.14287"></trkpt><trkpt lat="52.50862" lon="6.14305"></trkpt><trkpt lat="52.50858" lon="6.14321"></trkpt><trkpt lat="52.50852" lon="6.1435"></trkpt><trkpt lat="52.50848" lon="6.14364"></trkpt><trkpt lat="52.50843" lon="6.14372"></trkpt><trkpt lat="52.50837" lon="6.1438"></trkpt><trkpt lat="52.50837" lon="6.14381"></trkpt><trkpt lat="52.50835" lon="6.14383"></trkpt><trkpt lat="52.50833" lon="6.14385"></trkpt><trkpt lat="52.50828" lon="6.14391"></trkpt><trkpt lat="52.50822" lon="6.14401"></trkpt><trkpt lat="52.50817" lon="6.14409"></trkpt><trkpt lat="52.50815" lon="6.14418"></trkpt><trkpt lat="52.50812" lon="6.14428"></trkpt><trkpt lat="52.50812" lon="6.14441"></trkpt><trkpt lat="52.50814" lon="6.14482"></trkpt><trkpt lat="52.50818" lon="6.14553"></trkpt><trkpt lat="52.50821" lon="6.14612"></trkpt><trkpt lat="52.50827" lon="6.14712"></trkpt><trkpt lat="52.50828" lon="6.14741"></trkpt><trkpt lat="52.5083" lon="6.1476"></trkpt><trkpt lat="52.50831" lon="6.14774"></trkpt><trkpt lat="52.50833" lon="6.14786"></trkpt><trkpt lat="52.50836" lon="6.14801"></trkpt><trkpt lat="52.50852" lon="6.14894"></trkpt><trkpt lat="52.50859" lon="6.14935"></trkpt><trkpt lat="52.50862" lon="6.14949"></trkpt><trkpt lat="52.50867" lon="6.14965"></trkpt><trkpt lat="52.50871" lon="6.14977"></trkpt><trkpt lat="52.50882" lon="6.15003"></trkpt><trkpt lat="52.50889" lon="6.15025"></trkpt><trkpt lat="52.50894" lon="6.15044"></trkpt><trkpt lat="52.50909" lon="6.15121"></trkpt><trkpt lat="52.50913" lon="6.15158"></trkpt><trkpt lat="52.50914" lon="6.15186"></trkpt><trkpt lat="52.50913" lon="6.15225"></trkpt><trkpt lat="52.5091" lon="6.15261"></trkpt><trkpt lat="52.50906" lon="6.1528"></trkpt><trkpt lat="52.50903" lon="6.15294"></trkpt><trkpt lat="52.509" lon="6.15304"></trkpt><trkpt lat="52.50896" lon="6.15318"></trkpt><trkpt lat="52.50884" lon="6.15355"></trkpt><trkpt lat="52.50874" lon="6.15389"></trkpt><trkpt lat="52.50869" lon="6.1541"></trkpt><trkpt lat="52.50866" lon="6.15435"></trkpt><trkpt lat="52.50859" lon="6.15516"></trkpt><trkpt lat="52.50843" lon="6.15633"></trkpt><trkpt lat="52.50835" lon="6.15671"></trkpt><trkpt lat="52.50829" lon="6.15694"></trkpt><trkpt lat="52.50825" lon="6.15706"></trkpt><trkpt lat="52.50812" lon="6.15734"></trkpt><trkpt lat="52.50805" lon="6.15749"></trkpt><trkpt lat="52.508" lon="6.15762"></trkpt><trkpt lat="52.50791" lon="6.15786"></trkpt><trkpt lat="52.50786" lon="6.158"></trkpt><trkpt lat="52.50784" lon="6.15805"></trkpt><trkpt lat="52.50781" lon="6.15809"></trkpt><trkpt lat="52.50777" lon="6.15814"></trkpt><trkpt lat="52.50773" lon="6.15817"></trkpt><trkpt lat="52.50764" lon="6.15826"></trkpt><trkpt lat="52.50754" lon="6.15839"></trkpt><trkpt lat="52.50743" lon="6.15856"></trkpt><trkpt lat="52.50731" lon="6.15877"></trkpt><trkpt lat="52.50719" lon="6.15896"></trkpt><trkpt lat="52.50676" lon="6.15952"></trkpt><trkpt lat="52.50654" lon="6.1598"></trkpt><trkpt lat="52.50625" lon="6.16018"></trkpt><trkpt lat="52.50616" lon="6.16032"></trkpt><trkpt lat="52.50608" lon="6.16049"></trkpt><trkpt lat="52.50602" lon="6.16067"></trkpt><trkpt lat="52.50595" lon="6.16086"></trkpt><trkpt lat="52.50573" lon="6.16172"></trkpt><trkpt lat="52.50581" lon="6.16187"></trkpt><trkpt lat="52.50585" lon="6.16205"></trkpt><trkpt lat="52.50605" lon="6.16346"></trkpt><trkpt lat="52.50614" lon="6.16398"></trkpt><trkpt lat="52.50623" lon="6.16426"></trkpt><trkpt lat="52.50639" lon="6.16453"></trkpt><trkpt lat="52.50685" lon="6.16502"></trkpt><trkpt lat="52.5073" lon="6.16551"></trkpt><trkpt lat="52.50733" lon="6.16554"></trkpt><trkpt lat="52.50743" lon="6.16567"></trkpt><trkpt lat="52.5075" lon="6.16586"></trkpt><trkpt lat="52.50759" lon="6.1665"></trkpt><trkpt lat="52.50763" lon="6.16668"></trkpt><trkpt lat="52.50822" lon="6.16877"></trkpt><trkpt lat="52.50854" lon="6.16967"></trkpt><trkpt lat="52.50865" lon="6.17012"></trkpt><trkpt lat="52.50942" lon="6.17359"></trkpt><trkpt lat="52.50944" lon="6.17377"></trkpt><trkpt lat="52.50944" lon="6.17394"></trkpt><trkpt lat="52.50935" lon="6.17413"></trkpt><trkpt lat="52.50926" lon="6.17426"></trkpt><trkpt lat="52.50901" lon="6.17451"></trkpt><trkpt lat="52.50728" lon="6.17609"></trkpt><trkpt lat="52.50726" lon="6.17619"></trkpt><trkpt lat="52.50727" lon="6.17634"></trkpt><trkpt lat="52.50744" lon="6.17727"></trkpt><trkpt lat="52.50751" lon="6.1796"></trkpt><trkpt lat="52.50741" lon="6.1816"></trkpt><trkpt lat="52.50739" lon="6.18203"></trkpt><trkpt lat="52.50739" lon="6.18225"></trkpt><trkpt lat="52.50739" lon="6.18233"></trkpt><trkpt lat="52.50739" lon="6.18237"></trkpt><trkpt lat="52.5074" lon="6.18248"></trkpt><trkpt lat="52.50743" lon="6.18269"></trkpt><trkpt lat="52.50761" lon="6.18356"></trkpt><trkpt lat="52.50764" lon="6.18374"></trkpt><trkpt lat="52.50766" lon="6.18391"></trkpt><trkpt lat="52.50767" lon="6.18404"></trkpt><trkpt lat="52.50767" lon="6.18412"></trkpt><trkpt lat="52.50767" lon="6.18433"></trkpt><trkpt lat="52.50765" lon="6.18448"></trkpt><trkpt lat="52.50763" lon="6.18465"></trkpt><trkpt lat="52.50759" lon="6.18482"></trkpt><trkpt lat="52.50753" lon="6.18501"></trkpt><trkpt lat="52.50716" lon="6.18605"></trkpt><trkpt lat="52.50708" lon="6.18634"></trkpt><trkpt lat="52.50701" lon="6.18659"></trkpt><trkpt lat="52.50695" lon="6.18683"></trkpt><trkpt lat="52.50687" lon="6.18718"></trkpt><trkpt lat="52.5068" lon="6.18747"></trkpt><trkpt lat="52.50675" lon="6.18771"></trkpt><trkpt lat="52.50671" lon="6.18795"></trkpt><trkpt lat="52.50667" lon="6.18824"></trkpt><trkpt lat="52.50662" lon="6.18858"></trkpt><trkpt lat="52.50653" lon="6.18926"></trkpt><trkpt lat="52.50647" lon="6.1896"></trkpt><trkpt lat="52.5064" lon="6.18996"></trkpt><trkpt lat="52.50634" lon="6.19027"></trkpt><trkpt lat="52.5062" lon="6.19099"></trkpt><trkpt lat="52.50614" lon="6.19129"></trkpt><trkpt lat="52.50611" lon="6.19147"></trkpt><trkpt lat="52.50609" lon="6.19167"></trkpt><trkpt lat="52.50607" lon="6.19183"></trkpt><trkpt lat="52.50606" lon="6.19204"></trkpt><trkpt lat="52.50605" lon="6.1922"></trkpt><trkpt lat="52.50604" lon="6.1923"></trkpt><trkpt lat="52.50603" lon="6.1924"></trkpt><trkpt lat="52.506" lon="6.1925"></trkpt><trkpt lat="52.50596" lon="6.19259"></trkpt><trkpt lat="52.50592" lon="6.19265"></trkpt><trkpt lat="52.50588" lon="6.19272"></trkpt><trkpt lat="52.50582" lon="6.19279"></trkpt><trkpt lat="52.50571" lon="6.19286"></trkpt><trkpt lat="52.50568" lon="6.19289"></trkpt><trkpt lat="52.50549" lon="6.19306"></trkpt><trkpt lat="52.50545" lon="6.1931"></trkpt><trkpt lat="52.50541" lon="6.19316"></trkpt><trkpt lat="52.50537" lon="6.19325"></trkpt><trkpt lat="52.50533" lon="6.19337"></trkpt><trkpt lat="52.50531" lon="6.19345"></trkpt><trkpt lat="52.50529" lon="6.19366"></trkpt><trkpt lat="52.50527" lon="6.19384"></trkpt><trkpt lat="52.50525" lon="6.19404"></trkpt><trkpt lat="52.50523" lon="6.1942"></trkpt><trkpt lat="52.5052" lon="6.19437"></trkpt><trkpt lat="52.50514" lon="6.19459"></trkpt><trkpt lat="52.50508" lon="6.1948"></trkpt><trkpt lat="52.50504" lon="6.19496"></trkpt><trkpt lat="52.50496" lon="6.19518"></trkpt><trkpt lat="52.50486" lon="6.19547"></trkpt><trkpt lat="52.50479" lon="6.1957"></trkpt><trkpt lat="52.50471" lon="6.19596"></trkpt><trkpt lat="52.50465" lon="6.19619"></trkpt><trkpt lat="52.5046" lon="6.19638"></trkpt><trkpt lat="52.50454" lon="6.19668"></trkpt><trkpt lat="52.50422" lon="6.1983"></trkpt><trkpt lat="52.50413" lon="6.19872"></trkpt><trkpt lat="52.50407" lon="6.19903"></trkpt><trkpt lat="52.50406" lon="6.19913"></trkpt><trkpt lat="52.50405" lon="6.19919"></trkpt><trkpt lat="52.50405" lon="6.19926"></trkpt><trkpt lat="52.50406" lon="6.19935"></trkpt><trkpt lat="52.50408" lon="6.19948"></trkpt><trkpt lat="52.50482" lon="6.20244"></trkpt><trkpt lat="52.50483" lon="6.20252"></trkpt><trkpt lat="52.50484" lon="6.2026"></trkpt><trkpt lat="52.50485" lon="6.20269"></trkpt><trkpt lat="52.50485" lon="6.20277"></trkpt><trkpt lat="52.50485" lon="6.20287"></trkpt><trkpt lat="52.50481" lon="6.20372"></trkpt><trkpt lat="52.50481" lon="6.20377"></trkpt><trkpt lat="52.50482" lon="6.2038"></trkpt><trkpt lat="52.50484" lon="6.20385"></trkpt><trkpt lat="52.50442" lon="6.20436"></trkpt><trkpt lat="52.50331" lon="6.20576"></trkpt><trkpt lat="52.50289" lon="6.20626"></trkpt><trkpt lat="52.50214" lon="6.20717"></trkpt><trkpt lat="52.50129" lon="6.2082"></trkpt><trkpt lat="52.49995" lon="6.2098"></trkpt><trkpt lat="52.49933" lon="6.21054"></trkpt><trkpt lat="52.49924" lon="6.21067"></trkpt><trkpt lat="52.49911" lon="6.21078"></trkpt><trkpt lat="52.49913" lon="6.21092"></trkpt><trkpt lat="52.49915" lon="6.21131"></trkpt><trkpt lat="52.49915" lon="6.21168"></trkpt><trkpt lat="52.49903" lon="6.21365"></trkpt><trkpt lat="52.49898" lon="6.21467"></trkpt><trkpt lat="52.49893" lon="6.21567"></trkpt><trkpt lat="52.49889" lon="6.21604"></trkpt><trkpt lat="52.49885" lon="6.21636"></trkpt><trkpt lat="52.49884" lon="6.21651"></trkpt><trkpt lat="52.49885" lon="6.21706"></trkpt><trkpt lat="52.49884" lon="6.21759"></trkpt><trkpt lat="52.49882" lon="6.21813"></trkpt><trkpt lat="52.49874" lon="6.21886"></trkpt><trkpt lat="52.49816" lon="6.22526"></trkpt><trkpt lat="52.49811" lon="6.22586"></trkpt><trkpt lat="52.49808" lon="6.22604"></trkpt><trkpt lat="52.49805" lon="6.2262"></trkpt><trkpt lat="52.49803" lon="6.22641"></trkpt><trkpt lat="52.49801" lon="6.22664"></trkpt><trkpt lat="52.49796" lon="6.22725"></trkpt><trkpt lat="52.49791" lon="6.22776"></trkpt><trkpt lat="52.49791" lon="6.228"></trkpt><trkpt lat="52.49791" lon="6.22813"></trkpt><trkpt lat="52.49791" lon="6.22826"></trkpt><trkpt lat="52.49788" lon="6.22852"></trkpt><trkpt lat="52.49786" lon="6.22876"></trkpt><trkpt lat="52.49785" lon="6.22888"></trkpt><trkpt lat="52.49785" lon="6.22899"></trkpt><trkpt lat="52.49788" lon="6.22923"></trkpt><trkpt lat="52.49786" lon="6.22964"></trkpt><trkpt lat="52.49776" lon="6.23038"></trkpt><trkpt lat="52.49775" lon="6.23065"></trkpt><trkpt lat="52.49777" lon="6.23091"></trkpt><trkpt lat="52.49781" lon="6.23132"></trkpt><trkpt lat="52.49781" lon="6.23164"></trkpt><trkpt lat="52.49783" lon="6.23194"></trkpt><trkpt lat="52.49783" lon="6.23208"></trkpt><trkpt lat="52.49785" lon="6.23216"></trkpt><trkpt lat="52.49787" lon="6.23237"></trkpt><trkpt lat="52.49799" lon="6.23288"></trkpt><trkpt lat="52.49817" lon="6.23361"></trkpt><trkpt lat="52.49824" lon="6.23388"></trkpt><trkpt lat="52.49826" lon="6.23395"></trkpt><trkpt lat="52.49827" lon="6.23403"></trkpt><trkpt lat="52.49858" lon="6.23525"></trkpt><trkpt lat="52.4987" lon="6.23563"></trkpt><trkpt lat="52.49879" lon="6.23589"></trkpt><trkpt lat="52.49887" lon="6.23617"></trkpt><trkpt lat="52.49889" lon="6.23635"></trkpt><trkpt lat="52.49895" lon="6.23683"></trkpt><trkpt lat="52.499" lon="6.23746"></trkpt><trkpt lat="52.499" lon="6.2381"></trkpt><trkpt lat="52.49899" lon="6.23876"></trkpt><trkpt lat="52.49896" lon="6.24037"></trkpt><trkpt lat="52.49898" lon="6.24083"></trkpt><trkpt lat="52.49894" lon="6.24122"></trkpt><trkpt lat="52.49888" lon="6.24161"></trkpt><trkpt lat="52.49884" lon="6.24195"></trkpt><trkpt lat="52.49886" lon="6.24223"></trkpt><trkpt lat="52.49895" lon="6.24258"></trkpt><trkpt lat="52.49916" lon="6.24323"></trkpt><trkpt lat="52.49943" lon="6.24407"></trkpt><trkpt lat="52.4996" lon="6.24452"></trkpt><trkpt lat="52.49971" lon="6.24498"></trkpt><trkpt lat="52.49992" lon="6.24567"></trkpt><trkpt lat="52.50029" lon="6.24686"></trkpt><trkpt lat="52.50042" lon="6.24745"></trkpt><trkpt lat="52.5005" lon="6.24793"></trkpt><trkpt lat="52.50053" lon="6.24816"></trkpt><trkpt lat="52.50056" lon="6.24846"></trkpt><trkpt lat="52.50057" lon="6.24862"></trkpt><trkpt lat="52.50058" lon="6.24871"></trkpt><trkpt lat="52.50057" lon="6.24883"></trkpt><trkpt lat="52.50054" lon="6.24914"></trkpt><trkpt lat="52.50054" lon="6.24923"></trkpt><trkpt lat="52.50054" lon="6.24931"></trkpt><trkpt lat="52.50057" lon="6.24939"></trkpt><trkpt lat="52.5006" lon="6.24948"></trkpt><trkpt lat="52.50063" lon="6.24954"></trkpt><trkpt lat="52.50065" lon="6.2496"></trkpt><trkpt lat="52.50068" lon="6.24966"></trkpt><trkpt lat="52.5007" lon="6.24975"></trkpt><trkpt lat="52.5007" lon="6.24986"></trkpt><trkpt lat="52.5007" lon="6.25003"></trkpt><trkpt lat="52.50067" lon="6.25028"></trkpt><trkpt lat="52.50064" lon="6.2505"></trkpt><trkpt lat="52.5006" lon="6.2507"></trkpt><trkpt lat="52.50053" lon="6.251"></trkpt><trkpt lat="52.50028" lon="6.25181"></trkpt><trkpt lat="52.50009" lon="6.25249"></trkpt><trkpt lat="52.50002" lon="6.25276"></trkpt><trkpt lat="52.49997" lon="6.25303"></trkpt><trkpt lat="52.49991" lon="6.25335"></trkpt><trkpt lat="52.49987" lon="6.25365"></trkpt><trkpt lat="52.49981" lon="6.25433"></trkpt><trkpt lat="52.49981" lon="6.25463"></trkpt><trkpt lat="52.49981" lon="6.25574"></trkpt><trkpt lat="52.49981" lon="6.25821"></trkpt><trkpt lat="52.49982" lon="6.25837"></trkpt><trkpt lat="52.49983" lon="6.25855"></trkpt><trkpt lat="52.49982" lon="6.25869"></trkpt><trkpt lat="52.4998" lon="6.25885"></trkpt><trkpt lat="52.4998" lon="6.25897"></trkpt><trkpt lat="52.49979" lon="6.25903"></trkpt><trkpt lat="52.49978" lon="6.25908"></trkpt><trkpt lat="52.49975" lon="6.25916"></trkpt><trkpt lat="52.49971" lon="6.25921"></trkpt><trkpt lat="52.49966" lon="6.25926"></trkpt><trkpt lat="52.49968" lon="6.25938"></trkpt><trkpt lat="52.49969" lon="6.25948"></trkpt><trkpt lat="52.49969" lon="6.25954"></trkpt><trkpt lat="52.49971" lon="6.25962"></trkpt><trkpt lat="52.49977" lon="6.25969"></trkpt><trkpt lat="52.49982" lon="6.25975"></trkpt><trkpt lat="52.49988" lon="6.25976"></trkpt><trkpt lat="52.49995" lon="6.25977"></trkpt><trkpt lat="52.49998" lon="6.25976"></trkpt><trkpt lat="52.49999" lon="6.25975"></trkpt><trkpt lat="52.50001" lon="6.25971"></trkpt><trkpt lat="52.50003" lon="6.2597"></trkpt><trkpt lat="52.50005" lon="6.25971"></trkpt><trkpt lat="52.50007" lon="6.25966"></trkpt><trkpt lat="52.50009" lon="6.25963"></trkpt><trkpt lat="52.50011" lon="6.25961"></trkpt><trkpt lat="52.50013" lon="6.2596"></trkpt><trkpt lat="52.50017" lon="6.25959"></trkpt><trkpt lat="52.50024" lon="6.25959"></trkpt><trkpt lat="52.50029" lon="6.25959"></trkpt><trkpt lat="52.50032" lon="6.25959"></trkpt><trkpt lat="52.50049" lon="6.25963"></trkpt><trkpt lat="52.50069" lon="6.25972"></trkpt><trkpt lat="52.50089" lon="6.25984"></trkpt><trkpt lat="52.50099" lon="6.25994"></trkpt><trkpt lat="52.50105" lon="6.26001"></trkpt><trkpt lat="52.50137" lon="6.26053"></trkpt><trkpt lat="52.50143" lon="6.26062"></trkpt><trkpt lat="52.50146" lon="6.26065"></trkpt><trkpt lat="52.50149" lon="6.26069"></trkpt><trkpt lat="52.50155" lon="6.26075"></trkpt><trkpt lat="52.50168" lon="6.26082"></trkpt><trkpt lat="52.50181" lon="6.26082"></trkpt><trkpt lat="52.50192" lon="6.26079"></trkpt><trkpt lat="52.50196" lon="6.26077"></trkpt><trkpt lat="52.502" lon="6.26075"></trkpt><trkpt lat="52.50203" lon="6.26071"></trkpt><trkpt lat="52.50209" lon="6.26065"></trkpt><trkpt lat="52.50213" lon="6.26061"></trkpt><trkpt lat="52.50282" lon="6.25986"></trkpt><trkpt lat="52.50288" lon="6.2598"></trkpt><trkpt lat="52.50293" lon="6.25982"></trkpt><trkpt lat="52.50299" lon="6.25988"></trkpt><trkpt lat="52.50303" lon="6.26002"></trkpt><trkpt lat="52.50312" lon="6.26014"></trkpt><trkpt lat="52.50335" lon="6.26082"></trkpt><trkpt lat="52.50373" lon="6.26205"></trkpt><trkpt lat="52.50376" lon="6.26229"></trkpt><trkpt lat="52.50383" lon="6.26252"></trkpt><trkpt lat="52.50383" lon="6.26254"></trkpt><trkpt lat="52.50384" lon="6.26257"></trkpt><trkpt lat="52.50387" lon="6.26269"></trkpt><trkpt lat="52.50396" lon="6.2629"></trkpt><trkpt lat="52.50405" lon="6.26306"></trkpt><trkpt lat="52.50413" lon="6.26319"></trkpt><trkpt lat="52.50421" lon="6.2633"></trkpt><trkpt lat="52.50427" lon="6.26337"></trkpt><trkpt lat="52.50441" lon="6.26349"></trkpt><trkpt lat="52.50453" lon="6.26356"></trkpt><trkpt lat="52.50465" lon="6.26361"></trkpt><trkpt lat="52.50471" lon="6.26364"></trkpt><trkpt lat="52.5049" lon="6.26365"></trkpt><trkpt lat="52.50501" lon="6.26365"></trkpt><trkpt lat="52.50513" lon="6.26364"></trkpt><trkpt lat="52.50517" lon="6.26364"></trkpt><trkpt lat="52.50523" lon="6.26363"></trkpt><trkpt lat="52.50536" lon="6.26361"></trkpt><trkpt lat="52.50547" lon="6.26361"></trkpt><trkpt lat="52.50577" lon="6.26357"></trkpt><trkpt lat="52.5058" lon="6.26357"></trkpt><trkpt lat="52.50619" lon="6.26351"></trkpt><trkpt lat="52.5066" lon="6.26346"></trkpt><trkpt lat="52.50685" lon="6.26344"></trkpt><trkpt lat="52.50704" lon="6.26343"></trkpt><trkpt lat="52.5071" lon="6.26343"></trkpt><trkpt lat="52.5072" lon="6.26345"></trkpt><trkpt lat="52.50726" lon="6.26347"></trkpt><trkpt lat="52.5073" lon="6.26351"></trkpt><trkpt lat="52.50733" lon="6.26357"></trkpt><trkpt lat="52.5074" lon="6.2637"></trkpt><trkpt lat="52.50744" lon="6.26379"></trkpt><trkpt lat="52.50747" lon="6.26385"></trkpt><trkpt lat="52.5075" lon="6.26392"></trkpt><trkpt lat="52.50755" lon="6.26402"></trkpt><trkpt lat="52.50758" lon="6.26408"></trkpt><trkpt lat="52.50759" lon="6.26413"></trkpt><trkpt lat="52.50762" lon="6.26421"></trkpt><trkpt lat="52.50764" lon="6.26483"></trkpt><trkpt lat="52.50765" lon="6.26524"></trkpt><trkpt lat="52.50772" lon="6.26736"></trkpt><trkpt lat="52.50772" lon="6.26742"></trkpt><trkpt lat="52.50767" lon="6.26747"></trkpt><trkpt lat="52.50761" lon="6.26754"></trkpt><trkpt lat="52.50756" lon="6.26761"></trkpt><trkpt lat="52.50735" lon="6.26785"></trkpt><trkpt lat="52.50702" lon="6.26826"></trkpt><trkpt lat="52.50694" lon="6.26837"></trkpt><trkpt lat="52.50692" lon="6.26843"></trkpt><trkpt lat="52.5069" lon="6.2685"></trkpt><trkpt lat="52.50688" lon="6.26861"></trkpt><trkpt lat="52.50693" lon="6.26919"></trkpt><trkpt lat="52.50694" lon="6.26932"></trkpt><trkpt lat="52.50694" lon="6.26945"></trkpt><trkpt lat="52.50703" lon="6.27066"></trkpt><trkpt lat="52.50714" lon="6.27205"></trkpt><trkpt lat="52.50715" lon="6.27215"></trkpt><trkpt lat="52.50724" lon="6.27343"></trkpt><trkpt lat="52.50726" lon="6.27362"></trkpt><trkpt lat="52.50729" lon="6.27396"></trkpt><trkpt lat="52.50732" lon="6.27433"></trkpt><trkpt lat="52.5076" lon="6.27574"></trkpt><trkpt lat="52.50807" lon="6.27819"></trkpt><trkpt lat="52.50815" lon="6.27865"></trkpt><trkpt lat="52.50818" lon="6.27881"></trkpt><trkpt lat="52.50822" lon="6.27901"></trkpt><trkpt lat="52.50824" lon="6.27909"></trkpt><trkpt lat="52.50826" lon="6.27914"></trkpt><trkpt lat="52.50829" lon="6.27922"></trkpt><trkpt lat="52.50832" lon="6.27927"></trkpt><trkpt lat="52.5084" lon="6.27932"></trkpt><trkpt lat="52.50846" lon="6.27932"></trkpt><trkpt lat="52.50861" lon="6.27933"></trkpt><trkpt lat="52.50866" lon="6.27933"></trkpt><trkpt lat="52.50872" lon="6.27931"></trkpt><trkpt lat="52.50883" lon="6.27924"></trkpt><trkpt lat="52.50988" lon="6.27843"></trkpt><trkpt lat="52.51029" lon="6.27821"></trkpt><trkpt lat="52.5103" lon="6.27808"></trkpt><trkpt lat="52.51053" lon="6.27702"></trkpt><trkpt lat="52.5106" lon="6.27676"></trkpt><trkpt lat="52.51068" lon="6.27654"></trkpt><trkpt lat="52.51076" lon="6.27634"></trkpt><trkpt lat="52.51087" lon="6.27613"></trkpt><trkpt lat="52.51125" lon="6.27543"></trkpt><trkpt lat="52.51171" lon="6.27619"></trkpt><trkpt lat="52.51211" lon="6.27689"></trkpt><trkpt lat="52.51236" lon="6.27728"></trkpt><trkpt lat="52.51249" lon="6.27745"></trkpt><trkpt lat="52.51268" lon="6.27765"></trkpt><trkpt lat="52.51351" lon="6.27839"></trkpt><trkpt lat="52.51359" lon="6.27819"></trkpt><trkpt lat="52.51362" lon="6.2781"></trkpt><trkpt lat="52.51377" lon="6.27819"></trkpt><trkpt lat="52.51403" lon="6.27826"></trkpt><trkpt lat="52.5142" lon="6.27829"></trkpt><trkpt lat="52.51451" lon="6.27837"></trkpt><trkpt lat="52.51514" lon="6.27852"></trkpt><trkpt lat="52.51539" lon="6.27853"></trkpt><trkpt lat="52.51556" lon="6.27854"></trkpt><trkpt lat="52.51575" lon="6.27854"></trkpt><trkpt lat="52.51647" lon="6.27838"></trkpt><trkpt lat="52.51693" lon="6.27828"></trkpt><trkpt lat="52.51761" lon="6.27814"></trkpt><trkpt lat="52.51842" lon="6.27802"></trkpt><trkpt lat="52.51918" lon="6.27791"></trkpt><trkpt lat="52.51987" lon="6.27781"></trkpt><trkpt lat="52.52053" lon="6.27776"></trkpt><trkpt lat="52.52192" lon="6.27778"></trkpt><trkpt lat="52.52223" lon="6.27774"></trkpt><trkpt lat="52.52256" lon="6.27769"></trkpt><trkpt lat="52.52449" lon="6.27741"></trkpt><trkpt lat="52.52471" lon="6.27737"></trkpt><trkpt lat="52.52507" lon="6.2773"></trkpt><trkpt lat="52.52915" lon="6.27655"></trkpt><trkpt lat="52.52928" lon="6.27652"></trkpt><trkpt lat="52.52942" lon="6.27646"></trkpt><trkpt lat="52.53058" lon="6.27582"></trkpt><trkpt lat="52.53135" lon="6.27535"></trkpt><trkpt lat="52.53174" lon="6.27511"></trkpt><trkpt lat="52.53367" lon="6.27403"></trkpt><trkpt lat="52.5344" lon="6.27364"></trkpt><trkpt lat="52.53605" lon="6.27307"></trkpt><trkpt lat="52.53651" lon="6.27292"></trkpt><trkpt lat="52.53655" lon="6.27203"></trkpt><trkpt lat="52.5367" lon="6.26975"></trkpt><trkpt lat="52.53671" lon="6.26919"></trkpt><trkpt lat="52.53669" lon="6.26883"></trkpt><trkpt lat="52.53656" lon="6.26755"></trkpt><trkpt lat="52.53637" lon="6.26642"></trkpt><trkpt lat="52.53635" lon="6.26632"></trkpt><trkpt lat="52.53631" lon="6.2662"></trkpt><trkpt lat="52.53624" lon="6.26598"></trkpt><trkpt lat="52.53616" lon="6.26578"></trkpt><trkpt lat="52.53608" lon="6.26553"></trkpt><trkpt lat="52.53605" lon="6.26539"></trkpt><trkpt lat="52.53603" lon="6.26525"></trkpt><trkpt lat="52.53601" lon="6.26509"></trkpt><trkpt lat="52.536" lon="6.26492"></trkpt><trkpt lat="52.53598" lon="6.26445"></trkpt><trkpt lat="52.53587" lon="6.26154"></trkpt><trkpt lat="52.53586" lon="6.26138"></trkpt><trkpt lat="52.53667" lon="6.2614"></trkpt><trkpt lat="52.53673" lon="6.26141"></trkpt><trkpt lat="52.53676" lon="6.26143"></trkpt><trkpt lat="52.5368" lon="6.26145"></trkpt><trkpt lat="52.53685" lon="6.26146"></trkpt><trkpt lat="52.53837" lon="6.26151"></trkpt><trkpt lat="52.53859" lon="6.2615"></trkpt><trkpt lat="52.53865" lon="6.26149"></trkpt><trkpt lat="52.53874" lon="6.26145"></trkpt><trkpt lat="52.53956" lon="6.26146"></trkpt><trkpt lat="52.54003" lon="6.26147"></trkpt><trkpt lat="52.542" lon="6.26154"></trkpt><trkpt lat="52.54286" lon="6.26154"></trkpt><trkpt lat="52.54569" lon="6.26161"></trkpt><trkpt lat="52.5472" lon="6.26163"></trkpt><trkpt lat="52.54732" lon="6.26167"></trkpt><trkpt lat="52.5474" lon="6.26171"></trkpt><trkpt lat="52.54796" lon="6.26171"></trkpt><trkpt lat="52.5481" lon="6.26164"></trkpt><trkpt lat="52.54903" lon="6.26167"></trkpt><trkpt lat="52.54946" lon="6.26167"></trkpt><trkpt lat="52.55339" lon="6.26176"></trkpt><trkpt lat="52.55454" lon="6.26178"></trkpt><trkpt lat="52.55665" lon="6.26183"></trkpt><trkpt lat="52.56022" lon="6.26189"></trkpt><trkpt lat="52.562" lon="6.26193"></trkpt><trkpt lat="52.56288" lon="6.26194"></trkpt><trkpt lat="52.56334" lon="6.26194"></trkpt><trkpt lat="52.56357" lon="6.26195"></trkpt><trkpt lat="52.56372" lon="6.26195"></trkpt><trkpt lat="52.56379" lon="6.26195"></trkpt><trkpt lat="52.56385" lon="6.26194"></trkpt><trkpt lat="52.5639" lon="6.26192"></trkpt><trkpt lat="52.56394" lon="6.2619"></trkpt><trkpt lat="52.56398" lon="6.26187"></trkpt><trkpt lat="52.56403" lon="6.26183"></trkpt><trkpt lat="52.56406" lon="6.2618"></trkpt><trkpt lat="52.5641" lon="6.26175"></trkpt><trkpt lat="52.56413" lon="6.2617"></trkpt><trkpt lat="52.56416" lon="6.26168"></trkpt><trkpt lat="52.5642" lon="6.26165"></trkpt><trkpt lat="52.56425" lon="6.26161"></trkpt><trkpt lat="52.5643" lon="6.26158"></trkpt><trkpt lat="52.56433" lon="6.26155"></trkpt><trkpt lat="52.56435" lon="6.26157"></trkpt><trkpt lat="52.56439" lon="6.2616"></trkpt><trkpt lat="52.56443" lon="6.26164"></trkpt><trkpt lat="52.56446" lon="6.26167"></trkpt><trkpt lat="52.56449" lon="6.26171"></trkpt><trkpt lat="52.56453" lon="6.26176"></trkpt><trkpt lat="52.5646" lon="6.26174"></trkpt><trkpt lat="52.56468" lon="6.26172"></trkpt><trkpt lat="52.56476" lon="6.26169"></trkpt><trkpt lat="52.56483" lon="6.26168"></trkpt><trkpt lat="52.56487" lon="6.26168"></trkpt><trkpt lat="52.56497" lon="6.26168"></trkpt><trkpt lat="52.56504" lon="6.26169"></trkpt><trkpt lat="52.56511" lon="6.26172"></trkpt><trkpt lat="52.56518" lon="6.26175"></trkpt><trkpt lat="52.56525" lon="6.26179"></trkpt><trkpt lat="52.56532" lon="6.26184"></trkpt><trkpt lat="52.56545" lon="6.26196"></trkpt><trkpt lat="52.56555" lon="6.26205"></trkpt><trkpt lat="52.56568" lon="6.26218"></trkpt><trkpt lat="52.56577" lon="6.26227"></trkpt><trkpt lat="52.56586" lon="6.26235"></trkpt><trkpt lat="52.56597" lon="6.26241"></trkpt><trkpt lat="52.56608" lon="6.26248"></trkpt><trkpt lat="52.56622" lon="6.26254"></trkpt><trkpt lat="52.5663" lon="6.26257"></trkpt><trkpt lat="52.56642" lon="6.26259"></trkpt><trkpt lat="52.56654" lon="6.26261"></trkpt><trkpt lat="52.56665" lon="6.26261"></trkpt><trkpt lat="52.56678" lon="6.26259"></trkpt><trkpt lat="52.56686" lon="6.26257"></trkpt><trkpt lat="52.56696" lon="6.26252"></trkpt><trkpt lat="52.56734" lon="6.26232"></trkpt><trkpt lat="52.56819" lon="6.26186"></trkpt><trkpt lat="52.5684" lon="6.26175"></trkpt><trkpt lat="52.56846" lon="6.26172"></trkpt><trkpt lat="52.56851" lon="6.2617"></trkpt><trkpt lat="52.56856" lon="6.26164"></trkpt><trkpt lat="52.56857" lon="6.2616"></trkpt><trkpt lat="52.56859" lon="6.26155"></trkpt><trkpt lat="52.56861" lon="6.26146"></trkpt><trkpt lat="52.56864" lon="6.26142"></trkpt><trkpt lat="52.56868" lon="6.26138"></trkpt><trkpt lat="52.56874" lon="6.26136"></trkpt><trkpt lat="52.5688" lon="6.26135"></trkpt><trkpt lat="52.56885" lon="6.26136"></trkpt><trkpt lat="52.56887" lon="6.26137"></trkpt><trkpt lat="52.5689" lon="6.26137"></trkpt><trkpt lat="52.56892" lon="6.26137"></trkpt><trkpt lat="52.56901" lon="6.26138"></trkpt><trkpt lat="52.56907" lon="6.26137"></trkpt><trkpt lat="52.56914" lon="6.26136"></trkpt><trkpt lat="52.5692" lon="6.26133"></trkpt><trkpt lat="52.56998" lon="6.26092"></trkpt><trkpt lat="52.57238" lon="6.2596"></trkpt><trkpt lat="52.57623" lon="6.25755"></trkpt><trkpt lat="52.57627" lon="6.25752"></trkpt><trkpt lat="52.57631" lon="6.25746"></trkpt><trkpt lat="52.57632" lon="6.25741"></trkpt><trkpt lat="52.57635" lon="6.25734"></trkpt><trkpt lat="52.57642" lon="6.25726"></trkpt><trkpt lat="52.57648" lon="6.25725"></trkpt><trkpt lat="52.57655" lon="6.25726"></trkpt><trkpt lat="52.5766" lon="6.25731"></trkpt><trkpt lat="52.57668" lon="6.25731"></trkpt><trkpt lat="52.57901" lon="6.25603"></trkpt><trkpt lat="52.58113" lon="6.25493"></trkpt><trkpt lat="52.58542" lon="6.25258"></trkpt><trkpt lat="52.58564" lon="6.25248"></trkpt><trkpt lat="52.58584" lon="6.2524"></trkpt><trkpt lat="52.58594" lon="6.25237"></trkpt><trkpt lat="52.58604" lon="6.25238"></trkpt><trkpt lat="52.58615" lon="6.25235"></trkpt><trkpt lat="52.58686" lon="6.25196"></trkpt><trkpt lat="52.58702" lon="6.25185"></trkpt><trkpt lat="52.58717" lon="6.25175"></trkpt><trkpt lat="52.58744" lon="6.25163"></trkpt><trkpt lat="52.58751" lon="6.25156"></trkpt><trkpt lat="52.58753" lon="6.25152"></trkpt><trkpt lat="52.58755" lon="6.25146"></trkpt><trkpt lat="52.58757" lon="6.25132"></trkpt><trkpt lat="52.58759" lon="6.25126"></trkpt><trkpt lat="52.58763" lon="6.25121"></trkpt><trkpt lat="52.58768" lon="6.25116"></trkpt><trkpt lat="52.5877" lon="6.25117"></trkpt><trkpt lat="52.58776" lon="6.25123"></trkpt><trkpt lat="52.58791" lon="6.25124"></trkpt><trkpt lat="52.58801" lon="6.25125"></trkpt><trkpt lat="52.5881" lon="6.25124"></trkpt><trkpt lat="52.58833" lon="6.2511"></trkpt><trkpt lat="52.58915" lon="6.25067"></trkpt><trkpt lat="52.58992" lon="6.25026"></trkpt><trkpt lat="52.59002" lon="6.25022"></trkpt><trkpt lat="52.59003" lon="6.25021"></trkpt><trkpt lat="52.59004" lon="6.25022"></trkpt><trkpt lat="52.59005" lon="6.25025"></trkpt><trkpt lat="52.59006" lon="6.2503"></trkpt><trkpt lat="52.59007" lon="6.25035"></trkpt><trkpt lat="52.59008" lon="6.25037"></trkpt><trkpt lat="52.59009" lon="6.25038"></trkpt><trkpt lat="52.59011" lon="6.25037"></trkpt><trkpt lat="52.59012" lon="6.25036"></trkpt><trkpt lat="52.59019" lon="6.25034"></trkpt><trkpt lat="52.59043" lon="6.25021"></trkpt><trkpt lat="52.59049" lon="6.25015"></trkpt><trkpt lat="52.59052" lon="6.2501"></trkpt><trkpt lat="52.59055" lon="6.25006"></trkpt><trkpt lat="52.59058" lon="6.25005"></trkpt><trkpt lat="52.59073" lon="6.24999"></trkpt><trkpt lat="52.59076" lon="6.25001"></trkpt><trkpt lat="52.59078" lon="6.25002"></trkpt><trkpt lat="52.59079" lon="6.25003"></trkpt><trkpt lat="52.59082" lon="6.25002"></trkpt><trkpt lat="52.59086" lon="6.24999"></trkpt><trkpt lat="52.59091" lon="6.24997"></trkpt><trkpt lat="52.59101" lon="6.24993"></trkpt><trkpt lat="52.59104" lon="6.24992"></trkpt><trkpt lat="52.59104" lon="6.24985"></trkpt><trkpt lat="52.59104" lon="6.24979"></trkpt><trkpt lat="52.59103" lon="6.24974"></trkpt><trkpt lat="52.59102" lon="6.24962"></trkpt><trkpt lat="52.591" lon="6.24943"></trkpt><trkpt lat="52.59099" lon="6.24934"></trkpt><trkpt lat="52.59096" lon="6.2492"></trkpt><trkpt lat="52.59094" lon="6.24909"></trkpt><trkpt lat="52.59091" lon="6.24898"></trkpt><trkpt lat="52.59088" lon="6.24877"></trkpt><trkpt lat="52.59082" lon="6.2483"></trkpt><trkpt lat="52.59066" lon="6.24697"></trkpt><trkpt lat="52.59062" lon="6.24661"></trkpt><trkpt lat="52.59053" lon="6.24588"></trkpt><trkpt lat="52.59047" lon="6.24533"></trkpt><trkpt lat="52.5902" lon="6.24306"></trkpt><trkpt lat="52.59014" lon="6.24252"></trkpt><trkpt lat="52.59009" lon="6.24202"></trkpt><trkpt lat="52.59004" lon="6.24152"></trkpt><trkpt lat="52.59" lon="6.24099"></trkpt><trkpt lat="52.58995" lon="6.2401"></trkpt><trkpt lat="52.58965" lon="6.23432"></trkpt><trkpt lat="52.58956" lon="6.23254"></trkpt><trkpt lat="52.58925" lon="6.22722"></trkpt><trkpt lat="52.58918" lon="6.22607"></trkpt><trkpt lat="52.58911" lon="6.22523"></trkpt><trkpt lat="52.58903" lon="6.22448"></trkpt><trkpt lat="52.58895" lon="6.22382"></trkpt><trkpt lat="52.58883" lon="6.22304"></trkpt><trkpt lat="52.58869" lon="6.22208"></trkpt><trkpt lat="52.58852" lon="6.2211"></trkpt><trkpt lat="52.58832" lon="6.2201"></trkpt><trkpt lat="52.58824" lon="6.21976"></trkpt><trkpt lat="52.58815" lon="6.21942"></trkpt><trkpt lat="52.58808" lon="6.21921"></trkpt><trkpt lat="52.58753" lon="6.21753"></trkpt><trkpt lat="52.58747" lon="6.21734"></trkpt><trkpt lat="52.58732" lon="6.21684"></trkpt><trkpt lat="52.58727" lon="6.21664"></trkpt><trkpt lat="52.58711" lon="6.21601"></trkpt><trkpt lat="52.58692" lon="6.21517"></trkpt><trkpt lat="52.58679" lon="6.21448"></trkpt><trkpt lat="52.58651" lon="6.21286"></trkpt><trkpt lat="52.58631" lon="6.21158"></trkpt><trkpt lat="52.58602" lon="6.20971"></trkpt><trkpt lat="52.58585" lon="6.20861"></trkpt><trkpt lat="52.58573" lon="6.20762"></trkpt><trkpt lat="52.5856" lon="6.20657"></trkpt><trkpt lat="52.58548" lon="6.20556"></trkpt><trkpt lat="52.58511" lon="6.20243"></trkpt><trkpt lat="52.58493" lon="6.20093"></trkpt><trkpt lat="52.58459" lon="6.19801"></trkpt><trkpt lat="52.58453" lon="6.1975"></trkpt><trkpt lat="52.58448" lon="6.19706"></trkpt><trkpt lat="52.58444" lon="6.19674"></trkpt><trkpt lat="52.58435" lon="6.19592"></trkpt><trkpt lat="52.5843" lon="6.19551"></trkpt><trkpt lat="52.58426" lon="6.19551"></trkpt><trkpt lat="52.58417" lon="6.1955"></trkpt><trkpt lat="52.58407" lon="6.19549"></trkpt><trkpt lat="52.58389" lon="6.19545"></trkpt><trkpt lat="52.58386" lon="6.19544"></trkpt><trkpt lat="52.58379" lon="6.19542"></trkpt><trkpt lat="52.58373" lon="6.19539"></trkpt><trkpt lat="52.5837" lon="6.19538"></trkpt><trkpt lat="52.58367" lon="6.19536"></trkpt><trkpt lat="52.58363" lon="6.19534"></trkpt><trkpt lat="52.5836" lon="6.19531"></trkpt><trkpt lat="52.58354" lon="6.19526"></trkpt><trkpt lat="52.5835" lon="6.19523"></trkpt><trkpt lat="52.58344" lon="6.19521"></trkpt><trkpt lat="52.58336" lon="6.19519"></trkpt><trkpt lat="52.58292" lon="6.19516"></trkpt><trkpt lat="52.58279" lon="6.19514"></trkpt><trkpt lat="52.58269" lon="6.19512"></trkpt><trkpt lat="52.58244" lon="6.19504"></trkpt><trkpt lat="52.58226" lon="6.19495"></trkpt><trkpt lat="52.58208" lon="6.19484"></trkpt><trkpt lat="52.58201" lon="6.19479"></trkpt><trkpt lat="52.58184" lon="6.19466"></trkpt><trkpt lat="52.58172" lon="6.19457"></trkpt><trkpt lat="52.58161" lon="6.19447"></trkpt><trkpt lat="52.58139" lon="6.19423"></trkpt><trkpt lat="52.58131" lon="6.19414"></trkpt><trkpt lat="52.58124" lon="6.19405"></trkpt><trkpt lat="52.58112" lon="6.19388"></trkpt><trkpt lat="52.58101" lon="6.19372"></trkpt><trkpt lat="52.58093" lon="6.19358"></trkpt><trkpt lat="52.58076" lon="6.19329"></trkpt><trkpt lat="52.58044" lon="6.19273"></trkpt><trkpt lat="52.58038" lon="6.19264"></trkpt><trkpt lat="52.58032" lon="6.19254"></trkpt><trkpt lat="52.58021" lon="6.19237"></trkpt><trkpt lat="52.58015" lon="6.19229"></trkpt><trkpt lat="52.58009" lon="6.19221"></trkpt><trkpt lat="52.57997" lon="6.19206"></trkpt><trkpt lat="52.57965" lon="6.19171"></trkpt><trkpt lat="52.57954" lon="6.19162"></trkpt><trkpt lat="52.57944" lon="6.19153"></trkpt><trkpt lat="52.57938" lon="6.19147"></trkpt><trkpt lat="52.57931" lon="6.19142"></trkpt><trkpt lat="52.5792" lon="6.19134"></trkpt><trkpt lat="52.57899" lon="6.19119"></trkpt><trkpt lat="52.57863" lon="6.19094"></trkpt><trkpt lat="52.57805" lon="6.19054"></trkpt><trkpt lat="52.57792" lon="6.19045"></trkpt><trkpt lat="52.57634" lon="6.18936"></trkpt><trkpt lat="52.57562" lon="6.18888"></trkpt><trkpt lat="52.57546" lon="6.18877"></trkpt><trkpt lat="52.57348" lon="6.18745"></trkpt><trkpt lat="52.57308" lon="6.18718"></trkpt><trkpt lat="52.57296" lon="6.18709"></trkpt><trkpt lat="52.5729" lon="6.18705"></trkpt><trkpt lat="52.57271" lon="6.18694"></trkpt><trkpt lat="52.57246" lon="6.18677"></trkpt><trkpt lat="52.57209" lon="6.18653"></trkpt><trkpt lat="52.57205" lon="6.18651"></trkpt><trkpt lat="52.57201" lon="6.18649"></trkpt><trkpt lat="52.57197" lon="6.18647"></trkpt><trkpt lat="52.57194" lon="6.18645"></trkpt><trkpt lat="52.57179" lon="6.18635"></trkpt><trkpt lat="52.57172" lon="6.18629"></trkpt><trkpt lat="52.57166" lon="6.18624"></trkpt><trkpt lat="52.57146" lon="6.18611"></trkpt><trkpt lat="52.57045" lon="6.18544"></trkpt><trkpt lat="52.56991" lon="6.18508"></trkpt><trkpt lat="52.56824" lon="6.184"></trkpt><trkpt lat="52.56769" lon="6.18364"></trkpt><trkpt lat="52.56659" lon="6.18291"></trkpt><trkpt lat="52.56623" lon="6.18268"></trkpt><trkpt lat="52.56588" lon="6.18245"></trkpt><trkpt lat="52.5652" lon="6.182"></trkpt><trkpt lat="52.56381" lon="6.18107"></trkpt><trkpt lat="52.56324" lon="6.1807"></trkpt><trkpt lat="52.56267" lon="6.18033"></trkpt><trkpt lat="52.56178" lon="6.17973"></trkpt><trkpt lat="52.56174" lon="6.17971"></trkpt><trkpt lat="52.5617" lon="6.17968"></trkpt><trkpt lat="52.56165" lon="6.17964"></trkpt><trkpt lat="52.56162" lon="6.17961"></trkpt><trkpt lat="52.56158" lon="6.17958"></trkpt><trkpt lat="52.56149" lon="6.17951"></trkpt><trkpt lat="52.56118" lon="6.17931"></trkpt><trkpt lat="52.55998" lon="6.17852"></trkpt><trkpt lat="52.55995" lon="6.1785"></trkpt><trkpt lat="52.5594" lon="6.17813"></trkpt><trkpt lat="52.55882" lon="6.17774"></trkpt><trkpt lat="52.55832" lon="6.1774"></trkpt><trkpt lat="52.55807" lon="6.17723"></trkpt><trkpt lat="52.55785" lon="6.17708"></trkpt><trkpt lat="52.5574" lon="6.17678"></trkpt><trkpt lat="52.55691" lon="6.1765"></trkpt><trkpt lat="52.5564" lon="6.17617"></trkpt><trkpt lat="52.55627" lon="6.17608"></trkpt><trkpt lat="52.55621" lon="6.17604"></trkpt><trkpt lat="52.55615" lon="6.17599"></trkpt><trkpt lat="52.55603" lon="6.17589"></trkpt><trkpt lat="52.55598" lon="6.17584"></trkpt><trkpt lat="52.55592" lon="6.1758"></trkpt><trkpt lat="52.5557" lon="6.17565"></trkpt><trkpt lat="52.55548" lon="6.17551"></trkpt><trkpt lat="52.55503" lon="6.17522"></trkpt><trkpt lat="52.55476" lon="6.17507"></trkpt><trkpt lat="52.5545" lon="6.17492"></trkpt><trkpt lat="52.55433" lon="6.17484"></trkpt><trkpt lat="52.55425" lon="6.1748"></trkpt><trkpt lat="52.55416" lon="6.17477"></trkpt><trkpt lat="52.55381" lon="6.17465"></trkpt><trkpt lat="52.55344" lon="6.17454"></trkpt><trkpt lat="52.55317" lon="6.17446"></trkpt><trkpt lat="52.55301" lon="6.17441"></trkpt><trkpt lat="52.55285" lon="6.17436"></trkpt><trkpt lat="52.55273" lon="6.17432"></trkpt><trkpt lat="52.55262" lon="6.17428"></trkpt><trkpt lat="52.55249" lon="6.17423"></trkpt><trkpt lat="52.55237" lon="6.17417"></trkpt><trkpt lat="52.5522" lon="6.17408"></trkpt><trkpt lat="52.55202" lon="6.17397"></trkpt><trkpt lat="52.55164" lon="6.17373"></trkpt><trkpt lat="52.55125" lon="6.17347"></trkpt><trkpt lat="52.55118" lon="6.17342"></trkpt><trkpt lat="52.55111" lon="6.17336"></trkpt><trkpt lat="52.55104" lon="6.17331"></trkpt><trkpt lat="52.55097" lon="6.17326"></trkpt><trkpt lat="52.5509" lon="6.1732"></trkpt><trkpt lat="52.55083" lon="6.17314"></trkpt><trkpt lat="52.55077" lon="6.17308"></trkpt><trkpt lat="52.55071" lon="6.17303"></trkpt><trkpt lat="52.55064" lon="6.17296"></trkpt><trkpt lat="52.55057" lon="6.17289"></trkpt><trkpt lat="52.55045" lon="6.17276"></trkpt><trkpt lat="52.55037" lon="6.17268"></trkpt><trkpt lat="52.55019" lon="6.17249"></trkpt><trkpt lat="52.54981" lon="6.17209"></trkpt><trkpt lat="52.54972" lon="6.172"></trkpt><trkpt lat="52.54963" lon="6.17192"></trkpt><trkpt lat="52.54954" lon="6.17184"></trkpt><trkpt lat="52.54944" lon="6.17175"></trkpt><trkpt lat="52.54935" lon="6.17168"></trkpt><trkpt lat="52.54925" lon="6.1716"></trkpt><trkpt lat="52.54916" lon="6.17153"></trkpt><trkpt lat="52.54908" lon="6.17146"></trkpt><trkpt lat="52.54899" lon="6.1714"></trkpt><trkpt lat="52.54821" lon="6.17088"></trkpt><trkpt lat="52.54797" lon="6.17072"></trkpt><trkpt lat="52.54763" lon="6.17049"></trkpt><trkpt lat="52.54741" lon="6.17035"></trkpt><trkpt lat="52.54681" lon="6.16995"></trkpt><trkpt lat="52.54644" lon="6.16971"></trkpt><trkpt lat="52.54594" lon="6.16938"></trkpt><trkpt lat="52.54572" lon="6.16923"></trkpt><trkpt lat="52.54527" lon="6.16894"></trkpt><trkpt lat="52.54487" lon="6.16868"></trkpt><trkpt lat="52.54418" lon="6.16822"></trkpt><trkpt lat="52.54376" lon="6.1679"></trkpt><trkpt lat="52.54334" lon="6.16762"></trkpt><trkpt lat="52.54322" lon="6.16754"></trkpt><trkpt lat="52.5431" lon="6.16745"></trkpt><trkpt lat="52.54302" lon="6.16739"></trkpt><trkpt lat="52.5426" lon="6.16713"></trkpt><trkpt lat="52.54219" lon="6.16687"></trkpt><trkpt lat="52.54158" lon="6.16646"></trkpt><trkpt lat="52.54153" lon="6.16644"></trkpt><trkpt lat="52.5415" lon="6.16643"></trkpt><trkpt lat="52.54146" lon="6.16643"></trkpt><trkpt lat="52.54142" lon="6.16643"></trkpt><trkpt lat="52.54139" lon="6.16643"></trkpt><trkpt lat="52.54134" lon="6.16641"></trkpt><trkpt lat="52.5413" lon="6.16638"></trkpt><trkpt lat="52.54125" lon="6.16635"></trkpt><trkpt lat="52.54117" lon="6.16629"></trkpt><trkpt lat="52.54114" lon="6.16625"></trkpt><trkpt lat="52.54112" lon="6.16623"></trkpt><trkpt lat="52.5411" lon="6.16621"></trkpt><trkpt lat="52.54107" lon="6.16616"></trkpt><trkpt lat="52.54105" lon="6.16612"></trkpt><trkpt lat="52.54103" lon="6.16608"></trkpt><trkpt lat="52.54101" lon="6.16605"></trkpt><trkpt lat="52.54098" lon="6.16603"></trkpt><trkpt lat="52.54072" lon="6.16586"></trkpt><trkpt lat="52.54051" lon="6.16571"></trkpt><trkpt lat="52.53972" lon="6.16511"></trkpt><trkpt lat="52.53894" lon="6.16451"></trkpt><trkpt lat="52.53778" lon="6.16363"></trkpt><trkpt lat="52.53741" lon="6.16338"></trkpt><trkpt lat="52.53697" lon="6.16309"></trkpt><trkpt lat="52.53647" lon="6.16276"></trkpt><trkpt lat="52.53642" lon="6.16273"></trkpt><trkpt lat="52.53636" lon="6.1627"></trkpt><trkpt lat="52.53629" lon="6.16268"></trkpt><trkpt lat="52.53622" lon="6.16266"></trkpt><trkpt lat="52.53615" lon="6.16266"></trkpt><trkpt lat="52.5361" lon="6.16266"></trkpt><trkpt lat="52.53605" lon="6.16267"></trkpt><trkpt lat="52.53598" lon="6.16268"></trkpt><trkpt lat="52.53592" lon="6.1627"></trkpt><trkpt lat="52.53588" lon="6.16272"></trkpt><trkpt lat="52.53584" lon="6.16275"></trkpt><trkpt lat="52.53579" lon="6.16278"></trkpt><trkpt lat="52.53575" lon="6.16281"></trkpt><trkpt lat="52.53527" lon="6.1632"></trkpt><trkpt lat="52.53524" lon="6.16321"></trkpt><trkpt lat="52.53522" lon="6.16316"></trkpt><trkpt lat="52.53516" lon="6.16297"></trkpt><trkpt lat="52.53512" lon="6.16282"></trkpt><trkpt lat="52.53508" lon="6.16269"></trkpt><trkpt lat="52.53504" lon="6.16255"></trkpt><trkpt lat="52.53501" lon="6.16247"></trkpt><trkpt lat="52.53493" lon="6.16224"></trkpt><trkpt lat="52.53489" lon="6.1621"></trkpt><trkpt lat="52.53483" lon="6.16196"></trkpt><trkpt lat="52.53477" lon="6.16181"></trkpt><trkpt lat="52.5347" lon="6.16166"></trkpt><trkpt lat="52.53463" lon="6.16152"></trkpt><trkpt lat="52.53454" lon="6.16137"></trkpt><trkpt lat="52.53447" lon="6.16125"></trkpt><trkpt lat="52.53437" lon="6.1611"></trkpt><trkpt lat="52.53429" lon="6.16098"></trkpt><trkpt lat="52.53421" lon="6.16089"></trkpt><trkpt lat="52.53412" lon="6.16078"></trkpt><trkpt lat="52.53405" lon="6.1607"></trkpt><trkpt lat="52.53395" lon="6.1606"></trkpt><trkpt lat="52.53387" lon="6.16053"></trkpt><trkpt lat="52.53377" lon="6.16044"></trkpt><trkpt lat="52.53349" lon="6.16022"></trkpt><trkpt lat="52.53322" lon="6.16001"></trkpt><trkpt lat="52.53304" lon="6.15986"></trkpt><trkpt lat="52.53296" lon="6.1598"></trkpt><trkpt lat="52.53288" lon="6.15973"></trkpt><trkpt lat="52.53275" lon="6.15962"></trkpt><trkpt lat="52.53257" lon="6.15944"></trkpt><trkpt lat="52.53251" lon="6.15939"></trkpt><trkpt lat="52.53245" lon="6.15934"></trkpt><trkpt lat="52.53238" lon="6.15926"></trkpt><trkpt lat="52.53233" lon="6.15922"></trkpt><trkpt lat="52.53226" lon="6.15917"></trkpt><trkpt lat="52.53218" lon="6.1591"></trkpt><trkpt lat="52.53213" lon="6.15906"></trkpt><trkpt lat="52.53208" lon="6.15901"></trkpt><trkpt lat="52.53193" lon="6.15886"></trkpt><trkpt lat="52.53177" lon="6.15868"></trkpt><trkpt lat="52.53159" lon="6.15846"></trkpt><trkpt lat="52.53135" lon="6.15811"></trkpt><trkpt lat="52.53114" lon="6.15777"></trkpt><trkpt lat="52.53108" lon="6.15765"></trkpt><trkpt lat="52.53104" lon="6.1576"></trkpt><trkpt lat="52.53102" lon="6.15758"></trkpt><trkpt lat="52.531" lon="6.15755"></trkpt><trkpt lat="52.53096" lon="6.15752"></trkpt><trkpt lat="52.53092" lon="6.15747"></trkpt><trkpt lat="52.53089" lon="6.15742"></trkpt><trkpt lat="52.53085" lon="6.15737"></trkpt><trkpt lat="52.53083" lon="6.15734"></trkpt><trkpt lat="52.53081" lon="6.15729"></trkpt><trkpt lat="52.53077" lon="6.15721"></trkpt><trkpt lat="52.53072" lon="6.15707"></trkpt><trkpt lat="52.53067" lon="6.15692"></trkpt><trkpt lat="52.53064" lon="6.15682"></trkpt><trkpt lat="52.53061" lon="6.15674"></trkpt><trkpt lat="52.53059" lon="6.15666"></trkpt><trkpt lat="52.53058" lon="6.15659"></trkpt><trkpt lat="52.53057" lon="6.15652"></trkpt><trkpt lat="52.53056" lon="6.1564"></trkpt><trkpt lat="52.53056" lon="6.15631"></trkpt><trkpt lat="52.53054" lon="6.15624"></trkpt><trkpt lat="52.53043" lon="6.15563"></trkpt><trkpt lat="52.53028" lon="6.15481"></trkpt><trkpt lat="52.53025" lon="6.15467"></trkpt><trkpt lat="52.53024" lon="6.15461"></trkpt><trkpt lat="52.53022" lon="6.15454"></trkpt><trkpt lat="52.5302" lon="6.1545"></trkpt><trkpt lat="52.53018" lon="6.15445"></trkpt><trkpt lat="52.53017" lon="6.15439"></trkpt><trkpt lat="52.53016" lon="6.15434"></trkpt><trkpt lat="52.53014" lon="6.15427"></trkpt><trkpt lat="52.53011" lon="6.1541"></trkpt><trkpt lat="52.53002" lon="6.15358"></trkpt><trkpt lat="52.53" lon="6.15346"></trkpt><trkpt lat="52.52997" lon="6.15323"></trkpt><trkpt lat="52.52992" lon="6.15295"></trkpt><trkpt lat="52.52989" lon="6.15274"></trkpt><trkpt lat="52.52986" lon="6.1525"></trkpt><trkpt lat="52.52983" lon="6.15231"></trkpt><trkpt lat="52.52981" lon="6.1521"></trkpt><trkpt lat="52.52979" lon="6.15192"></trkpt><trkpt lat="52.52976" lon="6.15172"></trkpt><trkpt lat="52.52973" lon="6.15143"></trkpt><trkpt lat="52.52955" lon="6.14988"></trkpt><trkpt lat="52.52954" lon="6.14977"></trkpt><trkpt lat="52.52953" lon="6.14965"></trkpt><trkpt lat="52.52953" lon="6.14953"></trkpt><trkpt lat="52.52953" lon="6.14941"></trkpt><trkpt lat="52.52953" lon="6.14927"></trkpt><trkpt lat="52.52953" lon="6.14912"></trkpt><trkpt lat="52.52954" lon="6.14899"></trkpt><trkpt lat="52.52955" lon="6.14889"></trkpt><trkpt lat="52.52955" lon="6.14881"></trkpt><trkpt lat="52.52955" lon="6.14874"></trkpt><trkpt lat="52.52955" lon="6.14868"></trkpt><trkpt lat="52.52955" lon="6.14864"></trkpt><trkpt lat="52.52954" lon="6.14858"></trkpt><trkpt lat="52.52953" lon="6.14849"></trkpt><trkpt lat="52.52951" lon="6.14838"></trkpt><trkpt lat="52.52949" lon="6.14821"></trkpt><trkpt lat="52.52945" lon="6.14822"></trkpt><trkpt lat="52.52943" lon="6.14822"></trkpt><trkpt lat="52.52941" lon="6.14821"></trkpt><trkpt lat="52.52939" lon="6.1482"></trkpt><trkpt lat="52.52937" lon="6.14817"></trkpt><trkpt lat="52.52936" lon="6.14814"></trkpt><trkpt lat="52.52935" lon="6.14811"></trkpt><trkpt lat="52.52933" lon="6.14808"></trkpt><trkpt lat="52.52932" lon="6.14807"></trkpt><trkpt lat="52.5293" lon="6.14807"></trkpt><trkpt lat="52.52929" lon="6.14807"></trkpt><trkpt lat="52.52926" lon="6.14807"></trkpt><trkpt lat="52.52916" lon="6.14811"></trkpt><trkpt lat="52.52902" lon="6.14815"></trkpt><trkpt lat="52.52896" lon="6.14708"></trkpt><trkpt lat="52.52894" lon="6.14686"></trkpt><trkpt lat="52.52892" lon="6.14663"></trkpt><trkpt lat="52.52877" lon="6.14533"></trkpt><trkpt lat="52.5287" lon="6.14478"></trkpt><trkpt lat="52.52855" lon="6.14351"></trkpt><trkpt lat="52.52847" lon="6.14295"></trkpt><trkpt lat="52.52832" lon="6.14181"></trkpt><trkpt lat="52.52818" lon="6.14079"></trkpt><trkpt lat="52.52812" lon="6.14041"></trkpt><trkpt lat="52.52809" lon="6.14018"></trkpt><trkpt lat="52.52784" lon="6.13831"></trkpt><trkpt lat="52.52781" lon="6.13814"></trkpt><trkpt lat="52.52777" lon="6.13781"></trkpt><trkpt lat="52.52773" lon="6.13745"></trkpt><trkpt lat="52.52772" lon="6.13742"></trkpt><trkpt lat="52.52769" lon="6.13736"></trkpt><trkpt lat="52.52767" lon="6.13734"></trkpt><trkpt lat="52.52764" lon="6.13728"></trkpt><trkpt lat="52.52763" lon="6.13722"></trkpt><trkpt lat="52.52762" lon="6.13716"></trkpt><trkpt lat="52.52761" lon="6.13711"></trkpt><trkpt lat="52.52761" lon="6.13708"></trkpt><trkpt lat="52.52762" lon="6.13702"></trkpt><trkpt lat="52.52762" lon="6.13698"></trkpt><trkpt lat="52.52763" lon="6.13694"></trkpt><trkpt lat="52.52764" lon="6.13688"></trkpt><trkpt lat="52.52765" lon="6.13684"></trkpt><trkpt lat="52.52764" lon="6.1367"></trkpt><trkpt lat="52.52736" lon="6.13438"></trkpt><trkpt lat="52.52729" lon="6.13383"></trkpt><trkpt lat="52.52719" lon="6.13308"></trkpt><trkpt lat="52.52715" lon="6.13282"></trkpt><trkpt lat="52.52713" lon="6.13255"></trkpt><trkpt lat="52.52712" lon="6.13242"></trkpt><trkpt lat="52.52709" lon="6.13221"></trkpt><trkpt lat="52.52708" lon="6.13214"></trkpt><trkpt lat="52.52696" lon="6.13115"></trkpt><trkpt lat="52.52694" lon="6.13093"></trkpt><trkpt lat="52.5267" lon="6.12893"></trkpt><trkpt lat="52.52639" lon="6.12639"></trkpt><trkpt lat="52.5262" lon="6.12542"></trkpt><trkpt lat="52.52614" lon="6.12504"></trkpt><trkpt lat="52.52609" lon="6.12467"></trkpt><trkpt lat="52.52608" lon="6.12448"></trkpt><trkpt lat="52.52607" lon="6.12431"></trkpt><trkpt lat="52.52608" lon="6.12415"></trkpt><trkpt lat="52.52607" lon="6.12408"></trkpt><trkpt lat="52.52607" lon="6.12405"></trkpt><trkpt lat="52.52606" lon="6.12394"></trkpt><trkpt lat="52.52604" lon="6.1238"></trkpt><trkpt lat="52.52603" lon="6.12369"></trkpt><trkpt lat="52.52597" lon="6.12326"></trkpt><trkpt lat="52.52595" lon="6.12298"></trkpt><trkpt lat="52.52594" lon="6.12276"></trkpt><trkpt lat="52.52593" lon="6.1226"></trkpt><trkpt lat="52.52592" lon="6.1225"></trkpt><trkpt lat="52.5259" lon="6.12242"></trkpt><trkpt lat="52.52588" lon="6.12227"></trkpt><trkpt lat="52.52585" lon="6.12214"></trkpt><trkpt lat="52.5258" lon="6.12198"></trkpt><trkpt lat="52.52575" lon="6.12185"></trkpt><trkpt lat="52.52569" lon="6.12171"></trkpt><trkpt lat="52.52564" lon="6.12159"></trkpt><trkpt lat="52.52554" lon="6.1214"></trkpt><trkpt lat="52.52542" lon="6.12117"></trkpt><trkpt lat="52.52536" lon="6.12105"></trkpt><trkpt lat="52.5253" lon="6.12094"></trkpt><trkpt lat="52.52526" lon="6.12087"></trkpt><trkpt lat="52.52521" lon="6.12081"></trkpt><trkpt lat="52.52513" lon="6.12071"></trkpt><trkpt lat="52.52509" lon="6.12066"></trkpt><trkpt lat="52.52505" lon="6.12062"></trkpt><trkpt lat="52.52502" lon="6.12056"></trkpt><trkpt lat="52.52498" lon="6.12049"></trkpt><trkpt lat="52.52493" lon="6.1204"></trkpt><trkpt lat="52.52491" lon="6.12036"></trkpt><trkpt lat="52.52489" lon="6.12032"></trkpt><trkpt lat="52.52481" lon="6.12018"></trkpt><trkpt lat="52.52471" lon="6.11997"></trkpt><trkpt lat="52.52466" lon="6.11985"></trkpt><trkpt lat="52.52465" lon="6.11983"></trkpt><trkpt lat="52.52459" lon="6.11968"></trkpt><trkpt lat="52.52457" lon="6.11964"></trkpt><trkpt lat="52.52453" lon="6.11952"></trkpt><trkpt lat="52.52449" lon="6.11942"></trkpt><trkpt lat="52.52446" lon="6.11932"></trkpt><trkpt lat="52.52442" lon="6.11921"></trkpt><trkpt lat="52.52439" lon="6.11909"></trkpt><trkpt lat="52.52436" lon="6.11897"></trkpt><trkpt lat="52.52435" lon="6.11889"></trkpt><trkpt lat="52.52433" lon="6.11881"></trkpt><trkpt lat="52.52431" lon="6.11871"></trkpt><trkpt lat="52.52429" lon="6.1186"></trkpt><trkpt lat="52.52426" lon="6.11851"></trkpt><trkpt lat="52.52423" lon="6.11843"></trkpt><trkpt lat="52.5242" lon="6.11833"></trkpt><trkpt lat="52.52417" lon="6.11827"></trkpt><trkpt lat="52.52415" lon="6.11819"></trkpt><trkpt lat="52.52411" lon="6.11812"></trkpt><trkpt lat="52.52407" lon="6.11804"></trkpt><trkpt lat="52.52401" lon="6.11793"></trkpt><trkpt lat="52.52396" lon="6.11785"></trkpt><trkpt lat="52.52392" lon="6.11778"></trkpt><trkpt lat="52.52361" lon="6.11736"></trkpt><trkpt lat="52.52313" lon="6.11674"></trkpt><trkpt lat="52.52302" lon="6.11658"></trkpt><trkpt lat="52.52297" lon="6.1165"></trkpt><trkpt lat="52.52292" lon="6.11642"></trkpt><trkpt lat="52.52288" lon="6.11636"></trkpt><trkpt lat="52.52285" lon="6.1163"></trkpt><trkpt lat="52.52277" lon="6.11617"></trkpt><trkpt lat="52.52274" lon="6.11611"></trkpt><trkpt lat="52.52272" lon="6.11606"></trkpt><trkpt lat="52.52269" lon="6.11601"></trkpt><trkpt lat="52.52267" lon="6.11596"></trkpt><trkpt lat="52.52264" lon="6.11591"></trkpt><trkpt lat="52.52262" lon="6.11586"></trkpt><trkpt lat="52.52258" lon="6.11577"></trkpt><trkpt lat="52.52257" lon="6.11572"></trkpt><trkpt lat="52.52255" lon="6.11569"></trkpt><trkpt lat="52.52254" lon="6.11566"></trkpt><trkpt lat="52.52252" lon="6.11563"></trkpt><trkpt lat="52.52251" lon="6.1156"></trkpt><trkpt lat="52.52247" lon="6.11554"></trkpt><trkpt lat="52.52243" lon="6.11548"></trkpt><trkpt lat="52.52234" lon="6.11533"></trkpt><trkpt lat="52.52229" lon="6.11523"></trkpt><trkpt lat="52.52224" lon="6.11513"></trkpt><trkpt lat="52.5222" lon="6.11506"></trkpt><trkpt lat="52.52214" lon="6.11496"></trkpt><trkpt lat="52.52209" lon="6.11487"></trkpt><trkpt lat="52.52193" lon="6.1146"></trkpt><trkpt lat="52.52166" lon="6.11413"></trkpt><trkpt lat="52.52138" lon="6.11366"></trkpt><trkpt lat="52.52124" lon="6.11342"></trkpt><trkpt lat="52.52115" lon="6.11327"></trkpt><trkpt lat="52.52111" lon="6.1132"></trkpt><trkpt lat="52.52108" lon="6.11315"></trkpt><trkpt lat="52.52105" lon="6.1131"></trkpt><trkpt lat="52.52099" lon="6.11302"></trkpt><trkpt lat="52.52096" lon="6.11298"></trkpt><trkpt lat="52.5209" lon="6.11291"></trkpt><trkpt lat="52.52084" lon="6.11284"></trkpt><trkpt lat="52.52083" lon="6.11282"></trkpt><trkpt lat="52.52082" lon="6.1128"></trkpt><trkpt lat="52.5208" lon="6.11277"></trkpt><trkpt lat="52.52075" lon="6.11269"></trkpt><trkpt lat="52.52071" lon="6.11261"></trkpt><trkpt lat="52.52067" lon="6.11253"></trkpt><trkpt lat="52.52064" lon="6.11247"></trkpt><trkpt lat="52.52061" lon="6.1124"></trkpt><trkpt lat="52.52057" lon="6.11234"></trkpt><trkpt lat="52.52054" lon="6.11228"></trkpt><trkpt lat="52.5205" lon="6.11221"></trkpt><trkpt lat="52.52046" lon="6.11215"></trkpt><trkpt lat="52.52043" lon="6.1121"></trkpt><trkpt lat="52.52039" lon="6.11205"></trkpt><trkpt lat="52.52037" lon="6.11201"></trkpt><trkpt lat="52.52034" lon="6.11198"></trkpt><trkpt lat="52.52028" lon="6.11191"></trkpt><trkpt lat="52.52024" lon="6.11185"></trkpt><trkpt lat="52.52022" lon="6.11183"></trkpt><trkpt lat="52.51994" lon="6.11148"></trkpt><trkpt lat="52.51988" lon="6.11141"></trkpt><trkpt lat="52.51983" lon="6.11135"></trkpt><trkpt lat="52.51959" lon="6.11105"></trkpt><trkpt lat="52.51954" lon="6.11099"></trkpt><trkpt lat="52.51927" lon="6.11065"></trkpt><trkpt lat="52.51921" lon="6.11057"></trkpt><trkpt lat="52.51917" lon="6.11053"></trkpt><trkpt lat="52.51895" lon="6.11025"></trkpt><trkpt lat="52.51892" lon="6.11022"></trkpt><trkpt lat="52.51888" lon="6.11015"></trkpt><trkpt lat="52.51886" lon="6.11013"></trkpt><trkpt lat="52.51885" lon="6.11012"></trkpt><trkpt lat="52.51882" lon="6.11009"></trkpt><trkpt lat="52.51877" lon="6.11004"></trkpt><trkpt lat="52.51875" lon="6.11002"></trkpt><trkpt lat="52.51874" lon="6.10999"></trkpt><trkpt lat="52.51874" lon="6.10998"></trkpt><trkpt lat="52.51873" lon="6.10996"></trkpt><trkpt lat="52.51873" lon="6.10994"></trkpt><trkpt lat="52.51873" lon="6.10992"></trkpt><trkpt lat="52.51873" lon="6.1099"></trkpt><trkpt lat="52.51874" lon="6.10983"></trkpt><trkpt lat="52.51875" lon="6.10982"></trkpt><trkpt lat="52.51876" lon="6.1098"></trkpt><trkpt lat="52.51877" lon="6.10978"></trkpt><trkpt lat="52.51878" lon="6.10975"></trkpt><trkpt lat="52.51878" lon="6.10972"></trkpt><trkpt lat="52.51879" lon="6.10969"></trkpt><trkpt lat="52.51878" lon="6.10966"></trkpt><trkpt lat="52.51878" lon="6.10962"></trkpt><trkpt lat="52.51876" lon="6.10959"></trkpt><trkpt lat="52.51875" lon="6.10956"></trkpt><trkpt lat="52.51873" lon="6.10954"></trkpt><trkpt lat="52.51871" lon="6.10952"></trkpt><trkpt lat="52.51868" lon="6.10952"></trkpt><trkpt lat="52.51866" lon="6.10952"></trkpt><trkpt lat="52.51863" lon="6.10953"></trkpt><trkpt lat="52.51861" lon="6.10956"></trkpt><trkpt lat="52.51857" lon="6.10953"></trkpt><trkpt lat="52.51854" lon="6.10949"></trkpt><trkpt lat="52.51833" lon="6.10922"></trkpt><trkpt lat="52.51758" lon="6.10831"></trkpt><trkpt lat="52.51751" lon="6.10823"></trkpt><trkpt lat="52.51744" lon="6.10814"></trkpt><trkpt lat="52.51731" lon="6.10798"></trkpt><trkpt lat="52.51726" lon="6.10791"></trkpt><trkpt lat="52.51722" lon="6.1079"></trkpt><trkpt lat="52.51717" lon="6.10782"></trkpt><trkpt lat="52.51711" lon="6.10772"></trkpt><trkpt lat="52.51706" lon="6.10764"></trkpt><trkpt lat="52.51701" lon="6.10755"></trkpt><trkpt lat="52.51697" lon="6.10746"></trkpt><trkpt lat="52.51692" lon="6.10736"></trkpt><trkpt lat="52.51687" lon="6.10725"></trkpt><trkpt lat="52.51681" lon="6.10713"></trkpt><trkpt lat="52.51674" lon="6.10694"></trkpt><trkpt lat="52.5167" lon="6.10684"></trkpt><trkpt lat="52.51668" lon="6.10678"></trkpt><trkpt lat="52.51667" lon="6.10675"></trkpt><trkpt lat="52.51664" lon="6.10667"></trkpt><trkpt lat="52.51662" lon="6.10661"></trkpt><trkpt lat="52.51657" lon="6.10647"></trkpt><trkpt lat="52.51657" lon="6.10645"></trkpt><trkpt lat="52.51655" lon="6.10642"></trkpt><trkpt lat="52.51651" lon="6.10628"></trkpt><trkpt lat="52.51649" lon="6.10624"></trkpt><trkpt lat="52.51647" lon="6.10618"></trkpt><trkpt lat="52.51639" lon="6.10595"></trkpt><trkpt lat="52.51635" lon="6.10583"></trkpt><trkpt lat="52.51631" lon="6.1057"></trkpt><trkpt lat="52.51624" lon="6.10546"></trkpt><trkpt lat="52.51617" lon="6.10524"></trkpt><trkpt lat="52.51616" lon="6.1052"></trkpt><trkpt lat="52.51599" lon="6.10461"></trkpt><trkpt lat="52.5157" lon="6.10359"></trkpt><trkpt lat="52.5156" lon="6.10321"></trkpt><trkpt lat="52.51552" lon="6.10301"></trkpt><trkpt lat="52.51545" lon="6.10283"></trkpt><trkpt lat="52.5154" lon="6.10273"></trkpt><trkpt lat="52.51534" lon="6.10262"></trkpt><trkpt lat="52.51529" lon="6.10253"></trkpt><trkpt lat="52.51526" lon="6.10248"></trkpt><trkpt lat="52.5152" lon="6.1024"></trkpt><trkpt lat="52.51515" lon="6.10233"></trkpt><trkpt lat="52.51503" lon="6.10223"></trkpt><trkpt lat="52.5151" lon="6.10187"></trkpt><trkpt lat="52.51512" lon="6.10171"></trkpt><trkpt lat="52.51525" lon="6.10078"></trkpt><trkpt lat="52.51535" lon="6.09996"></trkpt><trkpt lat="52.51535" lon="6.09993"></trkpt><trkpt lat="52.51537" lon="6.09979"></trkpt><trkpt lat="52.51538" lon="6.09975"></trkpt><trkpt lat="52.51541" lon="6.09974"></trkpt><trkpt lat="52.51543" lon="6.09973"></trkpt><trkpt lat="52.51552" lon="6.09975"></trkpt><trkpt lat="52.51562" lon="6.0997"></trkpt><trkpt lat="52.516" lon="6.09943"></trkpt><trkpt lat="52.5163" lon="6.09921"></trkpt><trkpt lat="52.51643" lon="6.09912"></trkpt><trkpt lat="52.51648" lon="6.09902"></trkpt><trkpt lat="52.51647" lon="6.09894"></trkpt><trkpt lat="52.51647" lon="6.09888"></trkpt><trkpt lat="52.51647" lon="6.09881"></trkpt><trkpt lat="52.51654" lon="6.09793"></trkpt><trkpt lat="52.51659" lon="6.09761"></trkpt><trkpt lat="52.5166" lon="6.09752"></trkpt><trkpt lat="52.51682" lon="6.09672"></trkpt><trkpt lat="52.51712" lon="6.09584"></trkpt><trkpt lat="52.51715" lon="6.09575"></trkpt><trkpt lat="52.51719" lon="6.09562"></trkpt><trkpt lat="52.5172" lon="6.0956"></trkpt><trkpt lat="52.51721" lon="6.09548"></trkpt><trkpt lat="52.51721" lon="6.09535"></trkpt><trkpt lat="52.51721" lon="6.09529"></trkpt><trkpt lat="52.51721" lon="6.09524"></trkpt><trkpt lat="52.5172" lon="6.09512"></trkpt><trkpt lat="52.51717" lon="6.09499"></trkpt><trkpt lat="52.51714" lon="6.09488"></trkpt><trkpt lat="52.5171" lon="6.09476"></trkpt><trkpt lat="52.517" lon="6.09461"></trkpt><trkpt lat="52.51662" lon="6.09414"></trkpt><trkpt lat="52.51644" lon="6.09392"></trkpt><trkpt lat="52.51636" lon="6.09381"></trkpt><trkpt lat="52.51632" lon="6.0937"></trkpt><trkpt lat="52.51631" lon="6.09362"></trkpt><trkpt lat="52.51631" lon="6.09356"></trkpt><trkpt lat="52.51634" lon="6.09354"></trkpt><trkpt lat="52.51637" lon="6.0935"></trkpt><trkpt lat="52.51639" lon="6.09346"></trkpt><trkpt lat="52.5164" lon="6.0934"></trkpt><trkpt lat="52.5164" lon="6.09334"></trkpt><trkpt lat="52.51639" lon="6.09329"></trkpt><trkpt lat="52.51637" lon="6.09324"></trkpt><trkpt lat="52.51634" lon="6.09321"></trkpt><trkpt lat="52.51631" lon="6.09319"></trkpt><trkpt lat="52.51627" lon="6.09319"></trkpt><trkpt lat="52.51627" lon="6.09313"></trkpt><trkpt lat="52.51625" lon="6.09313"></trkpt><trkpt lat="52.51622" lon="6.09316"></trkpt><trkpt lat="52.51619" lon="6.0932"></trkpt><trkpt lat="52.51618" lon="6.09321"></trkpt></trkseg></trk></gpx>